{"version": 0.6, "generator": "Overpass API 0.7.62.4 2390de5a", "osm3s": {"timestamp_osm_base": "2024-12-30T15:15:41Z", "copyright": "The data included in this document is from www.openstreetmap.org. The data is made available under ODbL."}, "elements": [{"type": "node", "id": 270904098, "lat": 39.3210492, "lon": 140.102125, "tags": {"addr:block_number": "17", "addr:city": "\u7531\u5229\u672c\u8358\u5e02", "addr:housenumber": "3", "addr:neighbourhood": "\u51fa\u5ddd\u539f", "addr:postcode": "015-0341", "addr:province": "\u79cb\u7530\u770c", "addr:quarter": "\u524d\u90f7\u5b57", "image": "https://www.obako5.com/wp-content/uploads/2021/08/IMG_3794-e1629610125684.jpg", "name": "\u66f2\u6ca2", "name:en": "Magarisawa", "name:ja-Hira": "\u307e\u304c\u308a\u3055\u308f", "name:ja-Latn": "Magarisawa", "public_transport": "station", "railway": "station", "source": "KSJ2", "train": "yes", "website": "https://www.obako5.com/%e9%89%84%e9%81%93%e3%81%ae%e9%ad%85%e5%8a%9b/%e5%90%84%e9%a7%85%e3%81%ae%e6%a1%88%e5%86%85/%e6%9b%b2%e6%b2%a2%e9%a7%85-magarisawa-station/", "wheelchair": "no", "wikidata": "Q11515089", "wikipedia": "ja:\u66f2\u6ca2\u99c5"}}, {"type": "node", "id": 270904167, "lat": 39.3283788, "lon": 140.0716525, "tags": {"addr:block_number": "38", "addr:city": "\u7531\u5229\u672c\u8358\u5e02", "addr:housenumber": "4", "addr:neighbourhood": "\u5ca1\u7530", "addr:postcode": "015-0362", "addr:province": "\u79cb\u7530\u770c", "addr:quarter": "\u6771\u9b8e\u5ddd\u5b57", "image": "https://www.obako5.com/wp-content/uploads/2019/05/IMG_0934-e1557475042931.jpg", "name": "\u9b8e\u5ddd", "name:en": "Ayukawa", "name:ja-Hira": "\u3042\u3086\u304b\u308f", "name:ja-Latn": "Ayukawa", "public_transport": "station", "railway": "station", "source": "KSJ2", "train": "yes", "website": "https://www.obako5.com/%e9%89%84%e9%81%93%e3%81%ae%e9%ad%85%e5%8a%9b/%e5%90%84%e9%a7%85%e3%81%ae%e6%a1%88%e5%86%85/%e9%ae%8e%e5%b7%9d%e9%a7%85%e3%80%80ayukawa-station/", "wikidata": "Q11674145", "wikipedia": "ja:\u9b8e\u5ddd\u99c5"}}, {"type": "node", "id": 270904613, "lat": 39.2491123, "lon": 140.1201969, "tags": {"addr:block_number": "33", "addr:city": "\u7531\u5229\u672c\u8358\u5e02", "addr:housenumber": "3", "addr:neighbourhood": "\u5ddd\u8fba\u5b57\u827e\u7530", "addr:postcode": "015-0412", "addr:province": "\u79cb\u7530\u770c", "addr:quarter": "\u77e2\u5cf6\u753a", "image": "https://www.obako5.com/wp-content/uploads/2019/05/418d04fff37142c5faec9fa216a9d864.jpg", "name": "\u5ddd\u8fba", "name:en": "Kawabe", "name:ja-Hira": "\u304b\u308f\u3079", "name:ja-Latn": "Kawabe", "public_transport": "station", "railway": "station", "source": "KSJ2", "train": "yes", "website": "https://www.obako5.com/%e9%89%84%e9%81%93%e3%81%ae%e9%ad%85%e5%8a%9b/%e5%90%84%e9%a7%85%e3%81%ae%e6%a1%88%e5%86%85/%e5%b7%9d%e8%be%ba%e9%a7%85%e3%80%80kawabe/", "wikidata": "Q11479313", "wikipedia": "ja:\u5ddd\u8fba\u99c5"}}, {"type": "node", "id": 3976697455, "lat": 39.4656823, "lon": 140.479891, "tags": {"KSJ2:LIN": "\u5965\u7fbd\u7dda", "KSJ2:STN": "\u5927\u66f2", "highspeed": "yes", "name": "\u5927\u66f2", "name:de": "\u014cmagari", "name:en": "Omagari", "name:ja": "\u5927\u66f2", "name:ja_kana": "\u304a\u304a\u307e\u304c\u308a", "name:ja_rm": "\u014cmagari", "name:ko": "\uc624\ub9c8\uac00\ub9ac", "note": "National-Land Numerical Information (Railway) 2007, MLIT Japan", "note:ja": "\u56fd\u571f\u6570\u5024\u60c5\u5831\uff08\u9244\u9053\u30c7\u30fc\u30bf\uff09\u5e73\u621019\u5e74\u3000\u56fd\u571f\u4ea4\u901a\u7701", "public_transport": "station", "railway": "station", "source": "KSJ2", "source_ref": "http://nlftp.mlit.go.jp/ksj/jpgis/datalist/KsjTmplt-N02-v1_1.html", "website": "https://www.jreast.co.jp/estation/station/info.aspx?StationCd=346", "wikidata": "Q1052987", "wikipedia": "ja:\u5927\u66f2\u99c5 (\u79cb\u7530\u770c)"}}, {"type": "node", "id": 4172698405, "lat": 39.2959524, "lon": 140.1110419, "tags": {"addr:block_number": "18", "addr:city": "\u7531\u5229\u672c\u8358\u5e02", "addr:housenumber": "1", "addr:neighbourhood": "\u4e0a\u6b63\u6e80", "addr:postcode": "015-0302", "addr:province": "\u79cb\u7530\u770c", "addr:quarter": "\u4e45\u4fdd\u7530\u5b57", "image": "https://www.obako5.com/wp-content/uploads/2019/05/6ce6a9f742c48d37508c18380d554c8c.jpg", "name": "\u4e45\u4fdd\u7530", "name:en": "Kubota", "name:ja-Hira": "\u304f\u307c\u305f", "name:ja-Latn": "Kubota", "public_transport": "station", "railway": "station", "source": "KSJ2", "train": "yes", "website": "https://www.obako5.com/%e9%89%84%e9%81%93%e3%81%ae%e9%ad%85%e5%8a%9b/%e5%90%84%e9%a7%85%e3%81%ae%e6%a1%88%e5%86%85/%e4%b9%85%e4%bf%9d%e7%94%b0%e9%a7%85%e3%80%80kubota-station/", "wikidata": "Q11369141", "wikipedia": "ja:\u4e45\u4fdd\u7530\u99c5 (\u79cb\u7530\u770c)"}}, {"type": "node", "id": 5643766780, "lat": 39.3868119, "lon": 140.0574673, "tags": {"addr:block_number": "85", "addr:city": "\u7531\u5229\u672c\u8358\u5e02", "addr:housenumber": "1", "addr:postcode": "015-0858", "addr:province": "\u79cb\u7530\u770c", "addr:quarter": "\u897f\u68b5\u5929", "name": "\u7fbd\u5f8c\u672c\u8358", "name:en": "Ugo-Honjo", "name:ja-Hira": "\u3046\u3054\u307b\u3093\u3058\u3087\u3046", "name:ja-Latn": "Ugohonj\u014d", "opening_hours": "07:30-18:00", "phone": "+81 0184-23-3361", "public_transport": "station", "railway": "station", "source": "GSImaps/ort", "train": "yes", "website": "https://www.obako5.com/%e9%89%84%e9%81%93%e3%81%ae%e9%ad%85%e5%8a%9b/%e5%90%84%e9%a7%85%e3%81%ae%e6%a1%88%e5%86%85/%e7%be%bd%e5%be%8c%e6%9c%ac%e8%8d%98%e9%a7%85-ugo-honjo-station/", "wikidata": "Q7877841", "wikipedia": "ja:\u7fbd\u5f8c\u672c\u8358\u99c5"}}, {"type": "node", "id": 5643766806, "lat": 39.3475538, "lon": 140.0180805, "tags": {"name": "\u897f\u76ee", "name:en": "Nishime", "name:ja-Hira": "\u306b\u3057\u3081", "name:ja-Latn": "Nishime", "public_transport": "station", "railway": "station", "source": "GSImaps/ort", "train": "yes", "wikidata": "Q7040617", "wikipedia": "ja:\u897f\u76ee\u99c5"}}, {"type": "node", "id": 6119441851, "lat": 39.4069313, "lon": 140.515071, "tags": {"name": "\u98ef\u8a70", "name:en": "Iizume", "name:ja-Hira": "\u3044\u3044\u3065\u3081", "name:ja-Latn": "Iizume", "public_transport": "station", "railway": "station", "source": "KSJ2", "train": "yes", "website": "https://www.jreast.co.jp/estation/station/info.aspx?StationCd=100", "wikidata": "Q5995055", "wikipedia": "ja:\u98ef\u8a70\u99c5"}}, {"type": "node", "id": 6138457048, "lat": 39.4420408, "lon": 140.0900763, "tags": {"name": "\u7fbd\u5f8c\u5ca9\u8c37", "name:en": "Ugo-Iwaya", "name:ja-Hira": "\u3046\u3054\u3044\u308f\u3084", "public_transport": "station", "railway": "station", "source": "KSJ2", "train": "yes", "wikidata": "Q3701533", "wikipedia": "ja:\u7fbd\u5f8c\u5ca9\u8c37\u99c5"}}, {"type": "node", "id": 6138474691, "lat": 39.2897419, "lon": 139.9636692, "tags": {"name": "\u4ec1\u8cc0\u4fdd", "name:en": "Nikaho", "name:ja-Hira": "\u306b\u304b\u307b", "name:ja-Latn": "Nikaho", "public_transport": "station", "railway": "station", "source": "KSJ2", "train": "yes", "wikidata": "Q7034710", "wikipedia": "ja:\u4ec1\u8cc0\u4fdd\u99c5"}}, {"type": "node", "id": 6138569834, "lat": 39.2303757, "lon": 140.1387548, "tags": {"addr:block_number": "21", "addr:city": "\u7531\u5229\u672c\u8358\u5e02", "addr:housenumber": "2", "addr:neighbourhood": "\u7fbd\u5742", "addr:postcode": "015-0404", "addr:province": "\u79cb\u7530\u770c", "addr:quarter": "\u77e2\u5cf6\u753a\u4e03\u65e5\u753a\u5b57", "image": "https://www.obako5.com/wp-content/uploads/2019/05/d9a46ab2e3990ed2330563eed0c832f1.jpg", "internet_access": "wlan", "level": "2", "name": "\u77e2\u5cf6", "name:en": "Yashima", "name:ja-Hira": "\u3084\u3057\u307e", "name:ja-Latn": "Yashima", "opening_hours": "05:30-22:00", "phone": "+81 0184-56-2736", "public_transport": "station", "railway": "station", "source": "KSJ2", "train": "yes", "website": "https://www.obako5.com/%e9%89%84%e9%81%93%e3%81%ae%e9%ad%85%e5%8a%9b/%e5%90%84%e9%a7%85%e3%81%ae%e6%a1%88%e5%86%85/%e7%9f%a2%e5%b3%b6%e9%a7%85%e3%80%80yashima-station/", "wheelchair": "yes", "wikidata": "Q8049732", "wikipedia": "ja:\u77e2\u5cf6\u99c5"}}, {"type": "node", "id": 6138569835, "lat": 39.2684794, "lon": 140.1149243, "tags": {"addr:block_number": "76", "addr:city": "\u7531\u5229\u672c\u8358\u5e02", "addr:housenumber": "3", "addr:neighbourhood": "\u5409\u6ca2\u524d\u7530", "addr:postcode": "015-0324", "addr:province": "\u79cb\u7530\u770c", "addr:quarter": "\u5409\u6ca2\u5b57", "image": "https://www.obako5.com/wp-content/uploads/2019/05/2ce0f2658551a40f6bdb405cbdf38d16.jpg", "name": "\u5409\u6ca2", "name:en": "Yoshizawa", "name:ja-Hira": "\u3088\u3057\u3056\u308f", "name:ja-Latn": "Yoshizawa", "public_transport": "station", "railway": "station", "source": "KSJ2;GSImaps/std", "train": "yes", "website": "https://www.obako5.com/%e9%89%84%e9%81%93%e3%81%ae%e9%ad%85%e5%8a%9b/%e5%90%84%e9%a7%85%e3%81%ae%e6%a1%88%e5%86%85/%e5%90%89%e6%b2%a2%e9%a7%85%e3%80%80yoshizawa/", "wikidata": "Q11413455", "wikipedia": "ja:\u5409\u6ca2\u99c5"}}, {"type": "node", "id": 6138569836, "lat": 39.2782633, "lon": 140.1163861, "tags": {"addr:block_number": "175", "addr:city": "\u7531\u5229\u672c\u8358\u5e02", "addr:neighbourhood": "\u524d\u7530\u8868", "addr:postcode": "015-0333", "addr:province": "\u79cb\u7530\u770c", "addr:quarter": "\u5c71\u672c\u5b57", "image": "https://www.obako5.com/wp-content/uploads/2019/05/IMG_1085-e1557802255639.jpg", "internet_access": "no", "name": "\u897f\u6edd\u6ca2", "name:en": "Nishitakisawa", "name:ja-Hira": "\u306b\u3057\u305f\u304d\u3055\u308f", "name:ja-Latn": "Nishitakisawa", "public_transport": "station", "railway": "station", "source": "KSJ2", "train": "yes", "website": "https://www.obako5.com/%e9%89%84%e9%81%93%e3%81%ae%e9%ad%85%e5%8a%9b/%e5%90%84%e9%a7%85%e3%81%ae%e6%a1%88%e5%86%85/%e8%a5%bf%e6%bb%9d%e6%b2%a2%e9%a7%85%e3%80%80nishitakisawa/", "wikidata": "Q11629124", "wikipedia": "ja:\u897f\u6edd\u6ca2\u99c5"}}, {"type": "node", "id": 6138569838, "lat": 39.3126313, "lon": 140.1127812, "tags": {"addr:block_number": "68", "addr:city": "\u7531\u5229\u672c\u8358\u5e02", "addr:neighbourhood": "\u5bb6\u5cb8", "addr:postcode": "015-0341", "addr:province": "\u79cb\u7530\u770c", "addr:quarter": "\u524d\u90f7\u5b57", "name": "\u524d\u90f7", "name:en": "Maego", "name:ja-Hira": "\u307e\u3048\u3054\u3046", "name:ja-Latn": "Maego", "opening_hours": "06:00-21:50", "phone": "+81 0184-53-3436", "public_transport": "station", "railway": "station", "source": "KSJ2", "train": "yes", "website": "https://www.obako5.com/%e9%89%84%e9%81%93%e3%81%ae%e9%ad%85%e5%8a%9b/%e5%90%84%e9%a7%85%e3%81%ae%e6%a1%88%e5%86%85/%e5%89%8d%e9%83%b7%e9%a7%85-maego-station/", "wikidata": "Q11397833", "wikipedia": "ja:\u524d\u90f7\u99c5"}}, {"type": "node", "id": 6138569840, "lat": 39.3203984, "lon": 140.0935712, "tags": {"addr:block_number": "118", "addr:city": "\u7531\u5229\u672c\u8358\u5e02", "addr:housenumber": "3", "addr:neighbourhood": "\u9ed2\u6ca2", "addr:postcode": "015-0361", "addr:province": "\u79cb\u7530\u770c", "addr:quarter": "\u9ed2\u6ca2\u5b57", "image": "https://www.obako5.com/wp-content/uploads/2019/05/DSCF1015.jpg", "name": "\u9ed2\u6ca2", "name:en": "Kurosawa", "name:ja-Hira": "\u304f\u308d\u3055\u308f", "name:ja-Latn": "Kurosawa", "public_transport": "station", "railway": "station", "source": "KSJ2", "train": "yes", "website": "https://www.obako5.com/%e9%89%84%e9%81%93%e3%81%ae%e9%ad%85%e5%8a%9b/%e5%90%84%e9%a7%85%e3%81%ae%e6%a1%88%e5%86%85/%e9%bb%92%e6%b2%a2%e9%a7%85-kurosawa-station/", "wikidata": "Q11678434", "wikipedia": "ja:\u9ed2\u6ca2\u99c5 (\u79cb\u7530\u770c\u7531\u5229\u672c\u8358\u5e02)"}}, {"type": "node", "id": 6138569855, "lat": 39.35072, "lon": 140.0597995, "tags": {"addr:block_number": "14", "addr:city": "\u7531\u5229\u672c\u8358\u5e02", "addr:housenumber": "8", "addr:neighbourhood": "\u843d\u30b7", "addr:postcode": "015-0044", "addr:province": "\u79cb\u7530\u770c", "addr:quarter": "\u7389\u30ce\u6c60", "image": "https://www.obako5.com/wp-content/uploads/2019/05/IMG_0973-e1557474572291.jpg", "name": "\u5b50\u5409", "name:en": "Koyoshi", "name:ja-Hira": "\u3053\u3088\u3057", "name:ja-Latn": "Koyoshi", "public_transport": "station", "railway": "station", "source": "KSJ2", "train": "yes", "website": "https://www.obako5.com/%e9%89%84%e9%81%93%e3%81%ae%e9%ad%85%e5%8a%9b/%e5%90%84%e9%a7%85%e3%81%ae%e6%a1%88%e5%86%85/%e5%ad%90%e5%90%89%e9%a7%85-koyoshi-station/", "wikidata": "Q11447870", "wikipedia": "ja:\u5b50\u5409\u99c5"}}, {"type": "node", "id": 6138569867, "lat": 39.3680158, "lon": 140.0487059, "tags": {"addr:block_number": "70", "addr:city": "\u7531\u5229\u672c\u8358\u5e02", "addr:neighbourhood": "\u5c71\u5d0e", "addr:postcode": "015-0041", "addr:province": "\u79cb\u7530\u770c", "addr:quarter": "\u85ac\u5e2b\u5802\u5b57", "image": "https://www.obako5.com/wp-content/uploads/2019/05/DSCF1144.jpg", "name": "\u85ac\u5e2b\u5802", "name:en": "Yakushido", "name:ja-Hira": "\u3084\u304f\u3057\u3069\u3046", "name:ja-Latn": "Yakushido", "public_transport": "station", "railway": "station", "source": "KSJ2", "train": "yes", "website": "https://www.obako5.com/%e9%89%84%e9%81%93%e3%81%ae%e9%ad%85%e5%8a%9b/%e5%90%84%e9%a7%85%e3%81%ae%e6%a1%88%e5%86%85/%e8%96%ac%e5%b8%ab%e5%a0%82%e9%a7%85%e3%80%80yakushido-station/", "wikidata": "Q11622440", "wikipedia": "ja:\u85ac\u5e2b\u5802\u99c5 (\u79cb\u7530\u770c)"}}, {"type": "node", "id": 6912865144, "lat": 39.3283193, "lon": 140.0715825}, {"type": "node", "id": 6912865145, "lat": 39.3282646, "lon": 140.071735}, {"type": "node", "id": 6912865146, "lat": 39.328312, "lon": 140.0717609}, {"type": "node", "id": 6912865147, "lat": 39.328368, "lon": 140.0716107}, {"type": "node", "id": 7051942364, "lat": 39.2207256, "lon": 140.5261311, "tags": {"KSJ2:LIN": "\u5965\u7fbd\u7dda", "KSJ2:STN": "\u5341\u6587\u5b57", "internet_access": "no", "name": "\u5341\u6587\u5b57", "name:en": "Jumonji", "name:ja": "\u5341\u6587\u5b57", "name:ja_rm": "J\u016bmonji", "name:ko": "\uc8fc\ubaac\uc9c0", "note": "National-Land Numerical Information (Railway) 2007, MLIT Japan", "note:ja": "\u56fd\u571f\u6570\u5024\u60c5\u5831\uff08\u9244\u9053\u30c7\u30fc\u30bf\uff09\u5e73\u621019\u5e74\u3000\u56fd\u571f\u4ea4\u901a\u7701", "public_transport": "station", "railway": "station", "source": "KSJ2", "source_ref": "http://nlftp.mlit.go.jp/ksj/jpgis/datalist/KsjTmplt-N02-v1_1.html", "website": "https://www.jreast.co.jp/estation/station/info.aspx?StationCd=838", "wikidata": "Q6322326", "wikipedia": "ja:\u5341\u6587\u5b57\u99c5"}}, {"type": "node", "id": 7131271780, "lat": 39.1981044, "lon": 140.5031157}, {"type": "node", "id": 7131271781, "lat": 39.1981319, "lon": 140.5030196}, {"type": "node", "id": 7131271782, "lat": 39.1981152, "lon": 140.5030117}, {"type": "node", "id": 7131271783, "lat": 39.1981272, "lon": 140.5029699}, {"type": "node", "id": 7131271784, "lat": 39.1979878, "lon": 140.5029034}, {"type": "node", "id": 7131271785, "lat": 39.1979757, "lon": 140.5029455}, {"type": "node", "id": 7131271786, "lat": 39.198005, "lon": 140.5029594}, {"type": "node", "id": 7131271787, "lat": 39.1979789, "lon": 140.5030508}, {"type": "node", "id": 7131271788, "lat": 39.1980386, "lon": 140.5030792}, {"type": "node", "id": 7131271789, "lat": 39.1980322, "lon": 140.5031015}, {"type": "node", "id": 7131271790, "lat": 39.1980694, "lon": 140.5031192}, {"type": "node", "id": 7131271791, "lat": 39.1980745, "lon": 140.5031015}, {"type": "node", "id": 8652841401, "lat": 39.0499302, "lon": 140.413819, "tags": {"KSJ2:LIN": "\u5965\u7fbd\u7dda", "KSJ2:STN": "\u9662\u5185", "name": "\u9662\u5185", "name:de": "Innai", "name:en": "Innai", "name:ja": "\u9662\u5185", "name:ja_kana": "\u3044\u3093\u306a\u3044", "name:ja_rm": "Innai", "name:ko": "\uc778\ub098\uc774", "note": "National-Land Numerical Information (Railway) 2007, MLIT Japan", "note:ja": "\u56fd\u571f\u6570\u5024\u60c5\u5831\uff08\u9244\u9053\u30c7\u30fc\u30bf\uff09\u5e73\u621019\u5e74\u3000\u56fd\u571f\u4ea4\u901a\u7701", "public_transport": "station", "railway": "station", "source": "KSJ2", "source_ref": "http://nlftp.mlit.go.jp/ksj/jpgis/datalist/KsjTmplt-N02-v1_1.html", "website": "https://www.jreast.co.jp/estation/station/info.aspx?StationCd=201", "wikidata": "Q11658111", "wikipedia": "ja:\u9662\u5185\u99c5"}}, {"type": "node", "id": 9967435471, "lat": 39.3126161, "lon": 140.1129433, "tags": {"name": "\u524d\u90f7", "operator": "\u7531\u5229\u9ad8\u539f\u9244\u9053", "public_transport": "station", "railway": "station", "train": "yes"}}, {"type": "node", "id": 11013108838, "lat": 39.1978302, "lon": 140.502753, "tags": {"name": "\u4e0b\u6e6f\u6ca2", "name:en": "Shimo-Yuzawa", "name:ja": "\u4e0b\u6e6f\u6ca2", "name:ja_rm": "Shimo-Yuzawa", "name:ko": "\uc2dc\ubaa8\uc720\uc790\uc640", "public_transport": "station", "railway": "station", "website": "https://www.jreast.co.jp/estation/station/info.aspx?StationCd=832", "wikidata": "Q7496938", "wikipedia": "ja:\u4e0b\u6e6f\u6ca2\u99c5"}}, {"type": "node", "id": 11013108847, "lat": 39.16354, "lon": 140.4870352, "tags": {"name": "\u6e6f\u6ca2", "name:en": "Yuzawa", "name:ja": "\u6e6f\u6ca2", "name:ja_kana": "\u3086\u3056\u308f", "name:ja_rm": "Yuzawa", "name:ko": "\uc720\uc790\uc640", "public_transport": "station", "railway": "station", "website": "https://www.jreast.co.jp/estation/station/info.aspx?StationCd=1620", "wikidata": "Q8062246", "wikipedia": "ja:\u6e6f\u6ca2\u99c5"}}, {"type": "node", "id": 11013108869, "lat": 39.1343072, "lon": 140.4853079, "tags": {"name": "\u4e0a\u6e6f\u6ca2", "name:en": "Kami-Yuzawa", "name:ja": "\u4e0a\u6e6f\u6ca2", "name:ja_kana": "\u304b\u307f\u3086\u3056\u308f", "name:ja_rm": "Kami-Yuzawa", "name:ko": "\uac00\ubbf8\uc720\uc790\uc640", "public_transport": "station", "railway": "station", "website": "https://www.jreast.co.jp/estation/station/info.aspx?StationCd=503", "wikidata": "Q6357217", "wikipedia": "ja:\u4e0a\u6e6f\u6ca2\u99c5"}}, {"type": "node", "id": 11013108870, "lat": 39.1101245, "lon": 140.4836784, "tags": {"name": "\u4e09\u95a2", "name:en": "Mitsuseki", "name:ja": "\u4e09\u95a2", "name:ja_rm": "Mitsuseki", "name:ko": "\ubbf8\uc4f0\uc138\ud0a4", "public_transport": "station", "railway": "station", "website": "https://www.jreast.co.jp/estation/station/info.aspx?StationCd=1470", "wikidata": "Q6883371", "wikipedia": "ja:\u4e09\u95a2\u99c5"}}, {"type": "node", "id": 11013108871, "lat": 39.0647596, "lon": 140.4514819, "tags": {"name": "\u6a2a\u5800", "name:en": "Yokobori", "name:ja": "\u6a2a\u5800", "name:ja_kana": "\u3088\u3053\u307c\u308a", "name:ja_rm": "Yokobori", "name:ko": "\uc694\ucf54\ubcf4\ub9ac", "public_transport": "station", "railway": "station", "website": "https://www.jreast.co.jp/estation/station/info.aspx?StationCd=1640", "wikidata": "Q8054603", "wikipedia": "ja:\u6a2a\u5800\u99c5"}}, {"type": "node", "id": 12410980287, "lat": 39.3203985, "lon": 140.0934629}, {"type": "node", "id": 12410980288, "lat": 39.3203262, "lon": 140.0934637}, {"type": "node", "id": 12410980289, "lat": 39.3203325, "lon": 140.0936271}, {"type": "node", "id": 12410980290, "lat": 39.3204054, "lon": 140.0936182}, {"type": "way", "id": 738265791, "nodes": [6912865144, 6912865145, 6912865146, 6912865147, 6912865144], "tags": {"building": "yes", "name": "\u9b8e\u5ddd\u99c5", "public_transport": "station", "railway": "station", "train": "yes"}}, {"type": "way", "id": 763138024, "nodes": [7131271780, 7131271781, 7131271782, 7131271783, 7131271784, 7131271785, 7131271786, 7131271787, 7131271788, 7131271789, 7131271790, 7131271791, 7131271780], "tags": {"building": "train_station", "public_transport": "station", "railway": "station", "train": "yes"}}, {"type": "way", "id": 1341692577, "nodes": [12410980287, 12410980288, 12410980289, 12410980290, 12410980287], "tags": {"name": "\u9ed2\u6ca2\u99c5", "operator": "\u7531\u5229\u9ad8\u539f\u9244\u9053\u3231", "public_transport": "station", "railway": "station", "train": "yes"}}]}