{"version": 0.6, "generator": "Overpass API 0.7.62.4 2390de5a", "osm3s": {"timestamp_osm_base": "2024-12-30T15:15:41Z", "copyright": "The data included in this document is from www.openstreetmap.org. The data is made available under ODbL."}, "elements": [{"type": "node", "id": 1831219031, "lat": 35.2507617, "lon": 140.2156122, "tags": {"name": "\u897f\u7551", "name:en": "Nishihata", "name:ja": "\u897f\u7551", "name:ja-Kana": "\u306b\u3057\u306f\u305f", "name:ja-Latn": "Nishihata", "name:ko": "\ub2c8\uc2dc\ud558\ud0c0", "public_transport": "station", "railway": "station", "source": "Bing", "website": "https://isumirail.co.jp/tr1/nishihata", "wikidata": "Q7040558", "wikipedia": "ja:\u897f\u7551\u99c5"}}, {"type": "node", "id": 1832342938, "lat": 35.2664357, "lon": 140.1596044, "tags": {"addr:block_number": "177", "addr:city": "\u5e02\u539f\u5e02", "addr:postcode": "290-0535", "addr:province": "\u5343\u8449\u770c", "addr:quarter": "\u671d\u751f\u539f", "alt_name:ko": "\uc694\ub85c\ucf00\uc774\ucf54\ucfe0", "name": "\u990a\u8001\u6e13\u8c37", "name:en": "Yoro-Keikoku", "name:ja": "\u990a\u8001\u6e13\u8c37", "name:ja_rm": "Y\u014dr\u014d-Keikoku", "name:ko": "\uc694\ub85c\uacc4\uace1", "operator": "\u5c0f\u6e4a\u9244\u9053", "operator:en": "Kominato Railway", "public_transport": "station", "railway": "station", "source": "Bing", "website": "https://www.kominato.co.jp/station/yorokeikoku/", "wikidata": "Q8062673", "wikipedia": "ja:\u990a\u8001\u6e13\u8c37\u99c5"}}, {"type": "node", "id": 1832343070, "lat": 35.3813997, "lon": 140.1651686, "tags": {"name": "\u4e0a\u7dcf\u9db4\u821e", "name:en": "Kazusa-Tsurumai", "name:ja": "\u4e0a\u7dcf\u9db4\u821e", "name:ja_rm": "Kazusa-Tsurumai", "name:ko": "\uac00\uc988\uc0ac\uc4f0\ub8e8\ub9c8\uc774", "operator": "\u5c0f\u6e4a\u9244\u9053", "operator:en": "Kominato Railway", "public_transport": "station", "railway": "station", "source": "Bing", "train": "yes", "website": "https://www.kominato.co.jp/station/kazusatsurumai/", "wikidata": "Q6381721", "wikipedia": "ja:\u4e0a\u7dcf\u9db4\u821e\u99c5"}}, {"type": "node", "id": 1832453983, "lat": 35.3207931, "lon": 140.1421816, "tags": {"name": "\u98ef\u7d66", "name:en": "Itabu", "name:ja": "\u98ef\u7d66", "name:ja_rm": "Itabu", "name:ko": "\uc774\ud0c0\ubd80", "operator": "\u5c0f\u6e4a\u9244\u9053", "operator:en": "Kominato Railway", "public_transport": "station", "railway": "station", "source": "Bing", "website": "https://www.kominato.co.jp/station/itabu/", "wikidata": "Q11666649", "wikipedia": "ja:\u98ef\u7d66\u99c5"}}, {"type": "node", "id": 1832454906, "lat": 35.2835084, "lon": 140.1458583, "tags": {"name": "\u4e0a\u7dcf\u5927\u4e45\u4fdd", "name:en": "Kazusa-Okubo", "name:ja": "\u4e0a\u7dcf\u5927\u4e45\u4fdd", "name:ja_rm": "Kazusa-\u014ckubo", "name:ko": "\uac00\uc988\uc0ac\uc624\ucfe0\ubcf4", "operator": "\u5c0f\u6e4a\u9244\u9053", "operator:en": "Kominato Railway", "public_transport": "station", "railway": "station", "source": "Bing", "website": "https://www.kominato.co.jp/station/kazusaokubo/", "wikidata": "Q6381728", "wikipedia": "ja:\u4e0a\u7dcf\u5927\u4e45\u4fdd\u99c5"}}, {"type": "node", "id": 1832454943, "lat": 35.3021964, "lon": 140.1393923, "tags": {"name": "\u6708\u5d0e", "name:en": "Tsukizaki", "name:ja": "\u6708\u5d0e", "name:ja_rm": "Tsukizaki", "name:ko": "\uc4f0\ud0a4\uc790\ud0a4", "operator": "\u5c0f\u6e4a\u9244\u9053", "operator:en": "Kominato Railway", "public_transport": "station", "railway": "station", "source": "Bing", "website": "https://www.kominato.co.jp/station/tsukizaki/", "wikidata": "Q7850090", "wikipedia": "ja:\u6708\u5d0e\u99c5"}}, {"type": "node", "id": 1844116450, "lat": 35.250069, "lon": 140.1999004, "tags": {"name": "\u4e0a\u7dcf\u4e2d\u91ce", "name:en": "Kazusa-Nakano", "name:ja": "\u4e0a\u7dcf\u4e2d\u91ce", "name:ja_rm": "Kazusa-Nakano", "name:ko": "\uac00\uc988\uc0ac\ub098\uce74\ub178", "operator": "\u5c0f\u6e4a\u9244\u9053;\u3044\u3059\u307f\u9244\u9053", "operator:en": "Kominato Railway;Isumi Railway", "public_transport": "station", "railway": "station", "source": "Bing", "website": "https://www.kominato.co.jp/station/kazusanakano/", "wikidata": "Q6381719", "wikipedia": "ja:\u4e0a\u7dcf\u4e2d\u91ce\u99c5"}}, {"type": "node", "id": 1844116451, "lat": 35.4542014, "lon": 140.1261824, "tags": {"name": "\u4e0a\u7dcf\u5c71\u7530", "name:en": "Kazusa-Yamada", "name:ja": "\u4e0a\u7dcf\u5c71\u7530", "name:ja_rm": "Kazusa-Yamada", "name:ko": "\uac00\uc988\uc0ac\uc57c\ub9c8\ub2e4", "operator": "\u5c0f\u6e4a\u9244\u9053", "operator:en": "Kominato Railway", "public_transport": "station", "railway": "station", "source": "Bing", "website": "https://www.kominato.co.jp/station/kazusayamada/", "wikidata": "Q6381726", "wikipedia": "ja:\u4e0a\u7dcf\u5c71\u7530\u99c5"}}, {"type": "node", "id": 1844116452, "lat": 35.3881138, "lon": 140.1511237, "tags": {"name": "\u4e0a\u7dcf\u5ddd\u9593", "name:en": "Kazusa-Kawama", "name:ja": "\u4e0a\u7dcf\u5ddd\u9593", "name:ja_rm": "Kazusa-Kawama", "name:ko": "\uac00\uc988\uc0ac\uce74\uc640\ub9c8", "operator": "\u5c0f\u6e4a\u9244\u9053", "operator:en": "Kominato Railway", "public_transport": "station", "railway": "station", "source": "Bing", "website": "https://www.kominato.co.jp/station/kazusakawama/", "wikidata": "Q6381703", "wikipedia": "ja:\u4e0a\u7dcf\u5ddd\u9593\u99c5"}}, {"type": "node", "id": 1844116454, "lat": 35.4001414, "lon": 140.1420997, "tags": {"name": "\u4e0a\u7dcf\u725b\u4e45", "name:en": "Kazusa-Ushiku", "name:ja": "\u4e0a\u7dcf\u725b\u4e45", "name:ja_rm": "Kazusa-Ushiku", "name:ko": "\uce74\uc988\uc0ac\uc6b0\uc2dc\ucfe0", "operator": "\u5c0f\u6e4a\u9244\u9053", "operator:en": "Kominato Railway", "public_transport": "station", "railway": "station", "source": "Bing", "website": "https://www.kominato.co.jp/station/kazusaushiku/", "wikidata": "Q6381724", "wikipedia": "ja:\u4e0a\u7dcf\u725b\u4e45\u99c5"}}, {"type": "node", "id": 1844116455, "lat": 35.4403536, "lon": 140.1142057, "tags": {"name": "\u5149\u98a8\u53f0", "name:en": "Kofudai", "name:ja": "\u5149\u98a8\u53f0", "name:ja_rm": "K\u014df\u016bdai", "name:ko": "\uace0\ud6c4\ub2e4\uc774", "public_transport": "station", "railway": "station", "source": "KSJ2", "website": "https://www.kominato.co.jp/station/kofudai/", "wikidata": "Q11388598", "wikipedia": "ja:\u5149\u98a8\u53f0\u99c5 (\u5343\u8449\u770c)"}}, {"type": "node", "id": 1844116457, "lat": 35.336711, "lon": 140.1454885, "tags": {"name": "\u91cc\u898b", "name:en": "Satomi", "name:ja": "\u91cc\u898b", "name:ja_rm": "Satomi", "name:ko": "\uc0ac\ud1a0\ubbf8", "operator": "\u5c0f\u6e4a\u9244\u9053", "operator:en": "Kominato Railway", "public_transport": "station", "railway": "station", "source": "Bing", "website": "https://www.kominato.co.jp/station/satomi/", "wikidata": "Q7426357", "wikipedia": "ja:\u91cc\u898b\u99c5"}}, {"type": "node", "id": 1844116458, "lat": 35.3532938, "lon": 140.1503489, "tags": {"name": "\u9ad8\u6edd", "name:en": "Takataki", "name:ja": "\u9ad8\u6edd", "name:ja_rm": "Takataki", "name:ko": "\ub2e4\uce74\ud0c0\ud0a4", "operator": "\u5c0f\u6e4a\u9244\u9053", "operator:en": "Kominato Railway", "public_transport": "station", "railway": "station", "source": "Bing", "website": "https://www.kominato.co.jp/station/takataki/", "wikidata": "Q7677419", "wikipedia": "ja:\u9ad8\u6edd\u99c5"}}, {"type": "node", "id": 1844138966, "lat": 35.2577956, "lon": 140.0639976, "tags": {"name": "\u4e0a\u7dcf\u677e\u4e18", "name:en": "Kazusa-Matsuoka", "name:ja": "\u4e0a\u7dcf\u677e\u4e18", "name:ja_rm": "Kazusa-Matsuoka", "name:ko": "\uac00\uc988\uc0ac\ub9c8\uc4f0\uc624\uce74", "public_transport": "station", "railway": "station", "wikidata": "Q6381711", "wikipedia": "ja:\u4e0a\u7dcf\u677e\u4e18\u99c5"}}, {"type": "node", "id": 1844138974, "lat": 35.3146893, "lon": 140.0612845, "tags": {"name": "\u4ff5\u7530", "name:en": "Tawarada", "name:ja": "\u4ff5\u7530", "name:ja-Hira": "\u305f\u308f\u3089\u3060", "name:ja-Latn": "Tawarada", "name:ko": "\ub2e4\uc640\ub77c\ub2e4", "public_transport": "station", "railway": "station", "train": "yes", "wikidata": "Q7689221", "wikipedia": "ja:\u4ff5\u7530\u99c5"}}, {"type": "node", "id": 1844138981, "lat": 35.2743594, "lon": 140.0648667, "tags": {"name": "\u5e73\u5c71", "name:en": "Hirayama", "name:ja": "\u5e73\u5c71", "name:ja_rm": "Hirayama", "name:ko": "\ud788\ub77c\uc57c\ub9c8", "public_transport": "station", "railway": "station", "wikidata": "Q11482566", "wikipedia": "ja:\u5e73\u5c71\u99c5"}}, {"type": "node", "id": 3014657226, "lat": 35.2823898, "lon": 140.391606, "tags": {"name": "\u4e09\u9580", "name:en": "Mikado", "name:ja": "\u4e09\u9580", "name:ja-Kana": "\u307f\u304b\u3069", "name:ja-Latn": "Mikado", "name:ko": "\ubbf8\uce74\ub3c4", "operator": "\u6771\u65e5\u672c\u65c5\u5ba2\u9244\u9053", "platforms": "1", "public_transport": "station", "railway": "station", "source": "Bing,Wikipedia", "website": "https://www.jreast.co.jp/estation/station/info.aspx?StationCd=1454", "wheelchair": "yes", "wikidata": "Q564431", "wikipedia": "ja:\u4e09\u9580\u99c5"}}, {"type": "node", "id": 3014657227, "lat": 35.3736792, "lon": 140.365021, "tags": {"name": "\u4e0a\u7dcf\u4e00\u30ce\u5bae", "name:en": "Kazusa-Ichinomiya", "name:ja": "\u4e0a\u7dcf\u4e00\u30ce\u5bae", "name:ja-Kana": "\u304b\u305a\u3055\u3044\u3061\u306e\u307f\u3084", "name:ja-Latn": "Kazusa-Ichinomiya", "name:ko": "\uac00\uc988\uc0ac\uc774\uce58\ub178\ubbf8\uc57c", "operator": "\u6771\u65e5\u672c\u65c5\u5ba2\u9244\u9053", "public_transport": "station", "railway": "station", "source": "Bing", "website": "https://www.jreast.co.jp/estation/station/info.aspx?StationCd=439", "wheelchair": "yes", "wikidata": "Q564483", "wikipedia": "ja:\u4e0a\u7dcf\u4e00\u30ce\u5bae\u99c5"}}, {"type": "node", "id": 3014657230, "lat": 35.1372413, "lon": 140.250935, "tags": {"name": "\u4e0a\u7dcf\u8208\u6d25", "name:en": "Kazusa-Okitsu", "name:ja": "\u4e0a\u7dcf\u8208\u6d25", "name:ja-Kana": "\u304b\u305a\u3055\u304a\u304d\u3064", "name:ja-Latn": "Kazusa-Okitsu", "name:ko": "\uac00\uc988\uc0ac\uc624\ud0a4\uc4f0", "operator": "\u6771\u65e5\u672c\u65c5\u5ba2\u9244\u9053", "platforms": "2", "public_transport": "station", "railway": "station", "source": "Bing,Wikipedia", "website": "https://www.jreast.co.jp/estation/station/info.aspx?StationCd=440", "wheelchair": "limited", "wikidata": "Q553023", "wikipedia": "ja:\u4e0a\u7dcf\u8208\u6d25\u99c5"}}, {"type": "node", "id": 3014683036, "lat": 35.4037322, "lon": 140.345609, "tags": {"name": "\u516b\u7a4d", "name:en": "Yatsumi", "name:ja": "\u516b\u7a4d", "name:ja-Kana": "\u3084\u3064\u307f", "name:ja-Latn": "Yatsumi", "name:ko": "\uc57c\uc4f0\ubbf8", "operator": "\u6771\u65e5\u672c\u65c5\u5ba2\u9244\u9053", "platforms": "2", "public_transport": "station", "railway": "station", "source": "Bing,Wikipedia", "website": "https://www.jreast.co.jp/estation/station/info.aspx?StationCd=1583", "wheelchair": "no", "wikidata": "Q564445", "wikipedia": "ja:\u516b\u7a4d\u99c5"}}, {"type": "node", "id": 3014683037, "lat": 35.1530976, "lon": 140.3128799, "tags": {"name": "\u52dd\u6d66", "name:en": "Katsuura", "name:ja": "\u52dd\u6d66", "name:ja-Kana": "\u304b\u3064\u3046\u3089", "name:ja-Latn": "Katsuura", "name:ko": "\uac00\uc4f0\uc6b0\ub77c", "operator": "\u6771\u65e5\u672c\u65c5\u5ba2\u9244\u9053", "platforms": "3", "public_transport": "station", "railway": "station", "source": "Bing,Wikipedia", "website": "https://www.jreast.co.jp/estation/station/info.aspx?StationCd=449", "wheelchair": "no", "wikidata": "Q553034", "wikipedia": "ja:\u52dd\u6d66\u99c5"}}, {"type": "node", "id": 3014683045, "lat": 35.2508589, "lon": 140.3909878, "tags": {"name": "\u5927\u539f", "name:en": "Ohara", "name:ja": "\u5927\u539f", "name:ja-Kana": "\u304a\u304a\u306f\u3089", "name:ja-Latn": "\u014chara", "name:ko": "\uc624\ud558\ub77c", "network": "\u5916\u623f\u7dda", "operator": "\u6771\u65e5\u672c\u65c5\u5ba2\u9244\u9053", "platforms": "3", "public_transport": "station", "railway": "station", "source": "Bing", "train": "yes", "website": "https://www.jreast.co.jp/estation/station/info.aspx?StationCd=338", "wheelchair": "limited", "wikidata": "Q552811", "wikipedia": "ja:\u5927\u539f\u99c5 (\u5343\u8449\u770c)"}}, {"type": "node", "id": 3014683048, "lat": 35.3199478, "lon": 140.3810824, "tags": {"name": "\u592a\u6771", "name:en": "Taito", "name:ja": "\u592a\u6771", "name:ja-Kana": "\u305f\u3044\u3068\u3046", "name:ja-Latn": "Tait\u014d", "name:ko": "\ub2e4\uc774\ud1a0", "operator": "\u6771\u65e5\u672c\u65c5\u5ba2\u9244\u9053", "platforms": "3", "public_transport": "station", "railway": "station", "source": "Bing,Wikipedia", "website": "https://www.jreast.co.jp/estation/station/info.aspx?StationCd=927", "wheelchair": "no", "wikidata": "Q564210", "wikipedia": "ja:\u592a\u6771\u99c5"}}, {"type": "node", "id": 3014683049, "lat": 35.08183, "lon": 140.0962597, "tags": {"name": "\u592a\u6d77", "name:en": "Futomi", "name:ja": "\u592a\u6d77", "name:ja-Kana": "\u3075\u3068\u307f", "name:ja-Latn": "Futomi", "name:ko": "\ud6c4\ud1a0\ubbf8", "name:ru": "\u0424\u0443\u0442\u043e\u043c\u0438", "operator": "\u6771\u65e5\u672c\u65c5\u5ba2\u9244\u9053", "platforms": "2", "public_transport": "station", "railway": "station", "source": "Bing,Wikipedia", "website": "https://www.jreast.co.jp/estation/station/info.aspx?StationCd=1378", "wheelchair": "no", "wikidata": "Q553805", "wikipedia": "ja:\u592a\u6d77\u99c5"}}, {"type": "node", "id": 3014683052, "lat": 35.1255783, "lon": 140.1544577, "tags": {"name": "\u5b89\u623f\u5929\u6d25", "name:en": "Awa-Amatsu", "name:ja": "\u5b89\u623f\u5929\u6d25", "name:ja-Kana": "\u3042\u308f\u3042\u307e\u3064", "name:ja-Latn": "Awa-Amatsu", "name:ko": "\uc544\uc640\uc544\ub9c8\uc4f0", "operator": "\u6771\u65e5\u672c\u65c5\u5ba2\u9244\u9053", "platforms": "2", "public_transport": "station", "railway": "station", "website": "https://www.jreast.co.jp/estation/station/info.aspx?StationCd=90", "wheelchair": "limited", "wikidata": "Q553048", "wikipedia": "ja:\u5b89\u623f\u5929\u6d25\u99c5"}}, {"type": "node", "id": 3014683053, "lat": 35.1286886, "lon": 140.1903176, "tags": {"name": "\u5b89\u623f\u5c0f\u6e4a", "name:en": "Awa-Kominato", "name:ja": "\u5b89\u623f\u5c0f\u6e4a", "name:ja-Hira": "\u3042\u308f\u3053\u307f\u306a\u3068", "name:ja-Kana": "\u3042\u308f\u3053\u307f\u306a\u3068", "name:ja-Latn": "Awa-Kominato", "name:ko": "\uc544\uc640\ucf54\ubbf8\ub098\ud1a0", "operator": "\u6771\u65e5\u672c\u65c5\u5ba2\u9244\u9053", "platforms": "3", "public_transport": "station", "railway": "station", "wheelchair": "no", "wikidata": "Q552825", "wikipedia": "ja:\u5b89\u623f\u5c0f\u6e4a\u99c5"}}, {"type": "node", "id": 3014683058, "lat": 35.1877142, "lon": 140.3514883, "tags": {"name": "\u5fa1\u5bbf", "name:en": "Onjuku", "name:ja": "\u5fa1\u5bbf", "name:ja-Kana": "\u304a\u3093\u3058\u3085\u304f", "name:ja-Latn": "Onjuku", "name:ko": "\uc628\uc8fc\ucfe0", "operator": "\u6771\u65e5\u672c\u65c5\u5ba2\u9244\u9053", "platforms": "2", "public_transport": "station", "railway": "station", "source": "Bing", "website": "https://www.jreast.co.jp/estation/station/info.aspx?StationCd=407", "wheelchair": "no", "wikidata": "Q552783", "wikipedia": "ja:\u5fa1\u5bbf\u99c5"}}, {"type": "node", "id": 3014683059, "lat": 35.4495692, "lon": 140.299985, "tags": {"name": "\u65b0\u8302\u539f", "name:en": "Shin-Mobara", "name:ja": "\u65b0\u8302\u539f", "name:ja-Kana": "\u3057\u3093\u3082\u3070\u3089", "name:ja-Latn": "Shin-Mobara", "name:ko": "\uc2e0\ubaa8\ubc14\ub77c", "operator": "\u6771\u65e5\u672c\u65c5\u5ba2\u9244\u9053", "platforms": "2", "public_transport": "station", "railway": "station", "source": "Bing,Wikipedia", "website": "https://www.jreast.co.jp/estation/station/info.aspx?StationCd=886", "wheelchair": "no", "wikidata": "Q564465", "wikipedia": "ja:\u65b0\u8302\u539f\u99c5"}}, {"type": "node", "id": 3014683063, "lat": 35.3471676, "lon": 140.3766993, "tags": {"name": "\u6771\u6d6a\u898b", "name:en": "Torami", "name:ja": "\u6771\u6d6a\u898b", "name:ja-Kana": "\u3068\u3089\u307f", "name:ja-Latn": "Torami", "name:ko": "\ub3c4\ub77c\ubbf8", "operator": "\u6771\u65e5\u672c\u65c5\u5ba2\u9244\u9053", "platforms": "2", "public_transport": "station", "railway": "station", "source": "Bing,Wikipedia", "website": "https://www.jreast.co.jp/estation/station/info.aspx?StationCd=1074", "wheelchair": "limited", "wikidata": "Q564474", "wikipedia": "ja:\u6771\u6d6a\u898b\u99c5"}}, {"type": "node", "id": 3014683066, "lat": 35.3861086, "lon": 140.0203412, "tags": {"name": "\u6a2a\u7530", "name:en": "Yokota", "name:ja": "\u6a2a\u7530", "name:ja_kana": "\u3088\u3053\u305f", "name:ja_rm": "Yokota", "name:ko": "\uc694\ucf54\ud0c0", "operator": "\u6771\u65e5\u672c\u65c5\u5ba2\u9244\u9053", "platforms": "2", "public_transport": "station", "railway": "station", "wheelchair": "limited", "wikidata": "Q8054678", "wikipedia": "ja:\u6a2a\u7530\u99c5"}}, {"type": "node", "id": 3014683069, "lat": 35.062414, "lon": 140.0613872, "tags": {"name": "\u6c5f\u898b", "name:en": "Emi", "name:ja": "\u6c5f\u898b", "name:ja-Hira": "\u3048\u307f", "name:ja-Kana": "\u3048\u307f", "name:ja-Latn": "Emi", "name:ko": "\uc5d0\ubbf8", "name:ru": "\u042d\u043c\u0438", "operator": "\u6771\u65e5\u672c\u65c5\u5ba2\u9244\u9053", "platforms": "2", "public_transport": "station", "railway": "station", "source": "Bing;Wikipedia;survey", "website": "https://www.jreast.co.jp/estation/station/info.aspx?StationCd=292", "wheelchair": "no", "wikidata": "Q553871", "wikipedia": "ja:\u6c5f\u898b\u99c5"}}, {"type": "node", "id": 3014683072, "lat": 35.2227019, "lon": 140.3794316, "tags": {"name": "\u6d6a\u82b1", "name:en": "Namihana", "name:ja": "\u6d6a\u82b1", "name:ja-Kana": "\u306a\u307f\u306f\u306a", "name:ja-Latn": "Namihana", "name:ko": "\ub098\ubbf8\ud558\ub098", "operator": "\u6771\u65e5\u672c\u65c5\u5ba2\u9244\u9053", "platforms": "2", "public_transport": "station", "railway": "station", "source": "Bing,Wikipedia", "website": "https://www.jreast.co.jp/estation/station/info.aspx?StationCd=1125", "wheelchair": "no", "wikidata": "Q552791", "wikipedia": "ja:\u6d6a\u82b1\u99c5"}}, {"type": "node", "id": 3014683076, "lat": 35.4269216, "lon": 140.3038748, "tags": {"name": "\u8302\u539f", "name:en": "Mobara", "name:ja": "\u8302\u539f", "name:ja-Kana": "\u3082\u3070\u3089", "name:ja-Latn": "Mobara", "name:ko": "\ubaa8\ubc14\ub77c", "operator": "\u6771\u65e5\u672c\u65c5\u5ba2\u9244\u9053", "platforms": "4", "public_transport": "station", "railway": "station", "source": "Bing,Wikipedia", "website": "https://www.jreast.co.jp/estation/station/info.aspx?StationCd=1563", "wheelchair": "yes", "wikidata": "Q564427", "wikipedia": "ja:\u8302\u539f\u99c5"}}, {"type": "node", "id": 3014683078, "lat": 35.1182556, "lon": 140.2259359, "tags": {"name": "\u884c\u5ddd\u30a2\u30a4\u30e9\u30f3\u30c9", "name:en": "Namegawa-Island", "name:ja": "\u884c\u5ddd\u30a2\u30a4\u30e9\u30f3\u30c9", "name:ja-Kana": "\u306a\u3081\u304c\u308f\u3042\u3044\u3089\u3093\u3069", "name:ja-Latn": "Namegawa-Airando", "name:ko": "\ub098\uba54\uac00\uc640\uc544\uc77c\ub79c\ub4dc", "operator": "\u6771\u65e5\u672c\u65c5\u5ba2\u9244\u9053", "platforms": "1", "public_transport": "station", "railway": "station", "source": "Bing,Wikipedia", "website": "https://www.jreast.co.jp/estation/station/info.aspx?StationCd=1127", "wheelchair": "no", "wikidata": "Q552818", "wikipedia": "ja:\u884c\u5ddd\u30a2\u30a4\u30e9\u30f3\u30c9\u99c5"}}, {"type": "node", "id": 3014683084, "lat": 35.2958853, "lon": 140.3850371, "tags": {"name": "\u9577\u8005\u753a", "name:en": "Chojamachi", "name:ja": "\u9577\u8005\u753a", "name:ja-Kana": "\u3061\u3087\u3046\u3058\u3083\u307e\u3061", "name:ja-Latn": "Ch\u014djamachi", "name:ko": "\uc870\uc790\ub9c8\uce58", "operator": "\u6771\u65e5\u672c\u65c5\u5ba2\u9244\u9053", "platforms": "2", "public_transport": "station", "railway": "station", "source": "Bing,Wikipedia", "website": "https://www.jreast.co.jp/estation/station/info.aspx?StationCd=994", "wheelchair": "no", "wikidata": "Q564439", "wikipedia": "ja:\u9577\u8005\u753a\u99c5"}}, {"type": "node", "id": 3014683087, "lat": 35.140844, "lon": 140.2784674, "tags": {"name": "\u9d5c\u539f", "name:en": "Ubara", "name:ja": "\u9d5c\u539f", "name:ja-Kana": "\u3046\u3070\u3089", "name:ja-Latn": "Ubara", "name:ko": "\uc6b0\ubc14\ub77c", "operator": "\u6771\u65e5\u672c\u65c5\u5ba2\u9244\u9053", "platforms": "2", "public_transport": "station", "railway": "station", "source": "Bing,Wikipedia", "website": "https://www.jreast.co.jp/estation/station/info.aspx?StationCd=252", "wheelchair": "no", "wikidata": "Q553006", "wikipedia": "ja:\u9d5c\u539f\u99c5"}}, {"type": "node", "id": 3016197319, "lat": 35.3553448, "lon": 140.0554424, "tags": {"name": "\u4e0b\u90e1", "name:en": "Shimogori", "name:ja": "\u4e0b\u90e1", "name:ja-Hira": "\u3057\u3082\u3054\u304a\u308a", "name:ja-Latn": "Shimog\u014dri", "name:ko": "\uc2dc\ubaa8\uace0\ub9ac", "public_transport": "station", "railway": "station", "wheelchair": "yes", "wikidata": "Q7496964", "wikipedia": "ja:\u4e0b\u90e1\u99c5"}}, {"type": "node", "id": 3016197320, "lat": 35.3284083, "lon": 140.0599164, "tags": {"name": "\u5c0f\u6ac3", "name:en": "Obitsu", "name:ja": "\u5c0f\u6ac3", "name:ja_kana": "\u304a\u3073\u3064", "name:ja_rm": "Obitsu", "name:ko": "\uc624\ube44\uc4f0", "public_transport": "station", "railway": "station", "wheelchair": "yes", "wikidata": "Q7074984", "wikipedia": "ja:\u5c0f\u6ac3\u99c5"}}, {"type": "node", "id": 3016197321, "lat": 35.3862677, "lon": 140.036446, "tags": {"name": "\u6771\u6a2a\u7530", "name:en": "Higashi-Yokota", "name:ja": "\u6771\u6a2a\u7530", "name:ja_kana": "\u3072\u304c\u3057\u3088\u3053\u305f", "name:ja_rm": "Higashi-Yokota", "name:ko": "\ud788\uac00\uc2dc\uc694\ucf54\ud0c0", "public_transport": "station", "railway": "station", "wheelchair": "yes", "wikidata": "Q5753915", "wikipedia": "ja:\u6771\u6a2a\u7530\u99c5"}}, {"type": "node", "id": 3016197322, "lat": 35.3666754, "lon": 140.0586872, "tags": {"name": "\u99ac\u6765\u7530", "name:en": "Makuta", "name:ja": "\u99ac\u6765\u7530", "name:ja_kana": "\u307e\u304f\u305f", "name:ja_rm": "Makuta", "name:ko": "\ub9c8\ucfe0\ud0c0", "platforms": "1", "public_transport": "station", "railway": "station", "source": "bing", "wheelchair": "yes", "wikidata": "Q6740491", "wikipedia": "ja:\u99ac\u6765\u7530\u99c5"}}, {"type": "node", "id": 3690521151, "lat": 35.4236725, "lon": 140.1148775, "tags": {"name": "\u99ac\u7acb", "name:en": "Umatate", "name:ja": "\u99ac\u7acb", "name:ja_rm": "Umatate", "name:ko": "\uc6b0\ub9c8\ud0c0\ud14c", "operator": "\u5c0f\u6e4a\u9244\u9053", "operator:en": "Kominato Railway", "public_transport": "station", "railway": "station", "source": "Bing", "website": "https://www.kominato.co.jp/station/umatate/", "wikidata": "Q7881193", "wikipedia": "ja:\u99ac\u7acb\u99c5"}}, {"type": "node", "id": 3896490890, "lat": 35.233083, "lon": 140.0898393, "tags": {"name": "\u4e0a\u7dcf\u4e80\u5c71", "name:en": "Kazusa-Kameyama", "name:ja": "\u4e0a\u7dcf\u4e80\u5c71", "name:ja-Hira": "\u304b\u305a\u3055\u304b\u3081\u3084\u307e", "name:ja-Latn": "Kazusa-Kameyama", "name:ko": "\uac00\uc988\uc0ac\uce74\uba54\uc57c\ub9c8", "public_transport": "station", "railway": "station", "source": "Bing", "train": "yes", "wikidata": "Q6381705", "wikipedia": "ja:\u4e0a\u7dcf\u4e80\u5c71\u99c5"}}, {"type": "node", "id": 3896490891, "lat": 35.2958456, "lon": 140.07575, "tags": {"addr:block_number": "198", "addr:city": "\u541b\u6d25\u5e02", "addr:postcode": "292-0421", "addr:province": "\u5343\u8449\u770c", "addr:quarter": "\u4e45\u7559\u91cc\u5e02\u5834", "name": "\u4e45\u7559\u91cc", "name:en": "Kururi", "name:ja": "\u4e45\u7559\u91cc", "name:ja_kana": "\u304f\u308b\u308a", "name:ja_rm": "Kururi", "name:ko": "\uad6c\ub8e8\ub9ac", "operator": "\u6771\u65e5\u672c\u65c5\u5ba2\u9244\u9053", "platforms": "2", "public_transport": "station", "railway": "station", "source": "bing", "wikidata": "Q6447492", "wikipedia": "ja:\u4e45\u7559\u91cc\u99c5"}}, {"type": "node", "id": 3896556676, "lat": 35.3675136, "lon": 140.154606, "tags": {"name": "\u4e0a\u7dcf\u4e45\u4fdd", "name:en": "Kazusa-Kubo", "name:ja": "\u4e0a\u7dcf\u4e45\u4fdd", "name:ja_rm": "Kazusa-Kubo", "name:ko": "\uac00\uc988\uc0ac\ucfe0\ubcf4", "operator": "\u5c0f\u6e4a\u9244\u9053", "operator:en": "Kominato Railway", "public_transport": "station", "railway": "station", "source": "Bing", "website": "https://www.kominato.co.jp/station/kazusakubo/", "wikidata": "Q6381709", "wikipedia": "ja:\u4e0a\u7dcf\u4e45\u4fdd\u99c5"}}, {"type": "node", "id": 6779233179, "lat": 35.2513361, "lon": 140.3908284, "tags": {"name": "\u5927\u539f", "name:en": "\u014chara", "network": "\u3044\u3059\u307f\u7dda", "operator": "\u3044\u3059\u307f\u9244\u9053", "operator:short": "\u3044\u9244", "operator:website": "https://isumirail.co.jp/", "operator:wikidata": "Q11259272", "operator:wikipedia": "ja:\u3044\u3059\u307f\u9244\u9053\u3044\u3059\u307f\u7dda", "public_transport": "station", "railway": "station", "train": "yes", "website": "https://isumirail.co.jp/tr1/oohara", "wikidata": "Q552811", "wikipedia": "ja:\u5927\u539f\u99c5 (\u5343\u8449\u770c)"}}, {"type": "node", "id": 11483977772, "lat": 35.2633483, "lon": 140.345084, "tags": {"name": "\u4e0a\u7dcf\u6771", "name:en": "Kazusa-Azuma", "name:ja": "\u4e0a\u7dcf\u6771", "name:ja-Latn": "Kazusa-Azuma", "name:ko": "\uac00\uc988\uc0ac\uc544\uc988\ub9c8", "public_transport": "station", "railway": "station", "website": "https://isumirail.co.jp/tr1/kazusaazuma", "wikidata": "Q11360043", "wikipedia": "ja:\u4e0a\u7dcf\u6771\u99c5"}}, {"type": "node", "id": 11483977773, "lat": 35.276481, "lon": 140.3280728, "tags": {"name": "\u65b0\u7530\u91ce", "name:en": "Nittano", "name:ja": "\u65b0\u7530\u91ce", "name:ja-Latn": "Nittano", "name:ko": "\ub2db\ud0c0\ub178", "public_transport": "station", "railway": "station", "website": "https://isumirail.co.jp/tr1/nittano", "wikidata": "Q11503778", "wikipedia": "ja:\u65b0\u7530\u91ce\u99c5"}}, {"type": "node", "id": 11483977789, "lat": 35.2805646, "lon": 140.3137954, "tags": {"name": "\u56fd\u5409", "name:en": "Kuniyoshi", "name:ja": "\u56fd\u5409", "name:ja-Latn": "Kuniyoshi", "name:ko": "\uad6c\ub2c8\uc694\uc2dc", "public_transport": "station", "railway": "station", "website": "https://isumirail.co.jp/tr1/kuniyoshi", "wikidata": "Q6444797", "wikipedia": "ja:\u56fd\u5409\u99c5"}}, {"type": "node", "id": 11483977791, "lat": 35.2827011, "lon": 140.2804763, "tags": {"name": "\u4e0a\u7dcf\u4e2d\u5ddd", "name:en": "Kazusa-Nakagawa", "name:ja": "\u4e0a\u7dcf\u4e2d\u5ddd", "name:ja-Latn": "Kazusa-Nakagawa", "name:ko": "\uac00\uc988\uc0ac\ub098\uce74\uac00\uc640", "public_transport": "station", "railway": "station", "website": "https://isumirail.co.jp/tr1/kazusanakagawa", "wikidata": "Q6381717", "wikipedia": "ja:\u4e0a\u7dcf\u4e2d\u5ddd\u99c5"}}, {"type": "node", "id": 11483977793, "lat": 35.2916957, "lon": 140.2525511, "tags": {"name": "\u57ce\u898b\u30f6\u4e18", "name:en": "Shiromigaoka", "name:ja": "\u57ce\u898b\u30f6\u4e18", "name:ja-Hira": "\u3057\u308d\u307f\u304c\u304a\u304b", "name:ja-Latn": "Shiromigaoka", "name:ko": "\uc2dc\ub85c\ubbf8\uac00\uc624\uce74", "public_transport": "station", "railway": "station", "website": "https://isumirail.co.jp/tr1/shiromigaoka", "wikidata": "Q7498947", "wikipedia": "ja:\u57ce\u898b\u30f6\u4e18\u99c5"}}, {"type": "node", "id": 11483977794, "lat": 35.286687, "lon": 140.2439889, "tags": {"name": "\u5927\u591a\u559c", "name:en": "Otaki", "name:ja": "\u5927\u591a\u559c", "name:ja-Latn": "\u014ctaki", "name:ko": "\uc624\ud0c0\ud0a4", "public_transport": "station", "railway": "station", "source": "Bing", "toilets": "yes", "train": "yes", "website": "https://isumirail.co.jp/tr1/ootaki", "wikidata": "Q11434170", "wikipedia": "ja:\u5927\u591a\u559c\u99c5"}}, {"type": "node", "id": 11483977797, "lat": 35.2687827, "lon": 140.2514186, "tags": {"name": "\u5c0f\u8c37\u677e", "name:en": "Koyamatsu", "name:ja": "\u5c0f\u8c37\u677e", "name:ja-Kana": "\u3053\u3084\u307e\u3064", "name:ja-Latn": "Koyamatsu", "name:ko": "\uace0\uc57c\ub9c8\uc4f0", "public_transport": "station", "railway": "station", "website": "https://isumirail.co.jp/tr1/koyamatsu", "wikidata": "Q6435135", "wikipedia": "ja:\u5c0f\u8c37\u677e\u99c5"}}, {"type": "node", "id": 11483977798, "lat": 35.2594029, "lon": 140.2476266, "tags": {"name": "\u6771\u7dcf\u5143", "name:en": "Higashi-Fusamoto", "name:ja": "\u6771\u7dcf\u5143", "name:ja-Kana": "\u3072\u304c\u3057\u3075\u3055\u3082\u3068", "name:ja-Latn": "Higashi-Fusamoto", "name:ko": "\ud788\uac00\uc2dc\ud6c4\uc0ac\ubaa8\ud1a0", "public_transport": "station", "railway": "station", "website": "https://isumirail.co.jp/tr1/higashifusamoto", "wikidata": "Q5753509", "wikipedia": "ja:\u6771\u7dcf\u5143\u99c5"}}, {"type": "node", "id": 11483977803, "lat": 35.2500969, "lon": 140.2478962, "tags": {"name": "\u4e45\u6211\u539f", "name:en": "Kugahara", "name:ja": "\u4e45\u6211\u539f", "name:ja-Kana": "\u304f\u304c\u306f\u3089", "name:ja-Latn": "Kugahara", "name:ko": "\uad6c\uac00\ud558\ub77c", "public_transport": "station", "railway": "station", "website": "https://isumirail.co.jp/tr1/kugahara", "wikidata": "Q6441938", "wikipedia": "ja:\u4e45\u6211\u539f\u99c5"}}, {"type": "node", "id": 11483977804, "lat": 35.2406328, "lon": 140.2408587, "tags": {"name": "\u7dcf\u5143", "name:en": "Fusamoto", "name:ja": "\u7dcf\u5143", "name:ja-Kana": "\u3075\u3055\u3082\u3068", "name:ja-Latn": "Fusamoto", "name:ko": "\ud6c4\uc0ac\ubaa8\ud1a0", "public_transport": "station", "railway": "station", "website": "https://isumirail.co.jp/tr1/fusamoto", "wikidata": "Q5509878", "wikipedia": "ja:\u7dcf\u5143\u99c5"}}, {"type": "node", "id": 11483977809, "lat": 35.2605472, "lon": 140.3779156, "tags": {"name": "\u897f\u5927\u539f", "name:en": "Nishi-Ohara", "name:ja": "\u897f\u5927\u539f", "name:ja-Latn": "Nishi-\u014chara", "name:ko": "\ub2c8\uc2dc\uc624\ud558\ub77c", "public_transport": "station", "railway": "station", "website": "https://isumirail.co.jp/tr1/nishioohara", "wikidata": "Q7040469", "wikipedia": "ja:\u897f\u5927\u539f\u99c5"}}, {"type": "node", "id": 11493159985, "lat": 35.1076645, "lon": 140.1037006, "tags": {"name": "\u5b89\u623f\u9d28\u5ddd", "name:en": "Awa-Kamogawa", "name:ja": "\u5b89\u623f\u9d28\u5ddd", "name:ja-Kana": "\u3042\u308f\u304b\u3082\u304c\u308f", "name:ja-Latn": "Awa-Kamogawa", "name:ko": "\uc544\uc640\uce74\ubaa8\uac00\uc640", "name:ru": "\u0410\u0432\u0430-\u041a\u0430\u043c\u043e\u0433\u0430\u0432\u0430", "operator": "\u6771\u65e5\u672c\u65c5\u5ba2\u9244\u9053", "operator:en": "East Japan Railway Company", "platforms": "3", "public_transport": "station", "railway": "station", "train": "yes", "website": "https://www.jreast.co.jp/estation/stations/92.html", "wheelchair": "yes", "wikidata": "Q552842", "wikipedia": "ja:\u5b89\u623f\u9d28\u5ddd\u99c5"}}]}