{"version": 0.6, "generator": "Overpass API 0.7.62.4 2390de5a", "osm3s": {"timestamp_osm_base": "2024-12-30T14:59:15Z", "copyright": "The data included in this document is from www.openstreetmap.org. The data is made available under ODbL."}, "elements": [{"type": "node", "id": 264418851, "lat": 41.8194975, "lon": 140.6406395, "tags": {"addr:block_number": "7", "addr:city": "\u5317\u6597\u5e02", "addr:housenumber": "6", "addr:neighbourhood": "2\u4e01\u76ee", "addr:postcode": "049-0161", "addr:province": "\u5317\u6d77\u9053", "addr:quarter": "\u98ef\u751f", "name": "\u4e0a\u78ef", "name:en": "Kamiiso", "name:ja": "\u4e0a\u78ef", "name:ja_rm": "Kamiiso", "name:ko": "\uac00\ubbf8\uc774\uc18c", "operator": "\u9053\u5357\u3044\u3055\u308a\u3073\u9244\u9053", "public_transport": "station", "railway": "station", "source": "KSJ2", "website": "https://www.shr-isaribi.jp/route/kamiiso/", "wikidata": "Q5360792", "wikipedia": "ja:\u4e0a\u78ef\u99c5"}}, {"type": "node", "id": 264421972, "lat": 42.0036207, "lon": 140.6414842, "tags": {"KSJ2:LIN": "\u51fd\u9928\u7dda", "KSJ2:STN": "\u8d64\u4e95\u5ddd", "name": "\u8d64\u4e95\u5ddd", "name:en": "Akaigawa", "name:ja": "\u8d64\u4e95\u5ddd", "name:ko": "\uc544\uce74\uc774\uac00\uc640", "note": "National-Land Numerical Information (Railway) 2007, MLIT Japan", "note:ja": "\u56fd\u571f\u6570\u5024\u60c5\u5831\uff08\u9244\u9053\u30c7\u30fc\u30bf\uff09\u5e73\u621019\u5e74\u3000\u56fd\u571f\u4ea4\u901a\u7701", "public_transport": "station", "railway": "station", "source": "KSJ2", "source_ref": "http://nlftp.mlit.go.jp/ksj/jpgis/datalist/KsjTmplt-N02-v1_1.html", "wikidata": "Q1049269", "wikipedia": "ja:\u8d64\u4e95\u5ddd\u99c5"}}, {"type": "node", "id": 264422342, "lat": 42.0643077, "lon": 140.7715285, "tags": {"KSJ2:LIN": "\u51fd\u9928\u7dda", "KSJ2:STN": "\u9e7f\u90e8", "name": "\u9e7f\u90e8", "name:en": "Shikabe", "name:ja": "\u9e7f\u90e8", "name:ko": "\uc2dc\uce74\ubca0", "note": "National-Land Numerical Information (Railway) 2007, MLIT Japan", "note:ja": "\u56fd\u571f\u6570\u5024\u60c5\u5831\uff08\u9244\u9053\u30c7\u30fc\u30bf\uff09\u5e73\u621019\u5e74\u3000\u56fd\u571f\u4ea4\u901a\u7701", "public_transport": "station", "railway": "station", "source": "KSJ2", "source_ref": "http://nlftp.mlit.go.jp/ksj/jpgis/datalist/KsjTmplt-N02-v1_1.html", "wikidata": "Q898599", "wikipedia": "ja:\u9e7f\u90e8\u99c5"}}, {"type": "node", "id": 264423805, "lat": 42.1111812, "lon": 140.6130139, "tags": {"KSJ2:LIN": "\u51fd\u9928\u7dda", "KSJ2:STN": "\u5c3e\u767d\u5185", "name": "\u5c3e\u767d\u5185", "name:en": "Oshironai", "name:ja": "\u5c3e\u767d\u5185", "name:ko": "\uc624\uc2dc\ub85c\ub098\uc774", "note": "National-Land Numerical Information (Railway) 2007, MLIT Japan", "note:ja": "\u56fd\u571f\u6570\u5024\u60c5\u5831\uff08\u9244\u9053\u30c7\u30fc\u30bf\uff09\u5e73\u621019\u5e74\u3000\u56fd\u571f\u4ea4\u901a\u7701", "public_transport": "station", "railway": "station", "source": "KSJ2", "source_ref": "http://nlftp.mlit.go.jp/ksj/jpgis/datalist/KsjTmplt-N02-v1_1.html", "toilets:wheelchair": "no", "wheelchair": "no", "wikidata": "Q898613", "wikipedia": "ja:\u5c3e\u767d\u5185\u99c5"}}, {"type": "node", "id": 264423865, "lat": 42.1193613, "lon": 140.6461822, "tags": {"KSJ2:LIN": "\u51fd\u9928\u7dda", "KSJ2:STN": "\u639b\u6f97", "name": "\u639b\u6f97", "name:en": "Kakarima", "name:ja": "\u639b\u6f97", "name:ko": "\uac00\uce74\ub9ac\ub9c8", "note": "National-Land Numerical Information (Railway) 2007, MLIT Japan", "note:ja": "\u56fd\u571f\u6570\u5024\u60c5\u5831\uff08\u9244\u9053\u30c7\u30fc\u30bf\uff09\u5e73\u621019\u5e74\u3000\u56fd\u571f\u4ea4\u901a\u7701", "public_transport": "station", "railway": "station", "source": "KSJ2", "source_ref": "http://nlftp.mlit.go.jp/ksj/jpgis/datalist/KsjTmplt-N02-v1_1.html", "wheelchair": "no", "wikidata": "Q898787", "wikipedia": "ja:\u639b\u6f97\u99c5"}}, {"type": "node", "id": 264423938, "lat": 42.106958, "lon": 140.748078, "tags": {"KSJ2:LIN": "\u51fd\u9928\u7dda", "KSJ2:STN": "\u6e21\u5cf6\u6cbc\u5c3b", "name": "\u6e21\u5cf6\u6cbc\u5c3b", "name:en": "Oshima-Mumajiri", "name:ja": "\u6e21\u5cf6\u6cbc\u5c3b", "name:ko": "\uc624\uc2dc\ub9c8\ub204\ub9c8\uc9c0\ub9ac", "note": "National-Land Numerical Information (Railway) 2007, MLIT Japan", "note:ja": "\u56fd\u571f\u6570\u5024\u60c5\u5831\uff08\u9244\u9053\u30c7\u30fc\u30bf\uff09\u5e73\u621019\u5e74\u3000\u56fd\u571f\u4ea4\u901a\u7701", "public_transport": "station", "railway": "station", "source": "KSJ2", "source_ref": "http://nlftp.mlit.go.jp/ksj/jpgis/datalist/KsjTmplt-N02-v1_1.html", "wikidata": "Q898620", "wikipedia": "ja:\u6e21\u5cf6\u6cbc\u5c3b\u99c5"}}, {"type": "node", "id": 264426958, "lat": 42.038093, "lon": 140.610737, "tags": {"KSJ2:LIN": "\u51fd\u9928\u7dda", "KSJ2:STN": "\u99d2\u30f6\u5cb3", "name": "\u99d2\u30f6\u5cb3", "name:en": "Komagatake", "name:ja": "\u99d2\u30f6\u5cb3", "name:ja-Hira": "\u3053\u307e\u304c\u305f\u3051", "name:ko": "\uace0\ub9c8\uac00\ud0c0\ucf00", "note": "National-Land Numerical Information (Railway) 2007, MLIT Japan", "note:ja": "\u56fd\u571f\u6570\u5024\u60c5\u5831\uff08\u9244\u9053\u30c7\u30fc\u30bf\uff09\u5e73\u621019\u5e74\u3000\u56fd\u571f\u4ea4\u901a\u7701", "railway": "station", "ref": "H65", "source": "KSJ2", "source_ref": "http://nlftp.mlit.go.jp/ksj/jpgis/datalist/KsjTmplt-N02-v1_1.html", "wheelchair": "no", "wikidata": "Q864617", "wikipedia": "ja:\u99d2\u30f6\u5cb3\u99c5"}}, {"type": "node", "id": 264428414, "lat": 42.1065947, "lon": 140.5926865, "tags": {"KSJ2:LIN": "\u51fd\u9928\u7dda", "KSJ2:STN": "\u6771\u68ee", "name": "\u6771\u68ee", "name:en": "Higashi-Mori", "name:ja": "\u6771\u68ee", "name:ko": "\ud788\uac00\uc2dc\ubaa8\ub9ac", "note": "National-Land Numerical Information (Railway) 2007, MLIT Japan", "note:ja": "\u56fd\u571f\u6570\u5024\u60c5\u5831\uff08\u9244\u9053\u30c7\u30fc\u30bf\uff09\u5e73\u621019\u5e74\u3000\u56fd\u571f\u4ea4\u901a\u7701", "public_transport": "station", "railway": "station", "source": "KSJ2", "source_ref": "http://nlftp.mlit.go.jp/ksj/jpgis/datalist/KsjTmplt-N02-v1_1.html", "toilets:wheelchair": "no", "wheelchair": "no", "wikidata": "Q898576", "wikipedia": "ja:\u6771\u68ee\u99c5"}}, {"type": "node", "id": 264428592, "lat": 42.121637, "lon": 140.689099, "tags": {"KSJ2:LIN": "\u51fd\u9928\u7dda", "KSJ2:STN": "\u6e21\u5cf6\u7802\u539f", "name": "\u6e21\u5cf6\u7802\u539f", "name:en": "Oshima-Sawara", "name:ja": "\u6e21\u5cf6\u7802\u539f", "name:ko": "\uc624\uc2dc\ub9c8\uc0ac\uc640\ub77c", "note": "National-Land Numerical Information (Railway) 2007, MLIT Japan", "note:ja": "\u56fd\u571f\u6570\u5024\u60c5\u5831\uff08\u9244\u9053\u30c7\u30fc\u30bf\uff09\u5e73\u621019\u5e74\u3000\u56fd\u571f\u4ea4\u901a\u7701", "public_transport": "station", "railway": "station", "source": "KSJ2", "source_ref": "http://nlftp.mlit.go.jp/ksj/jpgis/datalist/KsjTmplt-N02-v1_1.html", "wheelchair": "no", "wikidata": "Q898571", "wikipedia": "ja:\u6e21\u5cf6\u7802\u539f\u99c5"}}, {"type": "node", "id": 264429202, "lat": 41.9295854, "lon": 140.6352599, "tags": {"name": "\u4ec1\u5c71", "name:en": "Niyama", "name:ja": "\u4ec1\u5c71", "name:ko": "\ub2c8\uc57c\ub9c8", "public_transport": "station", "railway": "station", "source": "KSJ2", "wikidata": "Q766391", "wikipedia": "ja:\u4ec1\u5c71\u99c5"}}, {"type": "node", "id": 2666542740, "lat": 41.8034452, "lon": 140.7339267, "tags": {"addr:block_number": "64", "addr:city": "\u51fd\u9928\u5e02", "addr:housenumber": "16", "addr:postcode": "041-0813", "addr:province": "\u5317\u6d77\u9053", "addr:quarter": "\u4e80\u7530\u672c\u753a", "mapillary": "896760101056662", "name": "\u4e94\u7a1c\u90ed", "name:de": "Gory\u014dkaku", "name:en": "Goryokaku", "name:ja": "\u4e94\u7a1c\u90ed", "name:ja-Hira": "\u3054\u308a\u3087\u3046\u304b\u304f", "name:ja-Latn": "Gory\u014dkaku", "name:ko": "\uace0\ub8cc\uce74\ucfe0", "opening_hours": "06:00-22:00 \"\u7a93\u53e3 window\" || 05:30-00:10 \"\u5f85\u5408\u5ba4 waiting room\" || 06:00-19:00 \"\u5e97 shop\"", "operator": "\u5317\u6d77\u9053\u65c5\u5ba2\u9244\u9053;\u9053\u5357\u3044\u3055\u308a\u3073\u9244\u9053", "phone": "+81 138 41 3745", "public_transport": "station", "railway": "station", "source": "Bing;KSJ2", "train": "yes", "website": "https://www.shr-isaribi.jp/route/goryokaku/", "wheelchair": "no", "wheelchair:description": "\u6b69\u9053\u6a4b\u3092\u6e21\u308b\u5fc5\u8981\u304c\u3042\u308a\u307e\u3059", "wikidata": "Q1037967", "wikipedia": "ja:\u4e94\u7a1c\u90ed\u99c5"}}, {"type": "node", "id": 8205769771, "lat": 41.8174425, "lon": 140.7086399, "tags": {"addr:block_number": "32\u756a", "addr:city": "\u5317\u6597\u5e02", "addr:housenumber": "21\u53f7", "addr:neighbourhood": "2\u4e01\u76ee", "addr:postcode": "049-0111", "addr:province": "\u5317\u6d77\u9053", "addr:quarter": "\u4e03\u91cd\u6d5c", "name": "\u4e03\u91cd\u6d5c", "name:en": "Nanaehama", "name:ja": "\u4e03\u91cd\u6d5c", "name:ko": "\ub098\ub098\uc5d0\ud558\ub9c8", "operator": "\u9053\u5357\u3044\u3055\u308a\u3073\u9244\u9053", "public_transport": "station", "railway": "station", "source": "KSJ2", "website": "https://www.shr-isaribi.jp/route/nanaehama/", "wikidata": "Q5364820", "wikipedia": "ja:\u4e03\u91cd\u6d5c\u99c5"}}, {"type": "node", "id": 8205841218, "lat": 41.8266409, "lon": 140.666417, "tags": {"addr:block_number": "25", "addr:city": "\u5317\u6597\u5e02", "addr:neighbourhood": "2\u4e01\u76ee", "addr:postcode": "049-0121", "addr:province": "\u5317\u6d77\u9053", "addr:quarter": "\u4e45\u6839\u5225", "name": "\u4e45\u6839\u5225", "name:en": "Kunebetsu", "name:ja": "\u4e45\u6839\u5225", "name:ja_rm": "Kunebetsu", "name:ko": "\uad6c\ub124\ubca0\uc4f0", "operator": "\u9053\u5357\u3044\u3055\u308a\u3073\u9244\u9053", "public_transport": "station", "railway": "station", "source": "KSJ2", "website": "https://www.shr-isaribi.jp/route/kunebetsu/", "wikidata": "Q5361521", "wikipedia": "ja:\u4e45\u6839\u5225\u99c5"}}, {"type": "node", "id": 8205904367, "lat": 41.7375187, "lon": 140.5794779, "tags": {"addr:block_number": "2", "addr:city": "\u5317\u6597\u5e02", "addr:neighbourhood": "4\u4e01\u76ee", "addr:postcode": "049-0282", "addr:province": "\u5317\u6d77\u9053", "addr:quarter": "\u5f53\u5225", "mapillary": "912933089497064", "name": "\u6e21\u5cf6\u5f53\u5225", "name:en": "Oshima-T\u014dbetsu", "name:ja": "\u6e21\u5cf6\u5f53\u5225", "name:ko": "\uc624\uc2dc\ub9c8\ud1a0\ubca0\uc4f0", "operator": "\u9053\u5357\u3044\u3055\u308a\u3073\u9244\u9053", "public_transport": "station", "railway": "station", "website": "https://www.shr-isaribi.jp/route/oshima-tobetsu/", "wikidata": "Q5360706", "wikipedia": "ja:\u6e21\u5cf6\u5f53\u5225\u99c5"}}, {"type": "node", "id": 8205978963, "lat": 41.7661441, "lon": 140.6009079, "tags": {"addr:block_number": "6", "addr:city": "\u5317\u6597\u5e02", "addr:neighbourhood": "2\u4e01\u76ee", "addr:postcode": "049-0281", "addr:province": "\u5317\u6d77\u9053", "addr:quarter": "\u8302\u8fba\u5730", "name": "\u8302\u8fba\u5730", "name:en": "Moheji", "name:ja": "\u8302\u8fba\u5730", "name:ja_rm": "Moheji", "name:ko": "\ubaa8\ud5e4\uc9c0", "operator": "\u9053\u5357\u3044\u3055\u308a\u3073\u9244\u9053", "public_transport": "station", "railway": "station", "source": "KSJ2", "website": "https://www.shr-isaribi.jp/route/moheji/", "wikidata": "Q5360801", "wikipedia": "ja:\u8302\u8fba\u5730\u99c5"}}, {"type": "node", "id": 8206074563, "lat": 41.7737872, "lon": 140.7261884, "tags": {"KSJ2:LIN": "\u51fd\u9928\u7dda", "KSJ2:STN": "\u51fd\u9928", "addr:block_number": "12", "addr:city": "\u51fd\u9928\u5e02", "addr:province": "\u5317\u6d77\u9053", "addr:quarter": "\u82e5\u677e\u753a", "mapillary": "652243535953702", "name": "\u51fd\u9928", "name:en": "Hakodate", "name:fr": "Hakodate", "name:ja": "\u51fd\u9928", "name:ko": "\ud558\ucf54\ub2e4\ud14c", "note": "National-Land Numerical Information (Railway) 2007, MLIT Japan", "note:ja": "\u56fd\u571f\u6570\u5024\u60c5\u5831\uff08\u9244\u9053\u30c7\u30fc\u30bf\uff09\u5e73\u621019\u5e74\u3000\u56fd\u571f\u4ea4\u901a\u7701", "operator": "\u5317\u6d77\u9053\u65c5\u5ba2\u9244\u9053", "operator:en": "Hokkaido Railway Company", "public_transport": "station", "railway": "station", "ref": "H75", "source": "KSJ2", "source_ref": "http://nlftp.mlit.go.jp/ksj/jpgis/datalist/KsjTmplt-N02-v1_1.html", "website": "https://www.jrhokkaido.co.jp/network/station/station.html#104", "wheelchair": "yes", "wikidata": "Q1151274", "wikipedia": "ja:\u51fd\u9928\u99c5"}}, {"type": "node", "id": 8209109581, "lat": 41.8260168, "lon": 140.6802736, "tags": {"addr:block_number": "18", "addr:city": "\u5317\u6597\u5e02", "addr:housenumber": "\uff16", "addr:neighbourhood": "1\u4e01\u76ee", "addr:postcode": "049-0121", "addr:province": "\u5317\u6d77\u9053", "addr:quarter": "\u4e45\u6839\u5225", "name": "\u6771\u4e45\u6839\u5225", "name:en": "Higashi-Kunebetsu", "name:ja": "\u6771\u4e45\u6839\u5225", "name:ja_rm": "Higashi-Kunebetsu", "name:ko": "\ud788\uac00\uc2dc\ucfe0\ub124\ubca0\uc4f0", "opening_hours": "07:00-20:00", "operator": "\u9053\u5357\u3044\u3055\u308a\u3073\u9244\u9053", "public_transport": "station", "railway": "station", "source": "KSJ2", "website": "https://www.shr-isaribi.jp/route/higashi-kunebetsu/", "wheelchair": "no", "wikidata": "Q5361747", "wikipedia": "ja:\u6771\u4e45\u6839\u5225\u99c5"}}, {"type": "node", "id": 8209157120, "lat": 41.8246546, "lon": 140.6533094, "tags": {"addr:block_number": "3", "addr:city": "\u5317\u6597\u5e02", "addr:housenumber": "13", "addr:neighbourhood": "1\u4e01\u76ee", "addr:postcode": "049-0162", "addr:province": "\u5317\u6d77\u9053", "addr:quarter": "\u4e2d\u592e", "name": "\u6e05\u5ddd\u53e3", "name:en": "Kiyokawaguchi", "name:ja": "\u6e05\u5ddd\u53e3", "name:ja_kana": "\u304d\u3088\u304b\u308f\u3050\u3061", "name:ja_rm": "Kiyokawaguchi", "name:ko": "\uae30\uc694\uce74\uc640\uad6c\uce58", "opening_hours": "06:00-22:00", "operator": "\u9053\u5357\u3044\u3055\u308a\u3073\u9244\u9053", "public_transport": "station", "railway": "station", "source": "KSJ2", "website": "https://www.shr-isaribi.jp/route/kiyokawaguchi/", "wikidata": "Q5360714", "wikipedia": "ja:\u6e05\u5ddd\u53e3\u99c5"}}, {"type": "node", "id": 8209507393, "lat": 41.712085, "lon": 140.5369914, "tags": {"addr:city": "\u6728\u53e4\u5185\u753a", "addr:county": "\u4e0a\u78ef\u90e1", "addr:postcode": "049-0403", "addr:province": "\u5317\u6d77\u9053", "addr:quarter": "\u91dc\u8c37", "mapillary": "816485978979959", "name": "\u91dc\u8c37", "name:en": "Kamaya", "name:ja": "\u91dc\u8c37", "name:ja-Hira": "\u304b\u307e\u3084", "name:ko": "\uac00\ub9c8\uc57c", "operator": "\u9053\u5357\u3044\u3055\u308a\u3073\u9244\u9053", "public_transport": "station", "railway": "station", "website": "https://www.shr-isaribi.jp/route/kamaya/", "wikidata": "Q5360843", "wikipedia": "ja:\u91dc\u8c37\u99c5"}}, {"type": "node", "id": 8403376250, "lat": 41.9046814, "lon": 140.6485358, "tags": {"name": "\u65b0\u51fd\u9928\u5317\u6597", "name:de": "Shin-Hakodate-Hokuto", "name:en": "Shin-Hakodate-Hokuto", "name:ja": "\u65b0\u51fd\u9928\u5317\u6597", "name:ko": "\uc2e0\ud558\ucf54\ub2e4\ud14c\ud638\ucfe0\ud1a0", "public_transport": "station", "railway": "station", "source": "KSJ2", "wikidata": "Q1039122", "wikipedia": "ja:\u65b0\u51fd\u9928\u5317\u6597\u99c5"}}, {"type": "node", "id": 8404964879, "lat": 41.98085, "lon": 140.6700799, "tags": {"KSJ2:LIN": "\u51fd\u9928\u7dda", "KSJ2:STN": "\u5927\u6cbc\u516c\u5712", "name": "\u5927\u6cbc\u516c\u5712", "name:de": "\u014cnuma-K\u014den", "name:en": "\u014cnuma-K\u014den", "name:ja": "\u5927\u6cbc\u516c\u5712", "name:ko": "\uc624\ub204\ub9c8\ucf54\uc5d4", "name:zh": "\u5927\u6cbc\u570b\u5b9a\u516c\u5712", "note": "National-Land Numerical Information (Railway) 2007, MLIT Japan", "note:ja": "\u56fd\u571f\u6570\u5024\u60c5\u5831\uff08\u9244\u9053\u30c7\u30fc\u30bf\uff09\u5e73\u621019\u5e74\u3000\u56fd\u571f\u4ea4\u901a\u7701", "operator": "\u5317\u6d77\u9053\u65c5\u5ba2\u9244\u9053", "operator:en": "Hokkaido Railway Company", "railway": "station", "source": "KSJ2", "source_ref": "http://nlftp.mlit.go.jp/ksj/jpgis/datalist/KsjTmplt-N02-v1_1.html", "wikidata": "Q1049391", "wikipedia": "ja:\u5927\u6cbc\u516c\u5712\u99c5"}}, {"type": "node", "id": 8405048818, "lat": 42.1090004, "lon": 140.5733896, "tags": {"KSJ2:LIN": "\u51fd\u9928\u7dda", "KSJ2:STN": "\u68ee", "name": "\u68ee", "name:de": "Mori", "name:en": "Mori", "name:ja": "\u68ee", "name:ja-Hira": "\u3082\u308a", "name:ko": "\ubaa8\ub9ac", "note": "National-Land Numerical Information (Railway) 2007, MLIT Japan", "note:ja": "\u56fd\u571f\u6570\u5024\u60c5\u5831\uff08\u9244\u9053\u30c7\u30fc\u30bf\uff09\u5e73\u621019\u5e74\u3000\u56fd\u571f\u4ea4\u901a\u7701", "operator": "\u5317\u6d77\u9053\u65c5\u5ba2\u9244\u9053", "operator:en": "Hokkaido Railway Company", "public_transport": "station", "railway": "station", "source": "KSJ2", "source_ref": "http://nlftp.mlit.go.jp/ksj/jpgis/datalist/KsjTmplt-N02-v1_1.html", "toilets:wheelchair": "no", "wheelchair": "limited", "wikidata": "Q864405", "wikipedia": "ja:\u68ee\u99c5 (\u5317\u6d77\u9053)"}}, {"type": "node", "id": 10560686937, "lat": 41.9049177, "lon": 140.6486395, "tags": {"name": "\u65b0\u51fd\u9928\u5317\u6597", "name:de": "Shin-Hakodate-Hokuto", "name:en": "Shin-Hakodate-Hokuto", "name:ja": "\u65b0\u51fd\u9928\u5317\u6597", "name:ko": "\uc2e0\ud558\ucf54\ub2e4\ud14c\ud638\ucfe0\ud1a0", "old_name": "\u6e21\u5cf6\u5927\u91ce", "old_name:en": "Oshima-\u014cno", "public_transport": "station", "railway": "station", "wikidata": "Q1039122", "wikipedia": "ja:\u65b0\u51fd\u9928\u5317\u6597\u99c5"}}, {"type": "node", "id": 11063575378, "lat": 41.8468539, "lon": 140.7228054, "tags": {"name": "\u6854\u6897", "name:en": "Kiky\u014d", "name:ja": "\u6854\u6897", "name:ko": "\uae30\ucfc4", "operator:en": "Hokkaido Railway Company", "public_transport": "station", "railway": "station", "wikidata": "Q1049285", "wikipedia": "ja:\u6854\u6897\u99c5"}}, {"type": "node", "id": 11063575389, "lat": 41.8876533, "lon": 140.6880105, "tags": {"name": "\u4e03\u98ef", "name:en": "Nanae", "name:ja": "\u4e03\u98ef", "name:ja-Hira": "\u306a\u306a\u3048", "name:ja-Latn": "Nanae", "name:ko": "\ub098\ub098\uc5d0", "public_transport": "station", "railway": "station", "wikidata": "Q1049300", "wikipedia": "ja:\u4e03\u98ef\u99c5"}}, {"type": "node", "id": 11063575392, "lat": 41.8645762, "lon": 140.7136618, "tags": {"name": "\u5927\u4e2d\u5c71", "name:en": "\u014cnakayama", "name:ja": "\u5927\u4e2d\u5c71", "name:ko": "\uc624\ub098\uce74\uc57c\ub9c8", "public_transport": "station", "railway": "station", "wikidata": "Q1049379", "wikipedia": "ja:\u5927\u4e2d\u5c71\u99c5"}}, {"type": "node", "id": 11796044377, "lat": 41.9722509, "lon": 140.6693141, "tags": {"KSJ2:LIN": "\u51fd\u9928\u7dda", "KSJ2:STN": "\u5927\u6cbc", "name": "\u5927\u6cbc", "name:en": "\u014cnuma", "name:ja": "\u5927\u6cbc", "name:ko": "\uc624\ub204\ub9c8", "note": "National-Land Numerical Information (Railway) 2007, MLIT Japan", "note:ja": "\u56fd\u571f\u6570\u5024\u60c5\u5831\uff08\u9244\u9053\u30c7\u30fc\u30bf\uff09\u5e73\u621019\u5e74\u3000\u56fd\u571f\u4ea4\u901a\u7701", "public_transport": "station", "railway": "station", "source": "KSJ2", "source_ref": "http://nlftp.mlit.go.jp/ksj/jpgis/datalist/KsjTmplt-N02-v1_1.html", "wikidata": "Q1049310", "wikipedia": "ja:\u5927\u6cbc\u99c5"}}]}