{"version": 0.6, "generator": "Overpass API 0.7.62.4 2390de5a", "osm3s": {"timestamp_osm_base": "2024-12-30T14:55:03Z", "copyright": "The data included in this document is from www.openstreetmap.org. The data is made available under ODbL."}, "elements": [{"type": "node", "id": 264457629, "lat": 36.1538195, "lon": 136.2065032, "tags": {"light_rail": "yes", "name": "\u897f\u9577\u7530\u3086\u308a\u306e\u91cc", "name:en": "Nishinagata-Yurinosato", "name:ja": "\u897f\u9577\u7530\u3086\u308a\u306e\u91cc", "name:ja-Hira": "\u306b\u3057\u306a\u304c\u305f\u3086\u308a\u306e\u3055\u3068", "name:ko": "\ub2c8\uc2dc\ub098\uac00\ud0c0", "public_transport": "station", "railway": "station", "ref": "E35", "wikidata": "Q7040381", "wikipedia": "ja:\u897f\u9577\u7530\u3086\u308a\u306e\u91cc\u99c5"}}, {"type": "node", "id": 264457633, "lat": 36.1206712, "lon": 136.2048999, "tags": {"light_rail": "yes", "name": "\u9df2\u585a\u91dd\u539f", "name:en": "Washizuka-Haribara", "name:ja": "\u9df2\u585a\u91dd\u539f", "name:ja-Hira": "\u308f\u3057\u3065\u304b\u306f\u308a\u3070\u3089", "name:ko": "\uc640\uc2dc\uc988\uce74\ud558\ub9ac\ubc14\ub77c", "public_transport": "station", "railway": "station", "source": "KSJ2", "station": "light_rail", "train": "yes", "wikidata": "Q7972612", "wikipedia": "ja:\u9df2\u585a\u91dd\u539f\u99c5"}}, {"type": "node", "id": 264457651, "lat": 36.2148339, "lon": 136.1580565, "tags": {"alt_name:ko": "\ubbf8\ucfe0\ub2c8\uc9c4\uc790", "name": "\u4e09\u56fd\u795e\u793e", "name:en": "Mikuni-Jinja", "name:ja": "\u4e09\u56fd\u795e\u793e", "name:ko": "\ubbf8\ucfe0\ub2c8\uc2e0\uc0ac", "public_transport": "station", "railway": "station", "ref": "E42", "source": "KSJ2", "train": "yes", "wikidata": "Q6850276", "wikipedia": "ja:\u4e09\u56fd\u795e\u793e\u99c5"}}, {"type": "node", "id": 264457741, "lat": 36.0752259, "lon": 136.2227161, "tags": {"name": "\u897f\u5225\u9662", "name:en": "Nishi-Betsuin", "name:ja": "\u897f\u5225\u9662", "name:ko": "\ub2c8\uc2dc\ubca0\uc4f0\uc778", "public_transport": "station", "railway": "station", "source": "KSJ2", "wikidata": "Q7040312", "wikipedia": "ja:\u897f\u5225\u9662\u99c5"}}, {"type": "node", "id": 264457761, "lat": 36.1013999, "lon": 136.2045105, "tags": {"name": "\u4e2d\u89d2", "name:en": "Nakatsuno", "name:ja": "\u4e2d\u89d2", "name:ja-Hira": "\u306a\u304b\u3064\u306e", "name:ko": "\ub098\uce74\uc4f0\ub178", "public_transport": "station", "railway": "station", "ref": "E31", "source": "KSJ2", "wikidata": "Q6960361", "wikipedia": "ja:\u4e2d\u89d2\u99c5"}}, {"type": "node", "id": 264457767, "lat": 36.0923432, "lon": 136.2054239, "tags": {"light_rail": "yes", "name": "\u65b0\u7530\u585a", "name:en": "Nittazuka", "name:ja": "\u65b0\u7530\u585a", "name:ja-Hira": "\u306b\u3063\u305f\u3065\u304b", "name:ko": "\ub2db\ud0c0\uc988\uce74", "public_transport": "station", "railway": "station", "ref": "E30", "source": "KSJ2", "station": "light_rail", "wikidata": "Q7041560", "wikipedia": "ja:\u65b0\u7530\u585a\u99c5"}}, {"type": "node", "id": 264457777, "lat": 36.217131, "lon": 136.1495747, "tags": {"name": "\u4e09\u56fd", "name:en": "Mikuni", "name:ja": "\u4e09\u56fd", "name:ko": "\ubbf8\ucfe0\ub2c8", "public_transport": "station", "railway": "station", "ref": "E43", "source": "KSJ2", "train": "yes", "wikidata": "Q6850282", "wikipedia": "ja:\u4e09\u56fd\u99c5 (\u798f\u4e95\u770c)"}}, {"type": "node", "id": 264457781, "lat": 36.2124196, "lon": 136.2024226, "tags": {"name": "\u756a\u7530", "name:en": "Banden", "name:ja": "\u756a\u7530", "name:ja-Hira": "\u3070\u3093\u3067\u3093", "name:ja-Latn": "Banden", "name:ko": "\ubc18\ub374", "public_transport": "station", "railway": "station", "ref": "E39", "source": "KSJ2", "wikidata": "Q4854517", "wikipedia": "ja:\u756a\u7530\u99c5 (\u798f\u4e95\u770c)"}}, {"type": "node", "id": 264457837, "lat": 36.1313034, "lon": 136.2057006, "tags": {"name": "\u592a\u90ce\u4e38\u30a8\u30f3\u30bc\u30eb\u30e9\u30f3\u30c9", "name:en": "Taromaru Angelland", "name:ja": "\u592a\u90ce\u4e38\u30a8\u30f3\u30bc\u30eb\u30e9\u30f3\u30c9", "name:ja-Hira": "\u305f\u308d\u3046\u307e\u308b\u3048\u3093\u305c\u308b\u3089\u3093\u3069", "name:ko": "\ub2e4\ub85c\ub9c8\ub8e8", "public_transport": "station", "railway": "station", "ref": "E33", "wikidata": "Q7687069", "wikipedia": "ja:\u592a\u90ce\u4e38\u30a8\u30f3\u30bc\u30eb\u30e9\u30f3\u30c9\u99c5"}}, {"type": "node", "id": 264457860, "lat": 36.2049767, "lon": 136.2030539, "tags": {"name": "\u672c\u8358", "name:en": "Honjyo", "name:ja": "\u672c\u8358", "name:ja-Hira": "\u307b\u3093\u3058\u3087\u3046", "name:ja-Latn": "Honj\u014d", "name:ko": "\ud63c\uc870", "public_transport": "station", "railway": "station", "ref": "E38", "source": "KSJ2", "wikidata": "Q1027848", "wikipedia": "ja:\u672c\u8358\u99c5"}}, {"type": "node", "id": 264457866, "lat": 36.22306, "lon": 136.1936755, "tags": {"name": "\u3042\u308f\u3089\u6e6f\u306e\u307e\u3061", "name:en": "Awara-Yunomachi", "name:ja": "\u3042\u308f\u3089\u6e6f\u306e\u307e\u3061", "name:ja-Hira": "\u3042\u308f\u3089\u3086\u306e\u307e\u3061", "name:ja-Latn": "Awara-Yunomachi", "name:ko": "\uc544\uc640\ub77c\uc720\ub178\ub9c8\uce58", "old_name:1911-1972": "\u82a6\u539f", "old_name:1972-2003": "\u82a6\u539f\u6e6f\u753a", "public_transport": "station", "railway": "station", "ref": "E40", "source": "KSJ2", "wikidata": "Q4829818", "wikipedia": "ja:\u3042\u308f\u3089\u6e6f\u306e\u307e\u3061\u99c5"}}, {"type": "node", "id": 264457867, "lat": 36.1868248, "lon": 136.2038163, "tags": {"name": "\u5927\u95a2", "name:en": "Ozeki", "name:ja": "\u5927\u95a2", "name:ja-Hira": "\u304a\u304a\u305c\u304d", "name:ja-Latn": "\u014czeki", "name:ko": "\uc624\uc81c\ud0a4", "public_transport": "station", "railway": "station", "ref": "E37", "source": "KSJ2", "wikidata": "Q8081820", "wikipedia": "ja:\u5927\u95a2\u99c5"}}, {"type": "node", "id": 264457925, "lat": 36.2191018, "lon": 136.1719061, "tags": {"name": "\u6c34\u5c45", "name:en": "Mizui", "name:ja": "\u6c34\u5c45", "name:ko": "\ubbf8\uc988\uc774", "public_transport": "station", "railway": "station", "ref": "E41", "source": "KSJ2", "train": "yes", "wikidata": "Q6884809", "wikipedia": "ja:\u6c34\u5c45\u99c5"}}, {"type": "node", "id": 264457935, "lat": 36.1701167, "lon": 136.2025396, "tags": {"name": "\u4e0b\u5175\u5eab\u3053\u3046\u3075\u304f", "name:en": "Shimohyogo-Kofuku", "name:ja": "\u4e0b\u5175\u5eab\u3053\u3046\u3075\u304f", "name:ja-Hira": "\u3057\u3082\u3072\u3087\u3046\u3054\u3053\u3046\u3075\u304f", "name:ko": "\uc2dc\ubaa8\ud6a8\uace0", "public_transport": "station", "railway": "station", "ref": "E36", "wikidata": "Q7496919", "wikipedia": "ja:\u4e0b\u5175\u5eab\u3053\u3046\u3075\u304f\u99c5"}}, {"type": "node", "id": 264457970, "lat": 36.0863414, "lon": 136.2060103, "tags": {"light_rail": "yes", "name": "\u516b\u30c4\u5cf6", "name:en": "Yatsushima", "name:ja": "\u516b\u30c4\u5cf6", "name:ja-Hira": "\u3084\u3064\u3057\u307e", "operator": "\u3048\u3061\u305c\u3093\u9244\u9053", "public_transport": "station", "railway": "station", "ref": "E29", "source": "KSJ2", "station": "light_rail", "wikidata": "Q8050281", "wikipedia": "ja:\u516b\u30c4\u5cf6\u99c5"}}, {"type": "node", "id": 264458454, "lat": 36.0979842, "lon": 136.3112661, "tags": {"KSJ2:LIN": "\u52dd\u5c71\u6c38\u5e73\u5bfa\u7dda", "name": "\u5fd7\u6bd4\u583a", "name:en": "Shiizakai", "name:ja": "\u5fd7\u6bd4\u583a", "name:ko": "\uc2dc\uc774\uc790\uce74\uc774", "note": "National-Land Numerical Information (Railway) 2007, MLIT Japan", "note:ja": "\u56fd\u571f\u6570\u5024\u60c5\u5831\uff08\u9244\u9053\u30c7\u30fc\u30bf\uff09\u5e73\u621019\u5e74\u3000\u56fd\u571f\u4ea4\u901a\u7701", "public_transport": "station", "railway": "station", "source": "KSJ2", "source_ref": "http://nlftp.mlit.go.jp/ksj/jpgis/datalist/KsjTmplt-N02-v1_1.html", "wikidata": "Q7496501", "wikipedia": "ja:\u5fd7\u6bd4\u583a\u99c5"}}, {"type": "node", "id": 264458482, "lat": 36.0803809, "lon": 136.2511027, "tags": {"name": "\u8d8a\u524d\u65b0\u4fdd", "name:en": "Echizen-Shinbo", "name:ja": "\u8d8a\u524d\u65b0\u4fdd", "name:ko": "\uc774\uce58\uc820\uc2e0\ubcf4", "public_transport": "station", "railway": "station", "source": "KSJ2", "wikidata": "Q5332621", "wikipedia": "ja:\u8d8a\u524d\u65b0\u4fdd\u99c5"}}, {"type": "node", "id": 264458485, "lat": 36.08268, "lon": 136.261708, "tags": {"name": "\u8ffd\u5206\u53e3", "name:en": "Oiwakeguchi", "name:ja": "\u8ffd\u5206\u53e3", "name:ko": "\uc624\uc774\uc640\ucf00\uad6c\uce58", "public_transport": "station", "railway": "station", "source": "KSJ2", "wikidata": "Q7081574", "wikipedia": "ja:\u8ffd\u5206\u53e3\u99c5"}}, {"type": "node", "id": 264458516, "lat": 36.0907156, "lon": 136.3362477, "tags": {"KSJ2:LIN": "\u52dd\u5c71\u6c38\u5e73\u5bfa\u7dda", "name": "\u4e0b\u5fd7\u6bd4", "name:en": "Shimoshii", "name:ja": "\u4e0b\u5fd7\u6bd4", "name:ko": "\uc2dc\ubaa8\uc2dc\uc774", "note": "National-Land Numerical Information (Railway) 2007, MLIT Japan", "note:ja": "\u56fd\u571f\u6570\u5024\u60c5\u5831\uff08\u9244\u9053\u30c7\u30fc\u30bf\uff09\u5e73\u621019\u5e74\u3000\u56fd\u571f\u4ea4\u901a\u7701", "public_transport": "station", "railway": "station", "source": "KSJ2", "source_ref": "http://nlftp.mlit.go.jp/ksj/jpgis/datalist/KsjTmplt-N02-v1_1.html", "wikidata": "Q7497012", "wikipedia": "ja:\u4e0b\u5fd7\u6bd4\u99c5"}}, {"type": "node", "id": 264458526, "lat": 36.0885598, "lon": 136.3442476, "tags": {"KSJ2:LIN": "\u52dd\u5c71\u6c38\u5e73\u5bfa\u7dda", "name": "\u5149\u660e\u5bfa", "name:en": "K\u014dmy\u014dji", "name:ja": "\u5149\u660e\u5bfa", "name:ja-Hira": "\u3053\u3046\u307f\u3087\u3046\u3058", "name:ko": "\uace0\ubb18\uc9c0", "note": "National-Land Numerical Information (Railway) 2007, MLIT Japan", "note:ja": "\u56fd\u571f\u6570\u5024\u60c5\u5831\uff08\u9244\u9053\u30c7\u30fc\u30bf\uff09\u5e73\u621019\u5e74\u3000\u56fd\u571f\u4ea4\u901a\u7701", "public_transport": "station", "railway": "station", "source": "KSJ2", "source_ref": "http://nlftp.mlit.go.jp/ksj/jpgis/datalist/KsjTmplt-N02-v1_1.html", "wikidata": "Q6455218", "wikipedia": "ja:\u5149\u660e\u5bfa\u99c5"}}, {"type": "node", "id": 264458550, "lat": 36.0868404, "lon": 136.3609869, "tags": {"KSJ2:LIN": "\u52dd\u5c71\u6c38\u5e73\u5bfa\u7dda", "name": "\u8f5f", "name:en": "Domeki", "name:ja": "\u8f5f", "name:ko": "\ub3c4\uba54\ud0a4", "note": "National-Land Numerical Information (Railway) 2007, MLIT Japan", "note:ja": "\u56fd\u571f\u6570\u5024\u60c5\u5831\uff08\u9244\u9053\u30c7\u30fc\u30bf\uff09\u5e73\u621019\u5e74\u3000\u56fd\u571f\u4ea4\u901a\u7701", "public_transport": "station", "railway": "station", "source": "KSJ2", "source_ref": "http://nlftp.mlit.go.jp/ksj/jpgis/datalist/KsjTmplt-N02-v1_1.html", "wikidata": "Q5290030", "wikipedia": "ja:\u8f5f\u99c5"}}, {"type": "node", "id": 264458555, "lat": 36.075143, "lon": 136.240963, "tags": {"name": "\u8d8a\u524d\u958b\u767a", "name:en": "Echizen-Kaihotsu", "name:ja": "\u8d8a\u524d\u958b\u767a", "name:ko": "\uc774\uce58\uc820\uce74\uc774\ud638\uc4f0", "public_transport": "station", "railway": "station", "source": "KSJ2", "wikidata": "Q5332618", "wikipedia": "ja:\u8d8a\u524d\u958b\u767a\u99c5"}}, {"type": "node", "id": 264458631, "lat": 36.0958797, "lon": 136.3266649, "tags": {"KSJ2:LIN": "\u52dd\u5c71\u6c38\u5e73\u5bfa\u7dda", "name": "\u6c38\u5e73\u5bfa\u53e3", "name:en": "Eiheijiguchi", "name:ja": "\u6c38\u5e73\u5bfa\u53e3", "name:ko": "\uc5d0\uc774\ud5e4\uc774\uc9c0\uad6c\uce58", "note": "National-Land Numerical Information (Railway) 2007, MLIT Japan", "note:ja": "\u56fd\u571f\u6570\u5024\u60c5\u5831\uff08\u9244\u9053\u30c7\u30fc\u30bf\uff09\u5e73\u621019\u5e74\u3000\u56fd\u571f\u4ea4\u901a\u7701", "public_transport": "station", "railway": "station", "source": "KSJ2", "source_ref": "http://nlftp.mlit.go.jp/ksj/jpgis/datalist/KsjTmplt-N02-v1_1.html", "wikidata": "Q5349181", "wikipedia": "ja:\u6c38\u5e73\u5bfa\u53e3\u99c5"}}, {"type": "node", "id": 264458643, "lat": 36.0755223, "lon": 136.4340138, "tags": {"name": "\u5c0f\u821f\u6e21", "name:en": "Kobunato", "name:ja": "\u5c0f\u821f\u6e21", "name:ko": "\uace0\ubd80\ub098\ud1a0", "note": "National-Land Numerical Information (Railway) 2007, MLIT Japan", "note:ja": "\u56fd\u571f\u6570\u5024\u60c5\u5831\uff08\u9244\u9053\u30c7\u30fc\u30bf\uff09\u5e73\u621019\u5e74\u3000\u56fd\u571f\u4ea4\u901a\u7701", "public_transport": "station", "railway": "station", "source": "KSJ2", "source_ref": "http://nlftp.mlit.go.jp/ksj/jpgis/datalist/KsjTmplt-N02-v1_1.html", "wikidata": "Q6424516", "wikipedia": "ja:\u5c0f\u821f\u6e21\u99c5"}}, {"type": "node", "id": 264458709, "lat": 36.0939788, "lon": 136.3018447, "tags": {"KSJ2:LIN": "\u52dd\u5c71\u6c38\u5e73\u5bfa\u7dda", "KSJ2:STN": "\u677e\u5ca1", "name": "\u677e\u5ca1", "name:en": "Matsuoka", "name:ja": "\u677e\u5ca1", "name:ko": "\ub9c8\uc4f0\uc624\uce74", "note": "National-Land Numerical Information (Railway) 2007, MLIT Japan", "note:ja": "\u56fd\u571f\u6570\u5024\u60c5\u5831\uff08\u9244\u9053\u30c7\u30fc\u30bf\uff09\u5e73\u621019\u5e74\u3000\u56fd\u571f\u4ea4\u901a\u7701", "public_transport": "station", "railway": "station", "source": "KSJ2", "source_ref": "http://nlftp.mlit.go.jp/ksj/jpgis/datalist/KsjTmplt-N02-v1_1.html", "wikidata": "Q6788189", "wikipedia": "ja:\u677e\u5ca1\u99c5"}}, {"type": "node", "id": 264458788, "lat": 36.0726192, "lon": 136.4657594, "tags": {"name": "\u767a\u5742", "name:en": "Hossaka", "name:ja": "\u767a\u5742", "name:ko": "\ud64b\uc0ac\uce74", "note": "National-Land Numerical Information (Railway) 2007, MLIT Japan", "note:ja": "\u56fd\u571f\u6570\u5024\u60c5\u5831\uff08\u9244\u9053\u30c7\u30fc\u30bf\uff09\u5e73\u621019\u5e74\u3000\u56fd\u571f\u4ea4\u901a\u7701", "public_transport": "station", "railway": "station", "source": "KSJ2", "source_ref": "http://nlftp.mlit.go.jp/ksj/jpgis/datalist/KsjTmplt-N02-v1_1.html", "wikidata": "Q5908938", "wikipedia": "ja:\u767a\u5742\u99c5"}}, {"type": "node", "id": 264458809, "lat": 36.0829283, "lon": 136.3767745, "tags": {"KSJ2:LIN": "\u52dd\u5c71\u6c38\u5e73\u5bfa\u7dda", "name": "\u8d8a\u524d\u91ce\u4e2d", "name:en": "Echizen-Nonaka", "name:ja": "\u8d8a\u524d\u91ce\u4e2d", "name:ko": "\uc774\uce58\uc820\ub178\ub098\uce74", "note": "National-Land Numerical Information (Railway) 2007, MLIT Japan", "note:ja": "\u56fd\u571f\u6570\u5024\u60c5\u5831\uff08\u9244\u9053\u30c7\u30fc\u30bf\uff09\u5e73\u621019\u5e74\u3000\u56fd\u571f\u4ea4\u901a\u7701", "public_transport": "station", "railway": "station", "source": "KSJ2", "source_ref": "http://nlftp.mlit.go.jp/ksj/jpgis/datalist/KsjTmplt-N02-v1_1.html", "wikidata": "Q5332619", "wikipedia": "ja:\u8d8a\u524d\u91ce\u4e2d\u99c5"}}, {"type": "node", "id": 264458958, "lat": 36.0917593, "lon": 136.2900808, "tags": {"KSJ2:LIN": "\u52dd\u5c71\u6c38\u5e73\u5bfa\u7dda", "name": "\u89b3\u97f3\u753a", "name:en": "Kannonmachi", "name:ja": "\u89b3\u97f3\u753a", "name:ko": "\uac04\ub17c\ub9c8\uce58", "note": "National-Land Numerical Information (Railway) 2007, MLIT Japan", "note:ja": "\u56fd\u571f\u6570\u5024\u60c5\u5831\uff08\u9244\u9053\u30c7\u30fc\u30bf\uff09\u5e73\u621019\u5e74\u3000\u56fd\u571f\u4ea4\u901a\u7701", "public_transport": "station", "railway": "station", "source": "KSJ2", "source_ref": "http://nlftp.mlit.go.jp/ksj/jpgis/datalist/KsjTmplt-N02-v1_1.html", "wikidata": "Q11630658", "wikipedia": "ja:\u89b3\u97f3\u753a\u99c5"}}, {"type": "node", "id": 264458968, "lat": 36.0900612, "lon": 136.2771814, "tags": {"KSJ2:LIN": "\u52dd\u5c71\u6c38\u5e73\u5bfa\u7dda", "name": "\u8d8a\u524d\u5cf6\u6a4b", "name:en": "Echizen-Shimabashi", "name:ja": "\u8d8a\u524d\u5cf6\u6a4b", "name:ko": "\uc774\uce58\uc820\uc2dc\ub9c8\ubc14\uc2dc", "note": "National-Land Numerical Information (Railway) 2007, MLIT Japan", "note:ja": "\u56fd\u571f\u6570\u5024\u60c5\u5831\uff08\u9244\u9053\u30c7\u30fc\u30bf\uff09\u5e73\u621019\u5e74\u3000\u56fd\u571f\u4ea4\u901a\u7701", "public_transport": "station", "railway": "station", "source": "KSJ2", "source_ref": "http://nlftp.mlit.go.jp/ksj/jpgis/datalist/KsjTmplt-N02-v1_1.html", "wikidata": "Q5332620", "wikipedia": "ja:\u8d8a\u524d\u5cf6\u6a4b\u99c5"}}, {"type": "node", "id": 264458987, "lat": 36.0792111, "lon": 136.3924928, "tags": {"KSJ2:LIN": "\u52dd\u5c71\u6c38\u5e73\u5bfa\u7dda", "name": "\u5c71\u738b", "name:en": "Sann\u014d", "name:ja": "\u5c71\u738b", "name:ko": "\uc0b0\ub178", "note": "National-Land Numerical Information (Railway) 2007, MLIT Japan", "note:ja": "\u56fd\u571f\u6570\u5024\u60c5\u5831\uff08\u9244\u9053\u30c7\u30fc\u30bf\uff09\u5e73\u621019\u5e74\u3000\u56fd\u571f\u4ea4\u901a\u7701", "public_transport": "station", "railway": "station", "source": "KSJ2", "source_ref": "http://nlftp.mlit.go.jp/ksj/jpgis/datalist/KsjTmplt-N02-v1_1.html", "wikidata": "Q7418868", "wikipedia": "ja:\u5c71\u738b\u99c5 (\u798f\u4e95\u770c)"}}, {"type": "node", "id": 264458989, "lat": 36.0866145, "lon": 136.2698858, "tags": {"KSJ2:LIN": "\u52dd\u5c71\u6c38\u5e73\u5bfa\u7dda", "name": "\u6771\u85e4\u5cf6", "name:en": "Higashi-Fujishima", "name:ja": "\u6771\u85e4\u5cf6", "name:ko": "\ud788\uac00\uc2dc\ud6c4\uc9c0\uc2dc\ub9c8", "note": "National-Land Numerical Information (Railway) 2007, MLIT Japan", "note:ja": "\u56fd\u571f\u6570\u5024\u60c5\u5831\uff08\u9244\u9053\u30c7\u30fc\u30bf\uff09\u5e73\u621019\u5e74\u3000\u56fd\u571f\u4ea4\u901a\u7701", "public_transport": "station", "railway": "station", "source": "KSJ2", "source_ref": "http://nlftp.mlit.go.jp/ksj/jpgis/datalist/KsjTmplt-N02-v1_1.html", "wikidata": "Q5753494", "wikipedia": "ja:\u6771\u85e4\u5cf6\u99c5"}}, {"type": "node", "id": 264459036, "lat": 36.0741138, "lon": 136.4130339, "tags": {"KSJ2:LIN": "\u52dd\u5c71\u6c38\u5e73\u5bfa\u7dda", "name": "\u8d8a\u524d\u7af9\u539f", "name:en": "Echizen-Takehara", "name:ja": "\u8d8a\u524d\u7af9\u539f", "name:ko": "\uc774\uce58\uc820\ud0c0\ucf00\ud558\ub77c", "note": "National-Land Numerical Information (Railway) 2007, MLIT Japan", "note:ja": "\u56fd\u571f\u6570\u5024\u60c5\u5831\uff08\u9244\u9053\u30c7\u30fc\u30bf\uff09\u5e73\u621019\u5e74\u3000\u56fd\u571f\u4ea4\u901a\u7701", "public_transport": "station", "railway": "station", "source": "KSJ2", "source_ref": "http://nlftp.mlit.go.jp/ksj/jpgis/datalist/KsjTmplt-N02-v1_1.html", "wikidata": "Q5332624", "wikipedia": "ja:\u8d8a\u524d\u7af9\u539f\u99c5"}}, {"type": "node", "id": 264459080, "lat": 36.0698779, "lon": 136.4515005, "tags": {"name": "\u4fdd\u7530", "name:en": "Hota", "name:ja": "\u4fdd\u7530", "name:ko": "\ud638\ud0c0", "note": "National-Land Numerical Information (Railway) 2007, MLIT Japan", "note:ja": "\u56fd\u571f\u6570\u5024\u60c5\u5831\uff08\u9244\u9053\u30c7\u30fc\u30bf\uff09\u5e73\u621019\u5e74\u3000\u56fd\u571f\u4ea4\u901a\u7701", "public_transport": "station", "railway": "station", "source": "KSJ2", "source_ref": "http://nlftp.mlit.go.jp/ksj/jpgis/datalist/KsjTmplt-N02-v1_1.html", "wikidata": "Q5910923", "wikipedia": "ja:\u4fdd\u7530\u99c5 (\u798f\u4e95\u770c)"}}, {"type": "node", "id": 264459082, "lat": 36.0649526, "lon": 136.2268999, "tags": {"name": "\u65b0\u798f\u4e95", "name:en": "Shin-Fukui", "name:ja": "\u65b0\u798f\u4e95", "name:ko": "\uc2e0\ud6c4\ucfe0\uc774", "public_transport": "station", "railway": "station", "source": "KSJ2", "wikidata": "Q7497086", "wikipedia": "ja:\u65b0\u798f\u4e95\u99c5"}}, {"type": "node", "id": 264459111, "lat": 36.0659763, "lon": 136.4840708, "tags": {"name": "\u6bd4\u5cf6", "name:en": "Hishima", "name:ja": "\u6bd4\u5cf6", "name:ko": "\ud788\uc2dc\ub9c8", "note": "National-Land Numerical Information (Railway) 2007, MLIT Japan", "note:ja": "\u56fd\u571f\u6570\u5024\u60c5\u5831\uff08\u9244\u9053\u30c7\u30fc\u30bf\uff09\u5e73\u621019\u5e74\u3000\u56fd\u571f\u4ea4\u901a\u7701", "public_transport": "station", "railway": "station", "source": "KSJ2", "source_ref": "http://nlftp.mlit.go.jp/ksj/jpgis/datalist/KsjTmplt-N02-v1_1.html", "wikidata": "Q8190738", "wikipedia": "ja:\u6bd4\u5cf6\u99c5"}}, {"type": "node", "id": 267306933, "lat": 36.0387228, "lon": 136.2180525, "tags": {"name": "\u8d8a\u524d\u82b1\u5802", "name:ja": "\u8d8a\u524d\u82b1\u5802", "name:ko": "\uc5d0\uce58\uc820\ud558\ub09c\ub3c4", "note": "National-Land Numerical Information (Railway) 2007, MLIT Japan", "railway": "station", "source": "KSJ2", "wikidata": "Q898457", "wikipedia": "ja:\u8d8a\u524d\u82b1\u5802\u99c5"}}, {"type": "node", "id": 267307472, "lat": 36.1096441, "lon": 136.2226333, "tags": {"name": "\u68ee\u7530", "name:en": "Morita", "name:ja": "\u68ee\u7530", "name:ko": "\ubaa8\ub9ac\ud0c0", "note": "National-Land Numerical Information (Railway) 2007, MLIT Japan", "railway": "station", "source": "KSJ2", "wikidata": "Q5359882", "wikipedia": "ja:\u68ee\u7530\u99c5"}}, {"type": "node", "id": 267307813, "lat": 35.9717597, "lon": 136.1984943, "tags": {"name": "\u5317\u9bd6\u6c5f", "name:en": "Kita-Sabae", "name:ja": "\u5317\u9bd6\u6c5f", "name:ja_kana": "\u304d\u305f\u3055\u3070\u3048", "name:ja_rm": "Kita-Sabae", "name:ko": "\uae30\ud0c0\uc0ac\ubc14\uc5d0", "note": "National-Land Numerical Information (Railway) 2007, MLIT Japan", "railway": "station", "source": "KSJ2", "wikidata": "Q5359902", "wikipedia": "ja:\u5317\u9bd6\u6c5f\u99c5"}}, {"type": "node", "id": 267308141, "lat": 36.2587248, "lon": 136.2814036, "tags": {"name": "\u725b\u30ce\u8c37", "name:en": "Ushinoya", "name:ja": "\u725b\u30ce\u8c37", "name:ko": "\uc6b0\uc2dc\ub178\uc57c", "note": "National-Land Numerical Information (Railway) 2007, MLIT Japan", "railway": "station", "source": "KSJ2", "wikidata": "Q5359834", "wikipedia": "ja:\u725b\u30ce\u8c37\u99c5"}}, {"type": "node", "id": 267308354, "lat": 36.0100795, "lon": 136.2164472, "tags": {"name": "\u5927\u571f\u5442", "name:en": "Odoro", "name:ja": "\u5927\u571f\u5442", "name:ko": "\uc624\ub3c4\ub85c", "note": "National-Land Numerical Information (Railway) 2007, MLIT Japan", "railway": "station", "source": "KSJ2", "wikidata": "Q5359873", "wikipedia": "ja:\u5927\u571f\u5442\u99c5"}}, {"type": "node", "id": 267308895, "lat": 35.8321987, "lon": 136.1930839, "tags": {"name": "\u5357\u6761", "name:en": "Nanjo", "name:ja": "\u5357\u6761", "name:ja_kana": "\u306a\u3093\u3058\u3087\u3046", "name:ja_rm": "Nanj\u014d", "name:ko": "\ub09c\uc870", "note": "National-Land Numerical Information (Railway) 2007, MLIT Japan", "railway": "station", "source": "KSJ2", "wikidata": "Q5360318", "wikipedia": "ja:\u5357\u6761\u99c5"}}, {"type": "node", "id": 267448890, "lat": 35.9986582, "lon": 136.4676954, "tags": {"name": "\u725b\u30b1\u539f", "name:en": "Ushigahara", "name:ja": "\u725b\u30b1\u539f", "name:ja_kana": "\u3046\u3057\u304c\u306f\u3089", "name:ja_rm": "Ushigahara", "name:ko": "\uc6b0\uc2dc\uac00\ud558\ub77c", "operator": "\u897f\u65e5\u672c\u65c5\u5ba2\u9244\u9053", "operator:en": "West Japan Railway Company", "public_transport": "station", "railway": "station", "source": "GSImaps/ort", "wikidata": "Q3611209", "wikipedia": "ja:\u725b\u30b1\u539f\u99c5"}}, {"type": "node", "id": 267448953, "lat": 35.9870211, "lon": 136.5266892, "tags": {"name": "\u8d8a\u524d\u7530\u91ce", "name:en": "Echizen-Tano", "name:ja": "\u8d8a\u524d\u7530\u91ce", "name:ja_kana": "\u3048\u3061\u305c\u3093\u305f\u306e", "name:ja_rm": "Echizen-Tano", "name:ko": "\uc5d0\uce58\uc820\ud0c0\ub178", "operator": "\u897f\u65e5\u672c\u65c5\u5ba2\u9244\u9053", "public_transport": "station", "railway": "station", "source": "KSJ2", "train": "yes", "wikidata": "Q5332625", "wikipedia": "ja:\u8d8a\u524d\u7530\u91ce\u99c5"}}, {"type": "node", "id": 267448955, "lat": 35.991227, "lon": 136.5411772, "tags": {"name": "\u8d8a\u524d\u5bcc\u7530", "name:en": "Echizen-Tomida", "name:ja": "\u8d8a\u524d\u5bcc\u7530", "name:ja_kana": "\u3048\u3061\u305c\u3093\u3068\u307f\u3060", "name:ja_rm": "Echizen-Tomida", "name:ko": "\uc5d0\uce58\uc820\ud1a0\ubbf8\ub2e4", "operator": "\u897f\u65e5\u672c\u65c5\u5ba2\u9244\u9053", "public_transport": "station", "railway": "station", "source": "KSJ2", "train": "yes", "wikidata": "Q5332626", "wikipedia": "ja:\u8d8a\u524d\u5bcc\u7530\u99c5"}}, {"type": "node", "id": 267448957, "lat": 35.9976236, "lon": 136.434484, "tags": {"KSJ2:LIN": "\u8d8a\u7f8e\u5317\u7dda", "KSJ2:STN": "\u8a08\u77f3", "name": "\u8a08\u77f3", "name:en": "Hakariishi", "name:ja": "\u8a08\u77f3", "name:ja_kana": "\u306f\u304b\u308a\u3044\u3057", "name:ja_rm": "Hakariishi", "name:ko": "\ud558\uce74\ub9ac\uc774\uc2dc", "note": "National-Land Numerical Information (Railway) 2007, MLIT Japan", "note:ja": "\u56fd\u571f\u6570\u5024\u60c5\u5831\uff08\u9244\u9053\u30c7\u30fc\u30bf\uff09\u5e73\u621019\u5e74\u3000\u56fd\u571f\u4ea4\u901a\u7701", "operator": "\u897f\u65e5\u672c\u65c5\u5ba2\u9244\u9053", "public_transport": "station", "railway": "station", "source": "KSJ2", "source_ref": "http://nlftp.mlit.go.jp/ksj/jpgis/datalist/KsjTmplt-N02-v1_1.html", "wikidata": "Q5640348", "wikipedia": "ja:\u8a08\u77f3\u99c5"}}, {"type": "node", "id": 267448985, "lat": 36.0390947, "lon": 136.218519, "tags": {"KSJ2:LIN": "\u8d8a\u7f8e\u5317\u7dda", "KSJ2:STN": "\u8d8a\u524d\u82b1\u5802", "name": "\u8d8a\u524d\u82b1\u5802", "name:en": "Echizen-Hanand\u014d", "name:ja": "\u8d8a\u524d\u82b1\u5802", "name:ko": "\uc5d0\uce58\uc820\ud558\ub09c\ub3c4", "note": "National-Land Numerical Information (Railway) 2007, MLIT Japan", "note:ja": "\u56fd\u571f\u6570\u5024\u60c5\u5831\uff08\u9244\u9053\u30c7\u30fc\u30bf\uff09\u5e73\u621019\u5e74\u3000\u56fd\u571f\u4ea4\u901a\u7701", "operator": "\u897f\u65e5\u672c\u65c5\u5ba2\u9244\u9053", "public_transport": "station", "railway": "station", "source": "KSJ2", "source_ref": "http://nlftp.mlit.go.jp/ksj/jpgis/datalist/KsjTmplt-N02-v1_1.html", "wikidata": "Q898457", "wikipedia": "ja:\u8d8a\u524d\u82b1\u5802\u99c5"}}, {"type": "node", "id": 267448986, "lat": 36.020829, "lon": 136.253535, "tags": {"KSJ2:LIN": "\u8d8a\u7f8e\u5317\u7dda", "KSJ2:STN": "\u8db3\u7fbd", "name": "\u8db3\u7fbd", "name:en": "Asuwa", "name:ja": "\u8db3\u7fbd", "name:ko": "\uc544\uc2a4\uc640", "note": "National-Land Numerical Information (Railway) 2007, MLIT Japan", "note:ja": "\u56fd\u571f\u6570\u5024\u60c5\u5831\uff08\u9244\u9053\u30c7\u30fc\u30bf\uff09\u5e73\u621019\u5e74\u3000\u56fd\u571f\u4ea4\u901a\u7701", "operator": "\u897f\u65e5\u672c\u65c5\u5ba2\u9244\u9053", "public_transport": "station", "railway": "station", "source": "KSJ2", "source_ref": "http://nlftp.mlit.go.jp/ksj/jpgis/datalist/KsjTmplt-N02-v1_1.html", "wikidata": "Q4811964", "wikipedia": "ja:\u8db3\u7fbd\u99c5"}}, {"type": "node", "id": 267448990, "lat": 36.028026, "lon": 136.239973, "tags": {"KSJ2:LIN": "\u8d8a\u7f8e\u5317\u7dda", "KSJ2:STN": "\u516d\u6761", "name": "\u516d\u6761", "name:en": "Rokuj\u014d", "name:ja": "\u516d\u6761", "name:ko": "\ub85c\ucfe0\uc870", "note": "National-Land Numerical Information (Railway) 2007, MLIT Japan", "note:ja": "\u56fd\u571f\u6570\u5024\u60c5\u5831\uff08\u9244\u9053\u30c7\u30fc\u30bf\uff09\u5e73\u621019\u5e74\u3000\u56fd\u571f\u4ea4\u901a\u7701", "operator": "\u897f\u65e5\u672c\u65c5\u5ba2\u9244\u9053", "public_transport": "station", "railway": "station", "source": "KSJ2", "source_ref": "http://nlftp.mlit.go.jp/ksj/jpgis/datalist/KsjTmplt-N02-v1_1.html", "wikidata": "Q7360105", "wikipedia": "ja:\u516d\u6761\u99c5"}}, {"type": "node", "id": 267449013, "lat": 36.017426, "lon": 136.350708, "tags": {"KSJ2:LIN": "\u8d8a\u7f8e\u5317\u7dda", "KSJ2:STN": "\u5c0f\u548c\u6e05\u6c34", "name": "\u5c0f\u548c\u6e05\u6c34", "name:en": "Kowash\u014dzu", "name:ja": "\u5c0f\u548c\u6e05\u6c34", "name:ko": "\uace0\uc640\uc1fc\uc988", "note": "National-Land Numerical Information (Railway) 2007, MLIT Japan", "note:ja": "\u56fd\u571f\u6570\u5024\u60c5\u5831\uff08\u9244\u9053\u30c7\u30fc\u30bf\uff09\u5e73\u621019\u5e74\u3000\u56fd\u571f\u4ea4\u901a\u7701", "operator": "\u897f\u65e5\u672c\u65c5\u5ba2\u9244\u9053", "public_transport": "station", "railway": "station", "source": "KSJ2", "source_ref": "http://nlftp.mlit.go.jp/ksj/jpgis/datalist/KsjTmplt-N02-v1_1.html", "wikidata": "Q6435014", "wikipedia": "ja:\u5c0f\u548c\u6e05\u6c34\u99c5"}}, {"type": "node", "id": 267449030, "lat": 35.9740208, "lon": 136.5604723, "tags": {"KSJ2:LIN": "\u8d8a\u7f8e\u5317\u7dda", "KSJ2:STN": "\u4e0b\u552f\u91ce", "name": "\u4e0b\u552f\u91ce", "name:en": "Shimo-Yuino", "name:ja": "\u4e0b\u552f\u91ce", "name:ja_kana": "\u3057\u3082\u3086\u3044\u306e", "name:ja_rm": "Shimo-Yuino", "name:ko": "\uc2dc\ubaa8\uc720\uc774\ub178", "note": "National-Land Numerical Information (Railway) 2007, MLIT Japan", "note:ja": "\u56fd\u571f\u6570\u5024\u60c5\u5831\uff08\u9244\u9053\u30c7\u30fc\u30bf\uff09\u5e73\u621019\u5e74\u3000\u56fd\u571f\u4ea4\u901a\u7701", "operator": "\u897f\u65e5\u672c\u65c5\u5ba2\u9244\u9053", "public_transport": "station", "railway": "station", "source": "KSJ2", "source_ref": "http://nlftp.mlit.go.jp/ksj/jpgis/datalist/KsjTmplt-N02-v1_1.html", "wikidata": "Q7496939", "wikipedia": "ja:\u4e0b\u552f\u91ce\u99c5"}}, {"type": "node", "id": 267449031, "lat": 36.0053162, "lon": 136.3843061, "tags": {"KSJ2:LIN": "\u8d8a\u7f8e\u5317\u7dda", "KSJ2:STN": "\u8d8a\u524d\u85ac\u5e2b", "name": "\u8d8a\u524d\u85ac\u5e2b", "name:en": "Echizen-Yakushi", "name:ja": "\u8d8a\u524d\u85ac\u5e2b", "name:ko": "\uc5d0\uce58\uc820\uc57c\ucfe0\uc2dc", "note": "National-Land Numerical Information (Railway) 2007, MLIT Japan", "note:ja": "\u56fd\u571f\u6570\u5024\u60c5\u5831\uff08\u9244\u9053\u30c7\u30fc\u30bf\uff09\u5e73\u621019\u5e74\u3000\u56fd\u571f\u4ea4\u901a\u7701", "operator": "\u897f\u65e5\u672c\u65c5\u5ba2\u9244\u9053", "public_transport": "station", "railway": "station", "source": "KSJ2", "source_ref": "http://nlftp.mlit.go.jp/ksj/jpgis/datalist/KsjTmplt-N02-v1_1.html", "wikidata": "Q5332627", "wikipedia": "ja:\u8d8a\u524d\u85ac\u5e2b\u99c5"}}, {"type": "node", "id": 267449124, "lat": 35.9979595, "lon": 136.4882674, "tags": {"name": "\u5317\u5927\u91ce", "name:en": "Kita-Ono", "name:ja": "\u5317\u5927\u91ce", "name:ja_kana": "\u304d\u305f\u304a\u304a\u306e", "name:ja_rm": "Kita-\u014cno", "name:ko": "\uae30\ud0c0\uc624\ub178", "operator": "\u897f\u65e5\u672c\u65c5\u5ba2\u9244\u9053", "operator:en": "West Japan Railway Company", "public_transport": "station", "railway": "station", "source": "GSImaps/ort", "wikidata": "Q6417642", "wikipedia": "ja:\u5317\u5927\u91ce\u99c5"}}, {"type": "node", "id": 267449139, "lat": 36.0182871, "lon": 136.2735924, "tags": {"KSJ2:LIN": "\u8d8a\u7f8e\u5317\u7dda", "KSJ2:STN": "\u8d8a\u524d\u6771\u90f7", "name": "\u8d8a\u524d\u6771\u90f7", "name:en": "Echizen-T\u014dg\u014d", "name:ja": "\u8d8a\u524d\u6771\u90f7", "name:ko": "\uc5d0\uce58\uc820\ud1a0\uace0", "note": "National-Land Numerical Information (Railway) 2007, MLIT Japan", "note:ja": "\u56fd\u571f\u6570\u5024\u60c5\u5831\uff08\u9244\u9053\u30c7\u30fc\u30bf\uff09\u5e73\u621019\u5e74\u3000\u56fd\u571f\u4ea4\u901a\u7701", "operator": "\u897f\u65e5\u672c\u65c5\u5ba2\u9244\u9053", "public_transport": "station", "railway": "station", "source": "KSJ2", "source_ref": "http://nlftp.mlit.go.jp/ksj/jpgis/datalist/KsjTmplt-N02-v1_1.html", "wikidata": "Q3701451", "wikipedia": "ja:\u8d8a\u524d\u6771\u90f7\u99c5"}}, {"type": "node", "id": 267449183, "lat": 36.02, "lon": 136.33015, "tags": {"KSJ2:LIN": "\u8d8a\u7f8e\u5317\u7dda", "KSJ2:STN": "\u5e02\u6ce2", "name": "\u5e02\u6ce2", "name:en": "Ichinami", "name:ja": "\u5e02\u6ce2", "name:ko": "\uc774\uce58\ub098\ubbf8", "note": "National-Land Numerical Information (Railway) 2007, MLIT Japan", "note:ja": "\u56fd\u571f\u6570\u5024\u60c5\u5831\uff08\u9244\u9053\u30c7\u30fc\u30bf\uff09\u5e73\u621019\u5e74\u3000\u56fd\u571f\u4ea4\u901a\u7701", "operator": "\u897f\u65e5\u672c\u65c5\u5ba2\u9244\u9053", "public_transport": "station", "railway": "station", "source": "KSJ2", "source_ref": "http://nlftp.mlit.go.jp/ksj/jpgis/datalist/KsjTmplt-N02-v1_1.html", "wikidata": "Q5986228", "wikipedia": "ja:\u5e02\u6ce2\u99c5"}}, {"type": "node", "id": 267449283, "lat": 36.024837, "lon": 136.3187875, "tags": {"KSJ2:LIN": "\u8d8a\u7f8e\u5317\u7dda", "KSJ2:STN": "\u8d8a\u524d\u9ad8\u7530", "name": "\u8d8a\u524d\u9ad8\u7530", "name:en": "Echizen-Takada", "name:ja": "\u8d8a\u524d\u9ad8\u7530", "name:ko": "\uc5d0\uce58\uc820\ud0c0\uce74\ub2e4", "note": "National-Land Numerical Information (Railway) 2007, MLIT Japan", "note:ja": "\u56fd\u571f\u6570\u5024\u60c5\u5831\uff08\u9244\u9053\u30c7\u30fc\u30bf\uff09\u5e73\u621019\u5e74\u3000\u56fd\u571f\u4ea4\u901a\u7701", "operator": "\u897f\u65e5\u672c\u65c5\u5ba2\u9244\u9053", "public_transport": "station", "railway": "station", "source": "KSJ2", "source_ref": "http://nlftp.mlit.go.jp/ksj/jpgis/datalist/KsjTmplt-N02-v1_1.html", "wikidata": "Q5332622", "wikipedia": "ja:\u8d8a\u524d\u9ad8\u7530\u99c5"}}, {"type": "node", "id": 267449284, "lat": 35.9832744, "lon": 136.4969352, "tags": {"name": "\u8d8a\u524d\u5927\u91ce", "name:en": "Echizen-Ono", "name:ja": "\u8d8a\u524d\u5927\u91ce", "name:ja_kana": "\u3048\u3061\u305c\u3093\u304a\u304a\u306e", "name:ja_rm": "Echizen-\u014cno", "name:ko": "\uc5d0\uce58\uc820\uc624\ub178", "operator": "\u897f\u65e5\u672c\u65c5\u5ba2\u9244\u9053", "public_transport": "station", "railway": "station", "source": "KSJ2", "train": "yes", "wikidata": "Q2815910", "wikipedia": "ja:\u8d8a\u524d\u5927\u91ce\u99c5"}}, {"type": "node", "id": 267449875, "lat": 35.9725606, "lon": 136.5713305, "tags": {"KSJ2:LIN": "\u8d8a\u7f8e\u5317\u7dda", "KSJ2:STN": "\u67ff\u30b1\u5cf6", "name": "\u67ff\u30b1\u5cf6", "name:en": "Kakigashima", "name:ja": "\u67ff\u30b1\u5cf6", "name:ja_kana": "\u304b\u304d\u304c\u3057\u307e", "name:ja_rm": "Kakigashima", "name:ko": "\uac00\ud0a4\uac00\uc2dc\ub9c8", "note": "National-Land Numerical Information (Railway) 2007, MLIT Japan", "note:ja": "\u56fd\u571f\u6570\u5024\u60c5\u5831\uff08\u9244\u9053\u30c7\u30fc\u30bf\uff09\u5e73\u621019\u5e74\u3000\u56fd\u571f\u4ea4\u901a\u7701", "operator": "\u897f\u65e5\u672c\u65c5\u5ba2\u9244\u9053", "public_transport": "station", "railway": "station", "source": "KSJ2", "source_ref": "http://nlftp.mlit.go.jp/ksj/jpgis/datalist/KsjTmplt-N02-v1_1.html", "wikidata": "Q6349439", "wikipedia": "ja:\u67ff\u30b1\u5cf6\u99c5"}}, {"type": "node", "id": 267450570, "lat": 36.0137208, "lon": 136.29745, "tags": {"KSJ2:LIN": "\u8d8a\u7f8e\u5317\u7dda", "KSJ2:STN": "\u4e00\u4e57\u8c37", "name": "\u4e00\u4e57\u8c37", "name:en": "Ichij\u014ddani", "name:ja": "\u4e00\u4e57\u8c37", "name:ko": "\uc774\uce58\uc870\ub2e4\ub2c8", "note": "National-Land Numerical Information (Railway) 2007, MLIT Japan", "note:ja": "\u56fd\u571f\u6570\u5024\u60c5\u5831\uff08\u9244\u9053\u30c7\u30fc\u30bf\uff09\u5e73\u621019\u5e74\u3000\u56fd\u571f\u4ea4\u901a\u7701", "operator": "\u897f\u65e5\u672c\u65c5\u5ba2\u9244\u9053", "public_transport": "station", "railway": "station", "source": "KSJ2", "source_ref": "http://nlftp.mlit.go.jp/ksj/jpgis/datalist/KsjTmplt-N02-v1_1.html", "wikidata": "Q3611096", "wikipedia": "ja:\u4e00\u4e57\u8c37\u99c5"}}, {"type": "node", "id": 267450574, "lat": 35.9999944, "lon": 136.4102194, "tags": {"KSJ2:LIN": "\u8d8a\u7f8e\u5317\u7dda", "KSJ2:STN": "\u8d8a\u524d\u5927\u5bae", "name": "\u8d8a\u524d\u5927\u5bae", "name:en": "Echizen-\u014cmiya", "name:ja": "\u8d8a\u524d\u5927\u5bae", "name:ko": "\uc5d0\uce58\uc820\uc624\ubbf8\uc57c", "note": "National-Land Numerical Information (Railway) 2007, MLIT Japan", "note:ja": "\u56fd\u571f\u6570\u5024\u60c5\u5831\uff08\u9244\u9053\u30c7\u30fc\u30bf\uff09\u5e73\u621019\u5e74\u3000\u56fd\u571f\u4ea4\u901a\u7701", "operator": "\u897f\u65e5\u672c\u65c5\u5ba2\u9244\u9053", "public_transport": "station", "railway": "station", "source": "KSJ2", "source_ref": "http://nlftp.mlit.go.jp/ksj/jpgis/datalist/KsjTmplt-N02-v1_1.html", "wikidata": "Q5332628", "wikipedia": "ja:\u8d8a\u524d\u5927\u5bae\u99c5"}}, {"type": "node", "id": 267451324, "lat": 35.9205882, "lon": 136.6347769, "tags": {"name": "\u8d8a\u524d\u4e0b\u5c71", "name:en": "Echizen-Shimoyama", "name:ja": "\u8d8a\u524d\u4e0b\u5c71", "name:ja_kana": "\u8d8a\u524d\u4e0b\u5c71", "name:ja_rm": "Echizen-Shimoyama", "name:ko": "\uc5d0\uce58\uc820\uc2dc\ubaa8\uc57c\ub9c8", "public_transport": "station", "railway": "station", "source": "KSJ2", "train": "yes", "wikidata": "Q3701403", "wikipedia": "ja:\u8d8a\u524d\u4e0b\u5c71\u99c5"}}, {"type": "node", "id": 267451487, "lat": 35.96738, "lon": 136.597601, "tags": {"KSJ2:LIN": "\u8d8a\u7f8e\u5317\u7dda", "KSJ2:STN": "\u52dd\u539f", "name": "\u52dd\u539f", "name:en": "Kadohara", "name:ja": "\u52dd\u539f", "name:ja_kana": "\u304b\u3069\u306f\u3089", "name:ja_rm": "Kadohara", "name:ko": "\uac00\ub3c4\ud558\ub77c", "note": "National-Land Numerical Information (Railway) 2007, MLIT Japan", "note:ja": "\u56fd\u571f\u6570\u5024\u60c5\u5831\uff08\u9244\u9053\u30c7\u30fc\u30bf\uff09\u5e73\u621019\u5e74\u3000\u56fd\u571f\u4ea4\u901a\u7701", "operator": "\u897f\u65e5\u672c\u65c5\u5ba2\u9244\u9053", "public_transport": "station", "railway": "station", "source": "KSJ2", "source_ref": "http://nlftp.mlit.go.jp/ksj/jpgis/datalist/KsjTmplt-N02-v1_1.html", "wikidata": "Q11400191", "wikipedia": "ja:\u52dd\u539f\u99c5"}}, {"type": "node", "id": 822973023, "lat": 35.9061222, "lon": 136.1702578, "tags": {"KSJ2:LIN": "\u798f\u6b66\u7dda", "KSJ2:RAS": "eb03_9045", "KSJ2:segment": "eb02_19276", "light_rail": "yes", "name": "\u305f\u3051\u3075\u65b0", "name:en": "Takefu-shin", "name:ja": "\u305f\u3051\u3075\u65b0", "name:ja-Hira": "\u305f\u3051\u3075\u3057\u3093", "name:ko": "\uc5d0\uce58\uc820\ud0c0\ucf00\ud6c4", "note": "National-Land Numerical Information (Railway) 2007, MLIT Japan", "note:ja": "\u56fd\u571f\u6570\u5024\u60c5\u5831\uff08\u9244\u9053\u30c7\u30fc\u30bf\uff09\u5e73\u621019\u5e74\u3000\u56fd\u571f\u4ea4\u901a\u7701", "old_name": "\u8d8a\u524d\u6b66\u751f", "old_name:en": "Echizen-takefu", "public_transport": "station", "railway": "station", "source": "KSJ2", "source_ref": "http://nlftp.mlit.go.jp/ksj/jpgis/datalist/KsjTmplt-N02-v1_1.html", "station": "light_rail", "wikidata": "Q5332623", "wikipedia": "ja:\u305f\u3051\u3075\u65b0\u99c5"}}, {"type": "node", "id": 822973253, "lat": 35.94665, "lon": 136.1818127, "tags": {"KSJ2:LIN": "\u798f\u6b66\u7dda", "KSJ2:RAS": "eb03_9047", "KSJ2:segment": "eb02_19278", "light_rail": "yes", "name": "\u897f\u9bd6\u6c5f", "name:en": "Nishi-Sabae", "name:ja": "\u897f\u9bd6\u6c5f", "name:ko": "\ub2c8\uc2dc\uc0ac\ubc14\uc5d0", "note": "National-Land Numerical Information (Railway) 2007, MLIT Japan", "note:ja": "\u56fd\u571f\u6570\u5024\u60c5\u5831\uff08\u9244\u9053\u30c7\u30fc\u30bf\uff09\u5e73\u621019\u5e74\u3000\u56fd\u571f\u4ea4\u901a\u7701", "opening_hours": "06:00-22:00", "phone": "0778-51-8215", "public_transport": "station", "railway": "station", "source": "KSJ2", "source_ref": "http://nlftp.mlit.go.jp/ksj/jpgis/datalist/KsjTmplt-N02-v1_1.html", "station": "light_rail", "wheelchair": "limited", "wikidata": "Q11630017", "wikipedia": "ja:\u897f\u9bd6\u6c5f\u99c5"}}, {"type": "node", "id": 822973292, "lat": 36.0139597, "lon": 136.205317, "tags": {"KSJ2:LIN": "\u798f\u6b66\u7dda", "KSJ2:RAS": "eb03_9055", "KSJ2:segment": "eb02_19267", "light_rail": "yes", "name": "\u30cf\u30fc\u30e2\u30cb\u30fc\u30db\u30fc\u30eb", "name:en": "Harmony Hall", "name:ja": "\u30cf\u30fc\u30e2\u30cb\u30fc\u30db\u30fc\u30eb", "name:ko": "\ud558\ubaa8\ub2c8\ud640", "note": "National-Land Numerical Information (Railway) 2007, MLIT Japan", "note:ja": "\u56fd\u571f\u6570\u5024\u60c5\u5831\uff08\u9244\u9053\u30c7\u30fc\u30bf\uff09\u5e73\u621019\u5e74\u3000\u56fd\u571f\u4ea4\u901a\u7701", "public_transport": "station", "railway": "station", "source": "KSJ2", "source_ref": "http://nlftp.mlit.go.jp/ksj/jpgis/datalist/KsjTmplt-N02-v1_1.html", "station": "light_rail", "wikidata": "Q5659535", "wikipedia": "ja:\u30cf\u30fc\u30e2\u30cb\u30fc\u30db\u30fc\u30eb\u99c5"}}, {"type": "node", "id": 822975155, "lat": 35.9890791, "lon": 136.1937667, "tags": {"KSJ2:LIN": "\u798f\u6b66\u7dda", "KSJ2:RAS": "eb03_9049", "KSJ2:segment": "eb02_19250", "light_rail": "yes", "name": "\u4e09\u5341\u516b\u793e", "name:en": "Sanj\u016bhassha", "name:ja": "\u4e09\u5341\u516b\u793e", "name:ko": "\uc0b0\uc8fc\ud56b\uc0e4", "note": "National-Land Numerical Information (Railway) 2007, MLIT Japan", "note:ja": "\u56fd\u571f\u6570\u5024\u60c5\u5831\uff08\u9244\u9053\u30c7\u30fc\u30bf\uff09\u5e73\u621019\u5e74\u3000\u56fd\u571f\u4ea4\u901a\u7701", "public_transport": "station", "railway": "station", "source": "KSJ2", "source_ref": "http://nlftp.mlit.go.jp/ksj/jpgis/datalist/KsjTmplt-N02-v1_1.html", "station": "light_rail", "wikidata": "Q7418608", "wikipedia": "ja:\u4e09\u5341\u516b\u793e\u99c5"}}, {"type": "node", "id": 822975506, "lat": 35.9815657, "lon": 136.1873429, "tags": {"KSJ2:LIN": "\u798f\u6b66\u7dda", "KSJ2:RAS": "eb03_9062", "KSJ2:segment": "eb02_19247", "light_rail": "yes", "name": "\u9ce5\u7fbd\u4e2d", "name:en": "Tobanaka", "name:ja": "\u9ce5\u7fbd\u4e2d", "name:ko": "\ub3c4\ubc14\ub098\uce74", "note": "National-Land Numerical Information (Railway) 2007, MLIT Japan", "note:ja": "\u56fd\u571f\u6570\u5024\u60c5\u5831\uff08\u9244\u9053\u30c7\u30fc\u30bf\uff09\u5e73\u621019\u5e74\u3000\u56fd\u571f\u4ea4\u901a\u7701", "public_transport": "station", "railway": "station", "source": "KSJ2", "source_ref": "http://nlftp.mlit.go.jp/ksj/jpgis/datalist/KsjTmplt-N02-v1_1.html", "station": "light_rail", "wikidata": "Q7811544", "wikipedia": "ja:\u9ce5\u7fbd\u4e2d\u99c5"}}, {"type": "node", "id": 822976815, "lat": 36.00671, "lon": 136.2017231, "tags": {"KSJ2:LIN": "\u798f\u6b66\u7dda", "KSJ2:RAS": "eb03_9056", "KSJ2:segment": "eb02_19265", "light_rail": "yes", "name": "\u6d45\u6c34", "name:en": "As\u014dzu", "name:ja": "\u6d45\u6c34", "name:ko": "\uc544\uc18c\uc988", "note": "National-Land Numerical Information (Railway) 2007, MLIT Japan", "note:ja": "\u56fd\u571f\u6570\u5024\u60c5\u5831\uff08\u9244\u9053\u30c7\u30fc\u30bf\uff09\u5e73\u621019\u5e74\u3000\u56fd\u571f\u4ea4\u901a\u7701", "public_transport": "station", "railway": "station", "source": "KSJ2", "source_ref": "http://nlftp.mlit.go.jp/ksj/jpgis/datalist/KsjTmplt-N02-v1_1.html", "station": "light_rail", "wikidata": "Q4812261", "wikipedia": "ja:\u6d45\u6c34\u99c5"}}, {"type": "node", "id": 822977846, "lat": 35.9100647, "lon": 136.1665861, "tags": {"KSJ2:LIN": "\u798f\u6b66\u7dda", "KSJ2:RAS": "eb03_9057", "KSJ2:segment": "eb02_19277", "light_rail": "yes", "name": "\u5317\u5e9c", "name:en": "Kitago", "name:ja": "\u5317\u5e9c", "name:ja-Hira": "\u304d\u305f\u3054", "name:ko": "\uae30\ud0c0\uace0", "network": "\u798f\u6b66\u7dda", "note": "National-Land Numerical Information (Railway) 2007, MLIT Japan", "note:ja": "\u56fd\u571f\u6570\u5024\u60c5\u5831\uff08\u9244\u9053\u30c7\u30fc\u30bf\uff09\u5e73\u621019\u5e74\u3000\u56fd\u571f\u4ea4\u901a\u7701", "old_name": "\u897f\u6b66\u751f", "operator": "\u798f\u4e95\u9244\u9053", "public_transport": "station", "railway": "station", "source": "KSJ2", "source_ref": "http://nlftp.mlit.go.jp/ksj/jpgis/datalist/KsjTmplt-N02-v1_1.html", "station": "light_rail", "wikidata": "Q6417707", "wikipedia": "ja:\u5317\u5e9c\u99c5"}}, {"type": "node", "id": 822977949, "lat": 36.028123, "lon": 136.212321, "tags": {"KSJ2:LIN": "\u798f\u6b66\u7dda", "KSJ2:RAS": "eb03_9060", "KSJ2:STN": "\u6c5f\u7aef", "KSJ2:segment": "eb02_19258", "light_rail": "yes", "name": "\u6c5f\u7aef", "name:en": "Ebata", "name:ja": "\u6c5f\u7aef", "name:ko": "\uc5d0\ubc14\ud0c0", "note": "National-Land Numerical Information (Railway) 2007, MLIT Japan", "note:ja": "\u56fd\u571f\u6570\u5024\u60c5\u5831\uff08\u9244\u9053\u30c7\u30fc\u30bf\uff09\u5e73\u621019\u5e74\u3000\u56fd\u571f\u4ea4\u901a\u7701", "public_transport": "station", "railway": "station", "source": "KSJ2", "source_ref": "http://nlftp.mlit.go.jp/ksj/jpgis/datalist/KsjTmplt-N02-v1_1.html", "station": "light_rail", "wikidata": "Q5331504", "wikipedia": "ja:\u6c5f\u7aef\u99c5"}}, {"type": "node", "id": 822977967, "lat": 36.0338314, "lon": 136.2139144, "tags": {"KSJ2:LIN": "\u798f\u6b66\u7dda", "KSJ2:RAS": "eb03_9052", "KSJ2:STN": "\u30d9\u30eb\u524d", "KSJ2:segment": "eb02_19255;eb02_19256", "alt_name:ko": "\ubca8\ub9c8\uc5d0", "light_rail": "yes", "name": "\u30d9\u30eb\u524d", "name:en": "Bell-mae", "name:ja": "\u30d9\u30eb\u524d", "name:ko": "\ubca8\uc55e", "note": "National-Land Numerical Information (Railway) 2007, MLIT Japan", "note:ja": "\u56fd\u571f\u6570\u5024\u60c5\u5831\uff08\u9244\u9053\u30c7\u30fc\u30bf\uff09\u5e73\u621019\u5e74\u3000\u56fd\u571f\u4ea4\u901a\u7701", "public_transport": "station", "railway": "station", "source": "KSJ2", "source_ref": "http://nlftp.mlit.go.jp/ksj/jpgis/datalist/KsjTmplt-N02-v1_1.html", "station": "light_rail", "wikidata": "Q4883087", "wikipedia": "ja:\u30d9\u30eb\u524d\u99c5"}}, {"type": "node", "id": 822978083, "lat": 35.9364062, "lon": 136.1805346, "tags": {"KSJ2:LIN": "\u798f\u6b66\u7dda", "KSJ2:RAS": "eb03_9065", "KSJ2:segment": "eb02_19285", "light_rail": "yes", "name": "\u30b5\u30f3\u30c9\u30fc\u30e0\u897f", "name:en": "Sundome Nishi", "name:ja": "\u30b5\u30f3\u30c9\u30fc\u30e0\u897f", "name:ja-Hira": "\u3055\u3093\u3069\u30fc\u3080\u306b\u3057", "name:ko": "\uc120\ub3d4\ub2c8\uc2dc", "note": "National-Land Numerical Information (Railway) 2007, MLIT Japan", "note:ja": "\u56fd\u571f\u6570\u5024\u60c5\u5831\uff08\u9244\u9053\u30c7\u30fc\u30bf\uff09\u5e73\u621019\u5e74\u3000\u56fd\u571f\u4ea4\u901a\u7701", "old_name": "\u4e0a\u9bd6\u6c5f", "operator": "\u798f\u4e95\u9244\u9053", "public_transport": "station", "railway": "station", "source": "KSJ2", "source_ref": "http://nlftp.mlit.go.jp/ksj/jpgis/datalist/KsjTmplt-N02-v1_1.html", "station": "light_rail", "wikidata": "Q7639801", "wikipedia": "ja:\u30b5\u30f3\u30c9\u30fc\u30e0\u897f\u99c5"}}, {"type": "node", "id": 822978245, "lat": 35.9257938, "lon": 136.1703452, "tags": {"KSJ2:LIN": "\u798f\u6b66\u7dda", "KSJ2:RAS": "eb03_9061", "KSJ2:segment": "eb02_19280", "light_rail": "yes", "name": "\u5bb6\u4e45", "name:en": "Iehisa", "name:ja": "\u5bb6\u4e45", "name:ko": "\uc774\uc5d0\ud788\uc0ac", "note": "National-Land Numerical Information (Railway) 2007, MLIT Japan", "note:ja": "\u56fd\u571f\u6570\u5024\u60c5\u5831\uff08\u9244\u9053\u30c7\u30fc\u30bf\uff09\u5e73\u621019\u5e74\u3000\u56fd\u571f\u4ea4\u901a\u7701", "public_transport": "station", "railway": "station", "source": "KSJ2", "source_ref": "http://nlftp.mlit.go.jp/ksj/jpgis/datalist/KsjTmplt-N02-v1_1.html", "station": "light_rail", "wikidata": "Q11455373", "wikipedia": "ja:\u5bb6\u4e45\u99c5"}}, {"type": "node", "id": 2290387538, "lat": 35.9519313, "lon": 136.1857283, "tags": {"KSJ2:LIN": "\u798f\u6b66\u7dda", "KSJ2:RAS": "eb03_9063", "KSJ2:segment": "eb02_19286", "alt_name:ko": "\ub2c8\uc2dc\uc57c\ub9c8\ucf54\uc5d4", "light_rail": "yes", "name": "\u897f\u5c71\u516c\u5712", "name:en": "Nishiyama-K\u014den", "name:ja": "\u897f\u5c71\u516c\u5712", "name:ko": "\ub2c8\uc2dc\uc57c\ub9c8\uacf5\uc6d0", "note": "National-Land Numerical Information (Railway) 2007, MLIT Japan", "note:ja": "\u56fd\u571f\u6570\u5024\u60c5\u5831\uff08\u9244\u9053\u30c7\u30fc\u30bf\uff09\u5e73\u621019\u5e74\u3000\u56fd\u571f\u4ea4\u901a\u7701", "public_transport": "station", "railway": "station", "source": "KSJ2", "source_ref": "http://nlftp.mlit.go.jp/ksj/jpgis/datalist/KsjTmplt-N02-v1_1.html", "station": "light_rail", "wheelchair": "yes", "wikidata": "Q4982279", "wikipedia": "ja:\u897f\u5c71\u516c\u5712\u99c5"}}, {"type": "node", "id": 3893067539, "lat": 36.0769726, "lon": 136.2292889, "tags": {"name": "\u307e\u3064\u3082\u3068\u753a\u5c4b", "name:en": "Matsumoto-Machiya", "name:ja-Hira": "\u307e\u3064\u3082\u3068\u307e\u3061\u3084", "public_transport": "station", "railway": "station", "wikidata": "Q22120396", "wikipedia": "ja:\u307e\u3064\u3082\u3068\u753a\u5c4b\u99c5"}}, {"type": "node", "id": 3893073351, "lat": 36.0806198, "lon": 136.2065864, "tags": {"light_rail": "yes", "name": "\u65e5\u83ef\u5316\u5b66\u524d", "name:en": "Nikkakagaku-Mae", "name:ja-Hira": "\u306b\u3063\u304b\u304b\u304c\u304f\u307e\u3048", "name:ja-Latn": "Nikkakagaku-Mae", "operator": "\u3048\u3061\u305c\u3093\u9244\u9053", "operator:en": "Echizen Railway", "public_transport": "station", "railway": "station", "ref": "E28", "station": "light_rail", "wikidata": "Q7035158", "wikipedia": "ja:\u65e5\u83ef\u5316\u5b66\u524d\u99c5"}}, {"type": "node", "id": 4164240966, "lat": 35.9992437, "lon": 136.1983583, "tags": {"light_rail": "yes", "name": "\u6cf0\u6f84\u306e\u91cc", "name:en": "Taich\u014dnosato", "public_transport": "station", "railway": "station", "source": "GSImaps/std", "station": "light_rail", "wikidata": "Q11555719", "wikipedia": "ja:\u6cf0\u6f84\u306e\u91cc\u99c5"}}, {"type": "node", "id": 4164240967, "lat": 36.0222188, "lon": 136.2095015, "tags": {"light_rail": "yes", "name": "\u6e05\u660e", "public_transport": "station", "railway": "station", "source": "GSImaps/std", "station": "light_rail", "wikidata": "Q11560658", "wikipedia": "ja:\u6e05\u660e\u99c5"}}, {"type": "node", "id": 4164240968, "lat": 36.0621411, "lon": 136.2221908, "tags": {"KSJ2:LIN": "\u798f\u6b66\u7dda", "KSJ2:RAS": "eb03_9050", "KSJ2:segment": "eb02_19253", "alt_name": "\u798f\u4e95\u99c5", "alt_name:en": "Fukui-eki", "light_rail": "yes", "name": "\u798f\u4e95\u99c5", "name:en": "Fukui", "name:ja": "\u798f\u4e95\u99c5", "note": "\u798f\u4e95\u99c5\u505c\u7559\u6240\u306a\u306e\u3067name\u306b\u542b\u307e\u308c\u308b\u300c\u99c5\u300d\u306f\u524a\u9664\u3057\u306a\u3044\u3053\u3068", "public_transport": "station", "railway": "station", "source": "GSImaps/std", "station": "light_rail", "wikidata": "Q867992", "wikipedia": "ja:\u798f\u4e95\u99c5 (\u798f\u4e95\u770c)"}}, {"type": "node", "id": 4213475362, "lat": 36.0561896, "lon": 136.4920532, "tags": {"name": "\u52dd\u5c71", "name:en": "Katsuyama", "name:ja": "\u52dd\u5c71", "name:ja_kana": "\u304b\u3064\u3084\u307e", "name:ja_rm": "Katsuyama", "name:ko": "\uac00\uc4f0\uc57c\ub9c8", "public_transport": "station", "railway": "station", "source": "GSImaps/std", "wikidata": "Q11400269", "wikipedia": "ja:\u52dd\u5c71\u99c5"}}, {"type": "node", "id": 4213475371, "lat": 36.0705156, "lon": 136.2330685, "tags": {"name": "\u798f\u4e95\u53e3", "name:en": "Fukuiguchi", "name:ja": "\u798f\u4e95\u53e3", "name:ko": "\ud6c4\ucfe0\uc774\uad6c\uce58", "public_transport": "station", "railway": "station", "source": "KSJ2", "wikidata": "Q5507660", "wikipedia": "ja:\u798f\u4e95\u53e3\u99c5"}}, {"type": "node", "id": 4398558721, "lat": 36.0741897, "lon": 136.2104762, "tags": {"light_rail": "yes", "name": "\u798f\u5927\u524d\u897f\u798f\u4e95", "name:en": "Fukudaimae-Nishi-Fukui", "name:ja": "\u798f\u5927\u524d\u897f\u798f\u4e95", "name:ko": "\ud6c4\ucfe0\ub2e4\uc774\ub9c8\uc5d0\ub2c8\uc2dc\ud6c4\ucfe0\uc774", "public_transport": "station", "railway": "station", "ref": "E27", "source": "KSJ2", "station": "light_rail", "wikidata": "Q5507621", "wikipedia": "ja:\u798f\u5927\u524d\u897f\u798f\u4e95\u99c5"}}, {"type": "node", "id": 4921417492, "lat": 36.2146024, "lon": 136.2350566, "tags": {"name": "\u82a6\u539f\u6e29\u6cc9", "name:de": "Awaraonsen", "name:en": "Awaraonsen", "name:ja": "\u82a6\u539f\u6e29\u6cc9", "name:ja_kana": "\u3042\u308f\u3089\u304a\u3093\u305b\u3093", "name:ja_rm": "Awaraonsen", "name:ko": "\uc544\uc640\ub77c\uc628\uc13c", "public_transport": "station", "railway": "station", "wikidata": "Q4829830", "wikipedia": "ja:\u82a6\u539f\u6e29\u6cc9\u99c5"}}, {"type": "node", "id": 5834446514, "lat": 36.0621497, "lon": 136.2239821, "tags": {"name": "\u798f\u4e95", "name:en": "Fukui", "name:ja": "\u798f\u4e95", "name:ko": "\ud6c4\ucfe0\uc774", "operator": "\u3048\u3061\u305c\u3093\u9244\u9053", "operator:en": "Echizen Railway", "public_transport": "station", "railway": "station", "source": "KSJ2", "wikidata": "Q867992", "wikipedia": "ja:\u798f\u4e95\u99c5 (\u798f\u4e95\u770c)"}}, {"type": "node", "id": 6051747165, "lat": 36.2412052, "lon": 136.2571111, "tags": {"name": "\u7d30\u5442\u6728", "name:en": "Hosorogi", "name:ja": "\u7d30\u5442\u6728", "note": "National-Land Numerical Information (Railway) 2007, MLIT Japan", "public_transport": "station", "railway": "station", "wikipedia": "ja:\u7d30\u5442\u6728\u99c5"}}, {"type": "node", "id": 6641719592, "lat": 36.0618051, "lon": 136.2231202, "tags": {"name": "\u798f\u4e95", "name:en": "Fukui", "name:ja": "\u798f\u4e95", "name:ko": "\ud6c4\ucfe0\uc774", "public_transport": "station", "railway": "station", "source": "KSJ2", "wikidata": "Q867992", "wikipedia": "ja:\u798f\u4e95\u99c5 (\u798f\u4e95\u770c)"}}, {"type": "node", "id": 6641834257, "lat": 35.9031163, "lon": 136.1710672, "tags": {"name": "\u6b66\u751f", "name:de": "Takefu", "name:en": "Takefu", "name:ja": "\u6b66\u751f", "name:ja_kana": "\u305f\u3051\u3075", "name:ja_rm": "Takefu", "name:ko": "\ub2e4\ucf00\ud6c4", "note": "National-Land Numerical Information (Railway) 2007, MLIT Japan", "railway": "station", "source": "KSJ2", "wikidata": "Q2815926", "wikipedia": "ja:\u6b66\u751f\u99c5"}}, {"type": "node", "id": 6641834270, "lat": 35.9435986, "lon": 136.1889388, "tags": {"name": "\u9bd6\u6c5f", "name:de": "Sabae", "name:en": "Sabae", "name:ja": "\u9bd6\u6c5f", "name:ja_kana": "\u3055\u3070\u3048", "name:ja_rm": "Sabae", "name:ko": "\uc0ac\ubc14\uc5d0", "note": "National-Land Numerical Information (Railway) 2007, MLIT Japan", "phone": "0778-51-0102", "railway": "station", "source": "KSJ2", "wheelchair": "yes", "wikidata": "Q5359863", "wikipedia": "ja:\u9bd6\u6c5f\u99c5"}}, {"type": "node", "id": 6641842107, "lat": 36.1627729, "lon": 136.2335466, "tags": {"name": "\u4e38\u5ca1", "name:en": "Maruoka", "name:ja": "\u4e38\u5ca1", "name:ja_kana": "\u307e\u308b\u304a\u304b", "name:ja_rm": "Maruoka", "name:ko": "\ub9c8\ub8e8\uc624\uce74", "note": "National-Land Numerical Information (Railway) 2007, MLIT Japan", "railway": "station", "source": "KSJ2", "wikidata": "Q5359723", "wikipedia": "ja:\u4e38\u5ca1\u99c5"}}, {"type": "node", "id": 6641842113, "lat": 36.1294122, "lon": 136.2287293, "tags": {"name": "\u6625\u6c5f", "name:en": "Harue", "name:ja": "\u6625\u6c5f", "name:ja_kana": "\u306f\u308b\u3048", "name:ja_rm": "Harue", "name:ko": "\ud558\ub8e8\uc5d0", "note": "National-Land Numerical Information (Railway) 2007, MLIT Japan", "railway": "station", "source": "KSJ2", "wikidata": "Q5359897", "wikipedia": "ja:\u6625\u6c5f\u99c5"}}, {"type": "node", "id": 6966993327, "lat": 36.0695513, "lon": 136.2180585, "tags": {"KSJ2:LIN": "\u798f\u6b66\u7dda", "KSJ2:RAS": "eb03_9064", "KSJ2:segment": "eb02_19274", "light_rail": "yes", "name": "\u4ec1\u611b\u5973\u5b50\u9ad8\u6821", "name:en": "Jin'ai Joshik\u014dk\u014d", "name:ja": "\u4ec1\u611b\u5973\u5b50\u9ad8\u6821", "note": "National-Land Numerical Information (Railway) 2007, MLIT Japan", "note:ja": "\u56fd\u571f\u6570\u5024\u60c5\u5831\uff08\u9244\u9053\u30c7\u30fc\u30bf\uff09\u5e73\u621019\u5e74\u3000\u56fd\u571f\u4ea4\u901a\u7701", "public_transport": "station", "railway": "station", "source": "KSJ2", "source_ref": "http://nlftp.mlit.go.jp/ksj/jpgis/datalist/KsjTmplt-N02-v1_1.html", "station": "light_rail", "tram": "yes", "wikidata": "Q6201756", "wikipedia": "ja:\u4ec1\u611b\u5973\u5b50\u9ad8\u6821\u99c5"}}, {"type": "node", "id": 6966993337, "lat": 36.0748461, "lon": 136.2173409, "tags": {"KSJ2:LIN": "\u798f\u6b66\u7dda", "KSJ2:RAS": "eb03_9046", "KSJ2:segment": "eb02_19246", "light_rail": "yes", "name": "\u7530\u539f\u753a", "name:en": "Tawaramachi", "name:ja": "\u7530\u539f\u753a", "note": "National-Land Numerical Information (Railway) 2007, MLIT Japan", "note:ja": "\u56fd\u571f\u6570\u5024\u60c5\u5831\uff08\u9244\u9053\u30c7\u30fc\u30bf\uff09\u5e73\u621019\u5e74\u3000\u56fd\u571f\u4ea4\u901a\u7701", "public_transport": "station", "railway": "station", "source": "KSJ2", "source_ref": "http://nlftp.mlit.go.jp/ksj/jpgis/datalist/KsjTmplt-N02-v1_1.html", "station": "light_rail", "train": "yes", "tram": "yes", "wheelchair": "yes"}}, {"type": "node", "id": 6967028749, "lat": 36.0638701, "lon": 136.2176007, "tags": {"KSJ2:LIN": "\u798f\u6b66\u7dda", "KSJ2:RAS": "eb03_9048", "KSJ2:segment": "eb02_19273", "description": "\u65e7 \u5e02\u5f79\u6240\u524d", "light_rail": "yes", "name": "\u798f\u4e95\u57ce\u5740\u5927\u540d\u753a", "name:en": "Fukuijousidaimyoumachi", "name:ja": "\u798f\u4e95\u57ce\u5740\u5927\u540d\u753a", "name:ja-Hira": "\u3075\u304f\u3044\u3058\u3087\u3046\u3057\u3060\u3044\u307f\u3087\u3046\u307e\u3061", "note": "National-Land Numerical Information (Railway) 2007, MLIT Japan", "note:ja": "\u56fd\u571f\u6570\u5024\u60c5\u5831\uff08\u9244\u9053\u30c7\u30fc\u30bf\uff09\u5e73\u621019\u5e74\u3000\u56fd\u571f\u4ea4\u901a\u7701", "public_transport": "station", "railway": "station", "source": "KSJ2", "source_ref": "http://nlftp.mlit.go.jp/ksj/jpgis/datalist/KsjTmplt-N02-v1_1.html", "station": "light_rail", "tram": "yes", "wikidata": "Q7499456", "wikipedia": "ja:\u798f\u4e95\u57ce\u5740\u5927\u540d\u753a\u99c5"}}, {"type": "node", "id": 6967046718, "lat": 36.057999, "lon": 136.2151405, "tags": {"KSJ2:LIN": "\u798f\u6b66\u7dda", "KSJ2:RAS": "eb03_9058", "KSJ2:segment": "eb02_19268", "light_rail": "yes", "name": "\u8db3\u7fbd\u5c71\u516c\u5712\u53e3", "name:en": "Asuwayama-K\u014denguchi", "name:ja": "\u8db3\u7fbd\u5c71\u516c\u5712\u53e3", "note": "National-Land Numerical Information (Railway) 2007, MLIT Japan", "note:ja": "\u56fd\u571f\u6570\u5024\u60c5\u5831\uff08\u9244\u9053\u30c7\u30fc\u30bf\uff09\u5e73\u621019\u5e74\u3000\u56fd\u571f\u4ea4\u901a\u7701", "public_transport": "station", "railway": "station", "source": "KSJ2", "source_ref": "http://nlftp.mlit.go.jp/ksj/jpgis/datalist/KsjTmplt-N02-v1_1.html", "station": "light_rail", "tram": "yes", "wikidata": "Q6455102", "wikipedia": "ja:\u8db3\u7fbd\u5c71\u516c\u5712\u53e3\u99c5"}}, {"type": "node", "id": 6967046720, "lat": 36.0539557, "lon": 136.2149346, "tags": {"KSJ2:LIN": "\u798f\u6b66\u7dda", "KSJ2:RAS": "eb03_9054", "KSJ2:segment": "eb02_19262", "light_rail": "yes", "name": "\u6728\u7530\u56db\u30c4\u8fbb", "name:en": "Kidayotsutsuji", "name:ja": "\u6728\u7530\u56db\u30c4\u8fbb", "note": "National-Land Numerical Information (Railway) 2007, MLIT Japan", "note:ja": "\u56fd\u571f\u6570\u5024\u60c5\u5831\uff08\u9244\u9053\u30c7\u30fc\u30bf\uff09\u5e73\u621019\u5e74\u3000\u56fd\u571f\u4ea4\u901a\u7701", "public_transport": "station", "railway": "station", "source": "KSJ2", "source_ref": "http://nlftp.mlit.go.jp/ksj/jpgis/datalist/KsjTmplt-N02-v1_1.html", "station": "light_rail", "tram": "yes", "wikidata": "Q11519292"}}, {"type": "node", "id": 6967046729, "lat": 36.0486073, "lon": 136.2166649, "tags": {"KSJ2:LIN": "\u798f\u6b66\u7dda", "KSJ2:RAS": "eb03_9053", "KSJ2:segment": "eb02_19261", "alt_name:ko": "\uc138\ud0a4\uc8fc\uc9c0\ub9c8\uc5d0", "light_rail": "yes", "name": "\u8d64\u5341\u5b57\u524d", "name:en": "Sekij\u016bjimae", "name:ja": "\u8d64\u5341\u5b57\u524d", "name:ja-Hira": "\u305b\u304d\u3058\u3085\u3046\u3058\u307e\u3048", "name:ko": "\uc138\ud0a4\uc8fc\uc9c0\uc55e", "note": "National-Land Numerical Information (Railway) 2007, MLIT Japan", "note:ja": "\u56fd\u571f\u6570\u5024\u60c5\u5831\uff08\u9244\u9053\u30c7\u30fc\u30bf\uff09\u5e73\u621019\u5e74\u3000\u56fd\u571f\u4ea4\u901a\u7701", "old_name": "\u798f\u4e95\u65b0", "public_transport": "station", "railway": "station", "source": "KSJ2", "source_ref": "http://nlftp.mlit.go.jp/ksj/jpgis/datalist/KsjTmplt-N02-v1_1.html", "station": "light_rail", "wikidata": "Q7447201", "wikipedia": "ja:\u8d64\u5341\u5b57\u524d\u99c5"}}, {"type": "node", "id": 6967062511, "lat": 36.0408812, "lon": 136.2152198, "tags": {"KSJ2:LIN": "\u798f\u6b66\u7dda", "KSJ2:RAS": "eb03_9044", "KSJ2:segment": "eb02_19245", "light_rail": "yes", "name": "\u82b1\u5802", "name:en": "Hanand\u014d", "name:ja": "\u82b1\u5802", "name:ko": "\ud558\ub09c\ub3c4", "note": "National-Land Numerical Information (Railway) 2007, MLIT Japan", "note:ja": "\u56fd\u571f\u6570\u5024\u60c5\u5831\uff08\u9244\u9053\u30c7\u30fc\u30bf\uff09\u5e73\u621019\u5e74\u3000\u56fd\u571f\u4ea4\u901a\u7701", "public_transport": "station", "railway": "station", "source": "KSJ2", "source_ref": "http://nlftp.mlit.go.jp/ksj/jpgis/datalist/KsjTmplt-N02-v1_1.html", "station": "light_rail", "wikidata": "Q3701536", "wikipedia": "ja:\u82b1\u5802\u99c5"}}, {"type": "node", "id": 6967067865, "lat": 35.9730558, "lon": 136.1818674, "tags": {"KSJ2:LIN": "\u798f\u6b66\u7dda", "KSJ2:RAS": "eb03_9059", "KSJ2:segment": "eb02_19269", "light_rail": "yes", "name": "\u795e\u660e", "name:en": "Shinmei", "name:ja": "\u795e\u660e", "name:ko": "\uc2e0\uba54\uc774", "note": "National-Land Numerical Information (Railway) 2007, MLIT Japan", "note:ja": "\u56fd\u571f\u6570\u5024\u60c5\u5831\uff08\u9244\u9053\u30c7\u30fc\u30bf\uff09\u5e73\u621019\u5e74\u3000\u56fd\u571f\u4ea4\u901a\u7701", "public_transport": "station", "railway": "station", "source": "KSJ2", "source_ref": "http://nlftp.mlit.go.jp/ksj/jpgis/datalist/KsjTmplt-N02-v1_1.html", "station": "light_rail", "wikidata": "Q11590326", "wikipedia": "ja:\u795e\u660e\u99c5 (\u798f\u4e95\u770c)"}}, {"type": "node", "id": 6967067867, "lat": 35.9624547, "lon": 136.1831422, "tags": {"KSJ2:LIN": "\u798f\u6b66\u7dda", "KSJ2:RAS": "eb03_9051", "KSJ2:segment": "eb02_19279", "light_rail": "yes", "name": "\u6c34\u843d", "name:en": "Mizuochi", "name:ja": "\u6c34\u843d", "name:ja-Hira": "\u307f\u305a\u304a\u3061", "name:ko": "\ubbf8\uc988\uc624\uce58", "note": "National-Land Numerical Information (Railway) 2007, MLIT Japan", "note:ja": "\u56fd\u571f\u6570\u5024\u60c5\u5831\uff08\u9244\u9053\u30c7\u30fc\u30bf\uff09\u5e73\u621019\u5e74\u3000\u56fd\u571f\u4ea4\u901a\u7701", "public_transport": "station", "railway": "station", "source": "KSJ2", "source_ref": "http://nlftp.mlit.go.jp/ksj/jpgis/datalist/KsjTmplt-N02-v1_1.html", "station": "light_rail", "wikidata": "Q6884897", "wikipedia": "ja:\u6c34\u843d\u99c5"}}, {"type": "node", "id": 7097070689, "lat": 35.9986162, "lon": 136.3648246, "tags": {"KSJ2:LIN": "\u8d8a\u7f8e\u5317\u7dda", "KSJ2:STN": "\u7f8e\u5c71", "name": "\u7f8e\u5c71", "name:en": "Miyama", "name:ja": "\u7f8e\u5c71", "name:ko": "\ubbf8\uc57c\ub9c8", "operator": "\u897f\u65e5\u672c\u65c5\u5ba2\u9244\u9053", "public_transport": "station", "railway": "station", "wikidata": "Q6884307", "wikipedia": "ja:\u7f8e\u5c71\u99c5"}}, {"type": "node", "id": 7802402435, "lat": 35.9044816, "lon": 136.6615446, "tags": {"KSJ2:LIN": "\u8d8a\u7f8e\u5317\u7dda", "KSJ2:STN": "\u4e5d\u982d\u7adc\u6e56", "name": "\u4e5d\u982d\u7adc\u6e56", "name:en": "Kuzuryuko", "name:ja": "\u4e5d\u982d\u7adc\u6e56", "name:ja_kana": "\u304f\u305a\u308a\u3085\u3046\u3053", "name:ja_rm": "Kuzury\u016bko", "name:ko": "\uad6c\uc988\ub958\ucf54", "note": "National-Land Numerical Information (Railway) 2007, MLIT Japan", "note:ja": "\u56fd\u571f\u6570\u5024\u60c5\u5831\uff08\u9244\u9053\u30c7\u30fc\u30bf\uff09\u5e73\u621019\u5e74\u3000\u56fd\u571f\u4ea4\u901a\u7701", "operator": "\u897f\u65e5\u672c\u65c5\u5ba2\u9244\u9053", "public_transport": "station", "railway": "station", "source": "KSJ2", "source_ref": "http://nlftp.mlit.go.jp/ksj/jpgis/datalist/KsjTmplt-N02-v1_1.html", "wikidata": "Q3611337", "wikipedia": "ja:\u4e5d\u982d\u7adc\u6e56\u99c5"}}, {"type": "node", "id": 9393411139, "lat": 36.1391847, "lon": 136.2062859, "tags": {"light_rail": "yes", "name": "\u897f\u6625\u6c5f\u30cf\u30fc\u30c8\u30d4\u30a2", "name:en": "Nishiharue Heartpia", "name:ja": "\u897f\u6625\u6c5f\u30cf\u30fc\u30c8\u30d4\u30a2", "name:ja-Hira": "\u306b\u3057\u306f\u308b\u3048\u306f\u30fc\u3068\u3074\u3042", "name:ko": "\ub2c8\uc2dc\ud558\ub8e8\uc5d0", "public_transport": "station", "railway": "station", "ref": "E34", "station": "light_rail", "wikidata": "Q7040344", "wikipedia": "ja:\u897f\u6625\u6c5f\u30cf\u30fc\u30c8\u30d4\u30a2\u99c5"}}, {"type": "node", "id": 11652998666, "lat": 35.8955139, "lon": 136.1989052, "tags": {"name": "\u8d8a\u524d\u305f\u3051\u3075", "name:de": "Echizen-Takefu", "name:en": "Echizen-Takefu", "name:ja": "\u8d8a\u524d\u305f\u3051\u3075", "name:zh-Hant": "\u8d8a\u524d\u6b66\u751f", "public_transport": "station", "railway": "station", "wikidata": "Q6962163", "wikipedia": "ja:\u8d8a\u524d\u305f\u3051\u3075\u99c5"}}]}