{"version": 0.6, "generator": "Overpass API 0.7.62.4 2390de5a", "osm3s": {"timestamp_osm_base": "2024-12-30T14:59:15Z", "copyright": "The data included in this document is from www.openstreetmap.org. The data is made available under ODbL."}, "elements": [{"type": "node", "id": 263066793, "lat": 37.3251568, "lon": 140.6596858, "tags": {"name": "\u795e\u4fe3", "name:en": "Kanmata", "name:ja": "\u795e\u4fe3", "name:ja_rm": "Kanmata", "name:ko": "\uac04\ub9c8\ud0c0", "note": "National-Land Numerical Information (Railway) 2007, MLIT Japan", "note:ja": "\u56fd\u571f\u6570\u5024\u60c5\u5831\uff08\u9244\u9053\u30c7\u30fc\u30bf\uff09\u5e73\u621019\u5e74\u3000\u56fd\u571f\u4ea4\u901a\u7701", "railway": "station", "source": "KSJ2", "source_ref": "http://nlftp.mlit.go.jp/ksj/jpgis/datalist/KsjTmplt-N02-v1_1.html", "wikidata": "Q429178", "wikipedia": "ja:\u795e\u4fe3\u99c5"}}, {"type": "node", "id": 263066873, "lat": 37.3500679, "lon": 140.6452671, "tags": {"name": "\u83c5\u8c37", "name:en": "Sugaya", "name:ja": "\u83c5\u8c37", "name:ja_rm": "Sugaya", "name:ko": "\uc2a4\uac00\uc57c", "note": "National-Land Numerical Information (Railway) 2007, MLIT Japan", "note:ja": "\u56fd\u571f\u6570\u5024\u60c5\u5831\uff08\u9244\u9053\u30c7\u30fc\u30bf\uff09\u5e73\u621019\u5e74\u3000\u56fd\u571f\u4ea4\u901a\u7701", "railway": "station", "source": "KSJ2", "source_ref": "http://nlftp.mlit.go.jp/ksj/jpgis/datalist/KsjTmplt-N02-v1_1.html", "wikidata": "Q7635083", "wikipedia": "ja:\u83c5\u8c37\u99c5"}}, {"type": "node", "id": 263067006, "lat": 37.4431638, "lon": 140.5746202, "tags": {"name": "\u8239\u5f15", "name:en": "Funehiki", "name:ja": "\u8239\u5f15", "name:ja_rm": "Funehiki", "name:ko": "\ud6c4\ub124\ud788\ud0a4", "note": "National-Land Numerical Information (Railway) 2007, MLIT Japan", "note:ja": "\u56fd\u571f\u6570\u5024\u60c5\u5831\uff08\u9244\u9053\u30c7\u30fc\u30bf\uff09\u5e73\u621019\u5e74\u3000\u56fd\u571f\u4ea4\u901a\u7701", "railway": "station", "source": "KSJ2", "source_ref": "http://nlftp.mlit.go.jp/ksj/jpgis/datalist/KsjTmplt-N02-v1_1.html", "wikidata": "Q5509093", "wikipedia": "ja:\u8239\u5f15\u99c5"}}, {"type": "node", "id": 263067009, "lat": 37.252955, "lon": 140.66275, "tags": {"name": "\u590f\u4e95", "name:en": "Natsui", "name:ja": "\u590f\u4e95", "name:ja_rm": "Natsui", "name:ko": "\ub098\uc4f0\uc774", "note": "National-Land Numerical Information (Railway) 2007, MLIT Japan", "note:ja": "\u56fd\u571f\u6570\u5024\u60c5\u5831\uff08\u9244\u9053\u30c7\u30fc\u30bf\uff09\u5e73\u621019\u5e74\u3000\u56fd\u571f\u4ea4\u901a\u7701", "railway": "station", "source": "KSJ2", "source_ref": "http://nlftp.mlit.go.jp/ksj/jpgis/datalist/KsjTmplt-N02-v1_1.html", "wikidata": "Q11429911", "wikipedia": "ja:\u590f\u4e95\u99c5"}}, {"type": "node", "id": 263067188, "lat": 37.420623, "lon": 140.6057158, "tags": {"name": "\u78d0\u57ce\u5e38\u8449", "name:en": "Iwaki-Tokiwa", "name:ja": "\u78d0\u57ce\u5e38\u8449", "name:ja_rm": "Iwaki-Tokiwa", "name:ko": "\uc774\uc640\ud0a4\ud1a0\ud0a4\uc640", "note": "National-Land Numerical Information (Railway) 2007, MLIT Japan", "note:ja": "\u56fd\u571f\u6570\u5024\u60c5\u5831\uff08\u9244\u9053\u30c7\u30fc\u30bf\uff09\u5e73\u621019\u5e74\u3000\u56fd\u571f\u4ea4\u901a\u7701", "railway": "station", "source": "KSJ2", "source_ref": "http://nlftp.mlit.go.jp/ksj/jpgis/datalist/KsjTmplt-N02-v1_1.html", "wikidata": "Q6100380", "wikipedia": "ja:\u78d0\u57ce\u5e38\u8449\u99c5"}}, {"type": "node", "id": 263068365, "lat": 37.2754992, "lon": 140.6367624, "tags": {"name": "\u5c0f\u91ce\u65b0\u753a", "name:en": "Ononii-machi", "name:ja": "\u5c0f\u91ce\u65b0\u753a", "name:ja_rm": "Ononii-machi", "name:ko": "\uc624\ub178\ub2c8\uc774\ub9c8\uce58", "note": "National-Land Numerical Information (Railway) 2007, MLIT Japan", "note:ja": "\u56fd\u571f\u6570\u5024\u60c5\u5831\uff08\u9244\u9053\u30c7\u30fc\u30bf\uff09\u5e73\u621019\u5e74\u3000\u56fd\u571f\u4ea4\u901a\u7701", "railway": "station", "source": "KSJ2", "source_ref": "http://nlftp.mlit.go.jp/ksj/jpgis/datalist/KsjTmplt-N02-v1_1.html", "wikidata": "Q7094498", "wikipedia": "ja:\u5c0f\u91ce\u65b0\u753a\u99c5"}}, {"type": "node", "id": 263068500, "lat": 37.3873922, "lon": 140.6305779, "tags": {"name": "\u5927\u8d8a", "name:en": "Ogoe", "name:ja": "\u5927\u8d8a", "name:ja_rm": "\u014cgoe", "name:ko": "\uc624\uace0\uc5d0", "note": "National-Land Numerical Information (Railway) 2007, MLIT Japan", "note:ja": "\u56fd\u571f\u6570\u5024\u60c5\u5831\uff08\u9244\u9053\u30c7\u30fc\u30bf\uff09\u5e73\u621019\u5e74\u3000\u56fd\u571f\u4ea4\u901a\u7701", "railway": "station", "source": "KSJ2", "source_ref": "http://nlftp.mlit.go.jp/ksj/jpgis/datalist/KsjTmplt-N02-v1_1.html", "wikidata": "Q11439275", "wikipedia": "ja:\u5927\u8d8a\u99c5"}}, {"type": "node", "id": 264404000, "lat": 37.5288032, "lon": 140.9846199, "tags": {"name": "\u6843\u5185", "name:en": "Momouchi", "name:ja": "\u6843\u5185", "name:ja-Hira": "\u6843\u5185", "name:ja-Latn": "Momouchi", "name:ko": "\ubaa8\ubaa8\uc6b0\uce58", "operator": "\u6771\u65e5\u672c\u65c5\u5ba2\u9244\u9053", "operator:ja": "\u6771\u65e5\u672c\u65c5\u5ba2\u9244\u9053", "public_transport": "station", "railway": "station", "source": "KSJ2", "wikidata": "Q6897475", "wikipedia": "ja:\u6843\u5185\u99c5"}}, {"type": "node", "id": 264404008, "lat": 37.4920359, "lon": 140.9899695, "tags": {"name": "\u6d6a\u6c5f", "name:en": "Namie", "name:ja": "\u6d6a\u6c5f", "name:ja_rm": "Namie", "name:ko": "\ub098\ubbf8\uc5d0", "operator": "\u6771\u65e5\u672c\u65c5\u5ba2\u9243\u9053", "operator:ja": "\u6771\u65e5\u672c\u65c5\u5ba2\u9243\u9053", "public_transport": "station", "railway": "station", "source": "KSJ2", "wikidata": "Q6961838", "wikipedia": "ja:\u6d6a\u6c5f\u99c5"}}, {"type": "node", "id": 264404030, "lat": 37.6048339, "lon": 140.9918363, "tags": {"name": "\u78d0\u57ce\u592a\u7530", "name:en": "Iwaki-Ota", "name:ja": "\u78d0\u57ce\u592a\u7530", "name:ja-Hira": "\u3044\u308f\u304d\u304a\u304a\u305f", "name:ja-Latn": "Iwaki-\u014cta", "name:ko": "\uc774\uc640\ud0a4\uc624\ud0c0", "public_transport": "station", "railway": "station", "source": "KSJ2", "wikidata": "Q6100384", "wikipedia": "ja:\u78d0\u57ce\u592a\u7530\u99c5"}}, {"type": "node", "id": 264405047, "lat": 37.5628963, "lon": 140.9961748, "tags": {"name": "\u5c0f\u9ad8", "name:en": "Odaka", "name:ja": "\u5c0f\u9ad8", "name:ja-Hira": "\u304a\u3060\u304b", "name:ja-Latn": "Odaka", "name:ko": "\uc624\ub2e4\uce74", "operator": "\u6771\u65e5\u672c\u65c5\u5ba2\u9244\u9053", "operator:ja": "\u6771\u65e5\u672c\u65c5\u5ba2\u9244\u9053", "public_transport": "station", "railway": "station", "source": "KSJ2", "wikidata": "Q7077237", "wikipedia": "ja:\u5c0f\u9ad8\u99c5"}}, {"type": "node", "id": 264405316, "lat": 37.637698, "lon": 140.9711699, "tags": {"name": "\u539f\u30ce\u753a", "name:en": "Haranomachi", "name:ja": "\u539f\u30ce\u753a", "name:ja-Hira": "\u306f\u3089\u306e\u307e\u3061", "name:ja-Latn": "Haranomachi", "name:ko": "\ud558\ub77c\ub178\ub9c8\uce58", "operator": "\u6771\u65e5\u672c\u65c5\u5ba2\u9244\u9053", "operator:ja": "\u6771\u65e5\u672c\u65c5\u5ba2\u9244\u9053", "public_transport": "station", "railway": "station", "source": "KSJ2", "wikidata": "Q5654173", "wikipedia": "ja:\u539f\u30ce\u753a\u99c5"}}, {"type": "node", "id": 5705228488, "lat": 37.2579151, "lon": 141.002533, "tags": {"name": "\u6728\u6238", "name:en": "Kido", "name:ja": "\u6728\u6238", "name:ja-Hira": "\u304d\u3069", "name:ja-Latn": "Kido", "operator": "\u6771\u65e5\u672c\u65c5\u5ba2\u9244\u9053", "operator:ja": "\u6771\u65e5\u672c\u65c5\u5ba2\u9244\u9053", "public_transport": "station", "railway": "station", "source": "GSImaps/ort", "wikidata": "Q11518435", "wikipedia": "ja:\u6728\u6238\u99c5"}}, {"type": "node", "id": 6068580601, "lat": 37.28245, "lon": 141.0026483, "tags": {"name": "\u7adc\u7530", "name:en": "Tatsuta", "name:ja": "\u7adc\u7530", "name:ja-Latn": "Tatsuta", "operator": "\u6771\u65e5\u672c\u65c5\u5ba2\u9244\u9053", "operator:ja": "\u6771\u65e5\u672c\u65c5\u5ba2\u9244\u9053", "public_transport": "station", "railway": "station", "source": "KSJ2", "wikidata": "Q7688340", "wikipedia": "ja:\u7adc\u7530\u99c5"}}, {"type": "node", "id": 6068580640, "lat": 37.335186, "lon": 141.0226227, "tags": {"name": "\u5bcc\u5ca1", "name:en": "Tomioka", "name:ja": "\u5bcc\u5ca1", "name:ja_rm": "Tomioka", "name:ko": "\ub3c4\ubbf8\uc624\uce74", "operator": "\u6771\u65e5\u672c\u65c5\u5ba2\u9244\u9053", "operator:ja": "\u6771\u65e5\u672c\u65c5\u5ba2\u9244\u9053", "public_transport": "station", "railway": "station", "source": "KSJ2", "wikidata": "Q7818925", "wikipedia": "ja:\u5bcc\u5ca1\u99c5"}}, {"type": "node", "id": 6872437560, "lat": 37.3659659, "lon": 140.9920718, "tags": {"name": "\u591c\u30ce\u68ee", "name:en": "Yonomori", "name:ja": "\u591c\u30ce\u68ee", "name:ja_rm": "Yonomori", "operator:en": "\u6771\u65e5\u672c\u65c5\u5ba2\u9243\u9053", "operator:ja": "\u6771\u65e5\u672c\u65c5\u5ba2\u9243\u9053", "public_transport": "station", "railway": "station", "wikidata": "Q11431222", "wikipedia": "ja:\u591c\u30ce\u68ee\u99c5"}}, {"type": "node", "id": 7794196855, "lat": 37.4535935, "lon": 141.0056081, "tags": {"name": "\u53cc\u8449", "name:en": "Futaba", "name:ja": "\u53cc\u8449", "name:ja_rm": "Futaba", "public_transport": "station", "railway": "station", "source": "KSJ2", "wikidata": "Q5510442", "wikipedia": "ja:\u53cc\u8449\u99c5"}}, {"type": "node", "id": 7794196856, "lat": 37.4092247, "lon": 140.9841652, "tags": {"name": "\u5927\u91ce", "name:en": "Ono", "name:ja": "\u5927\u91ce", "name:ja-Latn": "\u014cno", "name:ru": "\u041e\u043d\u043e", "operator": "\u6771\u65e5\u672c\u65c5\u5ba2\u9244\u9053", "public_transport": "station", "railway": "station", "source": "KSJ2", "train": "yes", "wikidata": "Q8081664", "wikipedia": "ja:\u5927\u91ce\u99c5"}}]}