{"version": 0.6, "generator": "Overpass API 0.7.62.4 2390de5a", "osm3s": {"timestamp_osm_base": "2024-12-30T15:15:41Z", "copyright": "The data included in this document is from www.openstreetmap.org. The data is made available under ODbL."}, "elements": [{"type": "node", "id": 263224072, "lat": 38.3599623, "lon": 140.3695642, "tags": {"name": "\u5929\u7ae5", "name:de": "Tend\u014d", "name:en": "Tendo", "name:ja-Hira": "\u3066\u3093\u3069\u3046", "name:ja-Latn": "Tend\u014d", "public_transport": "station", "railway": "station", "source": "KSJ2", "train": "yes", "wikidata": "Q1137082", "wikipedia": "ja:\u5929\u7ae5\u99c5"}}, {"type": "node", "id": 263229121, "lat": 38.1520989, "lon": 140.2785301, "tags": {"name": "\u304b\u307f\u306e\u3084\u307e\u6e29\u6cc9", "name:de": "Kaminoyama-Onsen", "name:en": "Kaminoyama-Onsen", "name:ja-Hira": "\u304b\u307f\u306e\u3084\u307e\u304a\u3093\u305b\u3093", "name:ja-Latn": "Kaminoyamaonsen", "public_transport": "station", "railway": "station", "source": "KSJ2", "train": "yes", "wikidata": "Q1137142", "wikipedia": "ja:\u304b\u307f\u306e\u3084\u307e\u6e29\u6cc9\u99c5"}}, {"type": "node", "id": 3585108732, "lat": 38.3014954, "lon": 140.39607, "tags": {"KSJ2:LIN": "\u4ed9\u5c71\u7dda", "KSJ2:STN": "\u9ad8\u702c", "name": "\u9ad8\u702c", "name:en": "Takase", "name:ja": "\u9ad8\u702c", "name:ja_rm": "Takase", "name:ko": "\ub2e4\uce74\uc138", "note": "National-Land Numerical Information (Railway) 2007, MLIT Japan", "note:ja": "\u56fd\u571f\u6570\u5024\u60c5\u5831\uff08\u9244\u9053\u30c7\u30fc\u30bf\uff09\u5e73\u621019\u5e74\u3000\u56fd\u571f\u4ea4\u901a\u7701", "public_transport": "station", "railway": "station", "source": "KSJ2", "source_ref": "http://nlftp.mlit.go.jp/ksj/jpgis/datalist/KsjTmplt-N02-v1_1.html", "wikidata": "Q7677303", "wikipedia": "ja:\u9ad8\u702c\u99c5 (\u5c71\u5f62\u770c)"}}, {"type": "node", "id": 3585108734, "lat": 38.3016195, "lon": 140.370593, "tags": {"KSJ2:LIN": "\u4ed9\u5c71\u7dda", "KSJ2:STN": "\u696f\u5c71", "name": "\u696f\u5c71", "name:en": "Tateyama", "name:ja": "\u696f\u5c71", "name:ja_rm": "Tateyama", "name:ko": "\ub2e4\ud14c\uc57c\ub9c8", "note": "National-Land Numerical Information (Railway) 2007, MLIT Japan", "note:ja": "\u56fd\u571f\u6570\u5024\u60c5\u5831\uff08\u9244\u9053\u30c7\u30fc\u30bf\uff09\u5e73\u621019\u5e74\u3000\u56fd\u571f\u4ea4\u901a\u7701", "public_transport": "station", "railway": "station", "source": "KSJ2", "source_ref": "http://nlftp.mlit.go.jp/ksj/jpgis/datalist/KsjTmplt-N02-v1_1.html", "wikidata": "Q7688025", "wikipedia": "ja:\u696f\u5c71\u99c5"}}, {"type": "node", "id": 3585108739, "lat": 38.2872691, "lon": 140.3422441, "tags": {"name": "\u7fbd\u524d\u5343\u6b73", "name:de": "Uzen-Chitose", "name:en": "Uzen-Chitose", "name:ja-Hira": "\u3046\u305c\u3093\u3061\u3068\u305b", "name:ja-Latn": "Uzenchitose", "public_transport": "station", "railway": "station", "source": "KSJ2", "wikidata": "Q7904801", "wikipedia": "ja:\u7fbd\u524d\u5343\u6b73\u99c5"}}, {"type": "node", "id": 3585108742, "lat": 38.3095946, "lon": 140.434729, "tags": {"KSJ2:LIN": "\u4ed9\u5c71\u7dda", "KSJ2:STN": "\u5c71\u5bfa", "name": "\u5c71\u5bfa", "name:de": "Yamadera", "name:en": "Yamadera", "name:ja": "\u5c71\u5bfa", "name:ja_rm": "Yamadera", "name:ko": "\uc57c\ub9c8\ub370\ub77c", "note": "National-Land Numerical Information (Railway) 2007, MLIT Japan", "note:ja": "\u56fd\u571f\u6570\u5024\u60c5\u5831\uff08\u9244\u9053\u30c7\u30fc\u30bf\uff09\u5e73\u621019\u5e74\u3000\u56fd\u571f\u4ea4\u901a\u7701", "public_transport": "station", "railway": "station", "source": "KSJ2", "source_ref": "http://nlftp.mlit.go.jp/ksj/jpgis/datalist/KsjTmplt-N02-v1_1.html", "wikidata": "Q8047609", "wikipedia": "ja:\u5c71\u5bfa\u99c5"}}, {"type": "node", "id": 3585108748, "lat": 38.2484701, "lon": 140.3278031, "tags": {"name": "\u5c71\u5f62", "name:de": "Yamagata", "name:en": "Yamagata", "name:ja-Hira": "\u3084\u307e\u304c\u305f", "name:ja-Latn": "Yamagata", "public_transport": "station", "railway": "station", "source": "KSJ2", "wikidata": "Q1135793", "wikipedia": "ja:\u5c71\u5f62\u99c5"}}, {"type": "node", "id": 3585108879, "lat": 38.2655514, "lon": 140.3324675, "tags": {"name": "\u5317\u5c71\u5f62", "name:de": "Yamagata Nord", "name:en": "Kita-Yamagata", "name:ja-Hira": "\u304d\u305f\u3084\u307e\u304c\u305f", "name:ja-Latn": "Kitayamagata", "public_transport": "station", "railway": "station", "source": "KSJ2", "train": "yes", "wikidata": "Q11401458", "wikipedia": "ja:\u5317\u5c71\u5f62\u99c5"}}, {"type": "node", "id": 3585109693, "lat": 38.333017, "lon": 140.4969262, "tags": {"KSJ2:LIN": "\u4ed9\u5c71\u7dda", "KSJ2:STN": "\u9762\u767d\u5c71\u9ad8\u539f", "alt_name:ko": "\uc624\ubaa8\uc2dc\ub85c\uc57c\ub9c8\ucf54\uac90", "name": "\u9762\u767d\u5c71\u9ad8\u539f", "name:en": "Omoshiroyama-K\u014dgen", "name:ja": "\u9762\u767d\u5c71\u9ad8\u539f", "name:ja_rm": "Omoshiroyama-K\u014dgen", "name:ko": "\uc624\ubaa8\uc2dc\ub85c\uc0b0\uace0\uc6d0", "note": "National-Land Numerical Information (Railway) 2007, MLIT Japan", "note:ja": "\u56fd\u571f\u6570\u5024\u60c5\u5831\uff08\u9244\u9053\u30c7\u30fc\u30bf\uff09\u5e73\u621019\u5e74\u3000\u56fd\u571f\u4ea4\u901a\u7701", "public_transport": "station", "railway": "station", "source": "KSJ2", "source_ref": "http://nlftp.mlit.go.jp/ksj/jpgis/datalist/KsjTmplt-N02-v1_1.html", "wikidata": "Q7090658", "wikipedia": "ja:\u9762\u767d\u5c71\u9ad8\u539f\u99c5"}}, {"type": "node", "id": 3585199035, "lat": 38.3820316, "lon": 140.2080979, "tags": {"KSJ2:LIN": "\u5de6\u6ca2\u7dda", "KSJ2:STN": "\u5de6\u6ca2", "name": "\u5de6\u6ca2", "name:en": "Aterazawa", "name:ja": "\u5de6\u6ca2", "name:ja_rm": "Aterazawa", "name:ko": "\uc544\ud14c\ub77c\uc790\uc640", "note": "National-Land Numerical Information (Railway) 2007, MLIT Japan", "note:ja": "\u56fd\u571f\u6570\u5024\u60c5\u5831\uff08\u9244\u9053\u30c7\u30fc\u30bf\uff09\u5e73\u621019\u5e74\u3000\u56fd\u571f\u4ea4\u901a\u7701", "public_transport": "station", "railway": "station", "source": "KSJ2", "source_ref": "http://nlftp.mlit.go.jp/ksj/jpgis/datalist/KsjTmplt-N02-v1_1.html", "train": "yes", "wikidata": "Q4813118", "wikipedia": "ja:\u5de6\u6ca2\u99c5"}}, {"type": "node", "id": 3585199036, "lat": 38.277119, "lon": 140.3024865, "tags": {"KSJ2:LIN": "\u5de6\u6ca2\u7dda", "KSJ2:STN": "\u6771\u91d1\u4e95", "name": "\u6771\u91d1\u4e95", "name:en": "Higashi-Kanai", "name:ja": "\u6771\u91d1\u4e95", "name:ja_rm": "Higashi-Kanai", "name:ko": "\ud788\uac00\uc2dc\uce74\ub098\uc774", "note": "National-Land Numerical Information (Railway) 2007, MLIT Japan", "note:ja": "\u56fd\u571f\u6570\u5024\u60c5\u5831\uff08\u9244\u9053\u30c7\u30fc\u30bf\uff09\u5e73\u621019\u5e74\u3000\u56fd\u571f\u4ea4\u901a\u7701", "public_transport": "station", "railway": "station", "source": "KSJ2", "source_ref": "http://nlftp.mlit.go.jp/ksj/jpgis/datalist/KsjTmplt-N02-v1_1.html", "train": "yes", "wikidata": "Q11528622", "wikipedia": "ja:\u6771\u91d1\u4e95\u99c5"}}, {"type": "node", "id": 3585199037, "lat": 38.3560091, "lon": 140.2776524, "tags": {"KSJ2:LIN": "\u5de6\u6ca2\u7dda", "KSJ2:STN": "\u5357\u5bd2\u6cb3\u6c5f", "name": "\u5357\u5bd2\u6cb3\u6c5f", "name:en": "Minami-Sagae", "name:ja": "\u5357\u5bd2\u6cb3\u6c5f", "name:ja_rm": "Minami-Sagae", "name:ko": "\ubbf8\ub098\ubbf8\uc0ac\uac00\uc5d0", "note": "National-Land Numerical Information (Railway) 2007, MLIT Japan", "note:ja": "\u56fd\u571f\u6570\u5024\u60c5\u5831\uff08\u9244\u9053\u30c7\u30fc\u30bf\uff09\u5e73\u621019\u5e74\u3000\u56fd\u571f\u4ea4\u901a\u7701", "public_transport": "station", "railway": "station", "source": "KSJ2", "source_ref": "http://nlftp.mlit.go.jp/ksj/jpgis/datalist/KsjTmplt-N02-v1_1.html", "train": "yes", "wikidata": "Q11407728", "wikipedia": "ja:\u5357\u5bd2\u6cb3\u6c5f\u99c5"}}, {"type": "node", "id": 3585199038, "lat": 38.3797874, "lon": 140.266581, "tags": {"KSJ2:LIN": "\u5de6\u6ca2\u7dda", "KSJ2:STN": "\u897f\u5bd2\u6cb3\u6c5f", "name": "\u897f\u5bd2\u6cb3\u6c5f", "name:en": "Nishi-Sagae", "name:ja": "\u897f\u5bd2\u6cb3\u6c5f", "name:ja_rm": "Nishi-Sagae", "name:ko": "\ub2c8\uc2dc\uc0ac\uac00\uc5d0", "note": "National-Land Numerical Information (Railway) 2007, MLIT Japan", "note:ja": "\u56fd\u571f\u6570\u5024\u60c5\u5831\uff08\u9244\u9053\u30c7\u30fc\u30bf\uff09\u5e73\u621019\u5e74\u3000\u56fd\u571f\u4ea4\u901a\u7701", "public_transport": "station", "railway": "station", "source": "KSJ2", "source_ref": "http://nlftp.mlit.go.jp/ksj/jpgis/datalist/KsjTmplt-N02-v1_1.html", "train": "yes", "wikidata": "Q11627685", "wikipedia": "ja:\u897f\u5bd2\u6cb3\u6c5f\u99c5"}}, {"type": "node", "id": 3585199039, "lat": 38.3716369, "lon": 140.2751598, "tags": {"KSJ2:LIN": "\u5de6\u6ca2\u7dda", "KSJ2:STN": "\u5bd2\u6cb3\u6c5f", "name": "\u5bd2\u6cb3\u6c5f", "name:en": "Sagae", "name:ja": "\u5bd2\u6cb3\u6c5f", "name:ja_rm": "Sagae", "name:ko": "\uc0ac\uac00\uc5d0", "note": "National-Land Numerical Information (Railway) 2007, MLIT Japan", "note:ja": "\u56fd\u571f\u6570\u5024\u60c5\u5831\uff08\u9244\u9053\u30c7\u30fc\u30bf\uff09\u5e73\u621019\u5e74\u3000\u56fd\u571f\u4ea4\u901a\u7701", "public_transport": "station", "railway": "station", "source": "KSJ2", "source_ref": "http://nlftp.mlit.go.jp/ksj/jpgis/datalist/KsjTmplt-N02-v1_1.html", "train": "yes", "wikidata": "Q7398936", "wikipedia": "ja:\u5bd2\u6cb3\u6c5f\u99c5"}}, {"type": "node", "id": 3585199040, "lat": 38.3803834, "lon": 140.2275068, "tags": {"KSJ2:LIN": "\u5de6\u6ca2\u7dda", "KSJ2:STN": "\u67f4\u6a4b", "name": "\u67f4\u6a4b", "name:en": "Shibahashi", "name:ja": "\u67f4\u6a4b", "name:ja_rm": "Shibahashi", "name:ko": "\uc2dc\ubc14\ud558\uc2dc", "note": "National-Land Numerical Information (Railway) 2007, MLIT Japan", "note:ja": "\u56fd\u571f\u6570\u5024\u60c5\u5831\uff08\u9244\u9053\u30c7\u30fc\u30bf\uff09\u5e73\u621019\u5e74\u3000\u56fd\u571f\u4ea4\u901a\u7701", "public_transport": "station", "railway": "station", "source": "KSJ2", "source_ref": "http://nlftp.mlit.go.jp/ksj/jpgis/datalist/KsjTmplt-N02-v1_1.html", "train": "yes", "wikidata": "Q7496008", "wikipedia": "ja:\u67f4\u6a4b\u99c5"}}, {"type": "node", "id": 3585199041, "lat": 38.3207171, "lon": 140.270377, "tags": {"KSJ2:LIN": "\u5de6\u6ca2\u7dda", "KSJ2:STN": "\u7fbd\u524d\u91d1\u6ca2", "name": "\u7fbd\u524d\u91d1\u6ca2", "name:en": "Uzen-Kanezawa", "name:ja": "\u7fbd\u524d\u91d1\u6ca2", "name:ja_rm": "Uzen-Kanezawa", "name:ko": "\uc6b0\uc820\uce74\ub124\uc790\uc640", "note": "National-Land Numerical Information (Railway) 2007, MLIT Japan", "note:ja": "\u56fd\u571f\u6570\u5024\u60c5\u5831\uff08\u9244\u9053\u30c7\u30fc\u30bf\uff09\u5e73\u621019\u5e74\u3000\u56fd\u571f\u4ea4\u901a\u7701", "public_transport": "station", "railway": "station", "source": "KSJ2", "source_ref": "http://nlftp.mlit.go.jp/ksj/jpgis/datalist/KsjTmplt-N02-v1_1.html", "train": "yes", "wikidata": "Q7904809", "wikipedia": "ja:\u7fbd\u524d\u91d1\u6ca2\u99c5"}}, {"type": "node", "id": 3585199042, "lat": 38.3334872, "lon": 140.2732632, "tags": {"KSJ2:LIN": "\u5de6\u6ca2\u7dda", "KSJ2:STN": "\u7fbd\u524d\u9577\u5d0e", "name": "\u7fbd\u524d\u9577\u5d0e", "name:en": "Uzen-Nagasaki", "name:ja": "\u7fbd\u524d\u9577\u5d0e", "name:ja_rm": "Uzen-Nagasaki", "name:ko": "\uc6b0\uc820\ub098\uac00\uc0ac\ud0a4", "note": "National-Land Numerical Information (Railway) 2007, MLIT Japan", "note:ja": "\u56fd\u571f\u6570\u5024\u60c5\u5831\uff08\u9244\u9053\u30c7\u30fc\u30bf\uff09\u5e73\u621019\u5e74\u3000\u56fd\u571f\u4ea4\u901a\u7701", "public_transport": "station", "railway": "station", "source": "KSJ2", "source_ref": "http://nlftp.mlit.go.jp/ksj/jpgis/datalist/KsjTmplt-N02-v1_1.html", "train": "yes", "wikidata": "Q7904841", "wikipedia": "ja:\u7fbd\u524d\u9577\u5d0e\u99c5"}}, {"type": "node", "id": 3585199043, "lat": 38.3974626, "lon": 140.2484915, "tags": {"KSJ2:LIN": "\u5de6\u6ca2\u7dda", "KSJ2:STN": "\u7fbd\u524d\u9ad8\u677e", "name": "\u7fbd\u524d\u9ad8\u677e", "name:en": "Uzen-Takamatsu", "name:ja": "\u7fbd\u524d\u9ad8\u677e", "name:ja_rm": "Uzen-Takamatsu", "name:ko": "\uc6b0\uc820\ud0c0\uce74\ub9c8\uc4f0", "note": "National-Land Numerical Information (Railway) 2007, MLIT Japan", "note:ja": "\u56fd\u571f\u6570\u5024\u60c5\u5831\uff08\u9244\u9053\u30c7\u30fc\u30bf\uff09\u5e73\u621019\u5e74\u3000\u56fd\u571f\u4ea4\u901a\u7701", "public_transport": "station", "railway": "station", "source": "KSJ2", "source_ref": "http://nlftp.mlit.go.jp/ksj/jpgis/datalist/KsjTmplt-N02-v1_1.html", "train": "yes", "wikidata": "Q7904869", "wikipedia": "ja:\u7fbd\u524d\u9ad8\u677e\u99c5"}}, {"type": "node", "id": 3585199045, "lat": 38.2946123, "lon": 140.2715936, "tags": {"KSJ2:LIN": "\u5de6\u6ca2\u7dda", "KSJ2:STN": "\u7fbd\u524d\u5c71\u8fba", "name": "\u7fbd\u524d\u5c71\u8fba", "name:en": "Uzen-Yamabe", "name:ja": "\u7fbd\u524d\u5c71\u8fba", "name:ja_rm": "Uzen-Yamabe", "name:ko": "\uc6b0\uc820\uc57c\ub9c8\ubca0", "note": "National-Land Numerical Information (Railway) 2007, MLIT Japan", "note:ja": "\u56fd\u571f\u6570\u5024\u60c5\u5831\uff08\u9244\u9053\u30c7\u30fc\u30bf\uff09\u5e73\u621019\u5e74\u3000\u56fd\u571f\u4ea4\u901a\u7701", "public_transport": "station", "railway": "station", "source": "KSJ2", "source_ref": "http://nlftp.mlit.go.jp/ksj/jpgis/datalist/KsjTmplt-N02-v1_1.html", "train": "yes", "wikidata": "Q7904889", "wikipedia": "ja:\u7fbd\u524d\u5c71\u8fba\u99c5"}}, {"type": "node", "id": 6126052051, "lat": 38.1879827, "lon": 140.0975825, "tags": {"image": "https://flower-liner.jp/wp/wp-content/uploads/2016/01/arato.jpg", "mapillary": "303362241284620", "name": "\u8352\u7825", "name:en": "Arato", "name:ja": "\u8352\u7825", "name:ja-Hira": "\u3042\u3089\u3068", "name:ja-Latn": "Arato", "opening_hours": "Mo-Fr 10:00-17:00; Sa-Su,PH off", "phone": "+81 0238-85-2016", "public_transport": "station", "railway": "station", "source": "KSJ2", "website": "https://flower-liner.jp/about/station/", "wikidata": "Q4784437", "wikipedia": "ja:\u8352\u7825\u99c5"}}, {"type": "node", "id": 6126052055, "lat": 38.1858218, "lon": 140.0776309, "tags": {"mapillary": "927975984717522", "name": "\u56db\u5b63\u306e\u90f7", "name:en": "Shikinosato", "name:ja": "\u56db\u5b63\u306e\u90f7", "name:ja-Hira": "\u3057\u304d\u306e\u3055\u3068", "name:ja-Latn": "Shikinosato", "public_transport": "station", "railway": "station", "source": "KSJ2", "website": "https://flower-liner.jp/result_eki/?josyaeki=2", "wikidata": "Q7496595", "wikipedia": "ja:\u56db\u5b63\u306e\u90f7\u99c5"}}, {"type": "node", "id": 6126052056, "lat": 38.1826087, "lon": 140.0710219, "tags": {"mapillary": "469758630966830", "name": "\u9b8e\u8c9d", "name:en": "Ayukai", "name:ja": "\u9b8e\u8c9d", "name:ja-Hira": "\u3042\u3086\u304b\u3044", "name:ja-Latn": "Ayukai", "public_transport": "station", "railway": "station", "source": "KSJ2", "website": "https://flower-liner.jp/result_eki/?josyaeki=3", "wikidata": "Q4831792", "wikipedia": "ja:\u9b8e\u8c9d\u99c5"}}, {"type": "node", "id": 6126052068, "lat": 38.1613789, "lon": 140.0468579, "tags": {"mapillary": "790673288503953", "name": "\u8695\u6851", "name:en": "Koguwa", "name:ja": "\u8695\u6851", "name:ja-Hira": "\u3053\u3050\u308f", "name:ja-Latn": "Koguwa", "public_transport": "station", "railway": "station", "source": "KSJ2", "website": "https://flower-liner.jp/result_eki/?josyaeki=4", "wikidata": "Q6425837", "wikipedia": "ja:\u8695\u6851\u99c5"}}, {"type": "node", "id": 6126052071, "lat": 38.1501321, "lon": 140.0410764, "tags": {"mapillary": "306043057628324", "name": "\u767d\u514e", "name:en": "Shirousagi", "name:ja": "\u767d\u514e", "name:ja-Hira": "\u3057\u308d\u3046\u3055\u304e", "name:ja-Latn": "Shirousagi", "public_transport": "station", "railway": "station", "source": "KSJ2", "website": "https://flower-liner.jp/result_eki/?josyaeki=5", "wikidata": "Q7498961", "wikipedia": "ja:\u767d\u514e\u99c5"}}, {"type": "node", "id": 6126413670, "lat": 38.1717247, "lon": 140.2983928, "tags": {"name": "\u8302\u5409\u8a18\u5ff5\u9928\u524d", "name:en": "Mokichi-Kinenkan-mae", "name:ja-Hira": "\u3082\u304d\u3061\u304d\u306d\u3093\u304b\u3093\u307e\u3048", "name:ja-Latn": "Mokichikinenkanmae", "public_transport": "station", "railway": "station", "source": "KSJ2", "train": "yes", "wikidata": "Q6895338", "wikipedia": "ja:\u8302\u5409\u8a18\u5ff5\u9928\u524d\u99c5"}}, {"type": "node", "id": 6126470641, "lat": 38.2059569, "lon": 140.3036231, "tags": {"name": "\u8535\u738b", "name:en": "Zao", "name:ja-Hira": "\u3056\u304a\u3046", "name:ja-Latn": "Za\u014d", "public_transport": "station", "railway": "station", "source": "KSJ2", "train": "yes", "wikidata": "Q8067684", "wikipedia": "ja:\u8535\u738b\u99c5"}}, {"type": "node", "id": 6126729158, "lat": 38.314412, "lon": 140.3476006, "tags": {"name": "\u6f06\u5c71", "name:en": "Urushiyama", "name:ja-Hira": "\u3046\u308b\u3057\u3084\u307e", "name:ja-Latn": "Urushiyama", "public_transport": "station", "railway": "station", "source": "KSJ2", "train": "yes", "wikidata": "Q7901562", "wikipedia": "ja:\u6f06\u5c71\u99c5 (\u5c71\u5f62\u770c)"}}, {"type": "node", "id": 6126729159, "lat": 38.3028258, "lon": 140.3448164, "tags": {"name": "\u5357\u51fa\u7fbd", "name:en": "Minami-Dewa", "name:ja-Hira": "\u307f\u306a\u307f\u3067\u308f", "name:ja-Latn": "Minamidewa", "public_transport": "station", "railway": "station", "source": "KSJ2", "train": "yes", "wikidata": "Q6862856", "wikipedia": "ja:\u5357\u51fa\u7fbd\u99c5"}}, {"type": "node", "id": 6126772553, "lat": 38.4285068, "lon": 140.3810129, "tags": {"name": "\u3055\u304f\u3089\u3093\u307c\u6771\u6839", "name:de": "Sakurambo-Higashine", "name:en": "Sakurambo-Higashine", "name:ja-Hira": "\u3055\u304f\u3089\u3093\u307c\u3072\u304c\u3057\u306d", "name:ja-Latn": "Sakurambohiigashine", "public_transport": "station", "railway": "station", "source": "KSJ2", "train": "yes", "wikidata": "Q742572", "wikipedia": "ja:\u3055\u304f\u3089\u3093\u307c\u6771\u6839\u99c5"}}, {"type": "node", "id": 6126772557, "lat": 38.4127335, "lon": 140.3786525, "tags": {"name": "\u795e\u753a", "name:en": "Jimmachi", "name:ja-Hira": "\u3058\u3093\u307e\u3061", "name:ja-Latn": "Jimmachi", "public_transport": "station", "railway": "station", "source": "KSJ2", "train": "yes", "wikidata": "Q6199297", "wikipedia": "ja:\u795e\u753a\u99c5"}}, {"type": "node", "id": 6126772559, "lat": 38.3871854, "lon": 140.3748813, "tags": {"name": "\u4e71\u5ddd", "name:en": "Midaregawa", "name:ja-Hira": "\u307f\u3060\u308c\u304c\u308f", "name:ja-Latn": "Midaregawa", "public_transport": "station", "railway": "station", "source": "KSJ2", "train": "yes", "wikidata": "Q11370550", "wikipedia": "ja:\u4e71\u5ddd\u99c5"}}, {"type": "node", "id": 6126772566, "lat": 38.3310513, "lon": 140.3590053, "tags": {"name": "\u9ad8\u64f6", "name:en": "Takatama", "name:ja-Hira": "\u305f\u304b\u305f\u307e", "name:ja-Latn": "Takatama", "public_transport": "station", "railway": "station", "source": "KSJ2", "train": "yes", "wikidata": "Q7677422", "wikipedia": "ja:\u9ad8\u64f6\u99c5"}}, {"type": "node", "id": 6126793988, "lat": 38.4510996, "lon": 140.3840505, "tags": {"name": "\u6771\u6839", "name:en": "Higashine", "name:ja-Hira": "\u3072\u304c\u3057\u306d", "name:ja-Latn": "Higashine", "public_transport": "station", "railway": "station", "source": "KSJ2", "train": "yes", "wikidata": "Q5754099", "wikipedia": "ja:\u6771\u6839\u99c5"}}, {"type": "node", "id": 6128684291, "lat": 38.4770786, "lon": 140.3864953, "tags": {"name": "\u6751\u5c71", "name:de": "Murayama", "name:en": "Murayama", "name:ja-Hira": "\u3080\u3089\u3084\u307e", "name:ja-Latn": "Murayama", "public_transport": "station", "railway": "station", "source": "KSJ2", "train": "yes", "wikidata": "Q1053166", "wikipedia": "ja:\u6751\u5c71\u99c5 (\u5c71\u5f62\u770c)"}}, {"type": "node", "id": 6130861596, "lat": 38.5488744, "lon": 140.3915888, "tags": {"name": "\u8896\u5d0e", "name:en": "Sodesaki", "name:ja-Hira": "\u305d\u3067\u3055\u304d", "name:ja-Latn": "Sodesaki", "public_transport": "station", "railway": "station", "source": "KSJ2", "train": "yes", "wikidata": "Q7553256", "wikipedia": "ja:\u8896\u5d0e\u99c5"}}, {"type": "node", "id": 11219422099, "lat": 38.3415464, "lon": 140.3655963, "tags": {"name": "\u5929\u7ae5\u5357", "public_transport": "station", "railway": "station", "train": "yes"}}]}