{"version": 0.6, "generator": "Overpass API 0.7.62.4 2390de5a", "osm3s": {"timestamp_osm_base": "2024-12-30T14:56:06Z", "copyright": "The data included in this document is from www.openstreetmap.org. The data is made available under ODbL."}, "elements": [{"type": "node", "id": 265830087, "lat": 36.4714388, "lon": 137.238548, "tags": {"name": "\u732a\u8c37", "name:en": "Inotani", "name:ja": "\u732a\u8c37", "name:ja_kana": "\u3044\u306e\u305f\u306b", "name:ja_rm": "Inotani", "name:ko": "\uc774\ub178\ud0c0\ub2c8", "public_transport": "station", "railway": "station", "source": "KSJ2", "wikidata": "Q5357888", "wikipedia": "ja:\u732a\u8c37\u99c5"}}, {"type": "node", "id": 270012019, "lat": 36.7490375, "lon": 137.6414888, "tags": {"name": "\u732b\u53c8", "name:en": "Nekomata", "name:ja": "\u732b\u53c8", "name:ja_kana": "\u306d\u3053\u307e\u305f", "name:ja_rm": "Nekomata", "name:ko": "\ub124\ucf54\ub9c8\ud0c0", "railway": "station", "source": "KSJ2", "wikidata": "Q11572000", "wikipedia": "ja:\u732b\u53c8\u99c5"}}, {"type": "node", "id": 270012045, "lat": 36.7108187, "lon": 137.6469121, "tags": {"name": "\u5c0f\u5c4b\u5e73", "name:en": "Koyadaira", "name:ja": "\u5c0f\u5c4b\u5e73", "name:ja_kana": "\u3053\u3084\u3060\u3044\u3089", "name:ja_rm": "Koyadaira", "name:ko": "\ucf54\uc57c\ub2e4\uc774\ub77c", "railway": "station", "source": "KSJ2", "wikidata": "Q11459767", "wikipedia": "ja:\u5c0f\u5c4b\u5e73\u99c5"}}, {"type": "node", "id": 270012918, "lat": 36.734323, "lon": 137.6515638, "tags": {"name": "\u9418\u91e3", "name:en": "Kanetsuri", "name:ja": "\u9418\u91e3", "name:ja_kana": "\u304b\u306d\u3064\u308a", "name:ja_rm": "Kanetsuri", "name:ko": "\uac00\ub124\uc4f0\ub9ac", "railway": "station", "source": "KSJ2", "wikidata": "Q11651339", "wikipedia": "ja:\u9418\u91e3\u99c5"}}, {"type": "node", "id": 270014089, "lat": 36.7350854, "lon": 137.3509236, "tags": {"name": "\u4e2d\u52a0\u7a4d", "name:en": "Nakakazumi", "name:ja": "\u4e2d\u52a0\u7a4d", "name:ja_kana": "\u306a\u304b\u304b\u305a\u307f", "name:ja_rm": "Nakakazumi", "name:ko": "\ub098\uce74\uce74\uc988\ubbf8", "railway": "station", "source": "KSJ2", "wikidata": "Q6960203", "wikipedia": "ja:\u4e2d\u52a0\u7a4d\u99c5"}}, {"type": "node", "id": 270014093, "lat": 36.702007, "lon": 137.3359384, "tags": {"name": "\u76f8\u30ce\u6728", "name:en": "Ainoki", "name:ja": "\u76f8\u30ce\u6728", "name:ja_kana": "\u3042\u3044\u306e\u304d", "name:ja_rm": "Ainoki", "name:ko": "\uc544\uc774\ub178\ud0a4", "public_transport": "station", "railway": "station", "source": "KSJ2", "wikidata": "Q4697465", "wikipedia": "ja:\u76f8\u30ce\u6728\u99c5"}}, {"type": "node", "id": 270014114, "lat": 36.7031357, "lon": 137.3423559, "tags": {"name": "\u65b0\u76f8\u30ce\u6728", "name:ja-Hira": "\u3057\u3093\u3042\u3044\u306e\u304d", "public_transport": "station", "railway": "station", "train": "yes", "wikidata": "Q17216995", "wikipedia": "ja:\u65b0\u76f8\u30ce\u6728\u99c5"}}, {"type": "node", "id": 270014226, "lat": 36.6997574, "lon": 137.326918, "tags": {"name": "\u8d8a\u4e2d\u6cc9", "name:en": "Etchu-Izumi", "name:ja": "\u8d8a\u4e2d\u6cc9", "name:ja_kana": "\u3048\u3063\u3061\u3085\u3046\u3044\u305a\u307f", "name:ja_rm": "Etch\u016b-Izumi", "name:ko": "\uc5e3\ucd94\uc774\uc988\ubbf8", "public_transport": "station", "railway": "station", "source": "KSJ2", "wikidata": "Q5402514", "wikipedia": "ja:\u8d8a\u4e2d\u6cc9\u99c5"}}, {"type": "node", "id": 270014375, "lat": 36.717666, "lon": 137.3510161, "tags": {"name": "\u65b0\u5bae\u5ddd", "name:en": "Shin-Miyakawa", "name:ja": "\u65b0\u5bae\u5ddd", "name:ja_kana": "\u3057\u3093\u307f\u3084\u304b\u308f", "name:ja_rm": "Shin-Miyakawa", "name:ko": "\uc2e0\ubbf8\uc57c\uce74\uc640", "railway": "station", "source": "KSJ2", "wikidata": "Q7497119", "wikipedia": "ja:\u65b0\u5bae\u5ddd\u99c5"}}, {"type": "node", "id": 270028060, "lat": 36.6195021, "lon": 137.2756175, "tags": {"name": "\u5927\u5e84", "name:en": "Osho", "name:ja": "\u5927\u5e84", "name:ja_kana": "\u304a\u304a\u3057\u3087\u3046", "name:ja_rm": "\u014csh\u014d", "name:ko": "\uc624\uc1fc", "public_transport": "station", "railway": "station", "source": "KSJ2", "wikidata": "Q8081714", "wikipedia": "ja:\u5927\u5e84\u99c5"}}, {"type": "node", "id": 270028097, "lat": 36.6095076, "lon": 137.2961966, "tags": {"name": "\u4e0a\u6edd", "name:en": "Kamidaki", "name:ja": "\u4e0a\u6edd", "name:ja_kana": "\u304b\u307f\u3060\u304d", "name:ja_rm": "Kamidaki", "name:ko": "\uac00\ubbf8\ub2e4\ud0a4", "railway": "station", "source": "KSJ2", "wikidata": "Q6357349", "wikipedia": "ja:\u4e0a\u6edd\u99c5"}}, {"type": "node", "id": 270028150, "lat": 36.6082801, "lon": 137.3089104, "tags": {"name": "\u5927\u5ddd\u5bfa", "name:en": "Daisenji", "name:ja": "\u5927\u5ddd\u5bfa", "name:ja_kana": "\u3060\u3044\u305b\u3093\u3058", "name:ja_rm": "Daisenji", "name:ko": "\ub2e4\uc774\uc13c\uc9c0", "railway": "station", "source": "KSJ2", "wikidata": "Q5209603", "wikipedia": "ja:\u5927\u5ddd\u5bfa\u99c5"}}, {"type": "node", "id": 270028156, "lat": 36.6500086, "lon": 137.232688, "tags": {"name": "\u5c0f\u6749", "name:en": "Kosugi", "name:ja": "\u5c0f\u6749", "name:ja_rm": "Kosugi", "name:ko": "\uace0\uc2a4\uae30", "public_transport": "station", "railway": "station", "source": "KSJ2", "wikidata": "Q6433616", "wikipedia": "ja:\u5c0f\u6749\u99c5 (\u5bcc\u5c71\u5e02)"}}, {"type": "node", "id": 270028158, "lat": 36.6537488, "lon": 137.2298768, "tags": {"name": "\u4e0a\u5800", "name:en": "Kamihori", "name:ja": "\u4e0a\u5800", "name:ja_kana": "\u304b\u307f\u307b\u308a", "name:ja_rm": "Kamihori", "name:ko": "\uac00\ubbf8\ud638\ub9ac", "public_transport": "station", "railway": "station", "source": "KSJ2", "wikidata": "Q6357789", "wikipedia": "ja:\u4e0a\u5800\u99c5"}}, {"type": "node", "id": 270028209, "lat": 36.626532, "lon": 137.2635466, "tags": {"name": "\u6708\u5ca1", "name:en": "Tsukioka", "name:ja": "\u6708\u5ca1", "name:ja_kana": "\u3064\u304d\u304a\u304b", "name:ja_rm": "Tsukioka", "name:ko": "\uc4f0\ud0a4\uc624\uce74", "public_transport": "station", "railway": "station", "source": "KSJ2", "wikidata": "Q11516067", "wikipedia": "ja:\u6708\u5ca1\u99c5 (\u5bcc\u5c71\u770c)"}}, {"type": "node", "id": 270028238, "lat": 36.6362214, "lon": 137.2429233, "tags": {"name": "\u958b\u767a", "name:en": "Kaihotsu", "name:ja": "\u958b\u767a", "name:ja_kana": "\u304b\u3044\u307b\u3064", "name:ja_rm": "Kaihotsu", "name:ko": "\uac00\uc774\ud558\uc4f0", "public_transport": "station", "railway": "station", "source": "KSJ2", "wikidata": "Q6347695", "wikipedia": "ja:\u958b\u767a\u99c5"}}, {"type": "node", "id": 270028272, "lat": 36.6451354, "lon": 137.2355389, "tags": {"name": "\u5e03\u5e02", "name:en": "Nunoichi", "name:ja": "\u5e03\u5e02", "name:ja_kana": "\u306c\u306e\u3044\u3061", "name:ja_rm": "Nunoichi", "name:ko": "\ub204\ub178\uc774\uce58", "public_transport": "station", "railway": "station", "source": "KSJ2", "wikidata": "Q7069908", "wikipedia": "ja:\u5e03\u5e02\u99c5"}}, {"type": "node", "id": 270028301, "lat": 36.6875313, "lon": 137.2323717, "tags": {"name": "\u4e0d\u4e8c\u8d8a", "name:en": "Fujikoshi", "name:ja": "\u4e0d\u4e8c\u8d8a", "name:ja_kana": "\u3075\u3058\u3053\u3057", "name:ja_rm": "Fujikoshi", "name:ko": "\ud6c4\uc9c0\ucf54\uc2dc", "public_transport": "station", "railway": "station", "source": "KSJ2", "wheelchair": "yes", "wikidata": "Q5507428", "wikipedia": "ja:\u4e0d\u4e8c\u8d8a\u99c5"}}, {"type": "node", "id": 270028324, "lat": 36.6775945, "lon": 137.228834, "tags": {"name": "\u5927\u6cc9", "name:en": "Oizumi", "name:ja": "\u5927\u6cc9", "name:ja_rm": "\u014cizumi", "name:ko": "\uc624\uc774\uc988\ubbf8", "public_transport": "station", "railway": "station", "source": "KSJ2", "wikidata": "Q8081527", "wikipedia": "ja:\u5927\u6cc9\u99c5 (\u5bcc\u5c71\u770c)"}}, {"type": "node", "id": 270041467, "lat": 36.6476952, "lon": 137.3179114, "tags": {"name": "\u4e0b\u6bb5", "name:en": "Shitadan", "name:ja": "\u4e0b\u6bb5", "name:ja_kana": "\u3057\u305f\u3060\u3093", "name:ja_rm": "Shitadan", "name:ko": "\uc2dc\ud0c0\ub2e8", "railway": "station", "source": "KSJ2", "wikidata": "Q7499138", "wikipedia": "ja:\u4e0b\u6bb5\u99c5"}}, {"type": "node", "id": 270041486, "lat": 36.5750099, "lon": 137.3962106, "tags": {"name": "\u672c\u5bae", "name:en": "Hongu", "name:ja": "\u672c\u5bae", "name:ja_kana": "\u307b\u3093\u3050\u3046", "name:ja_rm": "Hong\u016b", "name:ko": "\ud63c\uad6c", "public_transport": "station", "railway": "station", "source": "KSJ2", "wikidata": "Q11520141", "wikipedia": "ja:\u672c\u5bae\u99c5 (\u5bcc\u5c71\u770c)"}}, {"type": "node", "id": 270041527, "lat": 36.6575871, "lon": 137.3168003, "tags": {"name": "\u698e\u753a", "name:en": "Enoki-machi", "name:ja": "\u698e\u753a", "name:ja_kana": "\u3048\u306e\u304d\u307e\u3061", "name:ja_rm": "Enoki-machi", "name:ko": "\uc5d0\ub178\ud0a4\ub9c8\uce58", "railway": "station", "source": "KSJ2", "wikidata": "Q5379374", "wikipedia": "ja:\u698e\u753a\u99c5"}}, {"type": "node", "id": 270041532, "lat": 36.679431, "lon": 137.317776, "tags": {"name": "\u7530\u6dfb", "name:en": "Tazoe", "name:ja": "\u7530\u6dfb", "name:ja_kana": "\u305f\u305e\u3048", "name:ja_rm": "Tazoe", "name:ko": "\ub2e4\uc870\uc5d0", "railway": "station", "source": "KSJ2", "wikidata": "Q7690465", "wikipedia": "ja:\u7530\u6dfb\u99c5"}}, {"type": "node", "id": 270041545, "lat": 36.6863119, "lon": 137.3176282, "tags": {"name": "\u7a1a\u5b50\u585a", "name:en": "Chigozuka", "name:ja": "\u7a1a\u5b50\u585a", "name:ja_kana": "\u3061\u3054\u3065\u304b", "name:ja_rm": "Chigozuka", "name:ko": "\uc9c0\uace0\uc988\uce74", "public_transport": "station", "railway": "station", "source": "KSJ2", "wikidata": "Q5097230", "wikipedia": "ja:\u7a1a\u5b50\u585a\u99c5"}}, {"type": "node", "id": 270041589, "lat": 36.5822074, "lon": 137.3357033, "tags": {"name": "\u6a2a\u6c5f", "name:en": "Yokoe", "name:ja": "\u6a2a\u6c5f", "name:ja_kana": "\u3088\u3053\u3048", "name:ja_rm": "Yokoe", "name:ko": "\uc694\ucf54\uc5d0", "railway": "station", "source": "KSJ2", "wikidata": "Q8054605", "wikipedia": "ja:\u6a2a\u6c5f\u99c5"}}, {"type": "node", "id": 270041934, "lat": 36.6224376, "lon": 137.3210952, "tags": {"name": "\u6ca2\u4e2d\u5c71", "name:en": "Sawanakayama", "name:ja": "\u6ca2\u4e2d\u5c71", "name:ja_kana": "\u3055\u308f\u306a\u304b\u3084\u307e", "name:ja_rm": "Sawanakayama", "name:ko": "\uc0ac\uc640\ub098\uce74\uc57c\ub9c8", "railway": "station", "source": "KSJ2", "wikidata": "Q7428575", "wikipedia": "ja:\u6ca2\u4e2d\u5c71\u99c5"}}, {"type": "node", "id": 270041991, "lat": 36.6330153, "lon": 137.3195187, "tags": {"name": "\u91dc\u30f6\u6df5", "name:en": "Kamagafuchi", "name:ja": "\u91dc\u30f6\u6df5", "name:ja_kana": "\u304b\u307e\u304c\u3075\u3061", "name:ja_rm": "Kamagafuchi", "name:ko": "\uac00\ub9c8\uac00\ud6c4\uce58", "railway": "station", "source": "KSJ2", "wikidata": "Q6355253", "wikipedia": "ja:\u91dc\u30f6\u6df5\u99c5"}}, {"type": "node", "id": 270042068, "lat": 36.573656, "lon": 137.373534, "tags": {"name": "\u5343\u57a3", "name:en": "Chigaki", "name:ja": "\u5343\u57a3", "name:ja_kana": "\u3061\u304c\u304d", "name:ja_rm": "Chigaki", "name:ko": "\uc9c0\uac00\ud0a4", "public_transport": "station", "railway": "station", "source": "KSJ2", "wikidata": "Q5097198", "wikipedia": "ja:\u5343\u57a3\u99c5"}}, {"type": "node", "id": 270042110, "lat": 36.5730786, "lon": 137.3801895, "tags": {"name": "\u6709\u5cf0\u53e3", "name:en": "Arimineguchi", "name:ja": "\u6709\u5cf0\u53e3", "name:ja_kana": "\u3042\u308a\u307f\u306d\u3050\u3061", "name:ja_rm": "Arimineguchi", "name:ko": "\uc544\ub9ac\ubbf8\ub124\uad6c\uce58", "railway": "station", "source": "KSJ2", "wikidata": "Q4790693", "wikipedia": "ja:\u6709\u5cf0\u53e3\u99c5"}}, {"type": "node", "id": 270042155, "lat": 36.6654108, "lon": 137.3142786, "tags": {"name": "\u4e94\u767e\u77f3", "name:en": "Gohyakkoku", "name:ja": "\u4e94\u767e\u77f3", "name:ja_kana": "\u3054\u3072\u3083\u3063\u3053\u304f", "name:ja_rm": "Gohyakkoku", "name:ko": "\uace0\ud590\ucfe0\ucf54\ucfe0", "railway": "station", "source": "KSJ2", "wikidata": "Q5577607", "wikipedia": "ja:\u4e94\u767e\u77f3\u99c5"}}, {"type": "node", "id": 270043111, "lat": 36.7311739, "lon": 137.2260519, "tags": {"light_rail": "yes", "name": "\u57ce\u5ddd\u539f", "name:en": "Jogawara", "name:ja": "\u57ce\u5ddd\u539f", "operator": "\u5bcc\u5c71\u5730\u65b9\u9244\u9053", "public_transport": "station", "railway": "station", "source": "KSJ2", "station": "light_rail", "train": "yes", "wikidata": "Q11426147", "wikipedia": "ja:\u57ce\u5ddd\u539f\u99c5"}}, {"type": "node", "id": 270043120, "lat": 36.7224891, "lon": 137.2248971, "tags": {"light_rail": "yes", "name": "\u8d8a\u4e2d\u4e2d\u5cf6", "name:en": "Etchu-Nakajima", "name:ja": "\u8d8a\u4e2d\u4e2d\u5cf6", "operator": "\u5bcc\u5c71\u5730\u65b9\u9244\u9053", "public_transport": "station", "railway": "station", "source": "KSJ2", "station": "light_rail", "train": "yes", "wikidata": "Q11636375", "wikipedia": "ja:\u8d8a\u4e2d\u4e2d\u5cf6\u99c5"}}, {"type": "node", "id": 270043126, "lat": 36.7192591, "lon": 137.2248127, "tags": {"light_rail": "yes", "name": "\u7c9f\u5cf6 (\u5927\u962a\u5c4b\u30b7\u30e7\u30c3\u30d7\u524d)", "name:en": "Awajima", "name:ja": "\u7c9f\u5cf6\uff08\u5927\u962a\u5c4b\u30b7\u30e7\u30c3\u30d7\u524d\uff09", "operator": "\u5bcc\u5c71\u5730\u65b9\u9244\u9053", "public_transport": "station", "railway": "station", "source": "KSJ2", "station": "light_rail", "train": "yes", "wikidata": "Q11604591", "wikipedia": "ja:\u7c9f\u5cf6\u99c5"}}, {"type": "node", "id": 270043139, "lat": 36.712293, "lon": 137.224646, "tags": {"light_rail": "yes", "name": "\u4e0b\u5965\u4e95", "name:en": "Shimookui", "name:ja": "\u4e0b\u5965\u4e95", "operator": "\u5bcc\u5c71\u5730\u65b9\u9244\u9053", "public_transport": "station", "railway": "station", "source": "KSJ2", "station": "light_rail", "train": "yes", "wikidata": "Q11360765", "wikipedia": "ja:\u4e0b\u5965\u4e95\u99c5"}}, {"type": "node", "id": 711974372, "lat": 36.5834261, "lon": 137.4458919, "tags": {"name": "\u7acb\u5c71", "name:en": "Mt. Tate", "name:fr": "Mont Tate", "name:ja-Latn": "Tateyama", "name:ja_kana": "\u305f\u3066\u3084\u307e", "name:ko": "\ub2e4\ud14c\uc57c\ub9c8", "public_transport": "station", "railway": "station", "ref": "T56", "station": "funicular", "wikidata": "Q7688024", "wikimedia_commons": "Category:Tateyama Station (Toyama)", "wikipedia": "ja:\u7acb\u5c71\u99c5"}}, {"type": "node", "id": 711974388, "lat": 36.5833471, "lon": 137.4585968, "tags": {"name": "\u7f8e\u5973\u5e73", "name:en": "Bijodaira", "name:fr": "Bijodaira", "name:ja-Hira": "Bijodaira", "name:ja-Latn": "\u3073\u3058\u3087\u3060\u3044\u3089", "name:ko": "\ube44\uc870\ub2e4\uc774\ub77c", "public_transport": "station", "railway": "station", "station": "funicular", "wikidata": "Q4907236", "wikimedia_commons": "Category:Bijodaira Station", "wikipedia": "ja:\u7f8e\u5973\u5e73\u99c5"}}, {"type": "node", "id": 711976380, "lat": 36.5671451, "lon": 137.6501481, "tags": {"ele": "1828", "funicular": "yes", "level": "1", "name": "\u9ed2\u90e8\u5e73", "name:en": "Kurobedaira", "name:fr": "Kurobedaira", "name:ja-Hira": "\u304f\u308d\u3079\u3060\u3044\u3089", "name:ja-Latn": "Kurobedaira", "operator": "\u7acb\u5c71\u9ed2\u90e8\u8cab\u5149", "public_transport": "stop_position", "railway": "station", "start_date": "1969-07-20"}}, {"type": "node", "id": 2080163640, "lat": 36.6968748, "lon": 137.6581056, "tags": {"name": "\u6b05\u5e73", "name:en": "Keyakidaira", "name:ja": "\u6b05\u5e73", "name:ja_kana": "\u3051\u3084\u304d\u3060\u3044\u3089", "name:ja_rm": "Keyakidaira", "name:ko": "\uac8c\uc57c\ud0a4\ub2e4\uc774\ub77c", "public_transport": "station", "railway": "station", "source": "KSJ2", "wikidata": "Q11544856", "wikipedia": "ja:\u6b05\u5e73\u99c5"}}, {"type": "node", "id": 2080846378, "lat": 36.5665265, "lon": 137.6582898, "tags": {"contact:website": "https://www.alpen-route.com/facilities/station/station07.html", "ele": "1455", "layer": "-1", "level": "-1", "name": "\u9ed2\u90e8\u6e56", "name:en": "Kurobeko", "name:fr": "Kurobeko", "name:ja-Hira": "\u304f\u308d\u3079\u3053", "name:ja-Latn": "Kurobeko", "public_transport": "station", "railway": "station", "start_date": "1969-07-20", "wikidata": "Q11678857", "wikimedia_commons": "Category:Kurobeko Station", "wikipedia": "ja:\u9ed2\u90e8\u6e56\u99c5"}}, {"type": "node", "id": 4437592203, "lat": 36.5569836, "lon": 137.5050747, "tags": {"name": "\u9b3c\u30f6\u57ce\u9023\u7d61\u6240", "operator": "\u56fd\u571f\u4ea4\u901a\u7701\u5317\u9678\u5730\u65b9\u6574\u5099\u5c40\u7acb\u5c71\u7802\u9632\u4e8b\u52d9\u6240", "public_transport": "station", "railway": "station", "train": "yes"}}, {"type": "node", "id": 4437592256, "lat": 36.5671536, "lon": 137.4849781, "tags": {"name": "\u6851\u8c37\u9023\u7d61\u6240", "public_transport": "station", "railway": "station", "train": "yes"}}, {"type": "node", "id": 4437592284, "lat": 36.5691082, "lon": 137.471573, "tags": {"name": "\u4e2d\u5c0f\u5c4b\u9023\u7d61\u6240", "public_transport": "station", "railway": "station", "train": "yes"}}, {"type": "node", "id": 5211453055, "lat": 36.7311452, "lon": 137.2260826, "tags": {"light_rail": "yes", "name": "\u57ce\u5ddd\u539f", "name:en": "Jogawara", "name:ja": "\u57ce\u5ddd\u539f", "operator": "\u5bcc\u5c71\u5730\u65b9\u9244\u9053", "public_transport": "station", "railway": "station", "source": "KSJ2", "station": "light_rail", "train": "yes", "wikidata": "Q11426147", "wikipedia": "ja:\u57ce\u5ddd\u539f\u99c5"}}, {"type": "node", "id": 5211891021, "lat": 36.7351913, "lon": 137.2265929, "tags": {"light_rail": "yes", "name": "\u72ac\u5cf6\u65b0\u753a", "name:en": "Inujima-Shimmachi", "name:ja": "\u72ac\u5cf6\u65b0\u753a", "operator": "\u5bcc\u5c71\u5730\u65b9\u9244\u9053", "public_transport": "station", "railway": "station", "source": "KSJ2", "station": "light_rail", "train": "yes", "wikidata": "Q11571223", "wikipedia": "ja:\u72ac\u5cf6\u65b0\u753a\u99c5"}}, {"type": "node", "id": 5770394957, "lat": 36.5484576, "lon": 137.5143291, "tags": {"name": "\u6a3a\u5e73\u9023\u7d61\u6240", "public_transport": "station", "railway": "station", "train": "yes"}}, {"type": "node", "id": 5770455204, "lat": 36.5507837, "lon": 137.5311761, "tags": {"name": "\u6c34\u8c37\u9023\u7d61\u6240", "public_transport": "station", "railway": "station", "train": "yes"}}, {"type": "node", "id": 5935761085, "lat": 36.734266, "lon": 137.6514763}, {"type": "node", "id": 6342854861, "lat": 36.6916369, "lon": 137.2333827, "tags": {"alt_name": "\u770c\u7acb\u4e2d\u592e\u75c5\u9662\u53e3", "alt_name:ja": "\u770c\u7acb\u4e2d\u592e\u75c5\u9662\u53e3", "alt_name:ja-Hira": "\u3051\u3093\u308a\u3064\u3061\u3085\u3046\u304a\u3046\u3073\u3087\u3046\u3044\u3093\u3050\u3061", "alt_name:ja-Latn": "Kenritsu ch\u00fb\u00f4 by\u00f4in guchi", "name": "\u6804\u753a", "name:en": "Sakaemachi", "name:ja": "\u6804\u753a", "name:ja-Hira": "\u3055\u304b\u3048\u307e\u3061", "name:ja-Latn": "Sakaemachi", "network": "\u5bcc\u5c71\u5730\u65b9\u9244\u9053\u4e0d\u4e8c\u8d8a\u7dda", "operator": "\u5bcc\u5c71\u5730\u65b9\u9244\u9053", "public_transport": "station", "railway": "station", "ref": "T58", "start_date": "2019-03-16", "website": "https://www.chitetsu.co.jp/?station_info=%E6%A0%84%E7%94%BA%E9%A7%85", "wikidata": "Q62070777", "wikipedia": "ja:\u6804\u753a\u99c5 (\u5bcc\u5c71\u770c)"}}, {"type": "node", "id": 6630533425, "lat": 36.7346946, "lon": 137.6514228}, {"type": "node", "id": 8142027024, "lat": 36.704452, "lon": 137.3569576, "tags": {"bus": "no", "name": "\u4e0a\u5e02", "name:en": "Kamiichi", "name:ja": "\u4e0a\u5e02", "name:ja_kana": "\u304b\u307f\u3044\u3061", "name:ja_rm": "Kamiichi", "name:ko": "\uac00\ubbf8\uc774\uce58", "public_transport": "station", "railway": "station", "source": "KSJ2", "wikidata": "Q6357793", "wikipedia": "ja:\u4e0a\u5e02\u99c5"}}, {"type": "node", "id": 8142283005, "lat": 36.6987221, "lon": 137.2533064, "tags": {"name": "\u6771\u65b0\u5e84", "name:en": "Higashi-Shinjo", "name:ja": "\u6771\u65b0\u5e84", "name:ja_kana": "\u3072\u304c\u3057\u3057\u3093\u3058\u3087\u3046", "name:ja_rm": "Higashi-Shinj\u014d", "name:ko": "\ud788\uac00\uc2dc\uc2e0\uc870", "public_transport": "station", "railway": "station", "source": "KSJ2", "wikidata": "Q5753826", "wikipedia": "ja:\u6771\u65b0\u5e84\u99c5"}}, {"type": "node", "id": 8142283006, "lat": 36.6969102, "lon": 137.2315429, "tags": {"name": "\u7a32\u8377\u753a", "name:en": "Inari-machi", "name:ja": "\u7a32\u8377\u753a", "name:ja_kana": "\u3044\u306a\u308a\u307e\u3061", "name:ja_rm": "Inari-machi", "name:ko": "\uc774\ub098\ub9ac\ub9c8\uce58", "public_transport": "station", "railway": "station", "source": "KSJ2", "wikidata": "Q6013599", "wikipedia": "ja:\u7a32\u8377\u753a\u99c5 (\u5bcc\u5c71\u770c)"}}, {"type": "node", "id": 8145864795, "lat": 36.6988403, "lon": 137.318645, "tags": {"name": "\u5bfa\u7530", "name:en": "Terada", "name:ja": "\u5bfa\u7530", "name:ja_kana": "\u3066\u3089\u3060", "name:ja_rm": "Terada", "name:ko": "\ub370\ub77c\ub2e4", "public_transport": "station", "railway": "station", "source": "KSJ2", "wikidata": "Q7701505", "wikipedia": "ja:\u5bfa\u7530\u99c5 (\u5bcc\u5c71\u770c)"}}, {"type": "node", "id": 8145864798, "lat": 36.6082893, "lon": 137.3196937, "tags": {"bus": "no", "name": "\u5ca9\u5cc5\u5bfa", "name:en": "Iwakuraji", "name:ja": "\u5ca9\u5cc5\u5bfa", "name:ja_kana": "\u3044\u308f\u304f\u3089\u3058", "name:ja_rm": "Iwakuraji", "name:ko": "\uc774\uc640\ucfe0\ub77c\uc9c0", "public_transport": "station", "railway": "station", "source": "KSJ2", "wikidata": "Q6100451", "wikipedia": "ja:\u5ca9\u5cc5\u5bfa\u99c5"}}, {"type": "node", "id": 8145899493, "lat": 36.7055715, "lon": 137.3065074, "tags": {"name": "\u8d8a\u4e2d\u821f\u6a4b", "name:en": "Etchu-Funahashi", "name:ja": "\u8d8a\u4e2d\u821f\u6a4b", "name:ja_kana": "\u3048\u3063\u3061\u3085\u3046\u3075\u306a\u306f\u3057", "name:ja_rm": "Etch\u016b-Funahashi", "name:ko": "\uc5e3\ucd94\ud6c4\ub098\ud558\uc2dc", "public_transport": "station", "railway": "station", "source": "KSJ2", "wikidata": "Q5402511", "wikipedia": "ja:\u8d8a\u4e2d\u821f\u6a4b\u99c5"}}, {"type": "node", "id": 8146161187, "lat": 36.698036, "lon": 137.2421899, "tags": {"name": "\u65b0\u5e84\u7530\u4e2d", "operator": "\u5bcc\u5c71\u5730\u65b9\u9244\u9053", "public_transport": "station", "railway": "station", "source": "survey 2017-05-13"}}, {"type": "node", "id": 8146161204, "lat": 36.6992145, "lon": 137.2664934, "tags": {"name": "\u8d8a\u4e2d\u834f\u539f", "name:en": "Etchu-Ebara", "name:ja": "\u8d8a\u4e2d\u834f\u539f", "name:ja_kana": "\u3048\u3063\u3061\u3085\u3046\u3048\u3070\u3089", "name:ja_rm": "Etch\u016b-Ebara", "name:ko": "\uc5e3\ucd94\uc5d0\ubc14\ub77c", "public_transport": "station", "railway": "station", "source": "KSJ2", "wikidata": "Q5402512", "wikipedia": "ja:\u8d8a\u4e2d\u834f\u539f\u99c5"}}, {"type": "node", "id": 8146161214, "lat": 36.703365, "lon": 137.2907808, "tags": {"name": "\u8d8a\u4e2d\u4e09\u90f7", "name:en": "Etchu-Sango", "name:ja": "\u8d8a\u4e2d\u4e09\u90f7", "name:ja_rm": "Etch\u016b-Sang\u014d", "name:ko": "\uc5e3\ucd94\uc0b0\uace0", "public_transport": "station", "railway": "station", "source": "KSJ2", "wikidata": "Q5402527", "wikipedia": "ja:\u8d8a\u4e2d\u4e09\u90f7\u99c5"}}, {"type": "node", "id": 8154338342, "lat": 36.7412915, "lon": 137.2490215, "tags": {"name": "\u6771\u5bcc\u5c71", "name:en": "Higashi-Toyama", "name:ja": "\u6771\u5bcc\u5c71", "name:ja_kana": "\u3072\u304c\u3057\u3068\u3084\u307e", "name:ja_rm": "Higashi-Toyama", "name:ko": "\ud788\uac00\uc2dc\ud1a0\uc57c\ub9c8", "operator": "\u3042\u3044\u306e\u98a8\u3068\u3084\u307e\u9244\u9053", "public_transport": "station", "railway": "station", "source": "KSJ2", "wikidata": "Q5359944", "wikipedia": "ja:\u6771\u5bcc\u5c71\u99c5"}}, {"type": "node", "id": 8236200156, "lat": 36.6501212, "lon": 137.6827126, "tags": {"access": "private", "name": "\u4ed9\u4eba\u8c37", "name:en": "Sennindani", "name:ja": "\u4ed9\u4eba\u8c37", "public_transport": "station", "railway": "station", "train": "yes"}}, {"type": "node", "id": 9572307645, "lat": 36.7192289, "lon": 137.2405803, "tags": {"addr:block_number": "1", "addr:city": "\u5bcc\u5c71\u5e02", "addr:housenumber": "3", "addr:neighbourhood": "2\u4e01\u76ee", "addr:postcode": "930-0814", "addr:province": "\u5bcc\u5c71\u770c", "addr:quarter": "\u4e0b\u51a8\u5c45", "name": "\u65b0\u5bcc\u5c71\u53e3", "name:en": "Shin-Toyamaguchi", "name:ja": "\u65b0\u5bcc\u5c71\u53e3", "name:ja-Hira": "\u3057\u3093\u3068\u3084\u307e\u3050\u3061", "name:ja-Latn": "Shin-Toyamaguchi", "public_transport": "station", "railway": "station", "source": "survey;Bing;GSImaps/std", "start_date": "2022-03-12", "train": "yes", "wikidata": "Q105545827", "wikipedia": "ja:\u65b0\u5bcc\u5c71\u53e3\u99c5"}}, {"type": "node", "id": 10036683333, "lat": 36.5475364, "lon": 137.5325513, "tags": {"public_transport": "station", "railway": "station", "train": "yes"}}, {"type": "node", "id": 10036683334, "lat": 36.5476316, "lon": 137.5347869, "tags": {"public_transport": "station", "railway": "station", "train": "yes"}}, {"type": "node", "id": 10935412341, "lat": 36.5833702, "lon": 137.4454605, "tags": {"name": "\u7acb\u5c71", "name:en": "Mt. Tate", "name:fr": "Mont Tate", "name:ja-Latn": "Tateyama", "name:ja_kana": "\u305f\u3066\u3084\u307e", "name:ko": "\ub2e4\ud14c\uc57c\ub9c8", "public_transport": "station", "railway": "station", "ref": "T56", "source": "Bing", "station": "train", "wikidata": "Q7688024", "wikimedia_commons": "Category:Tateyama Station (Toyama)", "wikipedia": "ja:\u7acb\u5c71\u99c5"}}, {"type": "node", "id": 11346410000, "lat": 36.7349374, "lon": 137.651467}, {"type": "node", "id": 11346410001, "lat": 36.7349296, "lon": 137.651425}, {"type": "node", "id": 11346410002, "lat": 36.7339429, "lon": 137.6514506}, {"type": "node", "id": 11346410003, "lat": 36.7339585, "lon": 137.6515268}, {"type": "node", "id": 11346410004, "lat": 36.7342217, "lon": 137.651555}, {"type": "node", "id": 11346410005, "lat": 36.7345332, "lon": 137.6515678}, {"type": "node", "id": 11346410006, "lat": 36.7343361, "lon": 137.6515815}, {"type": "node", "id": 11346410007, "lat": 36.7343443, "lon": 137.6516466}, {"type": "node", "id": 11346410008, "lat": 36.7345352, "lon": 137.6516313}, {"type": "node", "id": 12234315737, "lat": 36.7192165, "lon": 137.2248545, "tags": {"light_rail": "yes", "name": "\u7c9f\u5cf6 (\u5927\u962a\u5c4b\u30b7\u30e7\u30c3\u30d7\u524d)", "operator": "\u5bcc\u5c71\u5730\u65b9\u9244\u9053", "public_transport": "station", "railway": "station", "station": "light_rail", "train": "yes", "wikidata": "Q11604591", "wikipedia": "ja:\u7c9f\u5cf6\uff08\u5927\u962a\u5c4b\u30b7\u30e7\u30c3\u30d7\u524d\uff09\u99c5"}}, {"type": "way", "id": 1223212312, "nodes": [11346410000, 11346410001, 6630533425, 5935761085, 11346410002, 11346410003, 11346410004, 11346410000], "tags": {"public_transport": "station", "railway": "station", "train": "yes"}}, {"type": "way", "id": 1223212313, "nodes": [11346410005, 11346410006, 11346410007, 11346410008, 11346410005], "tags": {"public_transport": "station", "railway": "station", "train": "yes"}}]}