{"version": 0.6, "generator": "Overpass API 0.7.62.4 2390de5a", "osm3s": {"timestamp_osm_base": "2024-12-30T14:59:15Z", "copyright": "The data included in this document is from www.openstreetmap.org. The data is made available under ODbL."}, "elements": [{"type": "node", "id": 1642794907, "lat": 35.7310562, "lon": 140.8478146, "tags": {"name": "\u672c\u929a\u5b50", "name:en": "Moto-Choshi", "name:ja": "\u672c\u929a\u5b50", "name:ja_kana": "\u3082\u3068\u3061\u3087\u3046\u3057", "name:ja_rm": "Moto-Ch\u014dshi", "name:ko": "\ubaa8\ud1a0\ucd08\uc2dc", "public_transport": "station", "railway": "station", "wheelchair": "yes", "wikidata": "Q6917931", "wikipedia": "ja:\u672c\u929a\u5b50\u99c5"}}, {"type": "node", "id": 2559434098, "lat": 35.7218224, "lon": 140.6550919, "tags": {"name": "\u65ed", "name:en": "Asahi", "name:ja": "\u65ed", "name:ja_kana": "\u3042\u3055\u3072", "name:ja_rm": "Asahi", "name:ko": "\uc544\uc0ac\ud788", "operator": "\u6771\u65e5\u672c\u65c5\u5ba2\u9244\u9053", "platforms": "3", "public_transport": "station", "railway": "station", "source": "bing", "wheelchair": "no", "wikidata": "Q863457", "wikipedia": "ja:\u65ed\u99c5 (\u5343\u8449\u770c)"}}, {"type": "node", "id": 2559434101, "lat": 35.7296133, "lon": 140.8274887, "tags": {"name": "\u929a\u5b50", "name:en": "Ch\u014dshi", "name:ja": "\u929a\u5b50", "name:ja_kana": "\u3061\u3087\u3046\u3057", "name:ja_rm": "Ch\u014dshi", "name:ko": "\uc870\uc2dc", "operator": "\u6771\u65e5\u672c\u65c5\u5ba2\u9244\u9053", "platforms": "4", "public_transport": "station", "railway": "station", "source": "Bing, 2011/3/11", "wheelchair": "yes", "wikidata": "Q861084", "wikipedia": "ja:\u929a\u5b50\u99c5"}}, {"type": "node", "id": 2559434108, "lat": 35.7182949, "lon": 140.6028615, "tags": {"name": "\u5e72\u6f5f", "name:en": "Higata", "name:ja": "\u5e72\u6f5f", "name:ja_kana": "\u3072\u304c\u305f", "name:ja_rm": "Higata", "name:ko": "\ud788\uac00\ud0c0", "operator": "\u6771\u65e5\u672c\u65c5\u5ba2\u9244\u9053", "platforms": "2", "public_transport": "station", "railway": "station", "source": "bing", "wheelchair": "no", "wikidata": "Q5363793", "wikipedia": "ja:\u5e72\u6f5f\u99c5"}}, {"type": "node", "id": 2559434116, "lat": 35.7293267, "lon": 140.683679, "tags": {"name": "\u98ef\u5ca1", "name:en": "Iioka", "name:ja": "\u98ef\u5ca1", "name:ja-Latn": "Iioka", "name:ja_kana": "\u3044\u3044\u304a\u304b", "name:ko": "\uc774\uc624\uce74", "operator": "\u6771\u65e5\u672c\u65c5\u5ba2\u9244\u9053", "platforms": "2", "public_transport": "station", "railway": "station", "source": "bing", "wheelchair": "no", "wikidata": "Q5364920", "wikipedia": "ja:\u98ef\u5ca1\u99c5"}}, {"type": "node", "id": 2559434123, "lat": 35.7380715, "lon": 140.7144461, "tags": {"name": "\u5009\u6a4b", "name:en": "Kurahashi", "name:ja": "\u5009\u6a4b", "name:ja_kana": "\u304f\u3089\u306f\u3057", "name:ja_rm": "Kurahashi", "name:ko": "\uad6c\ub77c\ud558\uc2dc", "operator": "\u6771\u65e5\u672c\u65c5\u5ba2\u9244\u9053", "platforms": "1", "public_transport": "station", "railway": "station", "source": "bing", "wheelchair": "yes", "wikidata": "Q5364298", "wikipedia": "ja:\u5009\u6a4b\u99c5"}}, {"type": "node", "id": 2559434126, "lat": 35.7395583, "lon": 140.7952579, "tags": {"name": "\u677e\u5cb8", "name:en": "Matsugishi", "name:ja": "\u677e\u5cb8", "name:ja_kana": "\u307e\u3064\u304e\u3057", "name:ja_rm": "Matsugishi", "name:ko": "\ub9c8\uc4f0\uae30\uc2dc", "operator": "\u6771\u65e5\u672c\u65c5\u5ba2\u9244\u9053", "platforms": "3", "public_transport": "station", "railway": "station", "source": "bing", "wheelchair": "no", "wikidata": "Q5365309", "wikipedia": "ja:\u677e\u5cb8\u99c5"}}, {"type": "node", "id": 2559434145, "lat": 35.8501038, "lon": 140.6046608, "tags": {"name": "\u5c0f\u898b\u5ddd", "name:en": "Omigawa", "name:ja": "\u5c0f\u898b\u5ddd", "name:ja_kana": "\u304a\u307f\u304c\u308f", "name:ja_rm": "Omigawa", "name:ko": "\uc624\ubbf8\uac00\uc640", "operator": "\u6771\u65e5\u672c\u65c5\u5ba2\u9244\u9053", "platforms": "2", "public_transport": "station", "railway": "station", "source": "bing", "train": "yes", "wheelchair": "no", "wikidata": "Q7090185", "wikipedia": "ja:\u5c0f\u898b\u5ddd\u99c5"}}, {"type": "node", "id": 2559434148, "lat": 35.7473178, "lon": 140.7374255, "tags": {"name": "\u733f\u7530", "name:en": "Saruda", "name:ja": "\u733f\u7530", "name:ja_kana": "\u3055\u308b\u3060", "name:ja_rm": "Saruda", "name:ko": "\uc0ac\ub8e8\ub2e4", "operator": "\u6771\u65e5\u672c\u65c5\u5ba2\u9244\u9053", "platforms": "2", "public_transport": "station", "railway": "station", "source": "bing", "wheelchair": "no", "wikidata": "Q5364199", "wikipedia": "ja:\u733f\u7530\u99c5"}}, {"type": "node", "id": 2559434149, "lat": 35.8397646, "lon": 140.6556691, "tags": {"name": "\u7b39\u5ddd", "name:en": "Sasagawa", "name:ja": "\u7b39\u5ddd", "name:ja_kana": "\u3055\u3055\u304c\u308f", "name:ja_rm": "Sasagawa", "name:ko": "\uc0ac\uc0ac\uac00\uc640", "operator": "\u6771\u65e5\u672c\u65c5\u5ba2\u9244\u9053", "platforms": "2", "public_transport": "station", "railway": "station", "source": "bing", "wheelchair": "limited", "wikidata": "Q7424969", "wikipedia": "ja:\u7b39\u5ddd\u99c5"}}, {"type": "node", "id": 2559434152, "lat": 35.7653133, "lon": 140.7587799, "tags": {"name": "\u690e\u67f4", "name:en": "Shiishiba", "name:ja": "\u690e\u67f4", "name:ja_kana": "\u3057\u3044\u3057\u3070", "name:ja_rm": "Shiishiba", "name:ko": "\uc2dc\uc2dc\ubc14", "public_transport": "station", "railway": "station", "wheelchair": "no", "wikidata": "Q7496496", "wikipedia": "ja:\u690e\u67f4\u99c5"}}, {"type": "node", "id": 2559434155, "lat": 35.8186717, "lon": 140.7022698, "tags": {"name": "\u4e0b\u7dcf\u6a58", "name:en": "Shimosa-Tachibana", "name:ja": "\u4e0b\u7dcf\u6a58", "name:ja_kana": "\u3057\u3082\u3046\u3055\u305f\u3061\u3070\u306a", "name:ja_rm": "Shim\u014dsa-Tachibana", "name:ko": "\uc2dc\ubaa8\uc0ac\ud0c0\uce58\ubc14\ub098", "operator": "\u6771\u65e5\u672c\u65c5\u5ba2\u9244\u9053", "platforms": "1", "public_transport": "station", "railway": "station", "source": "bing", "wheelchair": "no", "wikidata": "Q7497065", "wikipedia": "ja:\u4e0b\u7dcf\u6a58\u99c5"}}, {"type": "node", "id": 2559434156, "lat": 35.7931281, "lon": 140.7206992, "tags": {"name": "\u4e0b\u7dcf\u8c4a\u91cc", "name:en": "Shimosa-Toyosato", "name:ja": "\u4e0b\u7dcf\u8c4a\u91cc", "name:ja_kana": "\u3057\u3082\u3046\u3055\u3068\u3088\u3055\u3068", "name:ja_rm": "Shim\u014dsa-Toyosato", "name:ko": "\uc2dc\ubaa8\uc0ac\ud1a0\uc694\uc0ac\ud1a0", "public_transport": "station", "railway": "station", "wheelchair": "no", "wikidata": "Q7497068", "wikipedia": "ja:\u4e0b\u7dcf\u8c4a\u91cc\u99c5"}}, {"type": "node", "id": 2559434163, "lat": 35.886212, "lon": 140.5697795, "tags": {"name": "\u6c34\u90f7", "name:en": "Suigo", "name:ja": "\u6c34\u90f7", "name:ja_kana": "\u3059\u3044\u3054\u3046", "name:ja_rm": "Suigo", "name:ko": "\uc2a4\uc774\uace0", "public_transport": "station", "railway": "station", "wheelchair": "no", "wikidata": "Q7635422", "wikipedia": "ja:\u6c34\u90f7\u99c5"}}, {"type": "node", "id": 3100212900, "lat": 35.7288796, "lon": 140.8335069, "tags": {"name": "\u4ef2\u30ce\u753a", "name:en": "Nakanocho", "name:ja": "\u4ef2\u30ce\u753a", "name:ja_kana": "\u306a\u304b\u306e\u3061\u3087\u3046", "name:ja_rm": "Nakanoch\u014d", "name:ko": "\ub098\uce74\ub178\ucd08", "operator": "\u929a\u5b50\u96fb\u6c17\u9244\u9053", "public_transport": "station", "railway": "station", "train": "yes", "wheelchair": "yes", "wikidata": "Q6960280", "wikipedia": "ja:\u4ef2\u30ce\u753a\u99c5"}}, {"type": "node", "id": 3100212901, "lat": 35.7135504, "lon": 140.8605022, "tags": {"name": "\u541b\u30f6\u6d5c", "name:en": "Kimigahama", "name:ja": "\u541b\u30f6\u6d5c", "name:ja_kana": "\u304d\u307f\u304c\u306f\u307e", "name:ja_rm": "Kimigahama", "name:ko": "\uae30\ubbf8\uac00\ud558\ub9c8", "public_transport": "station", "railway": "station", "train": "yes", "wheelchair": "no", "wikidata": "Q6410125", "wikipedia": "ja:\u541b\u30f6\u6d5c\u99c5"}}, {"type": "node", "id": 3100212902, "lat": 35.6992536, "lon": 140.857025, "tags": {"name": "\u5916\u5ddd", "name:en": "Tokawa", "name:ja": "\u5916\u5ddd", "name:ja_kana": "\u3068\u304b\u308f", "name:ja_rm": "Tokawa", "name:ko": "\ub3c4\uce74\uc640", "public_transport": "station", "railway": "station", "train": "yes", "wikidata": "Q5697162", "wikipedia": "ja:\u5916\u5ddd\u99c5"}}, {"type": "node", "id": 3100212903, "lat": 35.7217916, "lon": 140.8635436, "tags": {"name": "\u6d77\u9e7f\u5cf6", "name:en": "Ashikajima", "name:ja": "\u6d77\u9e7f\u5cf6", "name:ja_kana": "\u3042\u3057\u304b\u3058\u307e", "name:ja_rm": "Ashikajima", "name:ko": "\uc544\uc2dc\uce74\uc9c0\ub9c8", "public_transport": "station", "railway": "station", "train": "yes", "wheelchair": "no", "wikidata": "Q4805079", "wikipedia": "ja:\u6d77\u9e7f\u5cf6\u99c5"}}, {"type": "node", "id": 3100212904, "lat": 35.706245, "lon": 140.861175, "tags": {"name": "\u72ac\u5420", "name:en": "Inubo", "name:ja": "\u72ac\u5420", "name:ja_kana": "\u3044\u306c\u307c\u3046", "name:ja_rm": "Inub\u014d", "name:ko": "\uc774\ub204\ubcf4", "public_transport": "station", "railway": "station", "train": "yes", "wheelchair": "yes", "wikidata": "Q5696669", "wikipedia": "ja:\u72ac\u5420\u99c5"}}, {"type": "node", "id": 3100212905, "lat": 35.7284288, "lon": 140.8570855, "tags": {"name": "\u7b20\u4e0a\u9ed2\u751f", "name:en": "Kasagami-Kurohae", "name:ja": "\u7b20\u4e0a\u9ed2\u751f", "name:ja_kana": "\u304b\u3055\u304c\u307f\u304f\u308d\u306f\u306d", "name:ja_rm": "Kasagami-Kurohae", "name:ko": "\uac00\uc0ac\uac00\ubbf8\ucfe0\ub85c\ud558\uc5d0", "public_transport": "station", "railway": "station", "train": "yes", "wheelchair": "yes", "wikidata": "Q6373952", "wikipedia": "ja:\u7b20\u4e0a\u9ed2\u751f\u99c5"}}, {"type": "node", "id": 3100212906, "lat": 35.7254126, "lon": 140.8598568, "tags": {"name": "\u897f\u6d77\u9e7f\u5cf6", "name:en": "Nishi-Ashikajima", "name:ja": "\u897f\u6d77\u9e7f\u5cf6", "name:ja_kana": "\u306b\u3057\u3042\u3057\u304b\u3058\u307e", "name:ja_rm": "Nishi-Ashikajima", "name:ko": "\ub2c8\uc2dc\uc544\uc2dc\uce74\uc9c0\ub9c8", "public_transport": "station", "railway": "station", "train": "yes", "wheelchair": "yes", "wikidata": "Q11629100", "wikipedia": "ja:\u897f\u6d77\u9e7f\u5cf6\u99c5"}}, {"type": "node", "id": 3100212907, "lat": 35.7290391, "lon": 140.8402233, "tags": {"name": "\u89b3\u97f3", "name:en": "Kannon", "name:ja": "\u89b3\u97f3", "name:ja_kana": "\u304b\u3093\u306e\u3093", "name:ja_rm": "Kannon", "name:ko": "\uac04\ub17c", "operator": "\u929a\u5b50\u96fb\u6c17\u9244\u9053", "public_transport": "station", "railway": "station", "train": "yes", "wheelchair": "yes", "wikidata": "Q6364091", "wikipedia": "ja:\u89b3\u97f3\u99c5"}}]}