{"version": 0.6, "generator": "Overpass API 0.7.62.4 2390de5a", "osm3s": {"timestamp_osm_base": "2024-12-30T15:00:11Z", "copyright": "The data included in this document is from www.openstreetmap.org. The data is made available under ODbL."}, "elements": [{"type": "node", "id": 264271438, "lat": 38.5531667, "lon": 141.2257896, "tags": {"name": "\u306e\u306e\u5cb3", "name:en": "Nonodake", "name:ja": "\u306e\u306e\u5cb3", "name:ja_rm": "Nonodake", "name:ko": "\ub178\ub178\ub2e4\ucf00", "note": "National-Land Numerical Information (Railway) 2007, MLIT Japan", "note:ja": "\u56fd\u571f\u6570\u5024\u60c5\u5831\uff08\u9244\u9053\u30c7\u30fc\u30bf\uff09\u5e73\u621019\u5e74\u3000\u56fd\u571f\u4ea4\u901a\u7701", "public_transport": "station", "railway": "station", "source": "KSJ2", "source_ref": "http://nlftp.mlit.go.jp/ksj/jpgis/datalist/KsjTmplt-N02-v1_1.html", "wikidata": "Q7049528", "wikipedia": "ja:\u306e\u306e\u5cb3\u99c5"}}, {"type": "node", "id": 264271912, "lat": 38.5825764, "lon": 141.2444137, "tags": {"name": "\u9678\u524d\u8c4a\u91cc", "name:en": "Rikuzen-Toyosato", "name:ja": "\u9678\u524d\u8c4a\u91cc", "name:ja_rm": "Rikuzen-Toyosato", "name:ko": "\ub9ac\ucfe0\uc820\ud1a0\uc694\uc0ac\ud1a0", "note": "National-Land Numerical Information (Railway) 2007, MLIT Japan", "note:ja": "\u56fd\u571f\u6570\u5024\u60c5\u5831\uff08\u9244\u9053\u30c7\u30fc\u30bf\uff09\u5e73\u621019\u5e74\u3000\u56fd\u571f\u4ea4\u901a\u7701", "public_transport": "station", "railway": "station", "source": "KSJ2", "source_ref": "http://nlftp.mlit.go.jp/ksj/jpgis/datalist/KsjTmplt-N02-v1_1.html", "wikidata": "Q8191256", "wikipedia": "ja:\u9678\u524d\u8c4a\u91cc\u99c5"}}, {"type": "node", "id": 264272322, "lat": 38.5262126, "lon": 141.2207116, "tags": {"name": "\u548c\u6e15", "name:en": "Wabuchi", "name:ja": "\u548c\u6e15", "name:ja_rm": "Wabuchi", "name:ko": "\uc640\ubd80\uce58", "note": "National-Land Numerical Information (Railway) 2007, MLIT Japan", "note:ja": "\u56fd\u571f\u6570\u5024\u60c5\u5831\uff08\u9244\u9053\u30c7\u30fc\u30bf\uff09\u5e73\u621019\u5e74\u3000\u56fd\u571f\u4ea4\u901a\u7701", "public_transport": "station", "railway": "station", "source": "KSJ2", "source_ref": "http://nlftp.mlit.go.jp/ksj/jpgis/datalist/KsjTmplt-N02-v1_1.html", "wikidata": "Q7958714", "wikipedia": "ja:\u548c\u6e15\u99c5"}}, {"type": "node", "id": 264404856, "lat": 38.4468109, "lon": 141.4435933, "tags": {"name": "\u5973\u5ddd", "name:en": "Onagawa", "name:ja": "\u5973\u5ddd", "name:ja_kana": "\u304a\u306a\u304c\u308f", "name:ja_rm": "Onagawa", "name:ko": "\uc624\ub098\uac00\uc640", "public_transport": "station", "railway": "station", "source": "KSJ2", "wikidata": "Q7091663", "wikipedia": "ja:\u5973\u5ddd\u99c5"}}, {"type": "node", "id": 264404860, "lat": 38.419843, "lon": 141.3650127, "tags": {"name": "\u6e21\u6ce2", "name:en": "Watanoha", "name:ja": "\u6e21\u6ce2", "name:ja_rm": "Watanoha", "name:ko": "\uc640\ud0c0\ub178\ud558", "note": "National-Land Numerical Information (Railway) 2007, MLIT Japan", "note:ja": "\u56fd\u571f\u6570\u5024\u60c5\u5831\uff08\u9244\u9053\u30c7\u30fc\u30bf\uff09\u5e73\u621019\u5e74\u3000\u56fd\u571f\u4ea4\u901a\u7701", "public_transport": "station", "railway": "station", "source": "KSJ2", "source_ref": "http://nlftp.mlit.go.jp/ksj/jpgis/datalist/KsjTmplt-N02-v1_1.html", "wikidata": "Q7972997", "wikipedia": "ja:\u6e21\u6ce2\u99c5"}}, {"type": "node", "id": 264404868, "lat": 38.4290947, "lon": 141.3690561, "tags": {"name": "\u4e07\u77f3\u6d66", "name:en": "Mangoku-Ura", "name:ja": "\u4e07\u77f3\u6d66", "name:ja_rm": "Mangoku-Ura", "name:ko": "\ub9cc\uace0\ucfe0\uc6b0\ub77c", "note": "National-Land Numerical Information (Railway) 2007, MLIT Japan", "note:ja": "\u56fd\u571f\u6570\u5024\u60c5\u5831\uff08\u9244\u9053\u30c7\u30fc\u30bf\uff09\u5e73\u621019\u5e74\u3000\u56fd\u571f\u4ea4\u901a\u7701", "public_transport": "station", "railway": "station", "source": "KSJ2", "source_ref": "http://nlftp.mlit.go.jp/ksj/jpgis/datalist/KsjTmplt-N02-v1_1.html", "wikidata": "Q6749091", "wikipedia": "ja:\u4e07\u77f3\u6d66\u99c5"}}, {"type": "node", "id": 264404870, "lat": 38.4323145, "lon": 141.382387, "tags": {"name": "\u6ca2\u7530", "name:en": "Sawada", "name:ja": "\u6ca2\u7530", "name:ja_rm": "Sawada", "name:ko": "\uc0ac\uc640\ub2e4", "note": "National-Land Numerical Information (Railway) 2007, MLIT Japan", "note:ja": "\u56fd\u571f\u6570\u5024\u60c5\u5831\uff08\u9244\u9053\u30c7\u30fc\u30bf\uff09\u5e73\u621019\u5e74\u3000\u56fd\u571f\u4ea4\u901a\u7701", "public_transport": "station", "railway": "station", "source": "KSJ2", "source_ref": "http://nlftp.mlit.go.jp/ksj/jpgis/datalist/KsjTmplt-N02-v1_1.html", "wikidata": "Q7428529", "wikipedia": "ja:\u6ca2\u7530\u99c5"}}, {"type": "node", "id": 264404931, "lat": 38.4454259, "lon": 141.3350339, "tags": {"name": "\u9678\u524d\u7a32\u4e95", "name:en": "Rikuzen-Inai", "name:ja": "\u9678\u524d\u7a32\u4e95", "name:ja_rm": "Rikuzen-Inai", "name:ko": "\ub9ac\ucfe0\uc820\uc774\ub098\uc774", "note": "National-Land Numerical Information (Railway) 2007, MLIT Japan", "note:ja": "\u56fd\u571f\u6570\u5024\u60c5\u5831\uff08\u9244\u9053\u30c7\u30fc\u30bf\uff09\u5e73\u621019\u5e74\u3000\u56fd\u571f\u4ea4\u901a\u7701", "public_transport": "station", "railway": "station", "source": "KSJ2", "source_ref": "http://nlftp.mlit.go.jp/ksj/jpgis/datalist/KsjTmplt-N02-v1_1.html", "wikidata": "Q7334129", "wikipedia": "ja:\u9678\u524d\u7a32\u4e95\u99c5"}}, {"type": "node", "id": 264404950, "lat": 38.436569, "lon": 141.4214896, "tags": {"name": "\u6d66\u5bbf", "name:en": "Urashuku", "name:ja": "\u6d66\u5bbf", "name:ja_rm": "Urashuku", "name:ko": "\uc6b0\ub77c\uc288\ucfe0", "note": "National-Land Numerical Information (Railway) 2007, MLIT Japan", "note:ja": "\u56fd\u571f\u6570\u5024\u60c5\u5831\uff08\u9244\u9053\u30c7\u30fc\u30bf\uff09\u5e73\u621019\u5e74\u3000\u56fd\u571f\u4ea4\u901a\u7701", "public_transport": "station", "railway": "station", "source": "KSJ2", "source_ref": "http://nlftp.mlit.go.jp/ksj/jpgis/datalist/KsjTmplt-N02-v1_1.html", "wikidata": "Q7899793", "wikipedia": "ja:\u6d66\u5bbf\u99c5"}}, {"type": "node", "id": 264405147, "lat": 38.4657712, "lon": 141.287946, "tags": {"name": "\u66fd\u6ce2\u795e", "name:en": "Sobanokami", "name:ja": "\u66fd\u6ce2\u795e", "name:ja_rm": "Sobanokami", "name:ko": "\uc18c\ubc14\ub178\uce74\ubbf8", "note": "National-Land Numerical Information (Railway) 2007, MLIT Japan", "note:ja": "\u56fd\u571f\u6570\u5024\u60c5\u5831\uff08\u9244\u9053\u30c7\u30fc\u30bf\uff09\u5e73\u621019\u5e74\u3000\u56fd\u571f\u4ea4\u901a\u7701", "public_transport": "station", "railway": "station", "source": "KSJ2", "source_ref": "http://nlftp.mlit.go.jp/ksj/jpgis/datalist/KsjTmplt-N02-v1_1.html", "train": "yes", "wikidata": "Q7549897", "wikipedia": "ja:\u66fd\u6ce2\u795e\u99c5"}}, {"type": "node", "id": 264405596, "lat": 38.4858262, "lon": 141.2828856, "tags": {"bus": "yes", "name": "\u9e7f\u53c8", "name:en": "Kanomata", "name:ja": "\u9e7f\u53c8", "name:ja_rm": "Kanomata", "name:ko": "\uac00\ub178\ub9c8\ud0c0", "note": "National-Land Numerical Information (Railway) 2007, MLIT Japan", "note:ja": "\u56fd\u571f\u6570\u5024\u60c5\u5831\uff08\u9244\u9053\u30c7\u30fc\u30bf\uff09\u5e73\u621019\u5e74\u3000\u56fd\u571f\u4ea4\u901a\u7701", "public_transport": "station", "railway": "station", "source": "KSJ2", "source_ref": "http://nlftp.mlit.go.jp/ksj/jpgis/datalist/KsjTmplt-N02-v1_1.html", "train": "yes", "wikidata": "Q7936805", "wikipedia": "ja:\u9e7f\u53c8\u99c5"}}, {"type": "node", "id": 264405714, "lat": 38.5377483, "lon": 141.1278028, "tags": {"name": "\u6d8c\u8c37", "name:en": "Wakuya", "name:ja": "\u6d8c\u8c37", "name:ja_kana": "\u308f\u304f\u3084", "name:ja_rm": "Wakuya", "name:ko": "\uc640\ucfe0\uc57c", "note": "National-Land Numerical Information (Railway) 2007, MLIT Japan", "note:ja": "\u56fd\u571f\u6570\u5024\u60c5\u5831\uff08\u9244\u9053\u30c7\u30fc\u30bf\uff09\u5e73\u621019\u5e74\u3000\u56fd\u571f\u4ea4\u901a\u7701", "public_transport": "station", "railway": "station", "source": "KSJ2", "source_ref": "http://nlftp.mlit.go.jp/ksj/jpgis/datalist/KsjTmplt-N02-v1_1.html", "wikidata": "Q7961231", "wikipedia": "ja:\u6d8c\u8c37\u99c5"}}, {"type": "node", "id": 264405758, "lat": 38.5123152, "lon": 141.1938703, "tags": {"name": "\u524d\u8c37\u5730", "name:en": "Maeyachi", "name:ja": "\u524d\u8c37\u5730", "name:ja_rm": "Maeyachi", "name:ko": "\ub9c8\uc5d0\uc57c\uce58", "note": "National-Land Numerical Information (Railway) 2007, MLIT Japan", "note:ja": "\u56fd\u571f\u6570\u5024\u60c5\u5831\uff08\u9244\u9053\u30c7\u30fc\u30bf\uff09\u5e73\u621019\u5e74\u3000\u56fd\u571f\u4ea4\u901a\u7701", "public_transport": "station", "railway": "station", "source": "KSJ2", "source_ref": "http://nlftp.mlit.go.jp/ksj/jpgis/datalist/KsjTmplt-N02-v1_1.html", "wikidata": "Q6729414", "wikipedia": "ja:\u524d\u8c37\u5730\u99c5"}}, {"type": "node", "id": 2194720290, "lat": 38.4979581, "lon": 141.2395823, "tags": {"name": "\u4f73\u666f\u5c71", "name:en": "Kakeyama", "name:ja": "\u4f73\u666f\u5c71", "name:ja_rm": "Kakeyama", "name:ko": "\uac00\ucf00\uc57c\ub9c8", "note": "National-Land Numerical Information (Railway) 2007, MLIT Japan", "note:ja": "\u56fd\u571f\u6570\u5024\u60c5\u5831\uff08\u9244\u9053\u30c7\u30fc\u30bf\uff09\u5e73\u621019\u5e74\u3000\u56fd\u571f\u4ea4\u901a\u7701", "public_transport": "station", "railway": "station", "source": "KSJ2", "source_ref": "http://nlftp.mlit.go.jp/ksj/jpgis/datalist/KsjTmplt-N02-v1_1.html", "wikidata": "Q6349376", "wikipedia": "ja:\u4f73\u666f\u5c71\u99c5"}}, {"type": "node", "id": 3570916493, "lat": 38.4352418, "lon": 141.3038047, "tags": {"name": "\u77f3\u5dfb", "name:en": "Ishinomaki", "name:ja": "\u77f3\u5dfb", "name:ja_rm": "Ishinomaki", "name:ko": "\uc774\uc2dc\ub178\ub9c8\ud0a4", "note": "National-Land Numerical Information (Railway) 2007, MLIT Japan", "note:ja": "\u56fd\u571f\u6570\u5024\u60c5\u5831\uff08\u9244\u9053\u30c7\u30fc\u30bf\uff09\u5e73\u621019\u5e74\u3000\u56fd\u571f\u4ea4\u901a\u7701", "public_transport": "station", "railway": "station", "source": "KSJ2", "source_ref": "http://nlftp.mlit.go.jp/ksj/jpgis/datalist/KsjTmplt-N02-v1_1.html", "wikidata": "Q11586500", "wikipedia": "ja:\u77f3\u5dfb\u99c5"}}, {"type": "node", "id": 3570916497, "lat": 38.4374889, "lon": 141.2879979, "tags": {"name": "\u9678\u524d\u5c71\u4e0b", "name:en": "Rikuzen-Yamashita", "name:ja": "\u9678\u524d\u5c71\u4e0b", "name:ja_rm": "Rikuzen-Yamashita", "name:ko": "\ub9ac\ucfe0\uc820\uc57c\ub9c8\uc2dc\ud0c0", "note": "National-Land Numerical Information (Railway) 2007, MLIT Japan", "note:ja": "\u56fd\u571f\u6570\u5024\u60c5\u5831\uff08\u9244\u9053\u30c7\u30fc\u30bf\uff09\u5e73\u621019\u5e74\u3000\u56fd\u571f\u4ea4\u901a\u7701", "public_transport": "station", "railway": "station", "source": "KSJ2", "source_ref": "http://nlftp.mlit.go.jp/ksj/jpgis/datalist/KsjTmplt-N02-v1_1.html", "wikidata": "Q7334146", "wikipedia": "ja:\u9678\u524d\u5c71\u4e0b\u99c5"}}, {"type": "node", "id": 3791321433, "lat": 38.4384215, "lon": 141.2774621, "tags": {"name": "\u86c7\u7530", "name:en": "Hebita", "name:ja": "\u86c7\u7530", "name:ja_kana": "\u3078\u3073\u305f", "name:ja_rm": "Hebita", "name:ko": "\ud5e4\ube44\ud0c0", "note": "National-Land Numerical Information (Railway) 2007, MLIT Japan", "note:ja": "\u56fd\u571f\u6570\u5024\u60c5\u5831\uff08\u9244\u9053\u30c7\u30fc\u30bf\uff09\u5e73\u621019\u5e74\u3000\u56fd\u571f\u4ea4\u901a\u7701", "public_transport": "station", "railway": "station", "source": "KSJ2", "source_ref": "http://nlftp.mlit.go.jp/ksj/jpgis/datalist/KsjTmplt-N02-v1_1.html", "wikidata": "Q5695790", "wikipedia": "ja:\u86c7\u7530\u99c5"}}, {"type": "node", "id": 3791321437, "lat": 38.42814, "lon": 141.2228836, "tags": {"name": "\u6771\u77e2\u672c", "name:en": "Higashi-Yamoto", "name:ja": "\u6771\u77e2\u672c", "name:ja_rm": "Higashi-Yamoto", "name:ko": "\ud788\uac00\uc2dc\uc57c\ubaa8\ud1a0", "note": "National-Land Numerical Information (Railway) 2007, MLIT Japan", "note:ja": "\u56fd\u571f\u6570\u5024\u60c5\u5831\uff08\u9244\u9053\u30c7\u30fc\u30bf\uff09\u5e73\u621019\u5e74\u3000\u56fd\u571f\u4ea4\u901a\u7701", "public_transport": "station", "railway": "station", "source": "KSJ2", "source_ref": "http://nlftp.mlit.go.jp/ksj/jpgis/datalist/KsjTmplt-N02-v1_1.html", "wikidata": "Q5753902", "wikipedia": "ja:\u6771\u77e2\u672c\u99c5"}}, {"type": "node", "id": 3791321447, "lat": 38.4035265, "lon": 141.1905804, "tags": {"name": "\u9e7f\u59bb", "name:en": "Kazuma", "name:ja": "\u9e7f\u59bb", "name:ja_rm": "Kazuma", "name:ko": "\uac00\uc988\ub9c8", "note": "National-Land Numerical Information (Railway) 2007, MLIT Japan", "note:ja": "\u56fd\u571f\u6570\u5024\u60c5\u5831\uff08\u9244\u9053\u30c7\u30fc\u30bf\uff09\u5e73\u621019\u5e74\u3000\u56fd\u571f\u4ea4\u901a\u7701", "public_transport": "station", "railway": "station", "source": "KSJ2", "source_ref": "http://nlftp.mlit.go.jp/ksj/jpgis/datalist/KsjTmplt-N02-v1_1.html", "wikidata": "Q6381548", "wikipedia": "ja:\u9e7f\u59bb\u99c5"}}, {"type": "node", "id": 3791321514, "lat": 38.3791351, "lon": 141.1570646, "tags": {"name": "\u91ce\u849c", "name:en": "Nobiru", "name:ja": "\u91ce\u849c", "name:ja_rm": "Nobiru", "name:ko": "\ub178\ube44\ub8e8", "note": "National-Land Numerical Information (Railway) 2007, MLIT Japan", "note:ja": "\u56fd\u571f\u6570\u5024\u60c5\u5831\uff08\u9244\u9053\u30c7\u30fc\u30bf\uff09\u5e73\u621019\u5e74\u3000\u56fd\u571f\u4ea4\u901a\u7701", "public_transport": "station", "railway": "station", "source": "KSJ2", "source_ref": "http://nlftp.mlit.go.jp/ksj/jpgis/datalist/KsjTmplt-N02-v1_1.html", "wikidata": "Q7045673", "wikipedia": "ja:\u91ce\u849c\u99c5"}}, {"type": "node", "id": 3791321516, "lat": 38.4324287, "lon": 141.2387668, "tags": {"name": "\u9678\u524d\u8d64\u4e95", "name:en": "Rikuzen-Akai", "name:ja": "\u9678\u524d\u8d64\u4e95", "name:ja_rm": "Rikuzen-Akai", "name:ko": "\ub9ac\ucfe0\uc820\uc544\uce74\uc774", "note": "National-Land Numerical Information (Railway) 2007, MLIT Japan", "note:ja": "\u56fd\u571f\u6570\u5024\u60c5\u5831\uff08\u9244\u9053\u30c7\u30fc\u30bf\uff09\u5e73\u621019\u5e74\u3000\u56fd\u571f\u4ea4\u901a\u7701", "public_transport": "station", "railway": "station", "source": "KSJ2", "source_ref": "http://nlftp.mlit.go.jp/ksj/jpgis/datalist/KsjTmplt-N02-v1_1.html", "wikidata": "Q7334125", "wikipedia": "ja:\u9678\u524d\u8d64\u4e95\u99c5"}}, {"type": "node", "id": 3791321519, "lat": 38.3959842, "lon": 141.1743801, "tags": {"name": "\u9678\u524d\u5c0f\u91ce", "name:en": "Rikuzen-Ono", "name:ja": "\u9678\u524d\u5c0f\u91ce", "name:ja_rm": "Rikuzen-Ono", "name:ko": "\ub9ac\ucfe0\uc820\uc624\ub178", "note": "National-Land Numerical Information (Railway) 2007, MLIT Japan", "note:ja": "\u56fd\u571f\u6570\u5024\u60c5\u5831\uff08\u9244\u9053\u30c7\u30fc\u30bf\uff09\u5e73\u621019\u5e74\u3000\u56fd\u571f\u4ea4\u901a\u7701", "public_transport": "station", "railway": "station", "source": "KSJ2", "source_ref": "http://nlftp.mlit.go.jp/ksj/jpgis/datalist/KsjTmplt-N02-v1_1.html", "train": "yes", "wikidata": "Q7334135", "wikipedia": "ja:\u9678\u524d\u5c0f\u91ce\u99c5"}}, {"type": "node", "id": 3791321524, "lat": 38.3791229, "lon": 141.1290892, "tags": {"name": "\u9678\u524d\u5927\u585a", "name:en": "Rikuzen-\u014ctsuka", "name:ja": "\u9678\u524d\u5927\u585a", "name:ja_rm": "Rikuzen-\u014ctsuka", "name:ko": "\ub9ac\ucfe0\uc820\uc624\uc4f0\uce74", "note": "National-Land Numerical Information (Railway) 2007, MLIT Japan", "note:ja": "\u56fd\u571f\u6570\u5024\u60c5\u5831\uff08\u9244\u9053\u30c7\u30fc\u30bf\uff09\u5e73\u621019\u5e74\u3000\u56fd\u571f\u4ea4\u901a\u7701", "public_transport": "station", "railway": "station", "source": "KSJ2", "source_ref": "http://nlftp.mlit.go.jp/ksj/jpgis/datalist/KsjTmplt-N02-v1_1.html", "wikidata": "Q7334147", "wikipedia": "ja:\u9678\u524d\u5927\u585a\u99c5"}}, {"type": "node", "id": 3791321538, "lat": 38.3752211, "lon": 141.1440901, "tags": {"name": "\u6771\u540d", "name:en": "T\u014dna", "name:ja": "\u6771\u540d", "name:ja_rm": "T\u014dna", "name:ko": "\ub3c4\ub098", "note": "National-Land Numerical Information (Railway) 2007, MLIT Japan", "note:ja": "\u56fd\u571f\u6570\u5024\u60c5\u5831\uff08\u9244\u9053\u30c7\u30fc\u30bf\uff09\u5e73\u621019\u5e74\u3000\u56fd\u571f\u4ea4\u901a\u7701", "public_transport": "station", "railway": "station", "source": "KSJ2", "source_ref": "http://nlftp.mlit.go.jp/ksj/jpgis/datalist/KsjTmplt-N02-v1_1.html", "wikidata": "Q7862703", "wikipedia": "ja:\u6771\u540d\u99c5"}}, {"type": "node", "id": 3791321539, "lat": 38.4205282, "lon": 141.2096652, "tags": {"name": "\u77e2\u672c", "name:en": "Yamoto", "name:ja": "\u77e2\u672c", "name:ja_rm": "Yamoto", "name:ko": "\uc57c\ubaa8\ud1a0", "note": "National-Land Numerical Information (Railway) 2007, MLIT Japan", "note:ja": "\u56fd\u571f\u6570\u5024\u60c5\u5831\uff08\u9244\u9053\u30c7\u30fc\u30bf\uff09\u5e73\u621019\u5e74\u3000\u56fd\u571f\u4ea4\u901a\u7701", "public_transport": "station", "railway": "station", "source": "KSJ2", "source_ref": "http://nlftp.mlit.go.jp/ksj/jpgis/datalist/KsjTmplt-N02-v1_1.html", "wikidata": "Q8048091", "wikipedia": "ja:\u77e2\u672c\u99c5"}}, {"type": "node", "id": 8200260418, "lat": 38.4360541, "lon": 141.259292, "tags": {"name": "\u77f3\u5dfb\u3042\u3086\u307f\u91ce", "name:en": "Ishinomakiayumino", "name:ja": "\u77f3\u5dfb\u3042\u3086\u307f\u91ce", "operator": "\u6771\u65e5\u672c\u65c5\u5ba2\u9244\u9053", "public_transport": "station", "railway": "station", "wikidata": "Q18990335", "wikipedia": "ja:\u77f3\u5dfb\u3042\u3086\u307f\u91ce\u99c5"}}]}