{"version": 0.6, "generator": "Overpass API 0.7.62.4 2390de5a", "osm3s": {"timestamp_osm_base": "2024-12-30T15:09:27Z", "copyright": "The data included in this document is from www.openstreetmap.org. The data is made available under ODbL."}, "elements": [{"type": "node", "id": 241788100, "lat": 36.4573451, "lon": 138.0794358, "tags": {"name": "\u51a0\u7740", "name:en": "Kamuriki", "name:ja-Hira": "\u304b\u3080\u308a\u304d", "name:ko": "\uac00\ubb34\ub9ac\ud0a4", "public_transport": "station", "railway": "station", "website": "https://www.jreast.co.jp/estation/station/info.aspx?StationCd=506", "wikidata": "Q3883754", "wikipedia": "ja:\u51a0\u7740\u99c5"}}, {"type": "node", "id": 264810669, "lat": 36.6861723, "lon": 138.2435174, "tags": {"name": "\u4e09\u624d", "name:en": "Sansai", "name:ja": "\u4e09\u624d", "name:ko": "\uc0b0\uc0ac\uc774", "operator": "\u3057\u306a\u306e\u9244\u9053", "operator:en": "Shinano Railway", "operator:ja": "\u3057\u306a\u306e\u9244\u9053", "public_transport": "station", "railway": "station", "source": "KSJ2", "wikidata": "Q5356084", "wikipedia": "ja:\u4e09\u624d\u99c5"}}, {"type": "node", "id": 265002425, "lat": 36.4922064, "lon": 138.1530858, "tags": {"name": "\u6238\u5009", "name:en": "Togura", "name:ja": "\u6238\u5009", "name:ko": "\ub3c4\uad6c\ub77c", "note": "National-Land Numerical Information (Railway) 2007, MLIT Japan", "public_transport": "station", "railway": "station", "source": "KSJ2", "wikidata": "Q11496243", "wikipedia": "ja:\u6238\u5009\u99c5"}}, {"type": "node", "id": 265029386, "lat": 36.3594344, "lon": 137.8784072, "tags": {"name": "\u6709\u660e", "name:en": "Ariake", "name:ja": "\u6709\u660e", "name:ko": "\uc544\ub9ac\uc544\ucf00", "public_transport": "station", "railway": "station", "ref": "31", "source": "KSJ2", "train": "yes", "website": "https://www.jreast.co.jp/estation/station/info.aspx?StationCd=86", "wikidata": "Q4790200", "wikipedia": "ja:\u6709\u660e\u99c5 (\u9577\u91ce\u770c)"}}, {"type": "node", "id": 271269398, "lat": 36.3584964, "lon": 138.1753968, "tags": {"name": "\u516b\u6728\u6ca2", "name:en": "Yagisawa", "name:ja": "\u516b\u6728\u6ca2", "name:ko": "\uc57c\uae30\uc0ac\uc640", "public_transport": "station", "railway": "station", "ref": "BE14", "source": "KSJ2", "train": "yes", "wikidata": "Q11391373", "wikipedia": "ja:\u516b\u6728\u6ca2\u99c5"}}, {"type": "node", "id": 271269399, "lat": 36.3597503, "lon": 138.1829674, "tags": {"name": "\u821e\u7530", "name:en": "Maita", "name:ko": "\ub9c8\uc774\ud0c0", "public_transport": "station", "railway": "station", "ref": "BE13", "source": "KSJ2", "train": "yes", "wikidata": "Q11613651", "wikipedia": "ja:\u821e\u7530\u99c5"}}, {"type": "node", "id": 271269400, "lat": 36.3606596, "lon": 138.1933468, "tags": {"name": "\u4e2d\u91ce", "name:en": "Nakano", "name:ko": "\ub098\uce74\ub178", "public_transport": "station", "railway": "station", "ref": "BE12", "source": "KSJ2", "train": "yes", "wikidata": "Q11367768", "wikipedia": "ja:\u4e2d\u91ce\u99c5 (\u9577\u91ce\u770c)"}}, {"type": "node", "id": 271269436, "lat": 36.363197, "lon": 138.2171836, "tags": {"name": "\u4e0b\u4e4b\u90f7", "name:en": "Shimonogo", "name:ko": "\uc2dc\ubaa8\ub178\uace0", "public_transport": "station", "railway": "station", "ref": "BE09", "source": "KSJ2", "train": "yes", "wikidata": "Q11360592", "wikipedia": "ja:\u4e0b\u4e4b\u90f7\u99c5"}}, {"type": "node", "id": 271269464, "lat": 36.3631495, "lon": 138.2046993, "tags": {"name": "\u4e2d\u5869\u7530", "name:en": "Naka-Shioda", "name:ja": "\u4e2d\u5869\u7530", "name:ko": "\ub098\uce74\uc2dc\uc624\ub2e4", "public_transport": "station", "railway": "station", "ref": "BE10", "source": "KSJ2", "train": "yes", "wikidata": "Q11363526", "wikipedia": "ja:\u4e2d\u5869\u7530\u99c5"}}, {"type": "node", "id": 271269474, "lat": 36.3610079, "lon": 138.1986047, "tags": {"name": "\u5869\u7530\u753a", "name:en": "Shioda-machi", "name:ko": "\uc2dc\uc624\ub2e4\ub9c8\uce58", "public_transport": "station", "railway": "station", "ref": "BE11", "source": "KSJ2; survey", "train": "yes", "wikidata": "Q11428841", "wikipedia": "ja:\u5869\u7530\u753a\u99c5"}}, {"type": "node", "id": 271269495, "lat": 36.391748, "lon": 138.2353744, "tags": {"name": "\u4e09\u597d\u753a", "name:en": "Miyoshicho", "name:ja-Hira": "\u307f\u3088\u3057\u3061\u3087\u3046", "name:ja-Latn": "Miyoshich\u014d", "name:ko": "\ubbf8\uc694\uc2dc\ucd08", "public_transport": "station", "railway": "station", "ref": "BE03", "source": "KSJ2", "wikidata": "Q11354940", "wikipedia": "ja:\u4e09\u597d\u753a\u99c5"}}, {"type": "node", "id": 452818397, "lat": 36.6663686, "lon": 138.2408823, "tags": {"name": "\u671d\u967d", "name:en": "Asahi", "name:ja": "\u671d\u967d", "name:ko": "\uc544\uc0ac\ud788", "public_transport": "station", "railway": "station", "source": "KSJ2", "train": "yes", "wikidata": "Q11092644", "wikipedia": "ja:\u671d\u967d\u99c5"}}, {"type": "node", "id": 1095669084, "lat": 36.7314344, "lon": 138.3071473, "tags": {"name": "\u7acb\u30f6\u82b1", "name:en": "Tategahana", "name:ja": "\u7acb\u30f6\u82b1", "name:ja_rm": "Tategahana", "name:ko": "\ub2e4\ud14c\uac00\ud558\ub098", "railway": "station", "wikidata": "Q7687990", "wikipedia": "ja:\u7acb\u30f6\u82b1\u99c5"}}, {"type": "node", "id": 1095669274, "lat": 36.7537475, "lon": 138.3194456, "tags": {"name": "\u4e0a\u4eca\u4e95", "name:en": "Kamiimai", "name:ja_rm": "Kamiimai", "public_transport": "station", "railway": "station", "wikidata": "Q6357799", "wikipedia": "ja:\u4e0a\u4eca\u4e95\u99c5"}}, {"type": "node", "id": 1095674291, "lat": 36.7690628, "lon": 138.3236384, "tags": {"name": "\u66ff\u4f50", "name:en": "Kaesa", "public_transport": "station", "railway": "station", "wikidata": "Q6346024", "wikipedia": "ja:\u66ff\u4f50\u99c5"}}, {"type": "node", "id": 2638613340, "lat": 36.3965369, "lon": 138.2495261, "tags": {"highspeed": "yes", "name": "\u4e0a\u7530", "name:en": "Ueda", "name:ja-Latn": "Ueda", "name:ko": "\uc6b0\uc5d0\ub2e4", "operator": "\u6771\u65e5\u672c\u65c5\u5ba2\u9244\u9053", "operator:en": "East Japan Railway Company", "public_transport": "station", "railway": "station", "source": "KSJ2", "train": "yes", "usage": "main", "wikidata": "Q1071375", "wikipedia": "ja:\u4e0a\u7530\u99c5"}}, {"type": "node", "id": 3647437877, "lat": 36.6431239, "lon": 138.1885153, "tags": {"highspeed": "yes", "name": "\u9577\u91ce", "name:de": "Bahnhof Nagano", "name:en": "Nagano", "name:ja": "\u9577\u91ce", "name:ja-Hira": "\u306a\u304c\u306e", "name:ja_rm": "Nagano", "operator": "\u6771\u65e5\u672c\u65c5\u5ba2\u9244\u9053", "operator:en": "East Japan Railway Company", "operator:ja": "\u6771\u65e5\u672c\u65c5\u5ba2\u9244\u9053", "public_transport": "station", "railway": "station", "source": "Bing,2008-04;GSI/KIBAN 2500;NARO", "wheelchair": "yes", "wikidata": "Q374916", "wikipedia": "ja:\u9577\u91ce\u99c5"}}, {"type": "node", "id": 4059003533, "lat": 36.5774147, "lon": 138.1381842, "tags": {"name": "\u7be0\u30ce\u4e95", "name:en": "Shinonoi", "name:ja": "\u7be0\u30ce\u4e95", "name:ko": "\uc2dc\ub178\ub178\uc774", "public_transport": "station", "railway": "station", "source": "KSJ2", "website": "https://www.jreast.co.jp/estation/station/info.aspx?StationCd=801", "wikidata": "Q5357193", "wikipedia": "ja:\u7be0\u30ce\u4e95\u99c5"}}, {"type": "node", "id": 4059620980, "lat": 36.5950297, "lon": 138.1451062, "tags": {"name": "\u4eca\u4e95", "name:en": "Imai", "name:ja": "\u4eca\u4e95", "name:ko": "\uc774\ub9c8\uc774", "railway": "station", "source": "KSJ2", "wikidata": "Q5357138", "wikipedia": "ja:\u4eca\u4e95\u99c5"}}, {"type": "node", "id": 4059620981, "lat": 36.6302229, "lon": 138.1618403, "tags": {"name": "\u5b89\u8302\u91cc", "name:en": "Amori", "name:ja": "\u5b89\u8302\u91cc", "name:ko": "\uc544\ubaa8\ub9ac", "public_transport": "station", "railway": "station", "source": "KSJ2", "wheelchair": "limited", "wikidata": "Q981709", "wikipedia": "ja:\u5b89\u8302\u91cc\u99c5"}}, {"type": "node", "id": 4059620982, "lat": 36.6141007, "lon": 138.1507012, "tags": {"name": "\u5ddd\u4e2d\u5cf6", "name:en": "Kawanakajima", "name:ja": "\u5ddd\u4e2d\u5cf6", "name:ko": "\uac00\uc640\ub098\uce74\uc9c0\ub9c8", "public_transport": "station", "railway": "station", "source": "KSJ2", "wikidata": "Q5357074", "wikipedia": "ja:\u5ddd\u4e2d\u5cf6\u99c5"}}, {"type": "node", "id": 4059994912, "lat": 36.6654778, "lon": 138.2230135, "tags": {"name": "\u5317\u9577\u91ce", "name:en": "Kitanagano", "name:ja": "\u5317\u9577\u91ce", "name:ko": "\uae30\ud0c0\ub098\uac00\ub178", "old_name": "\u5409\u7530", "operator": "\u3057\u306a\u306e\u9244\u9053", "operator:en": "Shinano Railway", "operator:ja": "\u3057\u306a\u306e\u9244\u9053", "public_transport": "station", "railway": "station", "source": "KSJ2", "wikidata": "Q6417571", "wikipedia": "ja:\u5317\u9577\u91ce\u99c5"}}, {"type": "node", "id": 4162376860, "lat": 36.5319864, "lon": 138.1281001, "tags": {"name": "\u5c4b\u4ee3", "name:en": "Yashiro", "name:ja": "\u5c4b\u4ee3", "name:ko": "\uc57c\uc2dc\ub85c", "note": "National-Land Numerical Information (Railway) 2007, MLIT Japan", "public_transport": "station", "railway": "station", "source": "KSJ2", "train": "yes", "wikidata": "Q8192332", "wikipedia": "ja:\u5c4b\u4ee3\u99c5"}}, {"type": "node", "id": 4162376862, "lat": 36.5478198, "lon": 138.132448, "tags": {"name": "\u5c4b\u4ee3\u9ad8\u6821\u524d", "name:en": "Yashiro Koko Mae", "name:ja": "\u5c4b\u4ee3\u9ad8\u6821\u524d", "public_transport": "station", "railway": "station", "source": "KSJ2", "wikidata": "Q8049740", "wikipedia": "ja:\u5c4b\u4ee3\u9ad8\u6821\u524d\u99c5"}}, {"type": "node", "id": 4165727194, "lat": 36.5092242, "lon": 138.1414571, "tags": {"name": "\u5343\u66f2", "name:en": "Chikuma", "name:ja": "\u5343\u66f2", "name:ja-Hira": "\u3061\u304f\u307e", "name:ja-Latn": "Chikuma", "public_transport": "station", "railway": "station", "source": "KSJ2", "wikidata": "Q5097502", "wikipedia": "ja:\u5343\u66f2\u99c5"}}, {"type": "node", "id": 4575782401, "lat": 36.7531467, "lon": 138.247602, "tags": {"name": "\u725f\u793c", "name:en": "Mure", "name:ja": "\u725f\u793c", "name:ko": "\ubb34\ub808", "operator": "\u3057\u306a\u306e\u9244\u9053", "operator:en": "Shinano Railway", "operator:ja": "\u3057\u306a\u306e\u9244\u9053", "public_transport": "station", "railway": "station", "source": "KSJ2", "wikidata": "Q5356170", "wikipedia": "ja:\u725f\u793c\u99c5"}}, {"type": "node", "id": 5714418336, "lat": 36.5026695, "lon": 138.0932831}, {"type": "node", "id": 5714418337, "lat": 36.5025508, "lon": 138.0934379}, {"type": "node", "id": 5714418338, "lat": 36.5025293, "lon": 138.0934124}, {"type": "node", "id": 5714418339, "lat": 36.5025483, "lon": 138.0933876}, {"type": "node", "id": 5714418340, "lat": 36.5025078, "lon": 138.0933395}, {"type": "node", "id": 5714418341, "lat": 36.5025491, "lon": 138.0932857}, {"type": "node", "id": 5714418342, "lat": 36.5025587, "lon": 138.0932972}, {"type": "node", "id": 5714418343, "lat": 36.502595, "lon": 138.0932499}, {"type": "node", "id": 5714418344, "lat": 36.5025811, "lon": 138.0932335}, {"type": "node", "id": 5714418345, "lat": 36.5026033, "lon": 138.0932045}, {"type": "node", "id": 6063546669, "lat": 36.6567509, "lon": 138.3044761, "tags": {"name": "\u9808\u5742", "name:en": "Suzaka", "name:ja": "\u9808\u5742", "name:ko": "\uc2a4\uc790\uce74", "public_transport": "station", "railway": "station", "wikidata": "Q11664529", "wikipedia": "ja:\u9808\u5742\u99c5"}}, {"type": "node", "id": 6176114722, "lat": 36.7109116, "lon": 138.2750389, "tags": {"name": "\u8c4a\u91ce", "name:en": "Toyono", "name:ja-Hira": "\u3068\u3088\u306e", "name:ja-Latn": "Toyono", "operator": "\u3057\u306a\u306e\u9244\u9053", "operator:en": "Shinano Railway", "public_transport": "station", "railway": "station", "source": "KSJ2", "train": "yes", "wikidata": "Q5355867", "wikipedia": "ja:\u8c4a\u91ce\u99c5"}}, {"type": "node", "id": 6176114764, "lat": 36.7219135, "lon": 138.2945614, "tags": {"name": "\u4fe1\u6fc3\u6d45\u91ce", "name:en": "Shinano-Asano", "name:ja-Hira": "\u3057\u306a\u306e\u3042\u3055\u306e", "name:ja-Latn": "Shinanoasano", "public_transport": "station", "railway": "station", "train": "yes", "wikidata": "Q7497255", "wikipedia": "ja:\u4fe1\u6fc3\u6d45\u91ce\u99c5"}}, {"type": "node", "id": 6283686957, "lat": 36.4549991, "lon": 138.0472101, "tags": {"KSJ2:LIN": "\u7be0\u30ce\u4e95\u7dda", "KSJ2:STN": "\u8056\u9ad8\u539f", "name": "\u8056\u9ad8\u539f", "name:en": "Hijiri-K\u014dgen", "name:ja": "\u8056\u9ad8\u539f", "name:ja-Hira": "\u3072\u3058\u308a\u3053\u3046\u3052\u3093", "name:ko": "\ud788\uc9c0\ub9ac\ucf54\uac90", "note": "National-Land Numerical Information (Railway) 2007, MLIT Japan", "note:ja": "\u56fd\u571f\u6570\u5024\u60c5\u5831\uff08\u9244\u9053\u30c7\u30fc\u30bf\uff09\u5e73\u621019\u5e74\u3000\u56fd\u571f\u4ea4\u901a\u7701", "public_transport": "station", "railway": "station", "website": "https://www.jreast.co.jp/estation/station/info.aspx?StationCd=1314", "wikidata": "Q3883270", "wikipedia": "ja:\u8056\u9ad8\u539f\u99c5"}}, {"type": "node", "id": 6514512139, "lat": 36.3710069, "lon": 138.2151733, "tags": {"alt_name:ko": "\ub2e4\uc774\uac00\ucfe0\ub9c8\uc5d0", "name": "\u5927\u5b66\u524d", "name:en": "Daigakumae", "name:ja-Latn": "Daigakumae", "name:ko": "\ub300\ud559\uc55e", "public_transport": "station", "railway": "station", "ref": "BE08", "source": "KSJ2", "train": "yes", "wikidata": "Q11434249", "wikipedia": "ja:\u5927\u5b66\u524d\u99c5 (\u9577\u91ce\u770c)"}}, {"type": "node", "id": 6514512150, "lat": 36.3777157, "lon": 138.2168805, "tags": {"name": "\u795e\u7551", "name:en": "Kabatake", "name:ko": "\uac00\ubc14\ud0c0\ucf00", "public_transport": "station", "railway": "station", "ref": "BE07", "source": "GSImaps/std", "train": "yes", "wikidata": "Q11590685", "wikipedia": "ja:\u795e\u7551\u99c5"}}, {"type": "node", "id": 6514608260, "lat": 36.3836546, "lon": 138.2163391, "tags": {"name": "\u5bfa\u4e0b", "name:en": "Terashita", "name:ko": "\ub370\ub77c\uc2dc\ud0c0", "public_transport": "station", "railway": "station", "ref": "BE06", "source": "KSJ2", "train": "yes", "wikidata": "Q11457678", "wikipedia": "ja:\u5bfa\u4e0b\u99c5"}}, {"type": "node", "id": 6630958249, "lat": 36.3914316, "lon": 138.2274201, "tags": {"name": "\u8d64\u5742\u4e0a", "name:en": "Akasakaue", "name:ko": "\uc544\uce74\uc0ac\uce74\uc6b0\uc5d0", "public_transport": "station", "railway": "station", "ref": "BE04", "source": "KSJ2", "train": "yes", "wikidata": "Q11635399", "wikipedia": "ja:\u8d64\u5742\u4e0a\u99c5"}}, {"type": "node", "id": 7054262349, "lat": 36.339565, "lon": 137.8817573, "tags": {"KSJ2:LIN": "\u5927\u7cf8\u7dda", "KSJ2:STN": "\u7a42\u9ad8", "building": "train_station", "name": "\u7a42\u9ad8", "name:en": "Hotaka", "name:ja": "\u7a42\u9ad8", "name:ja_kana": "\u307b\u305f\u304b", "name:ko": "\ud638\ud0c0\uce74", "note:ja": "\u56fd\u571f\u6570\u5024\u60c5\u5831\uff08\u9244\u9053\u30c7\u30fc\u30bf\uff09\u5e73\u621019\u5e74\u3000\u56fd\u571f\u4ea4\u901a\u7701", "public_transport": "station", "railway": "station", "ref": "32", "source": "KSJ2", "source_ref": "http://nlftp.mlit.go.jp/ksj/jpgis/datalist/KsjTmplt-N02-v1_1.html", "train": "yes", "website": "https://www.jreast.co.jp/estation/station/info.aspx?StationCd=1402", "wikidata": "Q11597112", "wikipedia": "ja:\u7a42\u9ad8\u99c5"}}, {"type": "node", "id": 7101903795, "lat": 36.3545207, "lon": 138.3292919}, {"type": "node", "id": 7101903821, "lat": 36.3545768, "lon": 138.3293423}, {"type": "node", "id": 7101903822, "lat": 36.354459, "lon": 138.3295441}, {"type": "node", "id": 7101903823, "lat": 36.3543904, "lon": 138.3294824}, {"type": "node", "id": 7101903824, "lat": 36.3545083, "lon": 138.3292806}, {"type": "node", "id": 7196381325, "lat": 36.4623522, "lon": 138.1810228, "tags": {"KSJ2:LIN": "\u3057\u306a\u306e\u9244\u9053\u7dda", "KSJ2:STN": "\u5742\u57ce", "name": "\u5742\u57ce", "name:en": "Sakaki", "name:ja": "\u5742\u57ce", "name:ko": "\uc0ac\uce74\ud0a4", "public_transport": "station", "railway": "station", "train": "yes", "wikidata": "Q7402787", "wikipedia": "ja:\u5742\u57ce\u99c5"}}, {"type": "node", "id": 7196416115, "lat": 36.4170456, "lon": 138.2087038, "tags": {"name": "\u897f\u4e0a\u7530", "name:en": "Nishi Ueda", "name:ja": "\u897f\u4e0a\u7530", "name:ko": "\ub2c8\uc2dc\uc6b0\uc5d0\ub2e4", "public_transport": "station", "railway": "station", "train": "yes", "wikidata": "Q7040439", "wikipedia": "ja:\u897f\u4e0a\u7530\u99c5"}}, {"type": "node", "id": 7196421332, "lat": 36.3786799, "lon": 138.2732116, "tags": {"KSJ2:LIN": "\u3057\u306a\u306e\u9244\u9053\u7dda", "KSJ2:STN": "\u4fe1\u6fc3\u56fd\u5206\u5bfa", "name": "\u4fe1\u6fc3\u56fd\u5206\u5bfa", "name:en": "Shinano-kokubunji", "name:ja": "\u4fe1\u6fc3\u56fd\u5206\u5bfa", "name:ko": "\uc2dc\ub098\ub178\ucf54\ucfe0\ubd84\uc9c0", "public_transport": "station", "railway": "station", "train": "yes", "wikidata": "Q7497258", "wikipedia": "ja:\u4fe1\u6fc3\u56fd\u5206\u5bfa\u99c5"}}, {"type": "node", "id": 7196424124, "lat": 36.3697262, "lon": 138.2968251, "tags": {"name": "\u5927\u5c4b", "name:en": "Oya", "name:ja": "\u5927\u5c4b", "name:ko": "\uc624\uc57c", "public_transport": "station", "railway": "station", "train": "yes", "wikidata": "Q8081801", "wikipedia": "ja:\u5927\u5c4b\u99c5"}}, {"type": "node", "id": 7559504849, "lat": 36.3904768, "lon": 138.2217461, "tags": {"name": "\u4e0a\u7530\u539f", "name:en": "Uedahara", "name:ko": "\uc6b0\uc5d0\ub2e4\ud558\ub77c", "network": "\u5225\u6240\u7dda", "operator": "\u4e0a\u7530\u96fb\u9244", "public_transport": "station", "railway": "station", "ref": "BE05", "wikidata": "Q11359729", "wikipedia": "ja:\u4e0a\u7530\u539f\u99c5"}}, {"type": "node", "id": 7567642312, "lat": 36.3924646, "lon": 138.242555, "tags": {"name": "\u57ce\u4e0b", "name:en": "Shiroshita", "name:ja-Hira": "\u3057\u308d\u3057\u305f", "name:ja-Latn": "Shiroshita", "name:ko": "\uc2dc\ub85c\uc2dc\ud0c0", "public_transport": "station", "railway": "station", "train": "yes", "wikidata": "Q11425958", "wikipedia": "ja:\u57ce\u4e0b\u99c5"}}, {"type": "node", "id": 7569595971, "lat": 36.3530124, "lon": 138.1617357, "tags": {"name": "\u5225\u6240\u6e29\u6cc9", "name:en": "Bessho-onsen", "name:ja": "\u5225\u6240\u6e29\u6cc9", "name:ko": "\ubcb3\uc1fc\uc628\ucc9c", "public_transport": "station", "railway": "station", "ref": "BE15", "source": "KSJ2", "train": "yes", "wikidata": "Q28747392", "wikipedia": "ja:\u5225\u6240\u6e29\u6cc9\u99c5"}}, {"type": "node", "id": 7983047351, "lat": 36.6532364, "lon": 138.1919729, "tags": {"name": "\u6a29\u5802", "name:en": "Gondo", "name:ja": "\u6a29\u5802", "name:ja_kana": "\u3054\u3093\u3069\u3046", "name:ko": "\uace4\ub3c4", "public_transport": "station", "railway": "station", "source": "KSJ2", "train": "yes", "wikidata": "Q11542302", "wikipedia": "ja:\u6a29\u5802\u99c5"}}, {"type": "node", "id": 7983063558, "lat": 36.6442745, "lon": 138.1883615, "tags": {"name": "\u9577\u91ce", "name:en": "Nagano", "name:ja": "\u9577\u91ce", "name:ja_kana": "\u306a\u304c\u306e", "name:ja_rm": "Nagano", "name:ko": "\ub098\uac00\ub178", "public_transport": "station", "railway": "station", "source": "KSJ2", "train": "yes", "wikidata": "Q374916", "wikipedia": "ja:\u9577\u91ce\u99c5"}}, {"type": "node", "id": 7983063559, "lat": 36.6483078, "lon": 138.1912011, "tags": {"alt_name:ko": "\uc2dc\uc57c\ucfe0\uc1fc\ub9c8\uc5d0", "name": "\u5e02\u5f79\u6240\u524d", "name:en": "Shiyakushomae", "name:ja": "\u5e02\u5f79\u6240\u524d", "name:ko": "\uc2dc\uccad\uc55e", "public_transport": "station", "railway": "station", "source": "KSJ2", "train": "yes", "wikidata": "Q11480475", "wikipedia": "ja:\u5e02\u5f79\u6240\u524d\u99c5 (\u9577\u91ce\u770c)"}}, {"type": "node", "id": 7983085370, "lat": 36.6625341, "lon": 138.2035816, "tags": {"name": "\u672c\u90f7", "name:en": "Hongo", "name:ja": "\u672c\u90f7", "name:ko": "\ud63c\uace0", "public_transport": "station", "railway": "station", "source": "KSJ2", "wikidata": "Q11520913", "wikipedia": "ja:\u672c\u90f7\u99c5 (\u9577\u91ce\u770c)"}}, {"type": "node", "id": 7983085371, "lat": 36.6657523, "lon": 138.2131411, "tags": {"name": "\u6850\u539f", "name:en": "Kirihara", "name:ja": "\u6850\u539f", "name:ko": "\uae30\ub9ac\ud558\ub77c", "public_transport": "station", "railway": "station", "source": "KSJ2", "wikidata": "Q11537186", "wikipedia": "ja:\u6850\u539f\u99c5 (\u9577\u91ce\u770c)"}}, {"type": "node", "id": 7983122664, "lat": 36.6583468, "lon": 138.1934869, "tags": {"name": "\u5584\u5149\u5bfa\u4e0b", "name:en": "Zenkojishita", "name:ja": "\u5584\u5149\u5bfa\u4e0b", "name:ko": "\uc820\ucf54\uc9c0\uc2dc\ud0c0", "public_transport": "station", "railway": "station", "source": "KSJ2", "train": "yes", "wikidata": "Q11418891", "wikipedia": "ja:\u5584\u5149\u5bfa\u4e0b\u99c5"}}, {"type": "node", "id": 7983122665, "lat": 36.6674937, "lon": 138.220983, "tags": {"name": "\u4fe1\u6fc3\u5409\u7530", "name:en": "Shinanoyoshida", "name:ja": "\u4fe1\u6fc3\u5409\u7530", "name:ko": "\uc2dc\ub098\ub178\uc694\uc2dc\ub2e4", "public_transport": "station", "railway": "station", "source": "KSJ2", "wikidata": "Q11386162", "wikipedia": "ja:\u4fe1\u6fc3\u5409\u7530\u99c5"}}, {"type": "node", "id": 8007911566, "lat": 36.6427677, "lon": 138.1888461, "tags": {"local_ref": "14", "name": "\u9577\u91ce", "name:de": "Nagano Gleis 14", "name:en": "Nagano", "name:ja": "\u9577\u91ce", "name:ja-Hira": "\u306a\u304c\u306e", "name:ja_rm": "Nagano", "public_transport": "station", "railway": "station"}}, {"type": "node", "id": 8010418068, "lat": 36.3542879, "lon": 137.9305413, "tags": {"KSJ2:LIN": "\u7be0\u30ce\u4e95\u7dda", "KSJ2:STN": "\u660e\u79d1", "name": "\u660e\u79d1", "name:en": "Akashina", "name:ja": "\u660e\u79d1", "name:ko": "\uc544\uce74\uc2dc\ub098", "note": "National-Land Numerical Information (Railway) 2007, MLIT Japan", "note:ja": "\u56fd\u571f\u6570\u5024\u60c5\u5831\uff08\u9244\u9053\u30c7\u30fc\u30bf\uff09\u5e73\u621019\u5e74\u3000\u56fd\u571f\u4ea4\u901a\u7701", "public_transport": "station", "railway": "station", "source": "KSJ2", "source_ref": "http://nlftp.mlit.go.jp/ksj/jpgis/datalist/KsjTmplt-N02-v1_1.html", "website": "https://www.jreast.co.jp/estation/station/info.aspx?StationCd=32", "wikidata": "Q3883758", "wikipedia": "ja:\u660e\u79d1\u99c5"}}, {"type": "node", "id": 8108205176, "lat": 36.391429, "lon": 138.2274149, "tags": {"name": "\u8d64\u5742\u4e0a", "name:en": "Akasakaue", "public_transport": "station", "railway": "station"}}, {"type": "node", "id": 8108205177, "lat": 36.3967711, "lon": 138.2484019, "tags": {"name": "\u4e0a\u7530", "name:en": "Ueda", "name:ko": "\uc6b0\uc5d0\ub2e4", "public_transport": "station", "railway": "station", "wikidata": "Q1071375", "wikipedia": "ja:\u4e0a\u7530\u99c5"}}, {"type": "node", "id": 8250238299, "lat": 36.6992135, "lon": 138.3130351, "tags": {"name": "\u5c0f\u5e03\u65bd", "name:en": "Obuse", "name:ja": "\u5c0f\u5e03\u65bd", "name:ja_rm": "Obuse", "name:ko": "\uc624\ubd80\uc138", "public_transport": "station", "railway": "station", "source": "KSJ2", "train": "yes", "wikidata": "Q11460669", "wikipedia": "ja:\u5c0f\u5e03\u65bd\u99c5"}}, {"type": "node", "id": 8250250006, "lat": 36.6592673, "lon": 138.2799916, "tags": {"name": "\u6751\u5c71", "name:en": "Murayama", "name:ja": "\u6751\u5c71", "name:ko": "\ubb34\ub77c\uc57c\ub9c8", "public_transport": "station", "railway": "station", "source": "KSJ2", "train": "yes", "wikidata": "Q11523171", "wikipedia": "ja:\u6751\u5c71\u99c5 (\u9577\u91ce\u770c)"}}, {"type": "node", "id": 8250250010, "lat": 36.6634883, "lon": 138.2587739, "tags": {"name": "\u67f3\u539f", "name:en": "Yanagihara", "name:ja": "\u67f3\u539f", "name:ko": "\uc57c\ub098\uae30\ud558\ub77c", "public_transport": "station", "railway": "station", "source": "KSJ2", "train": "yes", "wikidata": "Q11534168", "wikipedia": "ja:\u67f3\u539f\u99c5 (\u9577\u91ce\u770c)"}}, {"type": "node", "id": 8250250012, "lat": 36.6628482, "lon": 138.2478762, "tags": {"alt_name:ko": "\ud6c4\uc870\ucfe0\ucd94\uac00\ucfe0\ub9c8\uc5d0", "name": "\u9644\u5c5e\u4e2d\u5b66\u524d", "name:en": "Fuzokuchugakumae", "name:ja": "\u9644\u5c5e\u4e2d\u5b66\u524d", "name:ko": "\ud6c4\uc870\ucfe0\uc911\ud559\uad50\uc55e", "public_transport": "station", "railway": "station", "source": "KSJ2", "train": "yes", "wikidata": "Q11658023", "wikipedia": "ja:\u9644\u5c5e\u4e2d\u5b66\u524d\u99c5"}}, {"type": "node", "id": 8250300992, "lat": 36.678033, "lon": 138.3086657, "tags": {"name": "\u5317\u9808\u5742", "name:en": "Kitasuzaka", "name:ja": "\u5317\u9808\u5742", "name:ko": "\uae30\ud0c0\uc2a4\uc790\uce74", "public_transport": "station", "railway": "station", "source": "KSJ2", "train": "yes", "wikidata": "Q11404513", "wikipedia": "ja:\u5317\u9808\u5742\u99c5"}}, {"type": "node", "id": 8250300993, "lat": 36.7040193, "lon": 138.3219621, "tags": {"name": "\u90fd\u4f4f", "name:en": "Tsusumi", "name:ja": "\u90fd\u4f4f", "name:ja_rm": "Tsusumi", "name:ko": "\uc4f0\uc2a4\ubbf8", "public_transport": "station", "railway": "station", "source": "KSJ2", "train": "yes", "wikidata": "Q11643481", "wikipedia": "ja:\u90fd\u4f4f\u99c5"}}, {"type": "node", "id": 8250330849, "lat": 36.6560236, "lon": 138.28834, "tags": {"name": "\u65e5\u91ce", "name:en": "Hino", "name:ja": "\u65e5\u91ce", "name:ko": "\ud788\ub178", "public_transport": "station", "railway": "station", "source": "KSJ2", "train": "yes", "wikidata": "Q11510659", "wikipedia": "ja:\u65e5\u91ce\u99c5 (\u9577\u91ce\u770c)"}}, {"type": "node", "id": 9569854717, "lat": 36.44118, "lon": 138.1880991, "tags": {"name": "\u30c6\u30af\u30ce\u3055\u304b\u304d", "name:ja-Latn": "Tekuno-Sakaki", "public_transport": "station", "railway": "station", "train": "yes", "wikidata": "Q7695516", "wikipedia": "ja:\u30c6\u30af\u30ce\u3055\u304b\u304d\u99c5"}}, {"type": "node", "id": 9779036894, "lat": 36.3714275, "lon": 137.8731033, "tags": {"KSJ2:LIN": "\u5927\u7cf8\u7dda", "KSJ2:STN": "\u5b89\u66c7\u8ffd\u5206", "name": "\u5b89\u66c7\u8ffd\u5206", "name:en": "Azumi-Oiwake", "name:ja": "\u5b89\u66c7\u8ffd\u5206", "name:ko": "\uc544\uc988\ubbf8\uc624\uc774\uc640\ucf00", "note": "National-Land Numerical Information (Railway) 2007, MLIT Japan", "note:ja": "\u56fd\u571f\u6570\u5024\u60c5\u5831\uff08\u9244\u9053\u30c7\u30fc\u30bf\uff09\u5e73\u621019\u5e74\u3000\u56fd\u571f\u4ea4\u901a\u7701", "public_transport": "station", "railway": "station", "ref": "30", "source": "KSJ2", "source_ref": "http://nlftp.mlit.go.jp/ksj/jpgis/datalist/KsjTmplt-N02-v1_1.html", "website": "https://www.jreast.co.jp/estation/station/info.aspx?StationCd=60", "wikidata": "Q4833079", "wikipedia": "ja:\u5b89\u66c7\u8ffd\u5206\u99c5"}}, {"type": "node", "id": 10914058158, "lat": 36.4310967, "lon": 138.0165564, "tags": {"KSJ2:LIN": "\u7be0\u30ce\u4e95\u7dda", "KSJ2:STN": "\u5742\u5317", "name": "\u5742\u5317", "name:en": "Sakakita", "name:ja": "\u5742\u5317", "name:ko": "\uc0ac\uce74\ud0a4\ud0c0", "note": "National-Land Numerical Information (Railway) 2007, MLIT Japan", "note:ja": "\u56fd\u571f\u6570\u5024\u60c5\u5831\uff08\u9244\u9053\u30c7\u30fc\u30bf\uff09\u5e73\u621019\u5e74\u3000\u56fd\u571f\u4ea4\u901a\u7701", "public_transport": "station", "railway": "station", "source": "KSJ2", "source_ref": "http://nlftp.mlit.go.jp/ksj/jpgis/datalist/KsjTmplt-N02-v1_1.html", "website": "https://www.jreast.co.jp/estation/station/info.aspx?StationCd=727", "wikidata": "Q3883765", "wikipedia": "ja:\u5742\u5317\u99c5"}}, {"type": "node", "id": 10914061511, "lat": 36.4003365, "lon": 138.0122374, "tags": {"KSJ2:LIN": "\u7be0\u30ce\u4e95\u7dda", "KSJ2:STN": "\u897f\u6761", "name": "\u897f\u6761", "name:en": "Nishijo", "name:ja": "\u897f\u6761", "name:ko": "\ub2c8\uc2dc\uc870", "note": "National-Land Numerical Information (Railway) 2007, MLIT Japan", "note:ja": "\u56fd\u571f\u6570\u5024\u60c5\u5831\uff08\u9244\u9053\u30c7\u30fc\u30bf\uff09\u5e73\u621019\u5e74\u3000\u56fd\u571f\u4ea4\u901a\u7701", "public_transport": "station", "railway": "station", "source": "KSJ2", "source_ref": "http://nlftp.mlit.go.jp/ksj/jpgis/datalist/KsjTmplt-N02-v1_1.html", "website": "https://www.jreast.co.jp/estation/station/info.aspx?StationCd=1160", "wikidata": "Q371933", "wikipedia": "ja:\u897f\u6761\u99c5 (\u9577\u91ce\u770c)"}}, {"type": "node", "id": 10914790862, "lat": 36.3966027, "lon": 138.2492709, "tags": {"name": "\u4e0a\u7530", "name:en": "Ueda", "name:ja-Latn": "Ueda", "name:ko": "\uc6b0\uc5d0\ub2e4", "operator": "\u3057\u306a\u306e\u9244\u9053", "operator:en": "Shinano Railway", "operator:ja-Latn": "Shinano Tetsudo", "public_transport": "station", "railway": "station", "train": "yes", "website": "https://www.shinanorailway.co.jp/area/ueda.php"}}, {"type": "node", "id": 10942933656, "lat": 36.3230992, "lon": 137.8882536, "tags": {"name": "\u67cf\u77e2\u753a", "name:en": "Hakuyach\u014d", "name:ja": "\u67cf\u77e2\u753a", "name:ko": "\ud558\ucfe0\uc57c\ucd08", "public_transport": "station", "railway": "station", "ref": "33", "train": "yes", "website": "https://www.jreast.co.jp/estation/station/info.aspx?StationCd=985", "wikidata": "Q11533856", "wikipedia": "ja:\u67cf\u77e2\u753a\u99c5"}}, {"type": "node", "id": 10942933675, "lat": 36.3970063, "lon": 137.8656351, "tags": {"access:disabled": "no", "name": "\u7d30\u91ce", "name:en": "Hosono", "name:ja": "\u7d30\u91ce", "name:ko": "\ud638\uc18c\ub178", "public_transport": "station", "railway": "station", "ref": "29", "source": "Bing", "website": "https://www.jreast.co.jp/estation/station/info.aspx?StationCd=1400", "wikidata": "Q11606179", "wikipedia": "ja:\u7d30\u91ce\u99c5"}}, {"type": "node", "id": 10942933676, "lat": 36.406168, "lon": 137.8628424, "tags": {"name": "\u5317\u7d30\u91ce", "name:en": "Kita-Hosono", "name:ja": "\u5317\u7d30\u91ce", "name:ko": "\uae30\ud0c0\ud638\uc18c\ub178", "public_transport": "station", "railway": "station", "ref": "28", "source": "Bing", "website": "https://www.jreast.co.jp/estation/station/info.aspx?StationCd=586", "wikidata": "Q6417542", "wikipedia": "ja:\u5317\u7d30\u91ce\u99c5"}}, {"type": "node", "id": 10942933677, "lat": 36.4252515, "lon": 137.8584757, "tags": {"name": "\u4fe1\u6fc3\u677e\u5ddd", "name:en": "Shinano-Matsukawa", "name:ja": "\u4fe1\u6fc3\u677e\u5ddd", "name:ko": "\uc2dc\ub098\ub178\ub9c8\uc4f0\uce74\uc640", "public_transport": "station", "railway": "station", "ref": "27", "source": "Bing", "website": "https://www.jreast.co.jp/estation/station/info.aspx?StationCd=799", "wikidata": "Q7497260", "wikipedia": "ja:\u4fe1\u6fc3\u677e\u5ddd\u99c5"}}, {"type": "node", "id": 10942933679, "lat": 36.4478962, "lon": 137.8547072, "tags": {"name": "\u5b89\u66c7\u6c93\u639b", "name:en": "Azumi-Kutsukake", "name:ja": "\u5b89\u66c7\u6c93\u639b", "name:ko": "\uc544\uc988\ubbf8\ucfe0\uc4f0\uce74\ucf00", "public_transport": "station", "railway": "station", "ref": "26", "source": "Bing", "website": "https://www.jreast.co.jp/estation/station/info.aspx?StationCd=61", "wikidata": "Q4833081", "wikipedia": "ja:\u5b89\u66c7\u6c93\u639b\u99c5"}}, {"type": "node", "id": 10942933680, "lat": 36.4671986, "lon": 137.8471729, "tags": {"name": "\u4fe1\u6fc3\u5e38\u76e4", "name:en": "Shinano-Tokiwa", "name:ja": "\u4fe1\u6fc3\u5e38\u76e4", "name:ko": "\uc2dc\ub098\ub178\ud1a0\ud0a4\uc640", "public_transport": "station", "railway": "station", "ref": "25", "source": "Bing", "website": "https://www.jreast.co.jp/estation/station/info.aspx?StationCd=797", "wikidata": "Q7497267", "wikipedia": "ja:\u4fe1\u6fc3\u5e38\u76e4\u99c5"}}, {"type": "node", "id": 10942933682, "lat": 36.4914786, "lon": 137.8562891, "tags": {"name": "\u5357\u5927\u753a", "name:en": "Minami-\u014cmachi", "name:ja": "\u5357\u5927\u753a", "name:ko": "\ubbf8\ub098\ubbf8\uc624\ub9c8\uce58", "public_transport": "station", "railway": "station", "ref": "24", "source": "Bing", "wikidata": "Q11407681", "wikipedia": "ja:\u5357\u5927\u753a\u99c5"}}, {"type": "node", "id": 10942933690, "lat": 36.5000485, "lon": 137.8615603, "tags": {"name": "\u4fe1\u6fc3\u5927\u753a", "name:en": "Shinano-\u014cmachi", "name:ja": "\u4fe1\u6fc3\u5927\u753a", "name:ko": "\uc2dc\ub098\ub178\uc624\ub9c8\uce58", "note": "National-Land Numerical Information (Railway) 2007, MLIT Japan", "public_transport": "station", "railway": "station", "ref": "23", "source": "Bing", "wikidata": "Q7497271", "wikipedia": "ja:\u4fe1\u6fc3\u5927\u753a\u99c5"}}, {"type": "node", "id": 10942947042, "lat": 36.5175965, "lon": 137.8579739, "tags": {"name": "\u5317\u5927\u753a", "name:en": "Kita-\u014cmachi", "name:ja": "\u5317\u5927\u753a", "name:ko": "\uae30\ud0c0\uc624\ub9c8\uce58", "public_transport": "station", "railway": "station", "ref": "22", "source": "Bing", "wikidata": "Q6417637", "wikipedia": "ja:\u5317\u5927\u753a\u99c5"}}, {"type": "node", "id": 10942947043, "lat": 36.5357273, "lon": 137.8459689, "tags": {"name": "\u4fe1\u6fc3\u6728\u5d0e", "name:en": "Shinano-Kizaki", "name:ja": "\u4fe1\u6fc3\u6728\u5d0e", "name:ko": "\uc2dc\ub098\ub178\ud0a4\uc790\ud0a4", "note": "National-Land Numerical Information (Railway) 2007, MLIT Japan", "public_transport": "station", "railway": "station", "ref": "21", "source": "Bing", "wikidata": "Q7497259", "wikipedia": "ja:\u4fe1\u6fc3\u6728\u5d0e\u99c5"}}, {"type": "node", "id": 10942947054, "lat": 36.554287, "lon": 137.8426393, "tags": {"name": "\u7a32\u5c3e", "name:en": "Inao", "name:ja": "\u7a32\u5c3e", "name:ja_rm": "Inao", "name:ko": "\uc774\ub098\uc624", "note": "National-Land Numerical Information (Railway) 2007, MLIT Japan", "public_transport": "station", "railway": "station", "ref": "20", "source": "KSJ2", "wikidata": "Q11596577", "wikipedia": "ja:\u7a32\u5c3e\u99c5"}}, {"type": "node", "id": 10942947055, "lat": 36.5656042, "lon": 137.8419319, "tags": {"name": "\u6d77\u30ce\u53e3", "name:en": "Uminokuchi", "name:ja": "\u6d77\u30ce\u53e3", "name:ja_rm": "Uminokuchi", "name:ko": "\uc6b0\ubbf8\ub178\ucfe0\uce58", "public_transport": "station", "railway": "station", "ref": "19", "source": "Bing", "website": "https://www.jreast.co.jp/estation/station/info.aspx?StationCd=0255", "wikidata": "Q7881581", "wikipedia": "ja:\u6d77\u30ce\u53e3\u99c5"}}, {"type": "node", "id": 10942947056, "lat": 36.5946794, "lon": 137.8446315, "tags": {"name": "\u7c17\u5834", "name:en": "Yanaba", "name:ja": "\u7c17\u5834", "name:ko": "\uc57c\ub098\ubc14", "public_transport": "station", "railway": "station", "ref": "18", "source": "Bing", "website": "https://www.jreast.co.jp/estation/station/info.aspx?StationCd=1589", "wikidata": "Q8048215", "wikipedia": "ja:\u7c17\u5834\u99c5"}}, {"type": "node", "id": 10942947057, "lat": 36.6369373, "lon": 137.8413579, "tags": {"name": "\u5357\u795e\u57ce", "name:en": "Minami-Kamishiro", "name:ja": "\u5357\u795e\u57ce", "name:ko": "\ubbf8\ub098\ubbf8\uce74\ubbf8\uc2dc\ub85c", "public_transport": "station", "railway": "station", "ref": "16", "source": "Bing", "website": "https://www.jreast.co.jp/estation/station/info.aspx?StationCd=1480", "wikidata": "Q6862924", "wikipedia": "ja:\u5357\u795e\u57ce\u99c5"}}, {"type": "node", "id": 10942947058, "lat": 36.6578773, "lon": 137.8465252, "tags": {"int_name": "Kamishiro", "name": "\u795e\u57ce", "name:en": "Kamishiro", "name:ja": "\u795e\u57ce", "name:ja_rm": "Kamishiro", "name:ko": "\uac00\ubbf8\uc2dc\ub85c", "public_transport": "station", "railway": "station", "ref": "15", "source": "Bing", "website": "https://www.jreast.co.jp/estation/station/info.aspx?StationCd=0490", "wikidata": "Q6358531", "wikipedia": "ja:\u795e\u57ce\u99c5"}}, {"type": "node", "id": 10942947059, "lat": 36.6706633, "lon": 137.8500449, "tags": {"int_name": "Iimori", "name": "\u98ef\u68ee", "name:en": "Iimori", "name:ja": "\u98ef\u68ee", "name:ja_rm": "Iimori", "name:ko": "\uc774\ubaa8\ub9ac", "operator": "\u6771\u65e5\u672c\u65c5\u5ba2\u9244\u9053", "public_transport": "station", "railway": "station", "ref": "14", "source": "Bing", "website": "https://www.jreast.co.jp/estation/station/info.aspx?StationCd=0101", "wikidata": "Q11666418", "wikipedia": "ja:\u98ef\u68ee\u99c5"}}, {"type": "node", "id": 10942947060, "lat": 36.6957897, "lon": 137.8637087, "tags": {"int_name": "Hakuba", "name": "\u767d\u99ac", "name:en": "Hakuba", "name:ja": "\u767d\u99ac", "name:ko": "\ud558\ucfe0\ubc14", "public_transport": "station", "railway": "station", "ref": "13", "source": "KSJ2", "wikidata": "Q5640613", "wikipedia": "ja:\u767d\u99ac\u99c5"}}, {"type": "node", "id": 10942947062, "lat": 36.7109825, "lon": 137.8715797, "tags": {"int_name": "Shinano-Moriue", "name": "\u4fe1\u6fc3\u68ee\u4e0a", "name:en": "Shinano-Moriue", "name:ja": "\u4fe1\u6fc3\u68ee\u4e0a", "name:ja_rm": "Shinano-Moriue", "name:ko": "\uc2dc\ub098\ub178\ubaa8\ub9ac\uc6b0\uc5d0", "public_transport": "station", "railway": "station", "ref": "12", "source": "KSJ2", "wikidata": "Q7497261", "wikipedia": "ja:\u4fe1\u6fc3\u68ee\u4e0a\u99c5"}}, {"type": "node", "id": 10942947063, "lat": 36.7406069, "lon": 137.8854413, "tags": {"name": "\u767d\u99ac\u5927\u6c60", "name:en": "Hakuba\u014dike", "name:ja": "\u767d\u99ac\u5927\u6c60", "name:ja_rm": "Hakuba\u014dike", "name:ko": "\ud558\ucfe0\ubc14\uc624\uc774\ucf00", "public_transport": "station", "railway": "station", "ref": "11"}}, {"type": "node", "id": 11292277597, "lat": 36.5527523, "lon": 138.1081693, "tags": {"name": "\u7a32\u8377\u5c71", "name:en": "Inariyama", "name:ja": "\u7a32\u8377\u5c71", "name:ja_rm": "Inariyama", "name:ko": "\uc774\ub098\ub9ac\uc57c\ub9c8", "public_transport": "station", "railway": "station", "website": "https://www.jreast.co.jp/estation/station/info.aspx?StationCd=150", "wikidata": "Q981519", "wikipedia": "ja:\u7a32\u8377\u5c71\u99c5"}}, {"type": "way", "id": 601174730, "nodes": [5714418345, 5714418344, 5714418343, 5714418342, 5714418341, 5714418340, 5714418339, 5714418338, 5714418337, 5714418336, 5714418345], "tags": {"building": "train_station", "name": "\u59e8\u6368", "name:en": "Obasute", "name:ja": "\u59e8\u6368", "name:ko": "\uc624\ubc14\uc2a4\ud14c", "public_transport": "station", "railway": "station", "website": "https://www.jreast.co.jp/estation/station/info.aspx?StationCd=394", "wikidata": "Q3883282", "wikipedia": "ja:\u59e8\u6368\u99c5"}}, {"type": "way", "id": 760218482, "nodes": [7101903824, 7101903795, 7101903821, 7101903822, 7101903823, 7101903824], "tags": {"building": "train_station", "name": "\u7530\u4e2d", "name:en": "Tanaka", "name:ja": "\u7530\u4e2d", "name:ko": "\ub2e4\ub098\uce74", "public_transport": "station", "railway": "station", "wikidata": "Q7682253", "wikipedia": "ja:\u7530\u4e2d\u99c5"}}]}