{"version": 0.6, "generator": "Overpass API 0.7.62.4 2390de5a", "osm3s": {"timestamp_osm_base": "2024-12-30T15:15:41Z", "copyright": "The data included in this document is from www.openstreetmap.org. The data is made available under ODbL."}, "elements": [{"type": "node", "id": 263068743, "lat": 37.6880475, "lon": 139.4472634, "tags": {"KSJ2:LIN": "\u78d0\u8d8a\u897f\u7dda", "KSJ2:STN": "\u6d25\u5ddd", "name": "\u6d25\u5ddd", "name:en": "Tsugawa", "name:ja": "\u6d25\u5ddd", "name:ja_rm": "Tsugawa", "name:ko": "\uc4f0\uac00\uc640", "note": "National-Land Numerical Information (Railway) 2007, MLIT Japan", "note:ja": "\u56fd\u571f\u6570\u5024\u60c5\u5831\uff08\u9244\u9053\u30c7\u30fc\u30bf\uff09\u5e73\u621019\u5e74\u3000\u56fd\u571f\u4ea4\u901a\u7701", "railway": "station", "source": "KSJ2", "source_ref": "http://nlftp.mlit.go.jp/ksj/jpgis/datalist/KsjTmplt-N02-v1_1.html", "wikidata": "Q7849990", "wikipedia": "ja:\u6d25\u5ddd\u99c5"}}, {"type": "node", "id": 263068745, "lat": 37.6958332, "lon": 139.4796381, "tags": {"KSJ2:LIN": "\u78d0\u8d8a\u897f\u7dda", "KSJ2:STN": "\u9e7f\u702c", "name": "\u9e7f\u702c", "name:en": "Kanose", "name:ja": "\u9e7f\u702c", "name:ja_rm": "Kanose", "name:ko": "\uac00\ub178\uc138", "note": "National-Land Numerical Information (Railway) 2007, MLIT Japan", "note:ja": "\u56fd\u571f\u6570\u5024\u60c5\u5831\uff08\u9244\u9053\u30c7\u30fc\u30bf\uff09\u5e73\u621019\u5e74\u3000\u56fd\u571f\u4ea4\u901a\u7701", "railway": "station", "source": "KSJ2", "source_ref": "http://nlftp.mlit.go.jp/ksj/jpgis/datalist/KsjTmplt-N02-v1_1.html", "wikidata": "Q6364290", "wikipedia": "ja:\u9e7f\u702c\u99c5"}}, {"type": "node", "id": 263068968, "lat": 37.7057552, "lon": 139.5344616, "tags": {"KSJ2:LIN": "\u78d0\u8d8a\u897f\u7dda", "KSJ2:STN": "\u65e5\u51fa\u8c37", "name": "\u65e5\u51fa\u8c37", "name:en": "Hideya", "name:ja": "\u65e5\u51fa\u8c37", "name:ja_rm": "Hideya", "name:ko": "\ud788\ub370\uc57c", "note": "National-Land Numerical Information (Railway) 2007, MLIT Japan", "note:ja": "\u56fd\u571f\u6570\u5024\u60c5\u5831\uff08\u9244\u9053\u30c7\u30fc\u30bf\uff09\u5e73\u621019\u5e74\u3000\u56fd\u571f\u4ea4\u901a\u7701", "railway": "station", "source": "KSJ2", "source_ref": "http://nlftp.mlit.go.jp/ksj/jpgis/datalist/KsjTmplt-N02-v1_1.html", "wikidata": "Q11504928", "wikipedia": "ja:\u65e5\u51fa\u8c37\u99c5"}}, {"type": "node", "id": 264260692, "lat": 38.1203569, "lon": 139.4470522, "tags": {"name": "\u5742\u753a", "name:de": "Sakamachi", "name:en": "Sakamachi", "name:ja-Hira": "\u3055\u304b\u307e\u3061", "name:ja-Latn": "Sakamachi", "public_transport": "station", "railway": "station", "source": "KSJ2", "train": "yes", "wikidata": "Q7402797", "wikipedia": "ja:\u5742\u753a\u99c5"}}, {"type": "node", "id": 264410783, "lat": 38.0453777, "lon": 139.7803316, "tags": {"name": "\u7fbd\u524d\u677e\u5ca1", "name:en": "Uzen-Matsuoka", "name:ja-Hira": "\u3046\u305c\u3093\u307e\u3064\u304a\u304b", "name:ja-Latn": "Uzenmatsuoka", "public_transport": "station", "railway": "station", "source": "KSJ2", "train": "yes", "wikidata": "Q7904826", "wikipedia": "ja:\u7fbd\u524d\u677e\u5ca1\u99c5"}}, {"type": "node", "id": 6125953735, "lat": 38.0285567, "lon": 139.872584, "tags": {"name": "\u7fbd\u524d\u6cbc\u6ca2", "name:en": "Uzen-Numazawa", "name:ja-Hira": "\u3046\u305c\u3093\u306c\u307e\u3056\u308f", "name:ja-Latn": "Uzennumazawa", "public_transport": "station", "railway": "station", "source": "KSJ2", "train": "yes", "wikidata": "Q7904862", "wikipedia": "ja:\u7fbd\u524d\u6cbc\u6ca2\u99c5"}}, {"type": "node", "id": 6125953736, "lat": 38.012035, "lon": 139.9615663, "tags": {"name": "\u624b\u30ce\u5b50", "name:ja": "\u624b\u30ce\u5b50", "name:ja-Hira": "\u3066\u306e\u3053", "name:ja-Latn": "Tenoko", "name:ko": "\ub370\ub178\ucf54", "public_transport": "station", "railway": "station", "source": "KSJ2", "train": "yes", "wikidata": "Q7700549", "wikipedia": "ja:\u624b\u30ce\u5b50\u99c5"}}, {"type": "node", "id": 6125964344, "lat": 38.0996323, "lon": 139.5181167, "tags": {"name": "\u8d8a\u5f8c\u5927\u5cf6", "name:en": "Echigo-Oshima", "name:ja-Hira": "\u3048\u3061\u3054\u304a\u304a\u3057\u307e", "name:ja-Latn": "Echigo\u014dshima", "public_transport": "station", "railway": "station", "source": "KSJ2", "train": "yes", "wikidata": "Q5332428", "wikipedia": "ja:\u8d8a\u5f8c\u5927\u5cf6\u99c5"}}, {"type": "node", "id": 6125964345, "lat": 38.0900996, "lon": 139.5600611, "tags": {"name": "\u8d8a\u5f8c\u4e0b\u95a2", "name:en": "Echigo-Shimoseki", "name:ja-Hira": "\u3048\u3061\u3054\u3057\u3082\u305b\u304d", "name:ja-Latn": "Echigoshimoseki", "public_transport": "station", "railway": "station", "source": "KSJ2", "train": "yes", "wikidata": "Q5332420", "wikipedia": "ja:\u8d8a\u5f8c\u4e0b\u95a2\u99c5"}}, {"type": "node", "id": 6125964346, "lat": 38.0706419, "lon": 139.6223903, "tags": {"name": "\u8d8a\u5f8c\u7247\u8c9d", "name:en": "Echigo-Katakai", "name:ja-Hira": "\u3048\u3061\u3054\u304b\u305f\u304b\u3044", "name:ja-Latn": "Echigokatakai", "public_transport": "station", "railway": "station", "source": "KSJ2", "train": "yes", "wikidata": "Q5332417", "wikipedia": "ja:\u8d8a\u5f8c\u7247\u8c9d\u99c5"}}, {"type": "node", "id": 6125964347, "lat": 38.0664144, "lon": 139.6635246, "tags": {"name": "\u8d8a\u5f8c\u91d1\u4e38", "name:en": "Echigo-Kanamaru", "name:ja-Hira": "\u3048\u3061\u3054\u304b\u306a\u307e\u308b", "name:ja-Latn": "Echigokanamaru", "public_transport": "station", "railway": "station", "source": "KSJ2", "train": "yes", "wikidata": "Q5332413", "wikipedia": "ja:\u8d8a\u5f8c\u91d1\u4e38\u99c5"}}, {"type": "node", "id": 6125964348, "lat": 38.061418, "lon": 139.7502082, "tags": {"name": "\u5c0f\u56fd", "name:en": "Oguni", "name:ja-Hira": "\u304a\u3050\u306b", "name:ja-Latn": "Oguni", "public_transport": "station", "railway": "station", "source": "KSJ2", "train": "yes", "wikidata": "Q7080290", "wikipedia": "ja:\u5c0f\u56fd\u99c5"}}, {"type": "node", "id": 6125964349, "lat": 38.0509974, "lon": 139.8228747, "tags": {"name": "\u4f0a\u4f50\u9818", "name:en": "Isaryo", "name:ja-Hira": "\u3044\u3055\u308a\u3087\u3046", "name:ja-Latn": "Isary\u014d", "public_transport": "station", "railway": "station", "source": "KSJ2", "train": "yes", "wikidata": "Q6078999", "wikipedia": "ja:\u4f0a\u4f50\u9818\u99c5"}}, {"type": "node", "id": 6141678713, "lat": 38.0945621, "lon": 139.4280213, "tags": {"name": "\u5e73\u6728\u7530", "name:en": "Hirakida", "name:ja": "\u5e73\u6728\u7530", "name:ja-Hira": "\u3072\u3089\u304d\u3060", "name:ja-Latn": "Hirakida", "name:ko": "\ud788\ub77c\ud0a4\ub2e4", "public_transport": "station", "railway": "station", "source": "KSJ2", "train": "yes", "wikidata": "Q5768955", "wikipedia": "ja:\u5e73\u6728\u7530\u99c5"}}]}