{"version": 0.6, "generator": "Overpass API 0.7.62.4 2390de5a", "osm3s": {"timestamp_osm_base": "2024-12-30T15:10:30Z", "copyright": "The data included in this document is from www.openstreetmap.org. The data is made available under ODbL."}, "elements": [{"type": "node", "id": 264414251, "lat": 36.3751771, "lon": 139.3741668, "tags": {"KSJ2:LIN": "\u4e21\u6bdb\u7dda", "KSJ2:STN": "\u5c0f\u4fe3", "name": "\u5c0f\u4fe3", "name:en": "Omata", "name:ja": "\u5c0f\u4fe3", "name:ja_rm": "Omata", "name:ko": "\uc624\ub9c8\ud0c0", "note": "National-Land Numerical Information (Railway) 2007, MLIT Japan", "note:ja": "\u56fd\u571f\u6570\u5024\u60c5\u5831\uff08\u9244\u9053\u30c7\u30fc\u30bf\uff09\u5e73\u621019\u5e74\u3000\u56fd\u571f\u4ea4\u901a\u7701", "public_transport": "station", "railway": "station", "source": "KSJ2", "source_ref": "http://nlftp.mlit.go.jp/ksj/jpgis/datalist/KsjTmplt-N02-v1_1.html", "wikidata": "Q7089903", "wikipedia": "ja:\u5c0f\u4fe3\u99c5 (\u6803\u6728\u770c)"}}, {"type": "node", "id": 264415083, "lat": 36.347362, "lon": 139.4112837, "tags": {"KSJ2:LIN": "\u4e21\u6bdb\u7dda", "KSJ2:STN": "\u5c71\u524d", "name": "\u5c71\u524d", "name:en": "Yama-mae", "name:ja": "\u5c71\u524d", "name:ja_rm": "Yama-mae", "name:ko": "\uc57c\ub9c8\ub9c8\uc5d0", "note": "National-Land Numerical Information (Railway) 2007, MLIT Japan", "note:ja": "\u56fd\u571f\u6570\u5024\u60c5\u5831\uff08\u9244\u9053\u30c7\u30fc\u30bf\uff09\u5e73\u621019\u5e74\u3000\u56fd\u571f\u4ea4\u901a\u7701", "public_transport": "station", "railway": "station", "source": "KSJ2", "source_ref": "http://nlftp.mlit.go.jp/ksj/jpgis/datalist/KsjTmplt-N02-v1_1.html", "wikidata": "Q8047852", "wikipedia": "ja:\u5c71\u524d\u99c5"}}, {"type": "node", "id": 264415788, "lat": 36.3541169, "lon": 139.1397662, "tags": {"KSJ2:LIN": "\u4e21\u6bdb\u7dda", "KSJ2:STN": "\u99d2\u5f62", "name": "\u99d2\u5f62", "name:en": "Komagata", "name:ja": "\u99d2\u5f62", "name:ja_rm": "Komagata", "name:ko": "\uace0\ub9c8\uac00\ud0c0", "note": "National-Land Numerical Information (Railway) 2007, MLIT Japan", "note:ja": "\u56fd\u571f\u6570\u5024\u60c5\u5831\uff08\u9244\u9053\u30c7\u30fc\u30bf\uff09\u5e73\u621019\u5e74\u3000\u56fd\u571f\u4ea4\u901a\u7701", "public_transport": "station", "railway": "station", "source": "KSJ2", "source_ref": "http://nlftp.mlit.go.jp/ksj/jpgis/datalist/KsjTmplt-N02-v1_1.html", "wikidata": "Q6428058", "wikipedia": "ja:\u99d2\u5f62\u99c5"}}, {"type": "node", "id": 264415837, "lat": 36.3705515, "lon": 139.1096721, "tags": {"KSJ2:LIN": "\u4e21\u6bdb\u7dda", "KSJ2:STN": "\u524d\u6a4b\u5927\u5cf6", "name": "\u524d\u6a4b\u5927\u5cf6", "name:en": "Maebashi-Oshima", "name:ja": "\u524d\u6a4b\u5927\u5cf6", "name:ja_rm": "Maebashi-\u014cshima", "name:ko": "\ub9c8\uc5d0\ubc14\uc2dc\uc624\uc2dc\ub9c8", "note": "National-Land Numerical Information (Railway) 2007, MLIT Japan", "note:ja": "\u56fd\u571f\u6570\u5024\u60c5\u5831\uff08\u9244\u9053\u30c7\u30fc\u30bf\uff09\u5e73\u621019\u5e74\u3000\u56fd\u571f\u4ea4\u901a\u7701", "public_transport": "station", "railway": "station", "source": "KSJ2", "source_ref": "http://nlftp.mlit.go.jp/ksj/jpgis/datalist/KsjTmplt-N02-v1_1.html", "wikidata": "Q6729071", "wikipedia": "ja:\u524d\u6a4b\u5927\u5cf6\u99c5"}}, {"type": "node", "id": 264460504, "lat": 36.6370412, "lon": 139.4399735, "tags": {"KSJ2:LIN": "\u308f\u305f\u3089\u305b\u6e13\u8c37\u7dda", "KSJ2:STN": "\u901a\u6d1e", "name": "\u901a\u6d1e", "name:en": "Tsudo", "name:ja": "\u901a\u6d1e", "name:ja_rm": "Tsudo", "name:ko": "\uc4f0\ub3c4", "note": "National-Land Numerical Information (Railway) 2007, MLIT Japan", "note:ja": "\u56fd\u571f\u6570\u5024\u60c5\u5831\uff08\u9244\u9053\u30c7\u30fc\u30bf\uff09\u5e73\u621019\u5e74\u3000\u56fd\u571f\u4ea4\u901a\u7701", "public_transport": "station", "railway": "station", "source": "KSJ2", "source_ref": "http://nlftp.mlit.go.jp/ksj/jpgis/datalist/KsjTmplt-N02-v1_1.html", "wikidata": "Q7850448", "wikipedia": "ja:\u901a\u6d1e\u99c5"}}, {"type": "node", "id": 264460505, "lat": 36.6176632, "lon": 139.4209693, "tags": {"KSJ2:LIN": "\u308f\u305f\u3089\u305b\u6e13\u8c37\u7dda", "KSJ2:STN": "\u539f\u5411", "name": "\u539f\u5411", "name:en": "Haramuko", "name:ja": "\u539f\u5411", "name:ja_rm": "Haramuko", "name:ko": "\ud558\ub77c\ubb34\ucf54", "note": "National-Land Numerical Information (Railway) 2007, MLIT Japan", "note:ja": "\u56fd\u571f\u6570\u5024\u60c5\u5831\uff08\u9244\u9053\u30c7\u30fc\u30bf\uff09\u5e73\u621019\u5e74\u3000\u56fd\u571f\u4ea4\u901a\u7701", "public_transport": "station", "railway": "station", "source": "KSJ2", "source_ref": "http://nlftp.mlit.go.jp/ksj/jpgis/datalist/KsjTmplt-N02-v1_1.html", "wikidata": "Q5654104", "wikipedia": "ja:\u539f\u5411\u99c5"}}, {"type": "node", "id": 264460730, "lat": 36.5374168, "lon": 139.3563436, "tags": {"KSJ2:LIN": "\u308f\u305f\u3089\u305b\u6e13\u8c37\u7dda", "KSJ2:STN": "\u795e\u6238", "name": "\u795e\u6238", "name:en": "Godo", "name:ja": "\u795e\u6238", "name:ja_rm": "Godo", "name:ko": "\uace0\ub3c4", "note": "National-Land Numerical Information (Railway) 2007, MLIT Japan", "note:ja": "\u56fd\u571f\u6570\u5024\u60c5\u5831\uff08\u9244\u9053\u30c7\u30fc\u30bf\uff09\u5e73\u621019\u5e74\u3000\u56fd\u571f\u4ea4\u901a\u7701", "public_transport": "station", "railway": "station", "source": "KSJ2", "source_ref": "http://nlftp.mlit.go.jp/ksj/jpgis/datalist/KsjTmplt-N02-v1_1.html", "wikidata": "Q5627753", "wikipedia": "ja:\u795e\u6238\u99c5 (\u7fa4\u99ac\u770c)"}}, {"type": "node", "id": 264461214, "lat": 36.5807535, "lon": 139.3962433, "tags": {"KSJ2:LIN": "\u308f\u305f\u3089\u305b\u6e13\u8c37\u7dda", "KSJ2:STN": "\u6ca2\u5165", "name": "\u6ca2\u5165", "name:en": "Sori", "name:ja": "\u6ca2\u5165", "name:ja_rm": "Sori", "name:ko": "\uc18c\ub9ac", "note": "National-Land Numerical Information (Railway) 2007, MLIT Japan", "note:ja": "\u56fd\u571f\u6570\u5024\u60c5\u5831\uff08\u9244\u9053\u30c7\u30fc\u30bf\uff09\u5e73\u621019\u5e74\u3000\u56fd\u571f\u4ea4\u901a\u7701", "public_transport": "station", "railway": "station", "source": "KSJ2", "source_ref": "http://nlftp.mlit.go.jp/ksj/jpgis/datalist/KsjTmplt-N02-v1_1.html", "wikidata": "Q7667614", "wikipedia": "ja:\u6ca2\u5165\u99c5"}}, {"type": "node", "id": 264461336, "lat": 36.4997652, "lon": 139.2773051, "tags": {"KSJ2:LIN": "\u308f\u305f\u3089\u305b\u6e13\u8c37\u7dda", "KSJ2:STN": "\u6c34\u6cbc", "name": "\u6c34\u6cbc", "name:en": "Mizunuma", "name:ja": "\u6c34\u6cbc", "name:ja_rm": "Mizunuma", "name:ko": "\ubbf8\uc988\ub204\ub9c8", "note": "National-Land Numerical Information (Railway) 2007, MLIT Japan", "note:ja": "\u56fd\u571f\u6570\u5024\u60c5\u5831\uff08\u9244\u9053\u30c7\u30fc\u30bf\uff09\u5e73\u621019\u5e74\u3000\u56fd\u571f\u4ea4\u901a\u7701", "public_transport": "station", "railway": "station", "source": "KSJ2", "source_ref": "http://nlftp.mlit.go.jp/ksj/jpgis/datalist/KsjTmplt-N02-v1_1.html", "wikidata": "Q6884893", "wikipedia": "ja:\u6c34\u6cbc\u99c5"}}, {"type": "node", "id": 264461777, "lat": 36.5356866, "lon": 139.3378794, "tags": {"KSJ2:LIN": "\u308f\u305f\u3089\u305b\u6e13\u8c37\u7dda", "KSJ2:STN": "\u5c0f\u4e2d", "name": "\u5c0f\u4e2d", "name:en": "Konaka", "name:ja": "\u5c0f\u4e2d", "name:ja_rm": "Konaka", "name:ko": "\uace0\ub098\uce74", "note": "National-Land Numerical Information (Railway) 2007, MLIT Japan", "note:ja": "\u56fd\u571f\u6570\u5024\u60c5\u5831\uff08\u9244\u9053\u30c7\u30fc\u30bf\uff09\u5e73\u621019\u5e74\u3000\u56fd\u571f\u4ea4\u901a\u7701", "public_transport": "station", "railway": "station", "source": "KSJ2", "source_ref": "http://nlftp.mlit.go.jp/ksj/jpgis/datalist/KsjTmplt-N02-v1_1.html", "wikidata": "Q6428729", "wikipedia": "ja:\u5c0f\u4e2d\u99c5"}}, {"type": "node", "id": 264461907, "lat": 36.5242606, "lon": 139.3171799, "tags": {"KSJ2:LIN": "\u308f\u305f\u3089\u305b\u6e13\u8c37\u7dda", "KSJ2:STN": "\u4e2d\u91ce", "name": "\u4e2d\u91ce", "name:en": "Nakano", "name:ja": "\u4e2d\u91ce", "name:ja_rm": "Nakano", "name:ko": "\ub098\uce74\ub178", "note": "National-Land Numerical Information (Railway) 2007, MLIT Japan", "note:ja": "\u56fd\u571f\u6570\u5024\u60c5\u5831\uff08\u9244\u9053\u30c7\u30fc\u30bf\uff09\u5e73\u621019\u5e74\u3000\u56fd\u571f\u4ea4\u901a\u7701", "public_transport": "station", "railway": "station", "source": "KSJ2", "source_ref": "http://nlftp.mlit.go.jp/ksj/jpgis/datalist/KsjTmplt-N02-v1_1.html", "wikidata": "Q6960274", "wikipedia": "ja:\u4e2d\u91ce\u99c5 (\u7fa4\u99ac\u770c)"}}, {"type": "node", "id": 264462300, "lat": 36.4346091, "lon": 139.2774321, "tags": {"KSJ2:LIN": "\u308f\u305f\u3089\u305b\u6e13\u8c37\u7dda", "KSJ2:STN": "\u5927\u9593\u3005", "name": "\u5927\u9593\u3005", "name:en": "Omama", "name:ja": "\u5927\u9593\u3005", "name:ja_rm": "Omama", "name:ko": "\uc624\ub9c8\ub9c8", "note": "National-Land Numerical Information (Railway) 2007, MLIT Japan", "note:ja": "\u56fd\u571f\u6570\u5024\u60c5\u5831\uff08\u9244\u9053\u30c7\u30fc\u30bf\uff09\u5e73\u621019\u5e74\u3000\u56fd\u571f\u4ea4\u901a\u7701", "public_transport": "station", "railway": "station", "source": "KSJ2", "source_ref": "http://nlftp.mlit.go.jp/ksj/jpgis/datalist/KsjTmplt-N02-v1_1.html", "wikidata": "Q8081605", "wikipedia": "ja:\u5927\u9593\u3005\u99c5"}}, {"type": "node", "id": 264814419, "lat": 36.7786135, "lon": 138.9689414, "tags": {"KSJ2:LIN": "\u4e0a\u8d8a\u7dda", "KSJ2:STN": "\u6c34\u4e0a", "name": "\u6c34\u4e0a", "name:en": "Minakami", "name:ja": "\u6c34\u4e0a", "name:ja_rm": "Minakami", "name:ko": "\ubbf8\ub098\uce74\ubbf8", "note": "National-Land Numerical Information (Railway) 2007, MLIT Japan", "note:ja": "\u56fd\u571f\u6570\u5024\u60c5\u5831\uff08\u9244\u9053\u30c7\u30fc\u30bf\uff09\u5e73\u621019\u5e74\u3000\u56fd\u571f\u4ea4\u901a\u7701", "public_transport": "station", "railway": "station", "source": "KSJ2", "source_ref": "http://nlftp.mlit.go.jp/ksj/jpgis/datalist/KsjTmplt-N02-v1_1.html", "wikidata": "Q1770451", "wikipedia": "ja:\u6c34\u4e0a\u99c5"}}, {"type": "node", "id": 264814632, "lat": 36.7354657, "lon": 138.9845777, "tags": {"KSJ2:LIN": "\u4e0a\u8d8a\u7dda", "KSJ2:STN": "\u4e0a\u7267", "name": "\u4e0a\u7267", "name:en": "Kamimoku", "name:ja": "\u4e0a\u7267", "name:ja_rm": "Kamimoku", "name:ko": "\uac00\ubbf8\ubaa8\ucfe0", "note": "National-Land Numerical Information (Railway) 2007, MLIT Japan", "note:ja": "\u56fd\u571f\u6570\u5024\u60c5\u5831\uff08\u9244\u9053\u30c7\u30fc\u30bf\uff09\u5e73\u621019\u5e74\u3000\u56fd\u571f\u4ea4\u901a\u7701", "public_transport": "station", "railway": "station", "source": "KSJ2", "source_ref": "http://nlftp.mlit.go.jp/ksj/jpgis/datalist/KsjTmplt-N02-v1_1.html", "wikidata": "Q1770591", "wikipedia": "ja:\u4e0a\u7267\u99c5 (\u7fa4\u99ac\u770c)"}}, {"type": "node", "id": 264815149, "lat": 36.6792522, "lon": 139.0005798, "tags": {"KSJ2:LIN": "\u4e0a\u8d8a\u7dda", "KSJ2:STN": "\u5f8c\u9591", "name": "\u5f8c\u9591", "name:en": "Gokan", "name:ja": "\u5f8c\u9591", "name:ja_rm": "Gokan", "name:ko": "\uace0\uce78", "note": "National-Land Numerical Information (Railway) 2007, MLIT Japan", "note:ja": "\u56fd\u571f\u6570\u5024\u60c5\u5831\uff08\u9244\u9053\u30c7\u30fc\u30bf\uff09\u5e73\u621019\u5e74\u3000\u56fd\u571f\u4ea4\u901a\u7701", "public_transport": "station", "railway": "station", "source": "KSJ2", "source_ref": "http://nlftp.mlit.go.jp/ksj/jpgis/datalist/KsjTmplt-N02-v1_1.html", "wikidata": "Q1770583", "wikipedia": "ja:\u5f8c\u9591\u99c5"}}, {"type": "node", "id": 264817858, "lat": 36.3570844, "lon": 139.0230202, "tags": {"name": "\u4e95\u91ce", "name:en": "Ino", "name:ja": "\u4e95\u91ce", "name:ja-Latn": "Ino", "public_transport": "station", "railway": "station", "source": "KSJ2", "source_ref": "http://nlftp.mlit.go.jp/ksj/jpgis/datalist/KsjTmplt-N02-v1_1.html", "wikidata": "Q1652443", "wikipedia": "ja:\u4e95\u91ce\u99c5 (\u7fa4\u99ac\u770c)"}}, {"type": "node", "id": 335660626, "lat": 36.4168086, "lon": 139.3216927, "tags": {"name": "\u4e38\u5c71\u4e0b", "name:en": "Maruyama-shita", "name:ja_rm": "Maruyamashita", "name:ko": "\ub9c8\ub8e8\uc57c\ub9c8\uc2dc\ud0c0", "public_transport": "station", "railway": "station", "source": "KSJ2", "wikidata": "Q6778056", "wikipedia": "ja:\u4e38\u5c71\u4e0b\u99c5"}}, {"type": "node", "id": 335660644, "lat": 36.4155327, "lon": 139.1735854, "tags": {"name": "\u6a0b\u8d8a", "name:en": "Higoshi", "name:ja-Latn": "Higoshi", "name:ko": "\ud788\uace0\uc2dc", "public_transport": "station", "railway": "station", "source": "KSJ2", "wikidata": "Q5760164", "wikipedia": "ja:\u6a0b\u8d8a\u99c5"}}, {"type": "node", "id": 335661082, "lat": 36.4073386, "lon": 139.1337267, "tags": {"name": "\u6c5f\u6728", "name:en": "Egi", "name:ja-Latn": "Egi", "name:ko": "\uc5d0\uae30", "public_transport": "station", "railway": "station", "source": "KSJ2", "wikidata": "Q5347958", "wikipedia": "ja:\u6c5f\u6728\u99c5"}}, {"type": "node", "id": 335661322, "lat": 36.3975191, "lon": 139.1175449, "tags": {"name": "\u8d64\u5742", "name:en": "Akasaka", "name:ja-Latn": "Akasaka", "name:ko": "\uc544\uce74\uc0ac\uce74", "public_transport": "station", "railway": "station", "source": "KSJ2", "wikidata": "Q4700319", "wikipedia": "ja:\u8d64\u5742\u99c5 (\u7fa4\u99ac\u770c)"}}, {"type": "node", "id": 335661607, "lat": 36.4130012, "lon": 139.1566521, "tags": {"name": "\u5927\u80e1", "name:en": "Ogo", "name:ja_rm": "\u014cgo", "name:ko": "\uc624\uace0", "public_transport": "station", "railway": "station", "source": "KSJ2", "train": "yes", "wikidata": "Q11438553", "wikipedia": "ja:\u5927\u80e1\u99c5"}}, {"type": "node", "id": 335661612, "lat": 36.3911926, "lon": 139.0810836, "tags": {"name": "\u57ce\u6771", "name:en": "Joto", "name:ja": "\u57ce\u6771", "name:ja-Latn": "J\u014dt\u014d", "name:ko": "\uc870\ud1a0", "public_transport": "station", "railway": "station", "source": "KSJ2", "wikidata": "Q11426223", "wikipedia": "ja:\u57ce\u6771\u99c5"}}, {"type": "node", "id": 335661871, "lat": 36.405169, "lon": 139.1288142, "tags": {"name": "\u5fc3\u81d3\u8840\u7ba1\u30bb\u30f3\u30bf\u30fc", "name:en": "Shinzo-Kekkan Center", "name:ja-Latn": "Shinz\u014d-Kekkan Center", "name:ko": "\uc2e0\uc870\ucf13\uce78\uc13c\ud130", "public_transport": "station", "railway": "station", "source": "KSJ2", "wikidata": "Q7497852", "wikipedia": "ja:\u5fc3\u81d3\u8840\u7ba1\u30bb\u30f3\u30bf\u30fc\u99c5"}}, {"type": "node", "id": 355840633, "lat": 36.5294462, "lon": 138.9765506, "tags": {"KSJ2:LIN": "\u543e\u59bb\u7dda", "KSJ2:STN": "\u91d1\u5cf6", "name": "\u91d1\u5cf6", "name:en": "Kanashima", "name:ja": "\u91d1\u5cf6", "name:ja_rm": "Kanashima", "name:ko": "\uac00\ub098\uc2dc\ub9c8", "note": "National-Land Numerical Information (Railway) 2007, MLIT Japan", "note:ja": "\u56fd\u571f\u6570\u5024\u60c5\u5831\uff08\u9244\u9053\u30c7\u30fc\u30bf\uff09\u5e73\u621019\u5e74\u3000\u56fd\u571f\u4ea4\u901a\u7701", "public_transport": "station", "railway": "station", "source": "KSJ2", "source_ref": "http://nlftp.mlit.go.jp/ksj/jpgis/datalist/KsjTmplt-N02-v1_1.html", "train": "yes", "wikidata": "Q6360686", "wikipedia": "ja:\u91d1\u5cf6\u99c5 (\u7fa4\u99ac\u770c)"}}, {"type": "node", "id": 355840764, "lat": 36.556897, "lon": 138.904724, "tags": {"KSJ2:LIN": "\u543e\u59bb\u7dda", "KSJ2:STN": "\u5c0f\u91ce\u4e0a\u6e29\u6cc9", "alt_name:ko": "\uc624\ub178\uac00\ubbf8\uc628\uc13c", "name": "\u5c0f\u91ce\u4e0a\u6e29\u6cc9", "name:en": "Onogami-Onsen", "name:ja": "\u5c0f\u91ce\u4e0a\u6e29\u6cc9", "name:ja_rm": "Onogami-Onsen", "name:ko": "\uc624\ub178\uac00\ubbf8\uc628\ucc9c", "note": "National-Land Numerical Information (Railway) 2007, MLIT Japan", "note:ja": "\u56fd\u571f\u6570\u5024\u60c5\u5831\uff08\u9244\u9053\u30c7\u30fc\u30bf\uff09\u5e73\u621019\u5e74\u3000\u56fd\u571f\u4ea4\u901a\u7701", "public_transport": "station", "railway": "station", "source": "KSJ2", "source_ref": "http://nlftp.mlit.go.jp/ksj/jpgis/datalist/KsjTmplt-N02-v1_1.html", "wikidata": "Q7094463", "wikipedia": "ja:\u5c0f\u91ce\u4e0a\u6e29\u6cc9\u99c5"}}, {"type": "node", "id": 355841473, "lat": 36.5406141, "lon": 138.9570394, "tags": {"KSJ2:LIN": "\u543e\u59bb\u7dda", "KSJ2:STN": "\u7956\u6bcd\u5cf6", "name": "\u7956\u6bcd\u5cf6", "name:en": "Ubashima", "name:ja": "\u7956\u6bcd\u5cf6", "name:ja_rm": "Ubashima", "name:ko": "\uc6b0\ubc14\uc2dc\ub9c8", "note": "National-Land Numerical Information (Railway) 2007, MLIT Japan", "note:ja": "\u56fd\u571f\u6570\u5024\u60c5\u5831\uff08\u9244\u9053\u30c7\u30fc\u30bf\uff09\u5e73\u621019\u5e74\u3000\u56fd\u571f\u4ea4\u901a\u7701", "public_transport": "station", "railway": "station", "source": "KSJ2", "source_ref": "http://nlftp.mlit.go.jp/ksj/jpgis/datalist/KsjTmplt-N02-v1_1.html", "train": "yes", "wikidata": "Q7876424", "wikipedia": "ja:\u7956\u6bcd\u5cf6\u99c5"}}, {"type": "node", "id": 355841574, "lat": 36.5525161, "lon": 138.9222773, "tags": {"KSJ2:LIN": "\u543e\u59bb\u7dda", "KSJ2:STN": "\u5c0f\u91ce\u4e0a", "name": "\u5c0f\u91ce\u4e0a", "name:en": "Onogami", "name:ja": "\u5c0f\u91ce\u4e0a", "name:ja_rm": "Onogami", "name:ko": "\uc624\ub178\uac00\ubbf8", "note": "National-Land Numerical Information (Railway) 2007, MLIT Japan", "note:ja": "\u56fd\u571f\u6570\u5024\u60c5\u5831\uff08\u9244\u9053\u30c7\u30fc\u30bf\uff09\u5e73\u621019\u5e74\u3000\u56fd\u571f\u4ea4\u901a\u7701", "public_transport": "station", "railway": "station", "source": "KSJ2", "source_ref": "http://nlftp.mlit.go.jp/ksj/jpgis/datalist/KsjTmplt-N02-v1_1.html", "train": "yes", "wikidata": "Q7094460", "wikipedia": "ja:\u5c0f\u91ce\u4e0a\u99c5"}}, {"type": "node", "id": 3032951488, "lat": 36.6931647, "lon": 138.9775973, "tags": {"highspeed": "yes", "name": "\u4e0a\u6bdb\u9ad8\u539f", "name:de": "J\u014dm\u014d-K\u014dgen", "name:en": "Jomo-Kogen", "name:ja": "\u4e0a\u6bdb\u9ad8\u539f", "name:ja_kana": "\u3058\u3087\u3046\u3082\u3046\u3053\u3046\u3052\u3093", "name:ja_rm": "J\u014dm\u014d-K\u014dgen", "name:ko": "\uc870\ubaa8\ucf54\uac90", "name:ru": "\u0414\u0437\u0451\u043c\u043e-\u041a\u043e\u0433\u0435\u043d", "operator": "\u6771\u65e5\u672c\u65c5\u5ba2\u9244\u9053", "public_transport": "station", "railway": "station", "wikidata": "Q1138087", "wikipedia": "ja:\u4e0a\u6bdb\u9ad8\u539f\u99c5"}}, {"type": "node", "id": 3402240963, "lat": 36.3460185, "lon": 139.0170821, "tags": {"name": "\u9ad8\u5d0e\u554f\u5c4b\u753a", "name:en": "Takasaki-Tonyamachi", "name:ja": "\u9ad8\u5d0e\u554f\u5c4b\u753a", "name:ja_rm": "Takasaki-Tonyamachi", "public_transport": "station", "railway": "station", "source": "survey", "wikidata": "Q1652478", "wikipedia": "ja:\u9ad8\u5d0e\u554f\u5c4b\u753a\u99c5"}}, {"type": "node", "id": 3416345762, "lat": 36.5379451, "lon": 139.0338524, "tags": {"name": "\u6577\u5cf6", "name:en": "Shikishima", "name:ja": "\u6577\u5cf6", "name:ja_rm": "Shikishima", "name:ko": "\uc2dc\ud0a4\uc2dc\ub9c8", "public_transport": "station", "railway": "station", "source": "Bing 2013", "wikidata": "Q1705823", "wikipedia": "ja:\u6577\u5cf6\u99c5"}}, {"type": "node", "id": 3416345763, "lat": 36.5611315, "lon": 139.0428322, "tags": {"name": "\u6d25\u4e45\u7530", "name:en": "Tsukuda", "name:ja": "\u6d25\u4e45\u7530", "name:ja_rm": "Tsukuda", "name:ko": "\uc4f0\ucfe0\ub2e4", "public_transport": "station", "railway": "station", "wikidata": "Q1705789", "wikipedia": "ja:\u6d25\u4e45\u7530\u99c5"}}, {"type": "node", "id": 3442398476, "lat": 36.3377009, "lon": 138.9574688, "tags": {"name": "\u7fa4\u99ac\u516b\u5e61", "name:en": "Gunma-Yawata", "name:ja": "\u7fa4\u99ac\u516b\u5e61", "name:ja_rm": "Gunma-Yawata", "name:ko": "\uad70\ub9c8\uc57c\uc640\ud0c0", "operator": "\u6771\u65e5\u672c\u65c5\u5ba2\u9244\u9053", "public_transport": "station", "railway": "station", "wikidata": "Q899937"}}, {"type": "node", "id": 3505733714, "lat": 36.6030654, "lon": 139.0470124, "tags": {"name": "\u5ca9\u672c", "name:en": "Iwamoto", "name:ja": "\u5ca9\u672c", "name:ja_rm": "Iwamoto", "name:ko": "\uc774\uc640\ubaa8\ud1a0", "public_transport": "station", "railway": "station", "source_ref": "http://nlftp.mlit.go.jp/ksj/jpgis/datalist/KsjTmplt-N02-v1_1.html", "wikidata": "Q775068", "wikipedia": "ja:\u5ca9\u672c\u99c5"}}, {"type": "node", "id": 3548915151, "lat": 36.4155807, "lon": 139.0322835, "tags": {"KSJ2:LIN": "\u4e0a\u8d8a\u7dda", "KSJ2:STN": "\u7fa4\u99ac\u7dcf\u793e", "name": "\u7fa4\u99ac\u7dcf\u793e", "name:en": "Gunma-S\u014dja", "name:ja": "\u7fa4\u99ac\u7dcf\u793e", "name:ja_rm": "Gumma-S\u014dja", "name:ko": "\uad70\ub9c8\uc18c\uc790", "note": "National-Land Numerical Information (Railway) 2007, MLIT Japan", "note:ja": "\u56fd\u571f\u6570\u5024\u60c5\u5831\uff08\u9244\u9053\u30c7\u30fc\u30bf\uff09\u5e73\u621019\u5e74\u3000\u56fd\u571f\u4ea4\u901a\u7701", "public_transport": "station", "railway": "station", "source": "KSJ2", "source_ref": "http://nlftp.mlit.go.jp/ksj/jpgis/datalist/KsjTmplt-N02-v1_1.html", "wikidata": "Q1705804", "wikipedia": "ja:\u7fa4\u99ac\u7dcf\u793e\u99c5"}}, {"type": "node", "id": 3548915154, "lat": 36.6424053, "lon": 139.0356609, "tags": {"KSJ2:LIN": "\u4e0a\u8d8a\u7dda", "KSJ2:STN": "\u6cbc\u7530", "name": "\u6cbc\u7530", "name:en": "Numata", "name:ja": "\u6cbc\u7530", "name:ja_rm": "Numata", "name:ko": "\ub204\ub9c8\ud0c0", "note": "National-Land Numerical Information (Railway) 2007, MLIT Japan", "note:ja": "\u56fd\u571f\u6570\u5024\u60c5\u5831\uff08\u9244\u9053\u30c7\u30fc\u30bf\uff09\u5e73\u621019\u5e74\u3000\u56fd\u571f\u4ea4\u901a\u7701", "public_transport": "station", "railway": "station", "source": "KSJ2", "source_ref": "http://nlftp.mlit.go.jp/ksj/jpgis/datalist/KsjTmplt-N02-v1_1.html", "wikidata": "Q1706459", "wikipedia": "ja:\u6cbc\u7530\u99c5"}}, {"type": "node", "id": 3548915155, "lat": 36.4906867, "lon": 139.0085523, "tags": {"building": "yes", "name": "\u6e0b\u5ddd", "name:en": "Shibukawa", "name:ja-Hira": "\u3057\u3076\u304b\u308f", "name:ja_rm": "Shibukawa", "operator": "\u6771\u65e5\u672c\u65c5\u5ba2\u9244\u9053", "public_transport": "station", "railway": "station", "train": "yes", "wikidata": "Q864146", "wikipedia": "ja:\u6e0b\u5ddd\u99c5"}}, {"type": "node", "id": 3548915156, "lat": 36.3788486, "lon": 139.0471407, "tags": {"KSJ2:LIN": "\u4e21\u6bdb\u7dda", "KSJ2:STN": "\u65b0\u524d\u6a4b", "name": "\u65b0\u524d\u6a4b", "name:en": "Shin-Maebashi", "name:ja": "\u65b0\u524d\u6a4b", "name:ja-Hira": "\u3057\u3093\u307e\u3048\u3070\u3057", "name:ja_rm": "Shin-Maebashi", "name:ko": "\uc2e0\ub9c8\uc5d0\ubc14\uc2dc", "note": "National-Land Numerical Information (Railway) 2007, MLIT Japan", "note:ja": "\u56fd\u571f\u6570\u5024\u60c5\u5831\uff08\u9244\u9053\u30c7\u30fc\u30bf\uff09\u5e73\u621019\u5e74\u3000\u56fd\u571f\u4ea4\u901a\u7701", "public_transport": "station", "railway": "station", "source": "KSJ2", "source_ref": "http://nlftp.mlit.go.jp/ksj/jpgis/datalist/KsjTmplt-N02-v1_1.html", "wikidata": "Q1652844", "wikipedia": "ja:\u65b0\u524d\u6a4b\u99c5"}}, {"type": "node", "id": 3548915158, "lat": 36.4635849, "lon": 139.0192379, "tags": {"KSJ2:LIN": "\u4e0a\u8d8a\u7dda", "KSJ2:STN": "\u516b\u6728\u539f", "name": "\u516b\u6728\u539f", "name:en": "Yagihara", "name:ja": "\u516b\u6728\u539f", "name:ja_rm": "Yagihara", "name:ko": "\uc57c\uae30\ud558\ub77c", "note": "National-Land Numerical Information (Railway) 2007, MLIT Japan", "note:ja": "\u56fd\u571f\u6570\u5024\u60c5\u5831\uff08\u9244\u9053\u30c7\u30fc\u30bf\uff09\u5e73\u621019\u5e74\u3000\u56fd\u571f\u4ea4\u901a\u7701", "public_transport": "station", "railway": "station", "source": "KSJ2", "source_ref": "http://nlftp.mlit.go.jp/ksj/jpgis/datalist/KsjTmplt-N02-v1_1.html", "wikidata": "Q1706435", "wikipedia": "ja:\u516b\u6728\u539f\u99c5"}}, {"type": "node", "id": 3558006062, "lat": 36.3832125, "lon": 139.0726408, "tags": {"KSJ2:LIN": "\u4e21\u6bdb\u7dda", "KSJ2:STN": "\u524d\u6a4b", "name": "\u524d\u6a4b", "name:en": "Maebashi", "name:ja": "\u524d\u6a4b", "name:ja_rm": "Maebashi", "name:ko": "\ub9c8\uc5d0\ubc14\uc2dc", "note": "National-Land Numerical Information (Railway) 2007, MLIT Japan", "note:ja": "\u56fd\u571f\u6570\u5024\u60c5\u5831\uff08\u9244\u9053\u30c7\u30fc\u30bf\uff09\u5e73\u621019\u5e74\u3000\u56fd\u571f\u4ea4\u901a\u7701", "public_transport": "station", "railway": "station", "source": "KSJ2", "source_ref": "http://nlftp.mlit.go.jp/ksj/jpgis/datalist/KsjTmplt-N02-v1_1.html", "wikidata": "Q1062416", "wikipedia": "ja:\u524d\u6a4b\u99c5"}}, {"type": "node", "id": 3705316801, "lat": 36.3386912, "lon": 139.0013003, "tags": {"name": "\u5317\u9ad8\u5d0e", "name:en": "Kita-Takasaki", "name:ja": "\u5317\u9ad8\u5d0e", "name:ko": "\uae30\ud0c0\ud0c0\uce74\uc0ac\ud0a4", "operator": "\u6771\u65e5\u672c\u65c5\u5ba2\u9244\u9053", "public_transport": "station", "railway": "station", "train": "yes", "website": "https://www.jreast.co.jp/estation/station/info.aspx?StationCd=574", "wikidata": "Q900663", "wikipedia": "ja:\u5317\u9ad8\u5d0e\u99c5"}}, {"type": "node", "id": 3721641449, "lat": 36.4113225, "lon": 139.3326744, "tags": {"name": "\u6850\u751f", "name:en": "Kiryu", "name:ja": "\u6850\u751f", "name:ja_rm": "Kiryu", "name:ko": "\uae30\ub958", "public_transport": "station", "railway": "station", "wikidata": "Q6416343", "wikipedia": "ja:\u6850\u751f\u99c5"}}, {"type": "node", "id": 3781558468, "lat": 36.4257943, "lon": 139.2762824, "tags": {"historic:name": "\u65b0\u5927\u9593\u3005", "historic:name:en": "Shin-Omama", "name": "\u8d64\u57ce", "name:en": "Akagi", "name:ja": "\u8d64\u57ce", "name:ja-Latn": "Akagi", "name:ja_rm": "Akagi", "name:ko": "\uc544\uce74\uae30", "public_transport": "station", "railway": "station", "source": "KSJ2", "wikidata": "Q4700146", "wikipedia": "ja:\u8d64\u57ce\u99c5"}}, {"type": "node", "id": 3781603406, "lat": 36.3911832, "lon": 139.0749235, "tags": {"name": "\u4e2d\u592e\u524d\u6a4b", "name:en": "Chuo-Maebashi", "name:ja": "\u4e2d\u592e\u524d\u6a4b", "name:ja_rm": "Ch\u016b\u014d-Maebashi", "name:ko": "\uc8fc\uc624\ub9c8\uc5d0\ubc14\uc2dc", "public_transport": "station", "railway": "station", "source": "KSJ2", "wikidata": "Q5119036", "wikipedia": "ja:\u4e2d\u592e\u524d\u6a4b\u99c5"}}, {"type": "node", "id": 3781603409, "lat": 36.3942753, "lon": 139.1065811, "tags": {"name": "\u4e0a\u6cc9", "name:en": "Kamiizumi", "name:ja-Latn": "Kamiizumi", "name:ko": "\uac00\ubbf8\uc774\uc988\ubbf8", "public_transport": "station", "railway": "station", "source": "KSJ2", "wikidata": "Q6357816", "wikipedia": "ja:\u4e0a\u6cc9\u99c5"}}, {"type": "node", "id": 3781603410, "lat": 36.3939498, "lon": 139.0955133, "tags": {"name": "\u7247\u8c9d", "name:en": "Katakai", "name:ja-Latn": "Katakai", "name:ko": "\uac00\ud0c0\uce74\uc774", "public_transport": "station", "railway": "station", "source": "KSJ2", "train": "yes", "wikidata": "Q6375029", "wikipedia": "ja:\u7247\u8c9d\u99c5"}}, {"type": "node", "id": 3781603411, "lat": 36.3937327, "lon": 139.0890263, "tags": {"name": "\u4e09\u4fe3", "name:en": "Mitsumata", "name:ja": "\u4e09\u4fe3", "name:ja-Latn": "Mitsumata", "name:ko": "\ubbf8\uc4f0\ub9c8\ud0c0", "public_transport": "station", "railway": "station", "source": "KSJ2", "wikidata": "Q6883299", "wikipedia": "ja:\u4e09\u4fe3\u99c5"}}, {"type": "node", "id": 3781603413, "lat": 36.4139311, "lon": 139.3338152, "tags": {"name": "\u897f\u6850\u751f", "name:en": "Nishi-Kiryu", "name:ja": "\u897f\u6850\u751f", "name:ja_rm": "Nishi-Kiry\u016b", "name:ko": "\ub2c8\uc2dc\ud0a4\ub958", "public_transport": "station", "railway": "station", "wikidata": "Q7040364", "wikipedia": "ja:\u897f\u6850\u751f\u99c5"}}, {"type": "node", "id": 3830528959, "lat": 36.3587403, "lon": 139.2420949, "tags": {"name": "\u56fd\u5b9a", "name:en": "Kunisada", "name:ja": "\u56fd\u5b9a", "name:ja_rm": "Kunisada", "name:ko": "\uad6c\ub2c8\uc0ac\ub2e4", "public_transport": "station", "railway": "station", "wikidata": "Q426096", "wikipedia": "ja:\u56fd\u5b9a\u99c5"}}, {"type": "node", "id": 3934184665, "lat": 36.3951077, "lon": 139.3202394, "tags": {"KSJ2:LIN": "\u6850\u751f\u7dda", "KSJ2:RAS": "eb03_8585", "KSJ2:STN": "\u65b0\u6850\u751f", "KSJ2:segment": "eb02_18312", "name": "\u65b0\u6850\u751f", "name:en": "Shin-Kiryu", "name:ja": "\u65b0\u6850\u751f", "name:ja_rm": "Shin-kiry\u016b", "name:ko": "\uc2e0\ud0a4\ub958", "public_transport": "station", "railway": "station", "source": "Bing 2012", "wikidata": "Q7497107", "wikipedia": "ja:\u65b0\u6850\u751f\u99c5"}}, {"type": "node", "id": 3936038295, "lat": 36.3870606, "lon": 139.3083778, "tags": {"KSJ2:LIN": "\u6850\u751f\u7dda", "KSJ2:RAS": "eb03_8582", "KSJ2:STN": "\u963f\u5de6\u7f8e", "KSJ2:segment": "eb02_18308", "name": "\u963f\u5de6\u7f8e", "name:en": "Azami", "name:ja": "\u963f\u5de6\u7f8e", "name:ja_rm": "Azami", "note": "The station moved 300m north in March 2020.", "public_transport": "station", "railway": "station", "source": "KSJ2", "source_ref": "http://nlftp.mlit.go.jp/ksj/jpgis/datalist/KsjTmplt-N02-v1_1.html", "train": "yes", "wikidata": "Q289670", "wikipedia": "ja:\u963f\u5de6\u7f8e\u99c5"}}, {"type": "node", "id": 4239204667, "lat": 36.4700531, "lon": 139.2576786, "tags": {"KSJ2:LIN": "\u308f\u305f\u3089\u305b\u6e13\u8c37\u7dda", "KSJ2:STN": "\u4e0a\u795e\u6885", "name": "\u4e0a\u795e\u6885", "name:en": "Kami-Kambai", "name:ja": "\u4e0a\u795e\u6885", "name:ja_rm": "Kami-Kambai", "name:ko": "\uac00\ubbf8\uce78\ubc14\uc774", "public_transport": "station", "railway": "station", "source_ref": "http://nlftp.mlit.go.jp/ksj/jpgis/datalist/KsjTmplt-N02-v1_1.html", "wikidata": "Q6357152", "wikipedia": "ja:\u4e0a\u795e\u6885\u99c5"}}, {"type": "node", "id": 4339418745, "lat": 36.3958165, "lon": 139.2967609, "tags": {"KSJ2:LIN": "\u4e21\u6bdb\u7dda", "KSJ2:STN": "\u5ca9\u5bbf", "name": "\u5ca9\u5bbf", "name:en": "Iwajuku", "name:ja": "\u5ca9\u5bbf", "name:ja_rm": "Iwajuku", "name:ko": "\uc774\uc640\uc8fc\ucfe0", "note": "National-Land Numerical Information (Railway) 2007, MLIT Japan", "note:ja": "\u56fd\u571f\u6570\u5024\u60c5\u5831\uff08\u9244\u9053\u30c7\u30fc\u30bf\uff09\u5e73\u621019\u5e74\u3000\u56fd\u571f\u4ea4\u901a\u7701", "public_transport": "station", "railway": "station", "source": "KSJ2", "source_ref": "http://nlftp.mlit.go.jp/ksj/jpgis/datalist/KsjTmplt-N02-v1_1.html", "wikidata": "Q6100339", "wikipedia": "ja:\u5ca9\u5bbf\u99c5"}}, {"type": "node", "id": 6050938024, "lat": 36.4076202, "lon": 139.31512, "tags": {"name": "\u4e0b\u65b0\u7530", "name:en": "Shimo-Shinden", "name:ja": "\u4e0b\u65b0\u7530", "name:ja_rm": "Shimo-Shinden", "public_transport": "station", "railway": "station", "wikidata": "Q7496933", "wikipedia": "ja:\u4e0b\u65b0\u7530\u99c5"}}, {"type": "node", "id": 6057440277, "lat": 36.4141075, "lon": 139.3159025, "tags": {"name": "\u5bcc\u58eb\u5c71\u4e0b", "name:en": "Fujiyamashita", "name:ja_rm": "Fujiyamashita", "name:ko": "\ud6c4\uc9c0\uc57c\ub9c8\uc2dc\ud0c0", "note": "NOT the station for Mt Fuji..", "operator": "\u4e0a\u6bdb\u96fb\u6c17\u9244\u9053", "public_transport": "station", "railway": "station", "source": "KSJ2", "wikidata": "Q5507553", "wikipedia": "ja:\u5bcc\u58eb\u5c71\u4e0b\u99c5"}}, {"type": "node", "id": 6057440278, "lat": 36.4104912, "lon": 139.3044526, "tags": {"name": "\u76f8\u8001", "name:en": "Aioi", "name:ja": "\u76f8\u8001", "name:ja-Hira": "\u3042\u3044\u304a\u3044", "name:ja_rm": "Aioi", "name:ko": "\uc544\uc774\uc624\uc774", "public_transport": "station", "railway": "station", "wikidata": "Q4697556", "wikipedia": "ja:\u76f8\u8001\u99c5"}}, {"type": "node", "id": 6057440279, "lat": 36.4220519, "lon": 139.2676493, "tags": {"name": "\u6771\u65b0\u5ddd", "name:en": "Higashi-Nikkawa", "name:ja-Latn": "Higashi-Nikkawa", "name:ko": "\ud788\uac00\uc2dc\ub2db\uce74\uc640", "public_transport": "station", "railway": "station", "source": "KSJ2", "train": "yes", "wikidata": "Q11527073", "wikipedia": "ja:\u6771\u65b0\u5ddd\u99c5 (\u7fa4\u99ac\u770c)"}}, {"type": "node", "id": 6571461520, "lat": 36.4185914, "lon": 139.2377038, "tags": {"KSJ2:LIN": "\u4e0a\u6bdb\u7dda", "KSJ2:STN": "\u65b0\u91cc", "name": "\u65b0\u91cc", "name:en": "Niisato", "name:ja": "\u65b0\u91cc", "name:ja_rm": "Niisato", "name:ko": "\ub2c8\uc774\uc0ac\ud1a0", "note": "National-Land Numerical Information (Railway) 2007, MLIT Japan", "note:ja": "\u56fd\u571f\u6570\u5024\u60c5\u5831\uff08\u9244\u9053\u30c7\u30fc\u30bf\uff09\u5e73\u621019\u5e74\u3000\u56fd\u571f\u4ea4\u901a\u7701", "public_transport": "station", "railway": "station", "source": "KSJ2", "source_ref": "http://nlftp.mlit.go.jp/ksj/jpgis/datalist/KsjTmplt-N02-v1_1.html", "wikidata": "Q7034481", "wikipedia": "ja:\u65b0\u91cc\u99c5 (\u7fa4\u99ac\u770c)"}}, {"type": "node", "id": 6778376057, "lat": 36.41821, "lon": 139.2578184, "tags": {"name": "\u65b0\u5ddd", "name:en": "Nikkawa", "public_transport": "station", "railway": "station", "wikidata": "Q11502115", "wikipedia": "ja:\u65b0\u5ddd\u99c5 (\u7fa4\u99ac\u770c)"}}, {"type": "node", "id": 7400598540, "lat": 36.3589732, "lon": 139.315266, "tags": {"KSJ2:LIN": "\u6850\u751f\u7dda", "KSJ2:RAS": "eb03_8581", "KSJ2:STN": "\u85ea\u585a", "KSJ2:segment": "eb02_18307", "name": "\u85ea\u585a", "name:en": "Yabuzuka", "name:ja": "\u85ea\u585a", "name:ja_rm": "Yabuzuka", "name:ko": "\uc57c\ubd80\uc988\uce74", "note": "National-Land Numerical Information (Railway) 2007, MLIT Japan", "note:ja": "\u56fd\u571f\u6570\u5024\u60c5\u5831\uff08\u9244\u9053\u30c7\u30fc\u30bf\uff09\u5e73\u621019\u5e74\u3000\u56fd\u571f\u4ea4\u901a\u7701", "public_transport": "station", "railway": "station", "source": "KSJ2", "source_ref": "http://nlftp.mlit.go.jp/ksj/jpgis/datalist/KsjTmplt-N02-v1_1.html", "wikidata": "Q8046412", "wikipedia": "ja:\u85ea\u585a\u99c5"}}, {"type": "node", "id": 8059380834, "lat": 36.4149335, "lon": 139.3081896, "tags": {"name": "\u5929\u738b\u5bbf", "name:en": "Tennojuku", "name:ja": "\u5929\u738b\u5bbf", "name:ja-Latn": "Tenn\u014djuku", "name:ko": "\ub374\ub178\uc8fc\ucfe0", "public_transport": "station", "railway": "station", "source": "KSJ2", "wikidata": "Q7700534", "wikipedia": "ja:\u5929\u738b\u5bbf\u99c5"}}, {"type": "node", "id": 8059380836, "lat": 36.4167109, "lon": 139.2107507, "tags": {"name": "\u7c95\u5ddd", "name:en": "Kasukawa", "name:ja-Latn": "Kasukawa", "name:ko": "\uac00\uc2a4\uce74\uc640", "public_transport": "station", "railway": "station", "source": "KSJ2", "wikidata": "Q6374886", "wikipedia": "ja:\u7c95\u5ddd\u99c5"}}, {"type": "node", "id": 8059417355, "lat": 36.4192923, "lon": 139.2981201, "tags": {"alt_name:ko": "\uae30\ub958\ud050\uc870\ub9c8\uc5d0", "name": "\u6850\u751f\u7403\u5834\u524d", "name:en": "Kiryu-Kyujo-mae", "name:ja": "\u6850\u751f\u7403\u5834\u524d", "name:ja_rm": "Kiry\u016b-Ky\u016bj\u014d-Mae", "name:ko": "\uae30\ub958\uad6c\uc7a5\uc55e", "public_transport": "station", "railway": "station", "source": "KSJ2", "wikidata": "Q6416345", "wikipedia": "ja:\u6850\u751f\u7403\u5834\u524d\u99c5"}}, {"type": "node", "id": 8062047206, "lat": 36.413674, "lon": 139.184845, "tags": {"name": "\u5317\u539f", "name:en": "Kitahara", "name:ja-Latn": "Kitahara", "name:ko": "\uae30\ud0c0\ud558\ub77c", "public_transport": "station", "railway": "station", "source": "KSJ2", "wikidata": "Q11401280", "wikipedia": "ja:\u5317\u539f\u99c5"}}, {"type": "node", "id": 8062047207, "lat": 36.4138103, "lon": 139.1964359, "tags": {"name": "\u65b0\u5c4b", "name:en": "Araya", "name:ja-Latn": "Araya", "name:ko": "\uc544\ub77c\uc57c", "public_transport": "station", "railway": "station", "source": "KSJ2", "wikidata": "Q4784551", "wikipedia": "ja:\u65b0\u5c4b\u99c5 (\u7fa4\u99ac\u770c)"}}, {"type": "node", "id": 8062047208, "lat": 36.4170888, "lon": 139.2218962, "tags": {"name": "\u81b3", "name:en": "Zen", "name:ja": "\u81b3", "name:ja-Hira": "\u305c\u3093", "name:ja-Latn": "Zen", "name:ko": "\uc820", "public_transport": "station", "railway": "station", "source": "KSJ2", "wikidata": "Q8192788", "wikipedia": "ja:\u81b3\u99c5"}}, {"type": "node", "id": 8614987824, "lat": 36.520801, "lon": 139.3076706, "tags": {"KSJ2:LIN": "\u308f\u305f\u3089\u305b\u6e13\u8c37\u7dda", "KSJ2:STN": "\u82b1\u8f2a", "name": "\u82b1\u8f2a", "name:en": "Hanawa", "name:ja": "\u82b1\u8f2a", "name:ja_rm": "Hanawa", "name:ko": "\ud558\ub098\uc640", "public_transport": "station", "railway": "station", "train": "yes", "wikidata": "Q5646950", "wikipedia": "ja:\u82b1\u8f2a\u99c5"}}]}