{"version": 0.6, "generator": "Overpass API 0.7.62.4 2390de5a", "osm3s": {"timestamp_osm_base": "2024-12-30T15:15:41Z", "copyright": "The data included in this document is from www.openstreetmap.org. The data is made available under ODbL."}, "elements": [{"type": "node", "id": 263262699, "lat": 35.3193755, "lon": 139.5042983, "tags": {"monorail": "yes", "name": "\u897f\u938c\u5009", "name:en": "Nishikamakura", "name:ja": "\u897f\u938c\u5009", "name:ja_kana": "\u306b\u3057\u304b\u307e\u304f\u3089", "name:ja_rm": "Nishi Kamakura", "name:ko": "\ub2c8\uc2dc\uce74\ub9c8\ucfe0\ub77c", "operator": "\u6e58\u5357\u30e2\u30ce\u30ec\u30fc\u30eb", "railway": "station", "source": "KSJ2", "station": "monorail", "wheelchair": "yes", "wikidata": "Q1094928", "wikipedia": "ja:\u897f\u938c\u5009\u99c5"}}, {"type": "node", "id": 263262703, "lat": 35.3172654, "lon": 139.4960143, "tags": {"monorail": "yes", "name": "\u7247\u702c\u5c71", "name:en": "Kataseyama", "name:ja": "\u7247\u702c\u5c71", "name:ja_kana": "\u304b\u305f\u305b\u3084\u307e", "name:ja_rm": "Kataseyama", "name:ko": "\uac00\ud0c0\uc138\uc57c\ub9c8", "operator": "\u6e58\u5357\u30e2\u30ce\u30ec\u30fc\u30eb", "railway": "station", "source": "KSJ2", "station": "monorail", "wikidata": "Q4251612", "wikipedia": "ja:\u7247\u702c\u5c71\u99c5"}}, {"type": "node", "id": 263262803, "lat": 35.332872, "lon": 139.5188734, "tags": {"KSJ2:LIN": "\u6c5f\u306e\u5cf6\u7dda", "monorail": "yes", "name": "\u6e58\u5357\u6df1\u6ca2", "name:en": "Shonan-Fukasawa", "name:ja": "\u6e58\u5357\u6df1\u6ca2", "name:ja_kana": "\u3057\u3087\u3046\u306a\u3093\u3075\u304b\u3055\u308f", "name:ja_rm": "Sh\u014dnan Fukasawa", "name:ko": "\uc1fc\ub09c\ud6c4\uce74\uc0ac\uc640", "note": "National-Land Numerical Information (Railway) 2007, MLIT Japan", "note:ja": "\u56fd\u571f\u6570\u5024\u60c5\u5831\uff08\u9244\u9053\u30c7\u30fc\u30bf\uff09\u5e73\u621019\u5e74\u3000\u56fd\u571f\u4ea4\u901a\u7701", "operator": "\u6e58\u5357\u30e2\u30ce\u30ec\u30fc\u30eb", "public_transport": "station", "railway": "station", "source": "KSJ2", "source_ref": "http://nlftp.mlit.go.jp/ksj/jpgis/datalist/KsjTmplt-N02-v1_1.html", "station": "monorail", "wheelchair": "no", "wikidata": "Q1094911", "wikipedia": "ja:\u6e58\u5357\u6df1\u6ca2\u99c5"}}, {"type": "node", "id": 263262808, "lat": 35.3117271, "lon": 139.4877046, "tags": {"monorail": "yes", "name": "\u6e58\u5357\u6c5f\u306e\u5cf6", "name:en": "Shonan-Enoshima", "name:es": "Shonan-Enoshima", "name:ja": "\u6e58\u5357\u6c5f\u306e\u5cf6", "name:ja_kana": "\u3057\u3087\u3046\u306a\u3093\u3048\u306e\u3057\u307e", "name:ja_rm": "Sh\u014dnan Enoshima", "name:ko": "\uc1fc\ub09c\uc5d0\ub178\uc2dc\ub9c8", "operator": "\u6e58\u5357\u30e2\u30ce\u30ec\u30fc\u30eb", "public_transport": "station", "railway": "station", "source": "KSJ2", "station": "monorail", "toilets:wheelchair": "yes", "wheelchair": "yes", "wikidata": "Q1058486", "wikipedia": "ja:\u6e58\u5357\u6c5f\u306e\u5cf6\u99c5"}}, {"type": "node", "id": 263266685, "lat": 35.2988417, "lon": 139.6014075, "tags": {"name": "\u6771\u9017\u5b50", "name:en": "Higashi-Zushi", "name:ja": "\u6771\u9017\u5b50", "name:ja_kana": "\u3072\u304c\u3057\u305a\u3057", "name:ja_rm": "Higashi Zushi", "name:ko": "\ud788\uac00\uc2dc\uc988\uc2dc", "operator": "\u6771\u65e5\u672c\u65c5\u5ba2\u9244\u9053", "public_transport": "station", "railway": "station", "ref": "JO05", "source": "KSJ2", "source_ref": "http://nlftp.mlit.go.jp/ksj/jpgis/datalist/KsjTmplt-N02-v1_1.html", "wikidata": "Q844310", "wikipedia": "ja:\u6771\u9017\u5b50\u99c5"}}, {"type": "node", "id": 263267206, "lat": 35.3543087, "lon": 139.5314325, "tags": {"KSJ2:LIN": "\u6a2a\u9808\u8cc0\u7dda", "KSJ2:STN": "\u5927\u8239", "name": "\u5927\u8239", "name:de": "\u014cfuna", "name:en": "\u014cfuna", "name:fr": "\u014cfuna", "name:it": "Ofuna", "name:ja-Hira": "\u304a\u304a\u3075\u306a", "name:ja-Latn": "Ofuna", "name:ru": "\u041e\u0444\u0443\u043d\u0430", "public_transport": "station", "railway": "station", "wikidata": "Q1143863", "wikipedia": "ja:\u5927\u8239\u99c5"}}, {"type": "node", "id": 263298361, "lat": 35.3225918, "lon": 139.6112899, "tags": {"name": "\u516d\u6d66", "name:en": "Mutsuura", "name:ja": "\u516d\u6d66", "name:ja_kana": "\u3080\u3064\u3046\u3089", "name:ja_rm": "Mutsuura", "name:ko": "\ubb34\uc4f0\uc6b0\ub77c", "operator": "\u4eac\u6d5c\u6025\u884c\u96fb\u9244", "operator:en": "Keikyu Corporation", "operator:ja": "\u4eac\u6d5c\u6025\u884c\u96fb\u9244", "public_transport": "station", "railway": "station", "ref": "KK51", "source": "Bing", "source_ref": "http://nlftp.mlit.go.jp/ksj/jpgis/datalist/KsjTmplt-N02-v1_1.html", "wikidata": "Q11312859", "wikipedia": "ja:\u516d\u6d66\u99c5"}}, {"type": "node", "id": 264240233, "lat": 35.308873, "lon": 139.483502, "tags": {"addr:city": "\u85e4\u6ca2\u5e02", "addr:province": "\u795e\u5948\u5ddd\u770c", "name": "\u7247\u702c\u6c5f\u30ce\u5cf6", "name:en": "Katase-Enoshima", "name:fr": "Katase-Enoshima", "name:ja": "\u7247\u702c\u6c5f\u30ce\u5cf6", "name:ja_kana": "\u304b\u305f\u305b\u3048\u306e\u3057\u307e", "name:ja_rm": "Katase Enoshima", "name:ko": "\uac00\ud0c0\uc138\uc5d0\ub178\uc2dc\ub9c8", "name:ru": "\u041a\u0430\u0442\u0430\u0441\u044d-\u042d\u043d\u043e\u0441\u0438\u043c\u0430", "name:zh": "\u7247\u7028\u6c5f\u4e4b\u5cf6\u8eca\u7ad9", "network": "\u5c0f\u7530\u6025\u96fb\u9244", "network:en": "Odakyu Electric Railway", "network:ja": "\u5c0f\u7530\u6025\u96fb\u9244", "network:wikidata": "Q83584", "operator": "\u5c0f\u7530\u6025\u96fb\u9244", "public_transport": "station", "railway": "station", "ref": "OE16", "source": "KSJ2", "toilets:wheelchair": "yes", "train": "yes", "wheelchair": "yes", "wikidata": "Q1058370", "wikipedia": "ja:\u7247\u702c\u6c5f\u30ce\u5cf6\u99c5"}}, {"type": "node", "id": 280728684, "lat": 35.3421054, "lon": 139.6359064, "tags": {"light_rail": "yes", "name": "\u6d77\u306e\u516c\u5712\u67f4\u53e3", "name:en": "Uminokoen-Shibaguchi", "name:es": "Uminokoen-Shibaguchi", "name:ja": "\u6d77\u306e\u516c\u5712\u67f4\u53e3", "name:ja_kana": "\u3046\u307f\u306e\u3053\u3046\u3048\u3093\u3057\u3070\u3050\u3061", "name:ja_rm": "Uminok\u014den shibaguchi", "name:ko": "\uc6b0\ubbf8\ub178\ucf54\uc5d4\uc2dc\ubc14\uad6c\uce58", "public_transport": "station", "railway": "station", "ref": "11", "source": "KSJ2", "source_ref": "http://nlftp.mlit.go.jp/ksj/jpgis/datalist/KsjTmplt-N02-v1_1.html", "station": "light_rail", "wikidata": "Q7881582", "wikipedia": "ja:\u6d77\u306e\u516c\u5712\u67f4\u53e3\u99c5"}}, {"type": "node", "id": 280728809, "lat": 35.3408226, "lon": 139.640836, "tags": {"light_rail": "yes", "name": "\u516b\u666f\u5cf6", "name:en": "Hakkeijima", "name:es": "Hakkeijima", "name:ja": "\u516b\u666f\u5cf6", "name:ja_kana": "\u306f\u3063\u3051\u3044\u3058\u307e", "name:ja_rm": "Hakkeijima", "name:ko": "\ud56b\ucf00\uc774\uc9c0\ub9c8", "public_transport": "station", "railway": "station", "ref": "10", "source": "KSJ2", "source_ref": "http://nlftp.mlit.go.jp/ksj/jpgis/datalist/KsjTmplt-N02-v1_1.html", "station": "light_rail", "wikidata": "Q5640543", "wikipedia": "ja:\u516b\u666f\u5cf6\u99c5"}}, {"type": "node", "id": 280728896, "lat": 35.3371661, "lon": 139.6320353, "tags": {"light_rail": "yes", "name": "\u6d77\u306e\u516c\u5712\u5357\u53e3", "name:en": "Uminokoen-Minamiguchi", "name:es": "Uminokoen-Minamiguchi", "name:ja": "\u6d77\u306e\u516c\u5712\u5357\u53e3", "name:ja_kana": "\u3046\u307f\u306e\u3053\u3046\u3048\u3093\u307f\u306a\u307f\u3050\u3061", "name:ja_rm": "Uminok\u014den minamiguchi", "name:ko": "\uc6b0\ubbf8\ub178\ucf54\uc5d4\ubbf8\ub098\ubbf8\uad6c\uce58", "public_transport": "station", "railway": "station", "ref": "12", "source": "KSJ2", "source_ref": "http://nlftp.mlit.go.jp/ksj/jpgis/datalist/KsjTmplt-N02-v1_1.html", "station": "light_rail", "wikidata": "Q7881587", "wikipedia": "ja:\u6d77\u306e\u516c\u5712\u5357\u53e3\u99c5"}}, {"type": "node", "id": 280728933, "lat": 35.3583376, "lon": 139.6437391, "tags": {"light_rail": "yes", "name": "\u5e78\u6d66", "name:en": "Sachiura", "name:es": "Sachiura", "name:ja": "\u5e78\u6d66", "name:ja_kana": "\u3055\u3061\u3046\u3089", "name:ja_rm": "Sachiura", "name:ko": "\uc0ac\uce58\uc6b0\ub77c", "public_transport": "station", "railway": "station", "ref": "6", "source": "KSJ2", "source_ref": "http://nlftp.mlit.go.jp/ksj/jpgis/datalist/KsjTmplt-N02-v1_1.html", "station": "light_rail", "wikidata": "Q7396765", "wikipedia": "ja:\u5e78\u6d66\u99c5"}}, {"type": "node", "id": 280728953, "lat": 35.3496489, "lon": 139.6485436, "tags": {"light_rail": "yes", "name": "\u798f\u6d66", "name:en": "Fukuura", "name:ja": "\u798f\u6d66", "name:ja_kana": "\u3075\u304f\u3046\u3089", "name:ja_rm": "Fukuura", "name:ko": "\ud6c4\ucfe0\uc6b0\ub77c", "public_transport": "station", "railway": "station", "ref": "8", "source": "KSJ2", "source_ref": "http://nlftp.mlit.go.jp/ksj/jpgis/datalist/KsjTmplt-N02-v1_1.html", "station": "light_rail", "wikidata": "Q5507751", "wikipedia": "ja:\u798f\u6d66\u99c5"}}, {"type": "node", "id": 280728980, "lat": 35.3534255, "lon": 139.646291, "tags": {"alt_name:ko": "\uc0b0\uad50\uc2e0\ucf54\uc13c\ud130", "light_rail": "yes", "name": "\u7523\u696d\u632f\u8208\u30bb\u30f3\u30bf\u30fc", "name:en": "Sangyoshinko Center", "name:ja": "\u7523\u696d\u632f\u8208\u30bb\u30f3\u30bf\u30fc", "name:ja_kana": "\u3055\u3093\u304e\u3087\u3046\u3057\u3093\u3053\u3046\u305b\u3093\u305f\u30fc", "name:ja_rm": "Sangy\u014d shink\u014d sent\u0101", "name:ko": "\uc0b0\uc5c5\uc9c4\ud765\uc13c\ud130", "public_transport": "station", "railway": "station", "ref": "7", "source": "KSJ2", "source_ref": "http://nlftp.mlit.go.jp/ksj/jpgis/datalist/KsjTmplt-N02-v1_1.html", "station": "light_rail", "wikidata": "Q7418197", "wikipedia": "ja:\u7523\u696d\u632f\u8208\u30bb\u30f3\u30bf\u30fc\u99c5"}}, {"type": "node", "id": 355845276, "lat": 35.4015158, "lon": 139.5725338, "tags": {"name": "\u4e0a\u6c38\u8c37", "name:en": "Kaminagaya", "name:es": "Kaminagaya", "name:ja": "\u4e0a\u6c38\u8c37", "name:ja-Hira": "\u304b\u307f\u306a\u304c\u3084", "name:ko": "\uac00\ubbf8\ub098\uac00\uc57c", "operator": "\u6a2a\u6d5c\u5e02\u4ea4\u901a\u5c40", "public_transport": "station", "railway": "station", "ref": "B09", "source": "KSJ2", "source_ref": "http://nlftp.mlit.go.jp/ksj/jpgis/datalist/KsjTmplt-N02-v1_1.html", "station": "subway", "subway": "yes", "wheelchair": "yes", "wikidata": "Q841420", "wikipedia": "ja:\u4e0a\u6c38\u8c37\u99c5"}}, {"type": "node", "id": 506122717, "lat": 35.3191187, "lon": 139.5504286, "tags": {"name": "\u938c\u5009", "name:en": "Kamakura", "name:es": "Kamakura JR", "name:it": "Kamakura", "name:ja": "\u938c\u5009", "name:ja-Hira": "\u304b\u307e\u304f\u3089", "name:ja-Latn": "Kamakura", "name:ko": "\uac00\ub9c8\ucfe0\ub77c", "name:zh": "\u9570\u4ed3", "operator": "\u6771\u65e5\u672c\u65c5\u5ba2\u9244\u9053", "public_transport": "station", "railway": "station", "ref": "JO07;JS07", "source": "KSJ2", "source_ref": "http://nlftp.mlit.go.jp/ksj/jpgis/datalist/KsjTmplt-N02-v1_1.html", "train": "yes", "wikidata": "Q932895", "wikipedia": "ja:\u938c\u5009\u99c5"}}, {"type": "node", "id": 823268950, "lat": 35.4057234, "lon": 139.4824589, "tags": {"KSJ2:LIN": "\u3044\u305a\u307f\u91ce\u7dda", "KSJ2:RAS": "eb03_5067", "KSJ2:STN": "\u3086\u3081\u304c\u4e18", "KSJ2:segment": "eb02_10537", "name": "\u3086\u3081\u304c\u4e18", "name:de": "Yumegaoka", "name:en": "Yumegaoka", "name:ja": "\u3086\u3081\u304c\u4e18", "name:ja-Hira": "\u3086\u3081\u304c\u304a\u304b", "name:ja_rm": "Yumegaoka", "name:ko": "\uc720\uba54\uac00\uc624\uce74", "note": "National-Land Numerical Information (Railway) 2007, MLIT Japan", "note:ja": "\u56fd\u571f\u6570\u5024\u60c5\u5831\uff08\u9244\u9053\u30c7\u30fc\u30bf\uff09\u5e73\u621019\u5e74\u3000\u56fd\u571f\u4ea4\u901a\u7701", "platforms": "2", "public_transport": "station", "railway": "station", "ref": "SO36", "source": "KSJ2", "source_ref": "http://nlftp.mlit.go.jp/ksj/jpgis/datalist/KsjTmplt-N02-v1_1.html", "train": "yes", "wikidata": "Q5367513", "wikipedia": "ja:\u3086\u3081\u304c\u4e18\u99c5"}}, {"type": "node", "id": 823269102, "lat": 35.4298971, "lon": 139.5063488, "tags": {"KSJ2:LIN": "\u3044\u305a\u307f\u91ce\u7dda", "KSJ2:RAS": "eb03_5065", "KSJ2:STN": "\u5f25\u751f\u53f0", "KSJ2:segment": "eb02_10532", "name": "\u5f25\u751f\u53f0", "name:de": "Yayoidai", "name:en": "Yayoidai", "name:ja": "\u5f25\u751f\u53f0", "name:ja-Hira": "\u3084\u3088\u3044\u3060\u3044", "name:ja_rm": "Yayoidai", "name:ko": "\uc57c\uc694\uc774\ub2e4\uc774", "note": "National-Land Numerical Information (Railway) 2007, MLIT Japan", "note:ja": "\u56fd\u571f\u6570\u5024\u60c5\u5831\uff08\u9244\u9053\u30c7\u30fc\u30bf\uff09\u5e73\u621019\u5e74\u3000\u56fd\u571f\u4ea4\u901a\u7701", "platforms": "2", "public_transport": "station", "railway": "station", "ref": "SO33", "source": "KSJ2", "source_ref": "http://nlftp.mlit.go.jp/ksj/jpgis/datalist/KsjTmplt-N02-v1_1.html", "website": "https://www.sotetsu.co.jp/train/stations/yayoidai/", "wikidata": "Q8050550", "wikipedia": "ja:\u5f25\u751f\u53f0\u99c5"}}, {"type": "node", "id": 823269235, "lat": 35.452353, "lon": 139.526377, "tags": {"KSJ2:LIN": "\u3044\u305a\u307f\u91ce\u7dda", "KSJ2:RAS": "eb03_5063", "KSJ2:STN": "\u5357\u4e07\u9a0e\u304c\u539f", "KSJ2:segment": "eb02_10524", "name": "\u5357\u4e07\u9a0e\u304c\u539f", "name:de": "Makigahara S\u00fcd", "name:en": "Minami-Makigahara", "name:ja": "\u5357\u4e07\u9a0e\u304c\u539f", "name:ja-Hira": "\u307f\u306a\u307f\u307e\u304d\u304c\u306f\u3089", "name:ko": "\ubbf8\ub098\ubbf8\ub9c8\ud0a4\uac00\ud558\ub77c", "note": "National-Land Numerical Information (Railway) 2007, MLIT Japan", "note:ja": "\u56fd\u571f\u6570\u5024\u60c5\u5831\uff08\u9244\u9053\u30c7\u30fc\u30bf\uff09\u5e73\u621019\u5e74\u3000\u56fd\u571f\u4ea4\u901a\u7701", "platforms": "2", "public_transport": "station", "railway": "station", "ref": "SO31", "source": "KSJ2", "source_ref": "http://nlftp.mlit.go.jp/ksj/jpgis/datalist/KsjTmplt-N02-v1_1.html", "wikidata": "Q6862945", "wikipedia": "ja:\u5357\u4e07\u9a0e\u304c\u539f\u99c5"}}, {"type": "node", "id": 823269267, "lat": 35.4394435, "lon": 139.5218816, "tags": {"KSJ2:LIN": "\u3044\u305a\u307f\u91ce\u7dda", "KSJ2:RAS": "eb03_5066", "KSJ2:STN": "\u7dd1\u5712\u90fd\u5e02", "KSJ2:segment": "eb02_10528", "name": "\u7dd1\u5712\u90fd\u5e02", "name:de": "Ryokuen-toshi", "name:en": "Ryokuen-toshi", "name:ja": "\u7dd1\u5712\u90fd\u5e02", "name:ja-Hira": "\u308a\u3087\u304f\u3048\u3093\u3068\u3057", "name:ja_rm": "Ryokuen Toshi", "name:ko": "\ub8cc\ucfe0\uc5d4\ud1a0\uc2dc", "note": "National-Land Numerical Information (Railway) 2007, MLIT Japan", "note:ja": "\u56fd\u571f\u6570\u5024\u60c5\u5831\uff08\u9244\u9053\u30c7\u30fc\u30bf\uff09\u5e73\u621019\u5e74\u3000\u56fd\u571f\u4ea4\u901a\u7701", "platforms": "2", "public_transport": "station", "railway": "station", "ref": "SO32", "source": "KSJ2", "source_ref": "http://nlftp.mlit.go.jp/ksj/jpgis/datalist/KsjTmplt-N02-v1_1.html", "website": "https://www.sotetsu.co.jp/train/stations/ryokuentoshi/", "wikidata": "Q7385303", "wikipedia": "ja:\u7dd1\u5712\u90fd\u5e02\u99c5"}}, {"type": "node", "id": 823269414, "lat": 35.4152489, "lon": 139.4872874, "tags": {"KSJ2:LIN": "\u3044\u305a\u307f\u91ce\u7dda", "KSJ2:RAS": "eb03_5070", "KSJ2:STN": "\u3044\u305a\u307f\u4e2d\u592e", "KSJ2:segment": "eb02_10521", "alt_name:ko": "\uc774\uc988\ubbf8\ucd94\uc624", "name": "\u3044\u305a\u307f\u4e2d\u592e", "name:de": "Izumi Mitte", "name:en": "Izumi-Chuo", "name:ja": "\u3044\u305a\u307f\u4e2d\u592e", "name:ja-Hira": "\u3044\u305a\u307f\u3061\u3085\u3046\u304a\u3046", "name:ja_rm": "Izumi Ch\u016b\u014d", "name:ko": "\uc774\uc988\ubbf8\uc911\uc559", "note": "National-Land Numerical Information (Railway) 2007, MLIT Japan", "note:ja": "\u56fd\u571f\u6570\u5024\u60c5\u5831\uff08\u9244\u9053\u30c7\u30fc\u30bf\uff09\u5e73\u621019\u5e74\u3000\u56fd\u571f\u4ea4\u901a\u7701", "platforms": "2", "public_transport": "station", "railway": "station", "ref": "SO35", "source": "KSJ2", "source_ref": "http://nlftp.mlit.go.jp/ksj/jpgis/datalist/KsjTmplt-N02-v1_1.html", "wheelchair": "limited", "wikidata": "Q6102271", "wikipedia": "ja:\u3044\u305a\u307f\u4e2d\u592e\u99c5"}}, {"type": "node", "id": 823269446, "lat": 35.429465, "lon": 139.4949527, "tags": {"KSJ2:LIN": "\u3044\u305a\u307f\u91ce\u7dda", "KSJ2:RAS": "eb03_5064", "KSJ2:STN": "\u3044\u305a\u307f\u91ce", "KSJ2:segment": "eb02_10533", "name": "\u3044\u305a\u307f\u91ce", "name:de": "Izumino", "name:en": "Izumino", "name:ja": "\u3044\u305a\u307f\u91ce", "name:ja-Hira": "\u3044\u305a\u307f\u306e", "name:ko": "\uc774\uc988\ubbf8\ub178", "note": "National-Land Numerical Information (Railway) 2007, MLIT Japan", "note:ja": "\u56fd\u571f\u6570\u5024\u60c5\u5831\uff08\u9244\u9053\u30c7\u30fc\u30bf\uff09\u5e73\u621019\u5e74\u3000\u56fd\u571f\u4ea4\u901a\u7701", "platforms": "4", "public_transport": "station", "railway": "station", "ref": "SO34", "source": "KSJ2", "source_ref": "http://nlftp.mlit.go.jp/ksj/jpgis/datalist/KsjTmplt-N02-v1_1.html", "website": "https://www.sotetsu.co.jp/train/stations/izumino/", "wikidata": "Q6102365", "wikipedia": "ja:\u3044\u305a\u307f\u91ce\u99c5"}}, {"type": "node", "id": 823272743, "lat": 35.4532879, "lon": 139.6084809, "tags": {"name": "\u897f\u6a2a\u6d5c", "name:de": "Yokohama West", "name:en": "Nishi-Yokohama", "name:ja": "\u897f\u6a2a\u6d5c", "name:ja-Hira": "\u306b\u3057\u3088\u3053\u306f\u307e", "name:ko": "\ub2c8\uc2dc\uc694\ucf54\ud558\ub9c8", "note": "National-Land Numerical Information (Railway) 2007, MLIT Japan", "public_transport": "station", "railway": "station", "ref": "SO03", "source": "KSJ2", "source_ref": "http://nlftp.mlit.go.jp/ksj/jpgis/datalist/KsjTmplt-N02-v1_1.html", "wikidata": "Q11628832", "wikipedia": "ja:\u897f\u6a2a\u6d5c\u99c5"}}, {"type": "node", "id": 823272815, "lat": 35.4540049, "lon": 139.6026308, "tags": {"alt_name": "\u6a2a\u6d5c\u30d3\u30b8\u30cd\u30b9\u30d1\u30fc\u30af\u524d", "name": "\u5929\u738b\u753a", "name:en": "Tennocho", "name:ja": "\u5929\u738b\u753a", "name:ja-Hira": "\u3066\u3093\u306e\u3046\u3061\u3087\u3046", "name:ko": "\ub374\ub178\ucd08", "note": "National-Land Numerical Information (Railway) 2007, MLIT Japan", "platforms": "2", "public_transport": "station", "railway": "station", "ref": "SO04", "source": "KSJ2", "source_ref": "http://nlftp.mlit.go.jp/ksj/jpgis/datalist/KsjTmplt-N02-v1_1.html", "wikidata": "Q7700532", "wikipedia": "ja:\u5929\u738b\u753a\u99c5"}}, {"type": "node", "id": 1656240306, "lat": 35.4303614, "lon": 139.5567625, "tags": {"name": "\u6771\u6238\u585a", "name:de": "Totsuka Ost", "name:en": "Higashi-Totsuka", "name:ja": "\u6771\u6238\u585a", "name:ja_kana": "\u3072\u304c\u3057\u3068\u3064\u304b", "name:ja_rm": "Higashi Totsuka", "name:ko": "\ud788\uac00\uc2dc\ud1a0\uc4f0\uce74", "note": "National-Land Numerical Information (Railway) 2007, MLIT Japan", "operator": "\u6771\u65e5\u672c\u65c5\u5ba2\u9244\u9053", "public_transport": "station", "railway": "station", "source": "KSJ2", "source_ref": "http://nlftp.mlit.go.jp/ksj/jpgis/datalist/KsjTmplt-N02-v1_1.html", "wheelchair": "yes", "wikidata": "Q844252", "wikipedia": "ja:\u6771\u6238\u585a\u99c5"}}, {"type": "node", "id": 1939348169, "lat": 35.405611, "lon": 139.5183476}, {"type": "node", "id": 1939348172, "lat": 35.4056132, "lon": 139.5183114}, {"type": "node", "id": 1939348174, "lat": 35.4056228, "lon": 139.5183239}, {"type": "node", "id": 1939348175, "lat": 35.4056239, "lon": 139.5182771}, {"type": "node", "id": 1939348177, "lat": 35.4056282, "lon": 139.518372}, {"type": "node", "id": 1939348179, "lat": 35.405633, "lon": 139.5182876}, {"type": "node", "id": 1939348181, "lat": 35.4056405, "lon": 139.5181387}, {"type": "node", "id": 1939348183, "lat": 35.405647, "lon": 139.518345}, {"type": "node", "id": 1939348186, "lat": 35.4056615, "lon": 139.5183548}, {"type": "node", "id": 1939348192, "lat": 35.405676, "lon": 139.5182797}, {"type": "node", "id": 1939348195, "lat": 35.4056937, "lon": 139.5181493}, {"type": "node", "id": 1939348197, "lat": 35.4057007, "lon": 139.5182988}, {"type": "node", "id": 1939348248, "lat": 35.4056764, "lon": 139.5183323, "tags": {"name": "\u51fa\u5165\u53e33", "name:ja": "\u51fa\u5165\u53e33", "railway": "subway_entrance"}}, {"type": "node", "id": 2550872371, "lat": 35.2636035, "lon": 139.686646, "tags": {"KSJ2:LIN": "\u672c\u7dda", "gauge": "1435", "name": "\u5800\u30ce\u5185", "name:en": "Horinouchi", "name:ja": "\u5800\u30ce\u5185", "name:ja_kana": "\u307b\u308a\u306e\u3046\u3061", "name:ja_rm": "Horinouchi", "name:ko": "\ud638\ub9ac\ub178\uc6b0\uce58", "note": "National-Land Numerical Information (Railway) 2007, MLIT Japan", "note:ja": "\u56fd\u571f\u6570\u5024\u60c5\u5831\uff08\u9244\u9053\u30c7\u30fc\u30bf\uff09\u5e73\u621019\u5e74\u3000\u56fd\u571f\u4ea4\u901a\u7701", "operator": "\u4eac\u6d5c\u6025\u884c\u96fb\u9244 (Keikyu Corporation)", "operator:en": "Keikyu Corporation", "operator:ja": "\u4eac\u6d5c\u6025\u884c\u96fb\u9244", "public_transport": "station", "railway": "station", "ref": "KK61", "source": "Bing", "source_ref": "http://nlftp.mlit.go.jp/ksj/jpgis/datalist/KsjTmplt-N02-v1_1.html", "wikidata": "Q5370292", "wikipedia": "ja:\u5800\u30ce\u5185\u99c5"}}, {"type": "node", "id": 2550872398, "lat": 35.3430205, "lon": 139.6216115, "tags": {"name": "\u91d1\u6ca2\u6587\u5eab", "name:en": "Kanazawa-bunko", "name:ja": "\u91d1\u6ca2\u6587\u5eab", "name:ja_kana": "\u304b\u306a\u3056\u308f\u3076\u3093\u3053", "name:ja_rm": "Kanazawa bunko", "name:ko": "\uac00\ub098\uc790\uc640\ubd84\ucf54", "operator": "\u4eac\u6d5c\u6025\u884c\u96fb\u9244", "operator:en": "Keikyu Corporation", "operator:ja": "\u4eac\u6d5c\u6025\u884c\u96fb\u9244", "public_transport": "station", "railway": "station", "ref": "KK49", "source_ref": "http://nlftp.mlit.go.jp/ksj/jpgis/datalist/KsjTmplt-N02-v1_1.html", "wikidata": "Q6360872", "wikipedia": "ja:\u91d1\u6ca2\u6587\u5eab\u99c5"}}, {"type": "node", "id": 2550872399, "lat": 35.3311864, "lon": 139.6201441, "tags": {"name": "\u91d1\u6ca2\u516b\u666f", "name:en": "Kanazawa-Hakkei", "name:ja": "\u91d1\u6ca2\u516b\u666f", "name:ja_kana": "\u304b\u306a\u3056\u308f\u306f\u3063\u3051\u3044", "name:ja_rm": "Kanazawa hakkei", "name:ko": "\uac00\ub098\uc790\uc640\ud56b\ucf00\uc774", "operator": "\u4eac\u6d5c\u6025\u884c\u96fb\u9244", "operator:en": "Keikyu Corporation", "operator:ja": "\u4eac\u6d5c\u6025\u884c\u96fb\u9244", "public_transport": "station", "railway": "station", "ref": "KK50", "source_ref": "http://nlftp.mlit.go.jp/ksj/jpgis/datalist/KsjTmplt-N02-v1_1.html", "train": "yes", "wikidata": "Q6360870", "wikipedia": "ja:\u91d1\u6ca2\u516b\u666f\u99c5"}}, {"type": "node", "id": 2550872453, "lat": 35.1882147, "lon": 139.6532667, "tags": {"KSJ2:LIN": "\u4e45\u91cc\u6d5c\u7dda", "name": "\u4e09\u6d66\u6d77\u5cb8", "name:en": "Miurakaigan", "name:ja": "\u4e09\u6d66\u6d77\u5cb8", "name:ja_kana": "\u307f\u3046\u3089\u304b\u3044\u304c\u3093", "name:ja_rm": "Miura kaigan", "name:ko": "\ubbf8\uc6b0\ub77c\uce74\uc774\uac04", "note": "National-Land Numerical Information (Railway) 2007, MLIT Japan", "note:ja": "\u56fd\u571f\u6570\u5024\u60c5\u5831\uff08\u9244\u9053\u30c7\u30fc\u30bf\uff09\u5e73\u621019\u5e74\u3000\u56fd\u571f\u4ea4\u901a\u7701", "operator": "\u4eac\u6d5c\u6025\u884c\u96fb\u9244 (Keikyu Corporation)", "operator:en": "Keikyu Corporation", "operator:ja": "\u4eac\u6d5c\u6025\u884c\u96fb\u9244", "public_transport": "station", "railway": "station", "ref": "KK71", "source": "Bing", "source_ref": "http://nlftp.mlit.go.jp/ksj/jpgis/datalist/KsjTmplt-N02-v1_1.html", "wikidata": "Q5371356", "wikipedia": "ja:\u4e09\u6d66\u6d77\u5cb8\u99c5"}}, {"type": "node", "id": 2550872461, "lat": 35.1778307, "lon": 139.6330533, "tags": {"KSJ2:LIN": "\u4e45\u91cc\u6d5c\u7dda", "name": "\u4e09\u5d0e\u53e3", "name:en": "Misakiguchi", "name:ja": "\u4e09\u5d0e\u53e3", "name:ja_kana": "\u307f\u3055\u304d\u3050\u3061", "name:ja_rm": "Misakiguchi", "name:ko": "\ubbf8\uc0ac\ud0a4\uad6c\uce58", "note": "National-Land Numerical Information (Railway) 2007, MLIT Japan", "note:ja": "\u56fd\u571f\u6570\u5024\u60c5\u5831\uff08\u9244\u9053\u30c7\u30fc\u30bf\uff09\u5e73\u621019\u5e74\u3000\u56fd\u571f\u4ea4\u901a\u7701", "operator": "\u4eac\u6d5c\u6025\u884c\u96fb\u9244 (Keikyu Corporation)", "operator:en": "Keikyu Corporation", "operator:ja": "\u4eac\u6d5c\u6025\u884c\u96fb\u9244", "public_transport": "station", "railway": "station", "ref": "KK72", "source": "Bing", "source_ref": "http://nlftp.mlit.go.jp/ksj/jpgis/datalist/KsjTmplt-N02-v1_1.html", "wikidata": "Q846713", "wikipedia": "ja:\u4e09\u5d0e\u53e3\u99c5"}}, {"type": "node", "id": 2550872468, "lat": 35.2056376, "lon": 139.6743929, "tags": {"KSJ2:LIN": "\u4e45\u91cc\u6d5c\u7dda", "name": "\u4eac\u6025\u9577\u6ca2", "name:en": "Keikyu Nagasawa", "name:ja": "\u4eac\u6025\u9577\u6ca2", "name:ja_kana": "\u3051\u3044\u304d\u3085\u3046\u306a\u304c\u3055\u308f", "name:ja_rm": "Keiky\u016b Nagasawa", "name:ko": "\uac8c\uc774\ud050\ub098\uac00\uc0ac\uc640", "note": "National-Land Numerical Information (Railway) 2007, MLIT Japan", "note:ja": "\u56fd\u571f\u6570\u5024\u60c5\u5831\uff08\u9244\u9053\u30c7\u30fc\u30bf\uff09\u5e73\u621019\u5e74\u3000\u56fd\u571f\u4ea4\u901a\u7701", "operator": "\u4eac\u6d5c\u6025\u884c\u96fb\u9244 (Keikyu Corporation)", "operator:en": "Keikyu Corporation", "operator:ja": "\u4eac\u6d5c\u6025\u884c\u96fb\u9244", "public_transport": "station", "railway": "station", "ref": "KK69", "source": "Bing", "source_ref": "http://nlftp.mlit.go.jp/ksj/jpgis/datalist/KsjTmplt-N02-v1_1.html", "wikidata": "Q6383708", "wikipedia": "ja:\u4eac\u6025\u9577\u6ca2\u99c5"}}, {"type": "node", "id": 2550872535, "lat": 35.1984199, "lon": 139.6652683, "tags": {"KSJ2:LIN": "\u4e45\u91cc\u6d5c\u7dda", "name": "\u6d25\u4e45\u4e95\u6d5c", "name:en": "Tsukuihama", "name:ja": "\u6d25\u4e45\u4e95\u6d5c", "name:ja_kana": "\u3064\u304f\u3044\u306f\u307e", "name:ja_rm": "Tsukuihama", "name:ko": "\uc4f0\ucfe0\uc774\ud558\ub9c8", "note": "National-Land Numerical Information (Railway) 2007, MLIT Japan", "note:ja": "\u56fd\u571f\u6570\u5024\u60c5\u5831\uff08\u9244\u9053\u30c7\u30fc\u30bf\uff09\u5e73\u621019\u5e74\u3000\u56fd\u571f\u4ea4\u901a\u7701", "operator": "\u4eac\u6d5c\u6025\u884c\u96fb\u9244 (Keikyu Corporation)", "operator:en": "Keikyu Corporation", "operator:ja": "\u4eac\u6d5c\u6025\u884c\u96fb\u9244", "public_transport": "station", "railway": "station", "ref": "KK70", "source": "Bing", "source_ref": "http://nlftp.mlit.go.jp/ksj/jpgis/datalist/KsjTmplt-N02-v1_1.html", "wikidata": "Q7850103", "wikipedia": "ja:\u6d25\u4e45\u4e95\u6d5c\u99c5"}}, {"type": "node", "id": 2733108868, "lat": 35.4143405, "lon": 139.4997072}, {"type": "node", "id": 2733108869, "lat": 35.4141354, "lon": 139.4997542}, {"type": "node", "id": 2733108870, "lat": 35.4142623, "lon": 139.5006069}, {"type": "node", "id": 2733108871, "lat": 35.4144703, "lon": 139.5005592}, {"type": "node", "id": 2738954706, "lat": 35.4510054, "lon": 139.6310016, "tags": {"name": "\u685c\u6728\u753a", "name:en": "Sakuragicho", "name:es": "Sakuragicho", "name:fr": "Sakuragicho", "name:ja": "\u685c\u6728\u753a", "name:ja-Hira": "\u3055\u304f\u3089\u304e\u3061\u3087\u3046", "name:ja_kana": "\u3055\u304f\u3089\u304e\u3061\u3087\u3046", "name:ja_rm": "Sakuragicho", "name:ko": "\uc0ac\ucfe0\ub77c\uae30\ucd08", "note": "National-Land Numerical Information (Railway) 2007, MLIT Japan", "public_transport": "station", "railway": "station", "source": "KSJ2", "source_ref": "http://nlftp.mlit.go.jp/ksj/jpgis/datalist/KsjTmplt-N02-v1_1.html", "wheelchair": "yes", "wikidata": "Q801396", "wikipedia": "ja:\u685c\u6728\u753a\u99c5"}}, {"type": "node", "id": 3014657228, "lat": 35.3909493, "lon": 139.9655402, "tags": {"name": "\u4e0a\u7dcf\u6e05\u5ddd", "name:en": "Kazusa-Kiyokawa", "name:ja": "\u4e0a\u7dcf\u6e05\u5ddd", "name:ja_kana": "\u304b\u305a\u3055\u304d\u3088\u304b\u308f", "name:ja_rm": "Kazusa-Kiyokawa", "name:ko": "\uac00\uc988\uc0ac\ud0a4\uc694\uce74\uc640", "operator": "\u6771\u65e5\u672c\u65c5\u5ba2\u9244\u9053", "public_transport": "station", "railway": "station", "wheelchair": "no", "wikidata": "Q11360046", "wikipedia": "ja:\u4e0a\u7dcf\u6e05\u5ddd\u99c5"}}, {"type": "node", "id": 3014657229, "lat": 35.2222837, "lon": 139.8712604, "tags": {"name": "\u4e0a\u7dcf\u6e4a", "name:en": "Kazusa-Minato", "name:ja": "\u4e0a\u7dcf\u6e4a", "name:ja-Hira": "\u304b\u305a\u3055\u307f\u306a\u3068", "name:ja-Latn": "Kazusa-Minato", "name:ko": "\uac00\uc988\uc0ac\ubbf8\ub098\ud1a0", "name:ru": "\u041a\u0430\u0434\u0437\u0443\u0441\u0430-\u041c\u0438\u043d\u0430\u0442\u043e", "operator": "\u6771\u65e5\u672c\u65c5\u5ba2\u9244\u9053", "platforms": "2", "public_transport": "station", "railway": "station", "source": "Bing;survey", "train": "yes", "website": "https://www.jreast.co.jp/estation/station/info.aspx?StationCd=444", "wheelchair": "no", "wikidata": "Q558554", "wikipedia": "ja:\u4e0a\u7dcf\u6e4a\u99c5"}}, {"type": "node", "id": 3014683033, "lat": 35.2606226, "lon": 139.8760746, "tags": {"name": "\u4f50\u8cab\u753a", "name:en": "Sanukimachi", "name:ja": "\u4f50\u8cab\u753a", "name:ja-Hira": "\u3055\u306c\u304d\u307e\u3061", "name:ja-Latn": "Sanukimachi", "name:ko": "\uc0ac\ub204\ud0a4\ub9c8\uce58", "name:ru": "\u0421\u0430\u043d\u0443\u043a\u0438\u043c\u0430\u0442\u0438", "operator": "\u6771\u65e5\u672c\u65c5\u5ba2\u9244\u9053", "platforms": "2", "public_transport": "station", "railway": "station", "source": "Bing", "train": "yes", "website": "https://www.jreast.co.jp/estation/station/info.aspx?StationCd=751", "wheelchair": "no", "wikidata": "Q558870", "wikipedia": "ja:\u4f50\u8cab\u753a\u99c5"}}, {"type": "node", "id": 3014683034, "lat": 35.1410607, "lon": 139.8383441, "tags": {"name": "\u4fdd\u7530", "name:en": "Hota", "name:ja": "\u4fdd\u7530", "name:ja-Hira": "\u307b\u305f", "name:ja-Kana": "\u307b\u305f", "name:ja-Latn": "Hota", "name:ko": "\ud638\ud0c0", "name:ru": "\u0425\u043e\u0442\u0430", "operator": "\u6771\u65e5\u672c\u65c5\u5ba2\u9244\u9053", "platforms": "2", "public_transport": "station", "railway": "station", "source": "Bing", "website": "https://www.jreast.co.jp/estation/station/info.aspx?StationCd=1401", "wheelchair": "no", "wikidata": "Q558549", "wikipedia": "ja:\u4fdd\u7530\u99c5 (\u5343\u8449\u770c)"}}, {"type": "node", "id": 3014683041, "lat": 35.0210744, "lon": 139.9792264, "tags": {"name": "\u5357\u4e09\u539f", "name:en": "Minamihara", "name:ja": "\u5357\u4e09\u539f", "name:ja-Hira": "\u307f\u306a\u307f\u306f\u3089", "name:ja-Latn": "Minamihara", "name:ko": "\ubbf8\ub098\ubbf8\ud558\ub77c", "name:ru": "\u041c\u0438\u043d\u0430\u043c\u0438\u0445\u0430\u0440\u0430", "operator": "\u6771\u65e5\u672c\u65c5\u5ba2\u9244\u9053", "platforms": "2", "public_transport": "station", "railway": "station", "source": "Bing;Wikipedia", "website": "https://www.jreast.co.jp/estation/station/info.aspx?StationCd=1498", "wheelchair": "limited", "wikidata": "Q553865", "wikipedia": "ja:\u5357\u4e09\u539f\u99c5"}}, {"type": "node", "id": 3014683042, "lat": 35.3336304, "lon": 139.8955052, "tags": {"addr:block_number": "1", "addr:city": "\u541b\u6d25\u5e02", "addr:neighbourhood": "1\u4e01\u76ee", "addr:postcode": "299-1144", "addr:province": "\u5343\u8449\u770c", "addr:quarter": "\u6771\u5742\u7530", "name": "\u541b\u6d25", "name:en": "Kimitsu", "name:ja": "\u541b\u6d25", "name:ja-Hira": "\u304d\u307f\u3064", "name:ja-Latn": "Kimitsu", "name:ko": "\uae30\ubbf8\uc4f0", "name:ru": "\u041a\u0438\u043c\u0438\u0446\u0443", "operator": "\u6771\u65e5\u672c\u65c5\u5ba2\u9244\u9053", "platforms": "3", "public_transport": "station", "railway": "station", "source": "Bing;survey", "website": "https://www.jreast.co.jp/estation/station/info.aspx?StationCd=601", "wheelchair": "yes", "wikidata": "Q575422", "wikipedia": "ja:\u541b\u6d25\u99c5"}}, {"type": "node", "id": 3014683043, "lat": 35.0418145, "lon": 140.0194922, "tags": {"name": "\u548c\u7530\u6d66", "name:en": "Wadaura", "name:ja": "\u548c\u7530\u6d66", "name:ja-Hira": "\u308f\u3060\u3046\u3089", "name:ja-Latn": "Wadaura", "name:ko": "\uc640\ub2e4\uc6b0\ub77c", "name:ru": "\u0412\u0430\u0434\u0430\u0443\u0440\u0430", "operator": "\u6771\u65e5\u672c\u65c5\u5ba2\u9244\u9053", "platforms": "2", "public_transport": "station", "railway": "station", "website": "https://www.jreast.co.jp/estation/station/info.aspx?StationCd=1700", "wheelchair": "limited", "wikidata": "Q553736", "wikipedia": "ja:\u548c\u7530\u6d66\u99c5"}}, {"type": "node", "id": 3014683047, "lat": 35.2910811, "lon": 139.8556052, "tags": {"name": "\u5927\u8cab", "name:en": "Onuki", "name:ja": "\u5927\u8cab", "name:ja-Kana": "\u304a\u304a\u306c\u304d", "name:ja-Latn": "\u014cnuki", "name:ko": "\uc624\ub204\ud0a4", "name:ru": "\u041e\u043d\u0443\u043a\u0438", "operator": "\u6771\u65e5\u672c\u65c5\u5ba2\u9244\u9053", "platforms": "2", "public_transport": "station", "railway": "station", "source": "bing", "train": "yes", "website": "https://www.jreast.co.jp/estation/station/info.aspx?StationCd=336", "wheelchair": "no", "wikidata": "Q558903", "wikipedia": "ja:\u5927\u8cab\u99c5"}}, {"type": "node", "id": 3014683051, "lat": 35.1137521, "lon": 139.8333501, "tags": {"name": "\u5b89\u623f\u52dd\u5c71", "name:en": "Awa-Katsuyama", "name:ja": "\u5b89\u623f\u52dd\u5c71", "name:ja-Kana": "\u3042\u308f\u304b\u3064\u3084\u307e", "name:ja-Latn": "Awa-Katsuyama", "name:ko": "\uc544\uc640\uce74\uc4f0\uc57c\ub9c8", "name:ru": "\u0410\u0432\u0430-\u041a\u0430\u0446\u0443\u044f\u043c\u0430", "platforms": "2", "public_transport": "station", "railway": "station", "source": "Bing", "wheelchair": "no", "wikidata": "Q558545", "wikipedia": "ja:\u5b89\u623f\u52dd\u5c71\u99c5"}}, {"type": "node", "id": 3014683055, "lat": 35.0452625, "lon": 139.8377984, "tags": {"name": "\u5bcc\u6d66", "name:en": "Tomiura", "name:ja": "\u5bcc\u6d66", "name:ja-Kana": "\u3068\u307f\u3046\u3089", "name:ja-Latn": "Tomiura", "name:ko": "\ub3c4\ubbf8\uc6b0\ub77c", "name:ru": "\u0422\u043e\u043c\u0438\u0443\u0440\u0430", "operator": "\u6771\u65e5\u672c\u65c5\u5ba2\u9244\u9053", "platforms": "2", "public_transport": "station", "railway": "station", "source": "Bing,Wikipedia", "website": "https://www.jreast.co.jp/estation/station/info.aspx?StationCd=1062", "wheelchair": "limited", "wikidata": "Q556722", "wikipedia": "ja:\u5bcc\u6d66\u99c5 (\u5343\u8449\u770c)"}}, {"type": "node", "id": 3014683056, "lat": 35.0926346, "lon": 139.8496343, "tags": {"name": "\u5ca9\u4e95", "name:en": "Iwai", "name:ja": "\u5ca9\u4e95", "name:ja-Kana": "\u3044\u308f\u3044", "name:ja-Latn": "Iwai", "name:ko": "\uc774\uc640\uc774", "name:ru": "\u0418\u0432\u0430\u0438", "operator": "\u6771\u65e5\u672c\u65c5\u5ba2\u9244\u9053", "platforms": "2", "public_transport": "station", "railway": "station", "source": "Bing,Wikipedia", "wheelchair": "limited", "wikidata": "Q556710", "wikipedia": "ja:\u5ca9\u4e95\u99c5"}}, {"type": "node", "id": 3014683057, "lat": 35.4144082, "lon": 139.9335177, "tags": {"name": "\u5dcc\u6839", "name:en": "Iwane", "name:ja": "\u5dcc\u6839", "name:ja-Kana": "\u3044\u308f\u306d", "name:ja-Latn": "Iwane", "name:ko": "\uc774\uc640\ub124", "name:ru": "\u0418\u0432\u0430\u043d\u044d", "operator": "\u6771\u65e5\u672c\u65c5\u5ba2\u9244\u9053", "platforms": "2", "public_transport": "station", "railway": "station", "source": "GSI/KIBAN 2500; NARO; bing", "website": "https://www.jreast.co.jp/estation/station/info.aspx?StationCd=192", "wheelchair": "no", "wikidata": "Q573420", "wikipedia": "ja:\u5dcc\u6839\u99c5"}}, {"type": "node", "id": 3014683060, "lat": 35.3816066, "lon": 139.9262431, "tags": {"name": "\u6728\u66f4\u6d25", "name:en": "Kisarazu", "name:it": "Kisarazu", "name:ja": "\u6728\u66f4\u6d25", "name:ja-Hira": "\u304d\u3055\u3089\u3065", "name:ja-Latn": "Kisarazu", "name:ko": "\uae30\uc0ac\ub77c\uc988 \uc5ed", "name:ru": "\u041a\u0438\u0441\u0430\u0440\u0430\u0434\u0437\u0443", "operator": "\u6771\u65e5\u672c\u65c5\u5ba2\u9244\u9053", "platforms": "4", "public_transport": "station", "railway": "station", "source": "bing", "website": "https://www.jreast.co.jp/estation/station/info.aspx?StationCd=547", "wheelchair": "yes", "wikidata": "Q575433", "wikipedia": "ja:\u6728\u66f4\u6d25\u99c5"}}, {"type": "node", "id": 3014683064, "lat": 35.3900156, "lon": 139.985803, "tags": {"name": "\u6771\u6e05\u5ddd", "name:en": "Higashi-Kiyokawa", "name:ja": "\u6771\u6e05\u5ddd", "name:ja_kana": "\u3072\u304c\u3057\u304d\u3088\u304b\u308f", "name:ja_rm": "Higashi-Kiyokawa", "name:ko": "\ud788\uac00\uc2dc\ud0a4\uc694\uce74\uc640", "operator": "\u6771\u65e5\u672c\u65c5\u5ba2\u9244\u9053", "public_transport": "station", "railway": "station", "wikidata": "Q11527993", "wikipedia": "ja:\u6771\u6e05\u5ddd\u99c5"}}, {"type": "node", "id": 3014683071, "lat": 35.1681374, "lon": 139.8223787, "tags": {"name": "\u6d5c\u91d1\u8c37", "name:en": "Hama-Kanaya", "name:ja": "\u6d5c\u91d1\u8c37", "name:ja-Hira": "\u306f\u307e\u304b\u306a\u3084", "name:ja-Latn": "Hama-Kanaya", "name:ko": "\ud558\ub9c8\uce74\ub098\uc57c", "name:ru": "\u0425\u0430\u043c\u0430\u043a\u0430\u043d\u0430\u044f", "operator": "\u6771\u65e5\u672c\u65c5\u5ba2\u9244\u9053", "platforms": "2", "public_transport": "station", "railway": "station", "source": "Bing;survey", "train": "yes", "website": "https://www.jreast.co.jp/estation/station/info.aspx?StationCd=1245", "wheelchair": "no", "wikidata": "Q558560", "wikipedia": "ja:\u6d5c\u91d1\u8c37\u99c5"}}, {"type": "node", "id": 3014683073, "lat": 35.3915242, "lon": 139.9483041, "tags": {"name": "\u7947\u5712", "name:en": "Gion", "name:ja": "\u7947\u5712", "name:ja_kana": "\u304e\u304a\u3093", "name:ja_rm": "Gion", "name:ko": "\uae30\uc628", "operator": "\u6771\u65e5\u672c\u65c5\u5ba2\u9244\u9053", "public_transport": "station", "railway": "station", "wheelchair": "no", "wikidata": "Q5563370", "wikipedia": "ja:\u7947\u5712\u99c5_(\u5343\u8449\u770c)"}}, {"type": "node", "id": 3014683075, "lat": 35.1976673, "lon": 139.8298521, "tags": {"addr:city": "\u5bcc\u6d25\u5e02", "addr:postcode": "299-1622", "addr:province": "\u5343\u8449\u770c", "addr:quarter": "\u8429\u751f", "name": "\u7af9\u5ca1", "name:en": "Takeoka", "name:ja": "\u7af9\u5ca1", "name:ja-Hira": "\u305f\u3051\u304a\u304b", "name:ja-Latn": "Takeoka", "name:ko": "\ub2e4\ucf00\uc624\uce74", "name:ru": "\u0422\u0430\u043a\u044d\u043e\u043a\u0430", "operator": "\u6771\u65e5\u672c\u65c5\u5ba2\u9244\u9053", "platforms": "2", "public_transport": "station", "railway": "station", "source": "Bing", "train": "yes", "website": "https://www.jreast.co.jp/estation/station/info.aspx?StationCd=950", "wheelchair": "limited", "wikidata": "Q558883", "wikipedia": "ja:\u7af9\u5ca1\u99c5"}}, {"type": "node", "id": 3014683079, "lat": 35.4321683, "lon": 139.9578021, "tags": {"name": "\u8896\u30b1\u6d66", "name:en": "Sodegaura", "name:ja": "\u8896\u30b1\u6d66", "name:ja-Kana": "\u305d\u3067\u304c\u3046\u3089", "name:ja-Latn": "Sodegaura", "name:ko": "\uc18c\ub370\uac00\uc6b0\ub77c", "name:ru": "\u0421\u043e\u0434\u044d\u0433\u0430\u0443\u0440\u0430", "operator": "\u6771\u65e5\u672c\u65c5\u5ba2\u9244\u9053", "platforms": "2", "public_transport": "station", "railway": "station", "source": "bing", "website": "https://www.jreast.co.jp/estation/station/info.aspx?StationCd=922", "wheelchair": "no", "wikidata": "Q573413", "wikipedia": "ja:\u8896\u30f6\u6d66\u99c5"}}, {"type": "node", "id": 3014683081, "lat": 35.0284756, "lon": 139.8515617, "tags": {"name": "\u90a3\u53e4\u8239\u5f62", "name:en": "Nako-Funakata", "name:ja": "\u90a3\u53e4\u8239\u5f62", "name:ja-Hira": "\u306a\u3053\u3075\u306a\u304b\u305f", "name:ja-Latn": "Nako-Funakata", "name:ko": "\ub098\ucf54\ud6c4\ub098\uce74\ud0c0", "name:ru": "\u041d\u0430\u043a\u043e-\u0424\u0443\u043d\u0430\u043a\u0430\u0442\u0430", "operator": "\u6771\u65e5\u672c\u65c5\u5ba2\u9244\u9053", "platforms": "2", "public_transport": "station", "railway": "station", "source": "Bing;survey", "website": "https://www.jreast.co.jp/estation/station/info.aspx?StationCd=1117", "wheelchair": "no", "wikidata": "Q556700", "wikipedia": "ja:\u90a3\u53e4\u8239\u5f62\u99c5"}}, {"type": "node", "id": 3014683083, "lat": 35.4504888, "lon": 139.9956187, "tags": {"name": "\u9577\u6d66", "name:en": "Nagaura", "name:ja": "\u9577\u6d66", "name:ja-Kana": "\u306a\u304c\u3046\u3089", "name:ja-Latn": "Nagaura", "name:ko": "\ub098\uac00\uc6b0\ub77c", "name:ru": "\u041d\u0430\u0433\u0430\u0443\u0440\u0430", "operator": "\u6771\u65e5\u672c\u65c5\u5ba2\u9244\u9053", "platforms": "2", "public_transport": "station", "railway": "station", "source": "bing", "website": "https://www.jreast.co.jp/estation/station/info.aspx?StationCd=1083", "wheelchair": "no", "wikidata": "Q573425", "wikipedia": "ja:\u9577\u6d66\u99c5 (\u5343\u8449\u770c)"}}, {"type": "node", "id": 3014683085, "lat": 35.3303196, "lon": 139.8582901, "tags": {"name": "\u9752\u5800", "name:en": "Aohori", "name:ja": "\u9752\u5800", "name:ja-Kana": "\u3042\u304a\u307b\u308a", "name:ja-Latn": "Aohori", "name:ko": "\uc544\uc624\ud638\ub9ac", "name:ru": "\u0410\u043e\u0445\u043e\u0440\u0438", "operator": "\u6771\u65e5\u672c\u65c5\u5ba2\u9244\u9053", "platforms": "2", "public_transport": "station", "railway": "station", "source": "bing", "train": "yes", "website": "https://www.jreast.co.jp/estation/station/info.aspx?StationCd=24", "wheelchair": "no", "wikidata": "Q558935", "wikipedia": "ja:\u9752\u5800\u99c5"}}, {"type": "node", "id": 3558156193, "lat": 35.338575, "lon": 139.4874958, "tags": {"name": "\u85e4\u6ca2", "name:de": "Fujisama", "name:en": "Fujisawa", "name:fr": "Fujisawa", "name:ja": "\u85e4\u6ca2", "name:ja-Hira": "\u3075\u3058\u3055\u308f", "name:ja-Latn": "Fujisawa", "name:ko": "\ud6c4\uc9c0\uc0ac\uc640", "name:ru": "\u0424\u0443\u0434\u0437\u0438\u0441\u0430\u0432\u0430", "name:zh": "\u85e4\u6fa4", "public_transport": "station", "railway": "station", "source": "KSJ2", "wikidata": "Q1133110", "wikipedia": "ja:\u85e4\u6ca2\u99c5"}}, {"type": "node", "id": 3708276983, "lat": 35.4466889, "lon": 139.5997021, "tags": {"name": "\u4fdd\u571f\u30f6\u8c37", "name:en": "Hodogaya", "name:fr": "Hodogaya", "name:ja": "\u4fdd\u571f\u30f6\u8c37", "name:ja_kana": "\u307b\u3069\u304c\u3084", "name:ja_rm": "Hodogaya", "name:ko": "\ud638\ub3c4\uac00\uc57c", "operator": "\u6771\u65e5\u672c\u65c5\u5ba2\u9244\u9053", "public_transport": "station", "railway": "station", "ref": "JO12;JS12", "wikidata": "Q844185", "wikipedia": "ja:\u4fdd\u571f\u30b1\u8c37\u99c5"}}, {"type": "node", "id": 3741112665, "lat": 35.3654383, "lon": 139.6429378, "tags": {"light_rail": "yes", "name": "\u4e26\u6728\u4e2d\u592e", "name:en": "Namiki-Chuo", "name:ja": "\u4e26\u6728\u4e2d\u592e", "name:ja_kana": "\u306a\u307f\u304d\u3061\u3085\u3046\u304a\u3046", "name:ja_rm": "Namiki ch\u016b\u014d", "name:ko": "\ub098\ubbf8\ud0a4\ucd94\uc624", "public_transport": "station", "railway": "station", "ref": "5", "source": "KSJ2", "source_ref": "http://nlftp.mlit.go.jp/ksj/jpgis/datalist/KsjTmplt-N02-v1_1.html", "station": "light_rail", "wikidata": "Q6961853", "wikipedia": "ja:\u4e26\u6728\u4e2d\u592e\u99c5"}}, {"type": "node", "id": 3741112666, "lat": 35.371877, "lon": 139.642701, "tags": {"light_rail": "yes", "name": "\u4e26\u6728\u5317", "name:en": "Namiki-Kita", "name:es": "Namiki-Kita", "name:ja": "\u4e26\u6728\u5317", "name:ja_kana": "\u306a\u307f\u304d\u304d\u305f", "name:ja_rm": "Namiki kita", "name:ko": "\ub098\ubbf8\ud0a4\ud0a4\ud0c0", "public_transport": "station", "railway": "station", "ref": "4", "source": "KSJ2", "source_ref": "http://nlftp.mlit.go.jp/ksj/jpgis/datalist/KsjTmplt-N02-v1_1.html", "station": "light_rail", "wikidata": "Q6961854", "wikipedia": "ja:\u4e26\u6728\u5317\u99c5"}}, {"type": "node", "id": 3741112672, "lat": 35.3439482, "lon": 139.6501527, "tags": {"alt_name": "\u30cb\u30c3\u30d1\u30c4\u524d", "light_rail": "yes", "name": "\u5e02\u5927\u533b\u5b66\u90e8", "name:en": "Shidai-Igakubu", "name:ja": "\u5e02\u5927\u533b\u5b66\u90e8", "name:ja_kana": "\u3057\u3060\u3044\u3044\u304c\u304f\u3076", "name:ja_rm": "Shidai igakubu", "name:ko": "\uc2dc\ub2e4\uc774\uc774\uac00\ucfe0\ubd80", "public_transport": "station", "railway": "station", "ref": "9", "source": "KSJ2", "source_ref": "http://nlftp.mlit.go.jp/ksj/jpgis/datalist/KsjTmplt-N02-v1_1.html", "station": "light_rail", "wikidata": "Q7496125", "wikipedia": "ja:\u5e02\u5927\u533b\u5b66\u90e8\u99c5"}}, {"type": "node", "id": 3741112678, "lat": 35.3860018, "lon": 139.6204103, "tags": {"light_rail": "yes", "name": "\u65b0\u6749\u7530", "name:en": "Shin-Sugita", "name:es": "Shin-Sugita", "name:ja": "\u65b0\u6749\u7530", "name:ja_kana": "\u3057\u3093\u3059\u304e\u305f", "name:ja_rm": "Shin Sugita", "name:ko": "\uc2e0\uc2a4\uae30\ud0c0", "public_transport": "station", "railway": "station", "ref": "1", "station": "light_rail", "toilets:wheelchair": "no", "wheelchair": "limited", "wikidata": "Q844465", "wikipedia": "ja:\u65b0\u6749\u7530\u99c5"}}, {"type": "node", "id": 3741112687, "lat": 35.3305191, "lon": 139.6314529, "tags": {"alt_name:ko": "\ub178\uc9c0\ub9c8\ucf54\uc5d4", "light_rail": "yes", "name": "\u91ce\u5cf6\u516c\u5712", "name:en": "Nojimakoen", "name:es": "Nojimakoen", "name:ja": "\u91ce\u5cf6\u516c\u5712", "name:ja_kana": "\u306e\u3058\u307e\u3053\u3046\u3048\u3093", "name:ja_rm": "Nojima k\u014den", "name:ko": "\ub178\uc9c0\ub9c8\uacf5\uc6d0", "operator": "\u6a2a\u6d5c\u30b7\u30fc\u30b5\u30a4\u30c9\u30e9\u30a4\u30f3", "public_transport": "station", "railway": "station", "ref": "13", "source": "KSJ2", "source_ref": "http://nlftp.mlit.go.jp/ksj/jpgis/datalist/KsjTmplt-N02-v1_1.html", "station": "light_rail", "wikidata": "Q7047813", "wikipedia": "ja:\u91ce\u5cf6\u516c\u5712\u99c5"}}, {"type": "node", "id": 3741112689, "lat": 35.3315684, "lon": 139.6208936, "tags": {"light_rail": "yes", "name": "\u91d1\u6ca2\u516b\u666f", "name:en": "Kanazawa-Hakkei", "name:ja": "\u91d1\u6ca2\u516b\u666f", "name:ja_kana": "\u304b\u306a\u3056\u308f\u306f\u3063\u3051\u3044", "name:ja_rm": "Kanazawa hakkei", "name:ko": "\uac00\ub098\uc790\uc640\ud56b\ucf00\uc774", "operator": "\u6a2a\u6d5c\u30b7\u30fc\u30b5\u30a4\u30c9\u30e9\u30a4\u30f3", "phone": "+81 45 7865030", "public_transport": "station", "railway": "station", "ref": "14", "source": "KSJ2", "source_ref": "http://nlftp.mlit.go.jp/ksj/jpgis/datalist/KsjTmplt-N02-v1_1.html", "station": "light_rail", "website": "https://www.seasideline.co.jp/station_guide/kanazawa_hakkei/", "wikidata": "Q6360870", "wikipedia": "ja:\u91d1\u6ca2\u516b\u666f\u99c5"}}, {"type": "node", "id": 3995628350, "lat": 35.2976319, "lon": 139.5788659, "tags": {"name": "\u9017\u5b50", "name:en": "Zushi", "name:ja": "\u9017\u5b50", "name:ja_kana": "\u305a\u3057", "name:ja_rm": "Zushi", "name:ko": "\uc988\uc2dc", "operator": "\u6771\u65e5\u672c\u65c5\u5ba2\u9244\u9053", "public_transport": "station", "railway": "station", "ref": "JO06;JS06", "source": "KSJ2", "source_ref": "http://nlftp.mlit.go.jp/ksj/jpgis/datalist/KsjTmplt-N02-v1_1.html", "wikidata": "Q844325", "wikipedia": "ja:\u9017\u5b50\u99c5"}}, {"type": "node", "id": 3995909013, "lat": 35.4272033, "lon": 139.6462837, "tags": {"name": "\u5c71\u624b", "name:en": "Yamate", "name:ja": "\u5c71\u624b", "name:ja_kana": "\u3084\u307e\u3066", "name:ja_rm": "Yamate", "name:ko": "\uc57c\ub9c8\ud14c", "note": "National-Land Numerical Information (Railway) 2007, MLIT Japan", "operator": "\u6771\u65e5\u672c\u65c5\u5ba2\u9244\u9053", "public_transport": "station", "railway": "station", "source": "KSJ2", "source_ref": "http://nlftp.mlit.go.jp/ksj/jpgis/datalist/KsjTmplt-N02-v1_1.html", "wheelchair": "yes", "wikidata": "Q801651", "wikipedia": "ja:\u5c71\u624b\u99c5"}}, {"type": "node", "id": 3995909014, "lat": 35.386554, "lon": 139.6195735, "tags": {"name": "\u65b0\u6749\u7530", "name:en": "Shin-Sugita", "name:ja": "\u65b0\u6749\u7530", "name:ja_kana": "\u3057\u3093\u3059\u304e\u305f", "name:ja_rm": "Shin Sugita", "name:ko": "\uc2e0\uc2a4\uae30\ud0c0", "operator": "\u6771\u65e5\u672c\u65c5\u5ba2\u9244\u9053", "public_transport": "station", "railway": "station", "source": "KSJ2", "source_ref": "http://nlftp.mlit.go.jp/ksj/jpgis/datalist/KsjTmplt-N02-v1_1.html", "wikidata": "Q844465", "wikipedia": "ja:\u65b0\u6749\u7530\u99c5"}}, {"type": "node", "id": 3995909015, "lat": 35.3674374, "lon": 139.5503004, "tags": {"name": "\u672c\u90f7\u53f0", "name:en": "Hongodai", "name:ja": "\u672c\u90f7\u53f0", "name:ja_kana": "\u307b\u3093\u3054\u3046\u3060\u3044", "name:ja_rm": "Hong\u014ddai", "name:ko": "\ud63c\uace0\ub2e4\uc774", "operator": "\u6771\u65e5\u672c\u65c5\u5ba2\u9244\u9053", "public_transport": "station", "railway": "station", "source": "KSJ2", "source_ref": "http://nlftp.mlit.go.jp/ksj/jpgis/datalist/KsjTmplt-N02-v1_1.html", "wikidata": "Q844379", "wikipedia": "ja:\u672c\u90f7\u53f0\u99c5"}}, {"type": "node", "id": 3995909016, "lat": 35.4156572, "lon": 139.6350502, "tags": {"name": "\u6839\u5cb8", "name:en": "Negishi", "name:es": "Negishi", "name:ja": "\u6839\u5cb8", "name:ja-Hira": "\u306d\u304e\u3057", "name:ja-Latn": "Negishi", "name:ko": "\ub124\uae30\uc2dc", "operator": "\u6771\u65e5\u672c\u65c5\u5ba2\u9244\u9053", "public_transport": "station", "railway": "station", "source": "KSJ2", "source_ref": "http://nlftp.mlit.go.jp/ksj/jpgis/datalist/KsjTmplt-N02-v1_1.html", "wikidata": "Q801241", "wikipedia": "ja:\u6839\u5cb8\u99c5 (\u795e\u5948\u5ddd\u770c)"}}, {"type": "node", "id": 3995909018, "lat": 35.3786975, "lon": 139.5964654, "tags": {"name": "\u6d0b\u5149\u53f0", "name:en": "Yokodai", "name:ja": "\u6d0b\u5149\u53f0", "name:ja_kana": "\u3088\u3046\u3053\u3046\u3060\u3044", "name:ja_rm": "Y\u014dk\u014ddai", "name:ko": "\uc694\ucf54\ub2e4\uc774", "operator": "\u6771\u65e5\u672c\u65c5\u5ba2\u9244\u9053", "public_transport": "station", "railway": "station", "source": "KSJ2", "source_ref": "http://nlftp.mlit.go.jp/ksj/jpgis/datalist/KsjTmplt-N02-v1_1.html", "wikidata": "Q844428", "wikipedia": "ja:\u6d0b\u5149\u53f0\u99c5"}}, {"type": "node", "id": 3995909019, "lat": 35.3752947, "lon": 139.5766957, "tags": {"air_conditioning": "no", "internet_access": "no", "name": "\u6e2f\u5357\u53f0", "name:en": "Konandai", "name:ja": "\u6e2f\u5357\u53f0", "name:ja_kana": "\u3053\u3046\u306a\u3093\u3060\u3044", "name:ja_rm": "K\u014dnandai", "name:ko": "\uace0\ub09c\ub2e4\uc774", "operator": "\u6771\u65e5\u672c\u65c5\u5ba2\u9244\u9053", "public_transport": "station", "railway": "station", "source": "KSJ2", "source_ref": "http://nlftp.mlit.go.jp/ksj/jpgis/datalist/KsjTmplt-N02-v1_1.html", "start_date": "1973-10-3", "wheelchair": "yes", "wikidata": "Q844457", "wikipedia": "ja:\u6e2f\u5357\u53f0\u99c5"}}, {"type": "node", "id": 3995909020, "lat": 35.4001372, "lon": 139.6181583, "tags": {"name": "\u78ef\u5b50", "name:en": "Isogo", "name:ja": "\u78ef\u5b50", "name:ja_kana": "\u3044\u305d\u3054", "name:ja_rm": "Isogo", "name:ko": "\uc774\uc18c\uace0", "operator": "\u6771\u65e5\u672c\u65c5\u5ba2\u9244\u9053", "public_transport": "station", "railway": "station", "source": "KSJ2", "source_ref": "http://nlftp.mlit.go.jp/ksj/jpgis/datalist/KsjTmplt-N02-v1_1.html", "wikidata": "Q79378", "wikipedia": "ja:\u78ef\u5b50\u99c5"}}, {"type": "node", "id": 4011607028, "lat": 35.338819, "lon": 139.4872148, "tags": {"name": "\u85e4\u6ca2", "name:de": "Fujisawa", "name:en": "Fujisawa", "name:ja": "\u85e4\u6ca2", "name:ja-Hira": "\u3075\u3058\u3055\u308f", "name:ja-Latn": "Fujisawa", "name:ko": "\ud6c4\uc9c0\uc0ac\uc640", "name:ru": "\u0424\u0443\u0434\u0437\u0438\u0441\u0430\u0432\u0430", "operator": "\u6771\u65e5\u672c\u65c5\u5ba2\u9244\u9053", "operator:ja": "\u6771\u65e5\u672c\u65c5\u5ba2\u9243\u9053", "public_transport": "station", "railway": "station", "wheelchair": "yes", "wikidata": "Q1133110", "wikipedia": "ja:\u85e4\u6ca2\u99c5"}}, {"type": "node", "id": 4011643455, "lat": 35.4005483, "lon": 139.534215, "tags": {"name": "\u6238\u585a", "name:de": "Totsuka", "name:en": "Totsuka", "name:fr": "Totsuka", "name:ja": "\u6238\u585a", "name:ja-Hira": "\u3068\u3064\u304b", "name:ja_rm": "Totsuka", "name:ko": "\ub3c4\uc4f0\uce74", "name:ru": "\u0422\u043e\u0446\u0443\u043a\u0430", "public_transport": "station", "railway": "station", "ref": "JT-06", "wikidata": "Q801522", "wikipedia": "ja:\u6238\u585a\u99c5"}}, {"type": "node", "id": 4018469544, "lat": 35.2515189, "lon": 139.7150623, "tags": {"KSJ2:LIN": "\u672c\u7dda", "gauge": "1435", "name": "\u6d66\u8cc0", "name:en": "Uraga", "name:ja": "\u6d66\u8cc0", "name:ja_kana": "\u3046\u3089\u304c", "name:ja_rm": "Uraga", "name:ko": "\uc6b0\ub77c\uac00", "note": "National-Land Numerical Information (Railway) 2007, MLIT Japan", "note:ja": "\u56fd\u571f\u6570\u5024\u60c5\u5831\uff08\u9244\u9053\u30c7\u30fc\u30bf\uff09\u5e73\u621019\u5e74\u3000\u56fd\u571f\u4ea4\u901a\u7701", "operator": "\u4eac\u6d5c\u6025\u884c\u96fb\u9244 (Keikyu Corporation)", "operator:en": "Keikyu Corporation", "operator:ja": "\u4eac\u6d5c\u6025\u884c\u96fb\u9244", "public_transport": "station", "railway": "station", "ref": "KK64", "source": "Bing", "source_ref": "http://nlftp.mlit.go.jp/ksj/jpgis/datalist/KsjTmplt-N02-v1_1.html", "wikidata": "Q268790", "wikipedia": "ja:\u6d66\u8cc0\u99c5"}}, {"type": "node", "id": 5454949004, "lat": 35.4011996, "lon": 139.5911667, "tags": {"name": "\u6e2f\u5357\u4e2d\u592e", "name:en": "Konan-chuo", "name:es": "Konan-chuo", "name:ja-Hira": "\u3053\u3046\u306a\u3093\u3061\u3085\u3046\u304a\u3046", "public_transport": "station", "railway": "station", "station": "subway", "subway": "yes", "wikidata": "Q573434"}}, {"type": "node", "id": 5591788441, "lat": 35.4090326, "lon": 139.5959771, "tags": {"name": "\u4e0a\u5927\u5ca1", "name:en": "Kamiooka", "name:ja": "\u4e0a\u5927\u5ca1", "name:ja-Hira": "\u304b\u307f\u304a\u304a\u304a\u304b", "name:ja_kana": "\u304b\u307f\u304a\u304a\u304a\u304b", "name:ja_rm": "Kami\u014doka", "name:ko": "\uac00\ubbf8\uc624\uc624\uce74", "network": "\u6a2a\u6d5c\u5e02\u55b6\u5730\u4e0b\u9244", "operator": "\u6a2a\u6d5c\u5e02\u4ea4\u901a\u5c40", "public_transport": "station", "railway": "station", "ref": "B11", "source": "KSJ2", "source_ref": "http://nlftp.mlit.go.jp/ksj/jpgis/datalist/KsjTmplt-N02-v1_1.html", "station": "subway", "subway": "yes", "wikidata": "Q865627", "wikipedia": "ja:\u4e0a\u5927\u5ca1\u99c5"}}, {"type": "node", "id": 5591788444, "lat": 35.4056591, "lon": 139.5185313, "tags": {"KSJ2:LIN": "1\u53f7\u7dda", "KSJ2:STN": "\u8e0a\u5834", "name": "\u8e0a\u5834", "name:en": "Odoriba", "name:ja": "\u8e0a\u5834", "name:ja-Hira": "\u304a\u3069\u308a\u3070", "name:ja_rm": "Odoriba", "name:ko": "\uc624\ub3c4\ub9ac\ubc14", "note": "National-Land Numerical Information (Railway) 2007, MLIT Japan", "note:ja": "\u56fd\u571f\u6570\u5024\u60c5\u5831\uff08\u9244\u9053\u30c7\u30fc\u30bf\uff09\u5e73\u621019\u5e74\u3000\u56fd\u571f\u4ea4\u901a\u7701", "operator": "\u6a2a\u6d5c\u5e02\u4ea4\u901a\u5c40", "railway": "station", "ref": "B05", "source": "KSJ2", "source_ref": "http://nlftp.mlit.go.jp/ksj/jpgis/datalist/KsjTmplt-N02-v1_1.html", "station": "subway", "wikidata": "Q852877", "wikipedia": "ja:\u8e0a\u5834\u99c5"}}, {"type": "node", "id": 5591788445, "lat": 35.4024586, "lon": 139.5509416, "tags": {"name": "\u821e\u5ca1", "name:en": "Maioka", "name:es": "Maioka", "name:ja": "\u821e\u5ca1", "name:ja-Hira": "\u307e\u3044\u304a\u304b", "name:ko": "\ub9c8\uc774\uc624\uce74", "operator": "\u6a2a\u6d5c\u5e02\u4ea4\u901a\u5c40", "public_transport": "station", "railway": "station", "source": "KSJ2", "source_ref": "http://nlftp.mlit.go.jp/ksj/jpgis/datalist/KsjTmplt-N02-v1_1.html", "station": "subway", "subway": "yes", "website": "https://navi.hamabus.city.yokohama.lg.jp/koutuu/pc/detail/Station?id=00007982", "wikidata": "Q904116", "wikipedia": "ja:\u821e\u5ca1\u99c5"}}, {"type": "node", "id": 5591788446, "lat": 35.4025885, "lon": 139.5594212, "tags": {"name": "\u4e0b\u6c38\u8c37", "name:en": "Shimonagaya", "name:es": "Shimonagaya", "name:ja": "\u4e0b\u6c38\u8c37", "name:ja-Hira": "\u3057\u3082\u306a\u304c\u3084", "name:ko": "\uc2dc\ubaa8\ub098\uac00\uc57c", "operator": "\u6a2a\u6d5c\u5e02\u4ea4\u901a\u5c40", "public_transport": "station", "railway": "station", "source": "KSJ2", "source_ref": "http://nlftp.mlit.go.jp/ksj/jpgis/datalist/KsjTmplt-N02-v1_1.html", "station": "subway", "subway": "yes", "wikidata": "Q579066", "wikipedia": "ja:\u4e0b\u6c38\u8c37\u99c5"}}, {"type": "node", "id": 6054866431, "lat": 35.3770641, "lon": 139.6417394, "tags": {"light_rail": "yes", "name": "\u9ce5\u6d5c", "name:en": "Torihama", "name:es": "Torihama", "name:ja": "\u9ce5\u6d5c", "name:ja_kana": "\u3068\u308a\u306f\u307e", "name:ja_rm": "Torihama", "name:ko": "\ub3c4\ub9ac\ud558\ub9c8", "public_transport": "station", "railway": "station", "ref": "3", "source": "KSJ2", "source_ref": "http://nlftp.mlit.go.jp/ksj/jpgis/datalist/KsjTmplt-N02-v1_1.html", "station": "light_rail", "toilets:wheelchair": "yes", "wheelchair": "yes", "wikidata": "Q7825788", "wikipedia": "ja:\u9ce5\u6d5c\u99c5"}}, {"type": "node", "id": 6054869524, "lat": 35.3801794, "lon": 139.6332331, "tags": {"light_rail": "yes", "name": "\u5357\u90e8\u5e02\u5834", "name:en": "Nambu-Shijo", "name:es": "Nambu-Shijo", "name:ja": "\u5357\u90e8\u5e02\u5834", "name:ja_kana": "\u306a\u3093\u3076\u3057\u3058\u3087\u3046", "name:ja_rm": "Nambu shij\u014d", "name:ko": "\ub09c\ubd80\uc2dc\uc870", "public_transport": "station", "railway": "station", "ref": "2", "station": "light_rail", "wikidata": "Q11408539", "wikipedia": "ja:\u5357\u90e8\u5e02\u5834\u99c5"}}, {"type": "node", "id": 6149803344, "lat": 35.3139868, "lon": 139.4914141, "tags": {"monorail": "yes", "name": "\u76ee\u767d\u5c71\u4e0b", "name:en": "Mejiroyamashita", "name:ja": "\u76ee\u767d\u5c71\u4e0b", "name:ja_kana": "\u3081\u3058\u308d\u3084\u307e\u3057\u305f", "name:ja_rm": "Mejiroyamashita", "name:ko": "\uba54\uc9c0\ub85c\uc57c\ub9c8\uc2dc\ud0c0", "operator": "\u6e58\u5357\u30e2\u30ce\u30ec\u30fc\u30eb", "public_transport": "station", "railway": "station", "source": "KSJ2", "station": "monorail", "wikidata": "Q1094934", "wikipedia": "ja:\u76ee\u767d\u5c71\u4e0b\u99c5"}}, {"type": "node", "id": 6545240354, "lat": 35.3454627, "lon": 139.5293762, "tags": {"monorail": "yes", "name": "\u5bcc\u58eb\u898b\u753a", "name:en": "Fujimicho", "name:ja": "\u5bcc\u58eb\u898b\u753a", "name:ja_kana": "\u3075\u3058\u307f\u3061\u3087\u3046", "name:ja_rm": "Fujimich\u014d", "name:ko": "\ud6c4\uc9c0\ubbf8\ucd08", "operator": "\u6e58\u5357\u30e2\u30ce\u30ec\u30fc\u30eb", "public_transport": "station", "railway": "station", "source": "KSJ2", "source_ref": "http://nlftp.mlit.go.jp/ksj/jpgis/datalist/KsjTmplt-N02-v1_1.html", "station": "monorail", "wikidata": "Q1094940", "wikipedia": "ja:\u5bcc\u58eb\u898b\u753a\u99c5 (\u795e\u5948\u5ddd\u770c)"}}, {"type": "node", "id": 6545240356, "lat": 35.3523864, "lon": 139.5313546, "tags": {"monorail": "yes", "name": "\u5927\u8239", "name:en": "\u014cfuna", "name:ja": "\u5927\u8239", "name:ja_kana": "\u304a\u304a\u3075\u306a", "name:ja_rm": "\u014cfuna", "operator": "\u6e58\u5357\u30e2\u30ce\u30ec\u30fc\u30eb", "public_transport": "station", "railway": "station", "station": "monorail"}}, {"type": "node", "id": 6545284341, "lat": 35.3379507, "lon": 139.5226438, "tags": {"KSJ2:LIN": "\u6c5f\u306e\u5cf6\u7dda", "alt_name": "\u4e09\u83f1\u96fb\u6a5f\u524d", "monorail": "yes", "name": "\u6e58\u5357\u753a\u5c4b", "name:en": "Shonan-Machiya", "name:es": "Shonan-Machiya", "name:ja": "\u6e58\u5357\u753a\u5c4b", "name:ja_kana": "\u3057\u3087\u3046\u306a\u3093\u307e\u3061\u3084", "name:ja_rm": "Sh\u014dnan Machiya", "name:ko": "\uc1fc\ub09c\ub9c8\uce58\uc57c", "note": "National-Land Numerical Information (Railway) 2007, MLIT Japan", "note:ja": "\u56fd\u571f\u6570\u5024\u60c5\u5831\uff08\u9244\u9053\u30c7\u30fc\u30bf\uff09\u5e73\u621019\u5e74\u3000\u56fd\u571f\u4ea4\u901a\u7701", "operator": "\u6e58\u5357\u30e2\u30ce\u30ec\u30fc\u30eb", "public_transport": "station", "railway": "station", "source": "KSJ2", "source_ref": "http://nlftp.mlit.go.jp/ksj/jpgis/datalist/KsjTmplt-N02-v1_1.html", "wheelchair": "yes", "wikidata": "Q1093346", "wikipedia": "ja:\u6e58\u5357\u753a\u5c4b\u99c5"}}, {"type": "node", "id": 7047979337, "lat": 35.4392259, "lon": 139.6427467, "tags": {"name": "\u77f3\u5ddd\u753a", "name:en": "Ishikawacho", "name:es": "Ishikawacho", "name:fr": "Ishikawacho", "name:ja": "\u77f3\u5ddd\u753a", "name:ja_kana": "\u3044\u3057\u304b\u308f\u3061\u3087\u3046", "name:ja_rm": "Ishikawach\u014d", "name:ko": "\uc774\uc2dc\uce74\uc640\ucd08", "note": "National-Land Numerical Information (Railway) 2007, MLIT Japan", "operator": "\u6771\u65e5\u672c\u65c5\u5ba2\u9244\u9053", "public_transport": "station", "railway": "station", "source": "KSJ2", "source_ref": "http://nlftp.mlit.go.jp/ksj/jpgis/datalist/KsjTmplt-N02-v1_1.html", "wikidata": "Q800960", "wikipedia": "ja:\u77f3\u5ddd\u753a\u99c5"}}, {"type": "node", "id": 7048013177, "lat": 35.4440822, "lon": 139.6360365, "tags": {"name": "\u95a2\u5185", "name:en": "Kannai", "name:ja": "\u95a2\u5185", "name:ja-Hira": "\u304b\u3093\u306a\u3044", "name:ja_kana": "\u304b\u3093\u306a\u3044", "name:ja_rm": "Kan-nai", "name:ko": "\uac04\ub098\uc774", "note": "National-Land Numerical Information (Railway) 2007, MLIT Japan", "operator": "\u6771\u65e5\u672c\u65c5\u5ba2\u9244\u9053", "public_transport": "station", "railway": "station", "source": "KSJ2", "source_ref": "http://nlftp.mlit.go.jp/ksj/jpgis/datalist/KsjTmplt-N02-v1_1.html", "wikidata": "Q800982", "wikipedia": "ja:\u95a2\u5185\u99c5"}}, {"type": "node", "id": 7601112409, "lat": 35.4141489, "lon": 139.4998428}, {"type": "node", "id": 7601112410, "lat": 35.4141899, "lon": 139.5001317}, {"type": "node", "id": 7601112411, "lat": 35.414173, "lon": 139.5001356}, {"type": "node", "id": 7601112412, "lat": 35.4141291, "lon": 139.4998473}, {"type": "node", "id": 7601120732, "lat": 35.4142695, "lon": 139.5001991, "tags": {"KSJ2:LIN": "1\u53f7\u7dda", "KSJ2:STN": "\u7acb\u5834", "name": "\u7acb\u5834", "name:en": "Tateba", "name:ja": "\u7acb\u5834", "name:ja-Hira": "\u305f\u3066\u3070", "name:ja_rm": "Tateba", "name:ko": "\ub2e4\ud14c\ubc14", "note": "National-Land Numerical Information (Railway) 2007, MLIT Japan", "note:ja": "\u56fd\u571f\u6570\u5024\u60c5\u5831\uff08\u9244\u9053\u30c7\u30fc\u30bf\uff09\u5e73\u621019\u5e74\u3000\u56fd\u571f\u4ea4\u901a\u7701", "operator": "\u6a2a\u6d5c\u5e02\u4ea4\u901a\u5c40", "public_transport": "station", "railway": "station", "source": "KSJ2", "source_ref": "http://nlftp.mlit.go.jp/ksj/jpgis/datalist/KsjTmplt-N02-v1_1.html", "station": "subway", "subway": "yes", "wikidata": "Q573441", "wikipedia": "ja:\u7acb\u5834\u99c5"}}, {"type": "node", "id": 7601124723, "lat": 35.4034432, "lon": 139.4832081, "tags": {"KSJ2:LIN": "1\u53f7\u7dda", "KSJ2:STN": "\u4e0b\u98ef\u7530", "name": "\u4e0b\u98ef\u7530", "name:en": "Shimoiida", "name:ja": "\u4e0b\u98ef\u7530", "name:ja-Hira": "\u3057\u3082\u3044\u3044\u3060", "name:ja_rm": "Shimo Iida", "name:ko": "\uc2dc\ubaa8\uc774\ub2e4", "note": "National-Land Numerical Information (Railway) 2007, MLIT Japan", "note:ja": "\u56fd\u571f\u6570\u5024\u60c5\u5831\uff08\u9244\u9053\u30c7\u30fc\u30bf\uff09\u5e73\u621019\u5e74\u3000\u56fd\u571f\u4ea4\u901a\u7701", "operator": "\u6a2a\u6d5c\u5e02\u4ea4\u901a\u5c40", "platforms": "2", "public_transport": "station", "railway": "station", "ref": "B02", "source": "KSJ2", "source_ref": "http://nlftp.mlit.go.jp/ksj/jpgis/datalist/KsjTmplt-N02-v1_1.html", "station": "subway", "subway": "yes", "wikidata": "Q573742", "wikipedia": "ja:\u4e0b\u98ef\u7530\u99c5"}}, {"type": "node", "id": 7749865377, "lat": 35.4011056, "lon": 139.5350787, "tags": {"name": "\u6238\u585a", "name:en": "Totsuka", "name:es": "Totsuka", "name:ja": "\u6238\u585a", "name:ja-Hira": "\u3068\u3064\u304b", "name:ja_kana": "\u3068\u3064\u304b", "name:ja_rm": "Totsuka", "name:ko": "\ub3c4\uc4f0\uce74", "operator": "\u6a2a\u6d5c\u5e02\u4ea4\u901a\u5c40", "public_transport": "station", "railway": "station", "ref": "B06", "source": "KSJ2", "source_ref": "http://nlftp.mlit.go.jp/ksj/jpgis/datalist/KsjTmplt-N02-v1_1.html", "station": "subway", "subway": "yes", "wikidata": "Q801522", "wikipedia": "ja:\u6238\u585a\u99c5"}}, {"type": "node", "id": 7749865378, "lat": 35.4111454, "lon": 139.5113307, "tags": {"KSJ2:LIN": "1\u53f7\u7dda", "KSJ2:STN": "\u4e2d\u7530", "name": "\u4e2d\u7530", "name:en": "Nakada", "name:ja": "\u4e2d\u7530", "name:ja-Hira": "\u306a\u304b\u3060", "name:ja_rm": "Nakada", "name:ko": "\ub098\uce74\ub2e4", "note": "National-Land Numerical Information (Railway) 2007, MLIT Japan", "note:ja": "\u56fd\u571f\u6570\u5024\u60c5\u5831\uff08\u9244\u9053\u30c7\u30fc\u30bf\uff09\u5e73\u621019\u5e74\u3000\u56fd\u571f\u4ea4\u901a\u7701", "operator": "\u6a2a\u6d5c\u5e02\u4ea4\u901a\u5c40", "public_transport": "station", "railway": "station", "source": "KSJ2", "source_ref": "http://nlftp.mlit.go.jp/ksj/jpgis/datalist/KsjTmplt-N02-v1_1.html", "station": "subway", "wikidata": "Q573641", "wikipedia": "ja:\u4e2d\u7530\u99c5 (\u795e\u5948\u5ddd\u770c)"}}, {"type": "node", "id": 7750247043, "lat": 35.429909, "lon": 139.6099757, "tags": {"name": "\u8494\u7530", "name:en": "Maita", "name:ja": "\u8494\u7530", "name:ja-Hira": "\u307e\u3044\u305f", "name:ja_kana": "\u307e\u3044\u305f", "name:ja_rm": "Maita", "name:ko": "\ub9c8\uc774\ud0c0", "network": "\u6a2a\u6d5c\u5e02\u55b6\u5730\u4e0b\u9244", "note": "National-Land Numerical Information (Railway) 2007, MLIT Japan", "operator": "\u6a2a\u6d5c\u5e02\u4ea4\u901a\u5c40", "public_transport": "station", "railway": "station", "ref": "B13", "source": "KSJ2", "source_ref": "http://nlftp.mlit.go.jp/ksj/jpgis/datalist/KsjTmplt-N02-v1_1.html", "station": "subway", "wikidata": "Q579091", "wikipedia": "ja:\u8494\u7530\u99c5"}}, {"type": "node", "id": 7750247044, "lat": 35.4232893, "lon": 139.6020598, "tags": {"name": "\u5f18\u660e\u5bfa", "name:en": "Gumyoji", "name:es": "Gumyoji", "name:ja": "\u5f18\u660e\u5bfa", "name:ja-Hira": "\u3050\u307f\u3087\u3046\u3058", "name:ja_kana": "\u3050\u307f\u3087\u3046\u3058", "name:ja_rm": "Gumy\u014dji", "name:ko": "\uad6c\ubb18\uc9c0", "network": "\u6a2a\u6d5c\u5e02\u55b6\u5730\u4e0b\u9244", "note": "National-Land Numerical Information (Railway) 2007, MLIT Japan", "operator": "\u6a2a\u6d5c\u5e02\u4ea4\u901a\u5c40", "public_transport": "station", "railway": "station", "ref": "B12", "source": "KSJ2", "source_ref": "http://nlftp.mlit.go.jp/ksj/jpgis/datalist/KsjTmplt-N02-v1_1.html", "station": "subway", "wikidata": "Q580349", "wikipedia": "ja:\u5f18\u660e\u5bfa\u99c5 (\u6a2a\u6d5c\u5e02\u55b6\u5730\u4e0b\u9244)"}}, {"type": "node", "id": 7750338823, "lat": 35.4496272, "lon": 139.630787, "tags": {"alt_name": "\u770c\u6c11\u5171\u6e08\u30d7\u30e9\u30b6\u524d", "name": "\u685c\u6728\u753a", "name:en": "Sakuragicho", "name:es": "Sakuragicho", "name:ja": "\u685c\u6728\u753a", "name:ja-Hira": "\u3055\u304f\u3089\u304e\u3061\u3087\u3046", "name:ja_kana": "\u3055\u304f\u3089\u304e\u3061\u3087\u3046", "name:ja_rm": "Sakuragicho", "name:ko": "\uc0ac\ucfe0\ub77c\uae30\ucd08", "network": "\u6a2a\u6d5c\u5e02\u55b6\u5730\u4e0b\u9244", "note": "National-Land Numerical Information (Railway) 2007, MLIT Japan", "operator": "\u6a2a\u6d5c\u5e02\u4ea4\u901a\u5c40", "public_transport": "station", "railway": "station", "ref": "B18", "source": "KSJ2", "source_ref": "http://nlftp.mlit.go.jp/ksj/jpgis/datalist/KsjTmplt-N02-v1_1.html", "station": "subway", "subway": "yes", "wikidata": "Q801396", "wikipedia": "ja:\u685c\u6728\u753a\u99c5"}}, {"type": "node", "id": 7750338824, "lat": 35.44533, "lon": 139.6367037, "tags": {"alt_name": "\u30ea\u30b9\u30c8\u672c\u793e\u524d", "name": "\u95a2\u5185", "name:en": "Kannai", "name:es": "Kannai", "name:ja": "\u95a2\u5185", "name:ja-Hira": "\u304b\u3093\u306a\u3044", "name:ja_kana": "\u304b\u3093\u306a\u3044", "name:ja_rm": "Kan-nai", "name:ko": "\uac04\ub098\uc774", "network": "\u6a2a\u6d5c\u5e02\u55b6\u5730\u4e0b\u9244", "note": "National-Land Numerical Information (Railway) 2007, MLIT Japan", "operator": "\u6a2a\u6d5c\u5e02\u4ea4\u901a\u5c40", "public_transport": "station", "railway": "station", "ref": "B17", "source": "KSJ2", "source_ref": "http://nlftp.mlit.go.jp/ksj/jpgis/datalist/KsjTmplt-N02-v1_1.html", "station": "subway", "subway": "yes", "wikidata": "Q800982", "wikipedia": "ja:\u95a2\u5185\u99c5"}}, {"type": "node", "id": 7750338825, "lat": 35.4410015, "lon": 139.6327993, "tags": {"name": "\u4f0a\u52e2\u4f50\u6728\u9577\u8005\u753a", "name:en": "Isezaki-chojamachi", "name:ja": "\u4f0a\u52e2\u4f50\u6728\u9577\u8005\u753a", "name:ja-Hira": "\u3044\u305b\u3056\u304d\u3061\u3087\u3046\u3058\u3083\u307e\u3061", "name:ja_kana": "\u3044\u305b\u3056\u304d\u3061\u3087\u3046\u3058\u3083\u307e\u3061", "name:ja_rm": "Isezaki Ch\u014djamachi", "name:ko": "\uc774\uc138\uc790\ud0a4\ucd08\uc790\ub9c8\uce58", "network": "\u6a2a\u6d5c\u5e02\u55b6\u5730\u4e0b\u9244", "note": "National-Land Numerical Information (Railway) 2007, MLIT Japan", "operator": "\u6a2a\u6d5c\u5e02\u4ea4\u901a\u5c40", "public_transport": "station", "railway": "station", "ref": "B16", "source": "KSJ2", "source_ref": "http://nlftp.mlit.go.jp/ksj/jpgis/datalist/KsjTmplt-N02-v1_1.html", "station": "subway", "wikidata": "Q841434", "wikipedia": "ja:\u4f0a\u52e2\u4f50\u6728\u9577\u8005\u753a\u99c5"}}, {"type": "node", "id": 7750338826, "lat": 35.4376268, "lon": 139.6251489, "tags": {"name": "\u962a\u6771\u6a4b", "name:en": "Bandobashi", "name:ja": "\u962a\u6771\u6a4b", "name:ja-Hira": "\u3070\u3093\u3069\u3046\u3070\u3057", "name:ja_kana": "\u3070\u3093\u3069\u3046\u3070\u3057", "name:ja_rm": "Band\u014dbashi", "name:ko": "\ubc18\ub3c4\ubc14\uc2dc", "network": "\u6a2a\u6d5c\u5e02\u55b6\u5730\u4e0b\u9244", "note": "National-Land Numerical Information (Railway) 2007, MLIT Japan", "operator": "\u6a2a\u6d5c\u5e02\u4ea4\u901a\u5c40", "public_transport": "station", "railway": "station", "ref": "B15", "source": "KSJ2", "source_ref": "http://nlftp.mlit.go.jp/ksj/jpgis/datalist/KsjTmplt-N02-v1_1.html", "station": "subway", "wikidata": "Q852854", "wikipedia": "ja:\u962a\u6771\u6a4b\u99c5"}}, {"type": "node", "id": 7750348391, "lat": 35.4354327, "lon": 139.618715, "tags": {"name": "\u5409\u91ce\u753a", "name:en": "Yoshinocho", "name:ja": "\u5409\u91ce\u753a", "name:ja-Hira": "\u3088\u3057\u306e\u3061\u3087\u3046", "name:ja_kana": "\u3088\u3057\u306e\u3061\u3087\u3046", "name:ja_rm": "Yoshinoch\u014d", "name:ko": "\uc694\uc2dc\ub178\ucd08", "network": "\u6a2a\u6d5c\u5e02\u55b6\u5730\u4e0b\u9244", "note": "National-Land Numerical Information (Railway) 2007, MLIT Japan", "operator": "\u6a2a\u6d5c\u5e02\u4ea4\u901a\u5c40", "public_transport": "station", "railway": "station", "ref": "B14", "source": "KSJ2", "source_ref": "http://nlftp.mlit.go.jp/ksj/jpgis/datalist/KsjTmplt-N02-v1_1.html", "station": "subway", "wikidata": "Q579077", "wikipedia": "ja:\u5409\u91ce\u753a\u99c5"}}, {"type": "node", "id": 7777425788, "lat": 35.2331376, "lon": 139.7013491, "tags": {"KSJ2:LIN": "\u6a2a\u9808\u8cc0\u7dda", "name": "\u4e45\u91cc\u6d5c", "name:en": "Kurihama", "name:ja": "\u4e45\u91cc\u6d5c", "name:ja_kana": "\u304f\u308a\u306f\u307e", "name:ja_rm": "Kurihama", "name:ko": "\uad6c\ub9ac\ud558\ub9c8", "note": "National-Land Numerical Information (Railway) 2007, MLIT Japan", "note:ja": "\u56fd\u571f\u6570\u5024\u60c5\u5831\uff08\u9244\u9053\u30c7\u30fc\u30bf\uff09\u5e73\u621019\u5e74\u3000\u56fd\u571f\u4ea4\u901a\u7701", "operator": "\u6771\u65e5\u672c\u65c5\u5ba2\u9244\u9053", "public_transport": "station", "railway": "station", "ref": "JO01", "source": "KSJ2", "source_ref": "http://nlftp.mlit.go.jp/ksj/jpgis/datalist/KsjTmplt-N02-v1_1.html", "wikidata": "Q844268", "wikipedia": "ja:\u4e45\u91cc\u6d5c\u99c5"}}, {"type": "node", "id": 7777425988, "lat": 35.2928027, "lon": 139.6369458, "tags": {"name": "\u7530\u6d66", "name:en": "Taura", "name:ja": "\u7530\u6d66", "name:ja_kana": "\u305f\u3046\u3089", "name:ja_rm": "Taura", "name:ko": "\ub2e4\uc6b0\ub77c", "operator": "\u6771\u65e5\u672c\u65c5\u5ba2\u9244\u9053", "public_transport": "station", "railway": "station", "source": "KSJ2", "source_ref": "http://nlftp.mlit.go.jp/ksj/jpgis/datalist/KsjTmplt-N02-v1_1.html", "wikidata": "Q844260", "wikipedia": "ja:\u7530\u6d66\u99c5"}}, {"type": "node", "id": 7777425989, "lat": 35.2840952, "lon": 139.655981, "tags": {"name": "\u6a2a\u9808\u8cc0", "name:en": "Yokosuka", "name:ja": "\u6a2a\u9808\u8cc0", "name:ja_kana": "\u3088\u3053\u3059\u304b", "name:ja_rm": "Yokosuka", "name:ko": "\uc694\ucf54\uc2a4\uce74", "operator": "\u6771\u65e5\u672c\u65c5\u5ba2\u9244\u9053", "public_transport": "station", "railway": "station", "ref": "JO03", "source": "KSJ2", "source_ref": "http://nlftp.mlit.go.jp/ksj/jpgis/datalist/KsjTmplt-N02-v1_1.html", "wikidata": "Q844320", "wikipedia": "ja:\u6a2a\u9808\u8cc0\u99c5"}}, {"type": "node", "id": 7777425990, "lat": 35.257378, "lon": 139.6613145, "tags": {"KSJ2:LIN": "\u6a2a\u9808\u8cc0\u7dda", "name": "\u8863\u7b20", "name:en": "Kinugasa", "name:ja": "\u8863\u7b20", "name:ja_kana": "\u304d\u306c\u304c\u3055", "name:ja_rm": "Kinugasa", "name:ko": "\uae30\ub204\uac00\uc0ac", "note": "National-Land Numerical Information (Railway) 2007, MLIT Japan", "note:ja": "\u56fd\u571f\u6570\u5024\u60c5\u5831\uff08\u9244\u9053\u30c7\u30fc\u30bf\uff09\u5e73\u621019\u5e74\u3000\u56fd\u571f\u4ea4\u901a\u7701", "operator": "\u6771\u65e5\u672c\u65c5\u5ba2\u9244\u9053", "public_transport": "station", "railway": "station", "ref": "JO02", "source": "KSJ2", "source_ref": "http://nlftp.mlit.go.jp/ksj/jpgis/datalist/KsjTmplt-N02-v1_1.html", "wikidata": "Q844272", "wikipedia": "ja:\u8863\u7b20\u99c5"}}, {"type": "node", "id": 7777531687, "lat": 35.3373128, "lon": 139.5452639, "tags": {"addr:city": "Kamakura", "name": "\u5317\u938c\u5009", "name:en": "Kita-Kamakura", "name:es": "Kita-Kamakura", "name:fr": "Kita-Kamakura", "name:ja": "\u5317\u938c\u5009", "name:ja_kana": "\u304d\u305f\u304b\u307e\u304f\u3089", "name:ja_rm": "Kita Kamakura", "name:ko": "\uae30\ud0c0\uce74\ub9c8\ucfe0\ub77c", "operator": "\u6771\u65e5\u672c\u65c5\u5ba2\u9244\u9053", "public_transport": "station", "railway": "station", "ref": "JO08;JS08", "source": "KSJ2", "source_ref": "http://nlftp.mlit.go.jp/ksj/jpgis/datalist/KsjTmplt-N02-v1_1.html", "train": "yes", "wikidata": "Q910286", "wikipedia": "ja:\u5317\u938c\u5009\u99c5"}}, {"type": "node", "id": 7856115775, "lat": 35.4421165, "lon": 139.6509129, "tags": {"alt_name": "\u5c71\u4e0b\u516c\u5712", "alt_name:en": "Yamashita-Koen", "name": "\u5143\u753a\u30fb\u4e2d\u83ef\u8857", "name:en": "Motomachi-chukagai", "name:es": "Motomachi-chukagai", "name:ja": "\u5143\u753a\u30fb\u4e2d\u83ef\u8857", "name:ja_kana": "\u3082\u3068\u307e\u3061\u30fb\u3061\u3085\u3046\u304b\u304c\u3044", "name:ja_rm": "Motomachi ch\u016bkagai", "name:ko": "\ubaa8\ud1a0\ub9c8\uce58\u00b7\uc8fc\uce74\uac00\uc774", "operator": "\u6a2a\u6d5c\u9ad8\u901f\u9244\u9053", "public_transport": "station", "railway": "station", "ref": "MM06", "train": "yes", "wikidata": "Q995359", "wikipedia": "ja:\u5143\u753a\u30fb\u4e2d\u83ef\u8857\u99c5"}}, {"type": "node", "id": 7856115776, "lat": 35.4467354, "lon": 139.6426718, "tags": {"alt_name": "\u770c\u5e81\u30fb\u5927\u3055\u3093\u6a4b", "alt_name:en": "Kencho-Osambashi", "name": "\u65e5\u672c\u5927\u901a\u308a", "name:en": "Nihon-odori", "name:ja": "\u65e5\u672c\u5927\u901a\u308a", "name:ja_kana": "\u306b\u307b\u3093\u304a\u304a\u3069\u304a\u308a", "name:ja_rm": "Nihon \u014dd\u014dri", "name:ko": "\ub2c8\ud63c\uc624\ub3c4\ub9ac", "note": "National-Land Numerical Information (Railway) 2007, MLIT Japan", "operator": "\u6a2a\u6d5c\u9ad8\u901f\u9244\u9053", "public_transport": "station", "railway": "station", "ref": "MM05", "source": "KSJ2", "source_ref": "http://nlftp.mlit.go.jp/ksj/jpgis/datalist/KsjTmplt-N02-v1_1.html", "train": "yes", "wikidata": "Q7034272", "wikipedia": "ja:\u65e5\u672c\u5927\u901a\u308a\u99c5"}}, {"type": "node", "id": 7856115777, "lat": 35.4501475, "lon": 139.6362973, "tags": {"name": "\u99ac\u8eca\u9053", "name:en": "Bashamichi", "name:es": "Bashamichi", "name:ja": "\u99ac\u8eca\u9053", "name:ja_kana": "\u3070\u3057\u3083\u307f\u3061", "name:ja_rm": "Bashamichi", "name:ko": "\ubc14\uc0e4\ubbf8\uce58", "note": "National-Land Numerical Information (Railway) 2007, MLIT Japan", "operator": "\u6a2a\u6d5c\u9ad8\u901f\u9244\u9053", "public_transport": "station", "railway": "station", "ref": "MM04", "source": "KSJ2", "source_ref": "http://nlftp.mlit.go.jp/ksj/jpgis/datalist/KsjTmplt-N02-v1_1.html", "train": "yes", "wheelchair": "yes", "wikidata": "Q4866771", "wikipedia": "ja:\u99ac\u8eca\u9053\u99c5"}}, {"type": "node", "id": 7856860987, "lat": 35.367138, "lon": 139.6297275, "tags": {"gauge": "1435", "name": "\u4eac\u6025\u5bcc\u5ca1", "name:en": "Keikyu Tomioka", "name:ja": "\u4eac\u6025\u5bcc\u5ca1", "name:ja_kana": "\u3051\u3044\u304d\u3085\u3046\u3068\u307f\u304a\u304b", "name:ja_rm": "Keiky\u016b Tomioka", "name:ko": "\uac8c\uc774\ud050\ub3c4\ubbf8\uc624\uce74", "operator": "\u4eac\u6d5c\u6025\u884c\u96fb\u9244 (Keikyu Corporation)", "operator:en": "Keikyu Corporation", "operator:ja": "\u4eac\u6d5c\u6025\u884c\u96fb\u9244", "public_transport": "station", "railway": "station", "ref": "KK47", "source": "KSJ2;Bing", "source_ref": "http://nlftp.mlit.go.jp/ksj/jpgis/datalist/KsjTmplt-N02-v1_1.html", "wikidata": "Q12060974", "wikipedia": "ja:\u4eac\u6025\u5bcc\u5ca1\u99c5"}}, {"type": "node", "id": 7856860988, "lat": 35.383564, "lon": 139.6158364, "tags": {"gauge": "1435", "name": "\u6749\u7530", "name:en": "Sugita", "name:ja": "\u6749\u7530", "name:ja_kana": "\u3059\u304e\u305f", "name:ja_rm": "Sugita", "name:ko": "\uc2a4\uae30\ud0c0", "operator": "\u4eac\u6d5c\u6025\u884c\u96fb\u9244 (Keikyu Corporation)", "operator:en": "Keikyu Corporation", "operator:ja": "\u4eac\u6d5c\u6025\u884c\u96fb\u9244", "public_transport": "station", "railway": "station", "ref": "KK46", "source": "Bing", "source_ref": "http://nlftp.mlit.go.jp/ksj/jpgis/datalist/KsjTmplt-N02-v1_1.html", "wheelchair": "yes", "wikidata": "Q7635125", "wikipedia": "ja:\u6749\u7530\u99c5 (\u795e\u5948\u5ddd\u770c)"}}, {"type": "node", "id": 7856860990, "lat": 35.3942114, "lon": 139.6103847, "tags": {"gauge": "1435", "name": "\u5c4f\u98a8\u6d66", "name:en": "Byobugaura", "name:ja": "\u5c4f\u98a8\u6d66", "name:ja_kana": "\u3073\u3087\u3046\u3076\u304c\u3046\u3089", "name:ja_rm": "By\u014dbugaura", "name:ko": "\ubd64\ubd80\uac00\uc6b0\ub77c", "operator": "\u4eac\u6d5c\u6025\u884c\u96fb\u9244 (Keikyu Corporation)", "operator:en": "Keikyu Corporation", "operator:ja": "\u4eac\u6d5c\u6025\u884c\u96fb\u9244", "public_transport": "station", "railway": "station", "ref": "KK45", "source": "Bing", "source_ref": "http://nlftp.mlit.go.jp/ksj/jpgis/datalist/KsjTmplt-N02-v1_1.html", "toilets:wheelchair": "yes", "wheelchair": "yes", "wikidata": "Q5004739", "wikipedia": "ja:\u5c4f\u98a8\u6d66\u99c5"}}, {"type": "node", "id": 7856860992, "lat": 35.4090607, "lon": 139.5966277, "tags": {"gauge": "1435", "name": "\u4e0a\u5927\u5ca1", "name:en": "Kamiooka", "name:ja": "\u4e0a\u5927\u5ca1", "name:ja-Hira": "\u304b\u307f\u304a\u304a\u304a\u304b", "name:ja_kana": "\u304b\u307f\u304a\u304a\u304a\u304b", "name:ja_rm": "Kami\u014doka", "name:ko": "\uac00\ubbf8\uc624\uc624\uce74", "operator": "\u4eac\u6d5c\u6025\u884c\u96fb\u9244", "operator:en": "Keikyu Corporation", "operator:ja": "\u4eac\u6d5c\u6025\u884c\u96fb\u9244", "public_transport": "station", "railway": "station", "ref": "KK44", "source": "Bing", "source_ref": "http://nlftp.mlit.go.jp/ksj/jpgis/datalist/KsjTmplt-N02-v1_1.html", "wikidata": "Q865627", "wikipedia": "ja:\u4e0a\u5927\u5ca1\u99c5"}}, {"type": "node", "id": 7856860996, "lat": 35.4243499, "lon": 139.5967939, "tags": {"gauge": "1435", "name": "\u5f18\u660e\u5bfa", "name:en": "Gumyoji", "name:ja": "\u5f18\u660e\u5bfa", "name:ja_kana": "\u3050\u307f\u3087\u3046\u3058", "name:ja_rm": "Gumy\u014dji", "name:ko": "\uad6c\ubb18\uc9c0", "note": "National-Land Numerical Information (Railway) 2007, MLIT Japan", "operator": "\u4eac\u6d5c\u6025\u884c\u96fb\u9244", "operator:en": "Keikyu Corporation", "operator:ja": "\u4eac\u6d5c\u6025\u884c\u96fb\u9244", "public_transport": "station", "railway": "station", "ref": "KK43", "source": "Bing", "source_ref": "http://nlftp.mlit.go.jp/ksj/jpgis/datalist/KsjTmplt-N02-v1_1.html", "wheelchair": "limited", "wikidata": "Q5362509", "wikipedia": "ja:\u5f18\u660e\u5bfa\u99c5 (\u4eac\u6025)"}}, {"type": "node", "id": 7856860997, "lat": 35.4339314, "lon": 139.6005383, "tags": {"gauge": "1435", "name": "\u4e95\u571f\u30f6\u8c37", "name:en": "Idogaya", "name:es": "Idogaya", "name:ja": "\u4e95\u571f\u30f6\u8c37", "name:ja_kana": "\u3044\u3069\u304c\u3084", "name:ja_rm": "Idogaya", "name:ko": "\uc774\ub3c4\uac00\uc57c", "note": "National-Land Numerical Information (Railway) 2007, MLIT Japan", "operator": "\u4eac\u6d5c\u6025\u884c\u96fb\u9244", "operator:en": "Keikyu Corporation", "operator:ja": "\u4eac\u6d5c\u6025\u884c\u96fb\u9244", "public_transport": "station", "railway": "station", "ref": "KK42", "source": "Bing", "source_ref": "http://nlftp.mlit.go.jp/ksj/jpgis/datalist/KsjTmplt-N02-v1_1.html", "wikidata": "Q5989285", "wikipedia": "ja:\u4e95\u571f\u30f6\u8c37\u99c5"}}, {"type": "node", "id": 7856860998, "lat": 35.4368194, "lon": 139.6131635, "tags": {"gauge": "1435", "name": "\u5357\u592a\u7530", "name:en": "Minamiota", "name:ja": "\u5357\u592a\u7530", "name:ja_kana": "\u307f\u306a\u307f\u304a\u304a\u305f", "name:ja_rm": "Minami \u014cta", "name:ko": "\ubbf8\ub098\ubbf8\uc624\ud0c0", "note": "National-Land Numerical Information (Railway) 2007, MLIT Japan", "operator": "\u4eac\u6d5c\u6025\u884c\u96fb\u9244", "operator:en": "Keikyu Corporation", "operator:ja": "\u4eac\u6d5c\u6025\u884c\u96fb\u9244", "public_transport": "station", "railway": "station", "ref": "KK41", "source": "Bing", "source_ref": "http://nlftp.mlit.go.jp/ksj/jpgis/datalist/KsjTmplt-N02-v1_1.html", "wheelchair": "yes", "wikidata": "Q6863036", "wikipedia": "ja:\u5357\u592a\u7530\u99c5"}}, {"type": "node", "id": 7856861001, "lat": 35.4399236, "lon": 139.623152, "tags": {"gauge": "1435", "name": "\u9ec4\u91d1\u753a", "name:en": "Koganecho", "name:ja": "\u9ec4\u91d1\u753a", "name:ja_kana": "\u3053\u304c\u306d\u3061\u3087\u3046", "name:ja_rm": "Koganech\u014d", "name:ko": "\uace0\uac00\ub124\ucd08", "note": "National-Land Numerical Information (Railway) 2007, MLIT Japan", "operator": "\u4eac\u6d5c\u6025\u884c\u96fb\u9244", "operator:en": "Keikyu Corporation", "operator:ja": "\u4eac\u6d5c\u6025\u884c\u96fb\u9244", "public_transport": "station", "railway": "station", "ref": "KK40", "source": "Bing", "source_ref": "http://nlftp.mlit.go.jp/ksj/jpgis/datalist/KsjTmplt-N02-v1_1.html", "wikidata": "Q6425766", "wikipedia": "ja:\u9ec4\u91d1\u753a\u99c5"}}, {"type": "node", "id": 7856861002, "lat": 35.4455466, "lon": 139.6267113, "tags": {"gauge": "1435", "name": "\u65e5\u30ce\u51fa\u753a", "name:en": "Hinodecho", "name:ja": "\u65e5\u30ce\u51fa\u753a", "name:ja_kana": "\u3072\u306e\u3067\u3061\u3087\u3046", "name:ja_rm": "Hinodech\u014d", "name:ko": "\ud788\ub178\ub370\ucd08", "note": "National-Land Numerical Information (Railway) 2007, MLIT Japan", "operator": "\u4eac\u6d5c\u6025\u884c\u96fb\u9244", "operator:en": "Keikyu Corporation", "operator:ja": "\u4eac\u6d5c\u6025\u884c\u96fb\u9244", "public_transport": "station", "railway": "station", "ref": "KK39", "source": "Bing", "source_ref": "http://nlftp.mlit.go.jp/ksj/jpgis/datalist/KsjTmplt-N02-v1_1.html", "wikidata": "Q5767411", "wikipedia": "ja:\u65e5\u30ce\u51fa\u753a\u99c5"}}, {"type": "node", "id": 7857842365, "lat": 35.2595912, "lon": 139.7076389, "tags": {"KSJ2:LIN": "\u672c\u7dda", "gauge": "1435", "name": "\u99ac\u5800\u6d77\u5cb8", "name:en": "Maborikaigan", "name:ja": "\u99ac\u5800\u6d77\u5cb8", "name:ja_kana": "\u307e\u307c\u308a\u304b\u3044\u304c\u3093", "name:ja_rm": "Mabori kaigan", "name:ko": "\ub9c8\ubcf4\ub9ac\uce74\uc774\uac04", "note": "National-Land Numerical Information (Railway) 2007, MLIT Japan", "note:ja": "\u56fd\u571f\u6570\u5024\u60c5\u5831\uff08\u9244\u9053\u30c7\u30fc\u30bf\uff09\u5e73\u621019\u5e74\u3000\u56fd\u571f\u4ea4\u901a\u7701", "operator": "\u4eac\u6d5c\u6025\u884c\u96fb\u9244 (Keikyu Corporation)", "operator:en": "Keikyu Corporation", "operator:ja": "\u4eac\u6d5c\u6025\u884c\u96fb\u9244", "public_transport": "station", "railway": "station", "ref": "KK63", "source": "Bing", "source_ref": "http://nlftp.mlit.go.jp/ksj/jpgis/datalist/KsjTmplt-N02-v1_1.html", "wikidata": "Q5370891", "wikipedia": "ja:\u99ac\u5800\u6d77\u5cb8\u99c5"}}, {"type": "node", "id": 7857842367, "lat": 35.2608571, "lon": 139.6958245, "tags": {"KSJ2:LIN": "\u672c\u7dda", "gauge": "1435", "name": "\u4eac\u6025\u5927\u6d25", "name:en": "Keikyu Otsu", "name:ja": "\u4eac\u6025\u5927\u6d25", "name:ja_kana": "\u3051\u3044\u304d\u3085\u3046\u304a\u304a\u3064", "name:ja_rm": "Keiky\u016b \u014ctsu", "name:ko": "\uac8c\uc774\ud050\uc624\uc4f0", "note": "National-Land Numerical Information (Railway) 2007, MLIT Japan", "note:ja": "\u56fd\u571f\u6570\u5024\u60c5\u5831\uff08\u9244\u9053\u30c7\u30fc\u30bf\uff09\u5e73\u621019\u5e74\u3000\u56fd\u571f\u4ea4\u901a\u7701", "operator": "\u4eac\u6d5c\u6025\u884c\u96fb\u9244 (Keikyu Corporation)", "operator:en": "Keikyu Corporation", "operator:ja": "\u4eac\u6d5c\u6025\u884c\u96fb\u9244", "public_transport": "station", "railway": "station", "ref": "KK62", "source": "Bing", "source_ref": "http://nlftp.mlit.go.jp/ksj/jpgis/datalist/KsjTmplt-N02-v1_1.html", "wikidata": "Q5370884", "wikipedia": "ja:\u4eac\u6025\u5927\u6d25\u99c5"}}, {"type": "node", "id": 7857842369, "lat": 35.2702905, "lon": 139.6766355, "tags": {"KSJ2:LIN": "\u672c\u7dda", "alt_name:ko": "\uac90\ub9ac\uc4f0\ub2e4\uc774\uac00\ucfe0", "gauge": "1435", "name": "\u770c\u7acb\u5927\u5b66", "name:en": "Kenritsudaigaku", "name:ja": "\u770c\u7acb\u5927\u5b66", "name:ja_kana": "\u3051\u3093\u308a\u3064\u3060\u3044\u304c\u304f", "name:ja_rm": "Kenritsu daigaku", "name:ko": "\ud604\ub9bd\ub300\ud559", "note": "National-Land Numerical Information (Railway) 2007, MLIT Japan", "note:ja": "\u56fd\u571f\u6570\u5024\u60c5\u5831\uff08\u9244\u9053\u30c7\u30fc\u30bf\uff09\u5e73\u621019\u5e74\u3000\u56fd\u571f\u4ea4\u901a\u7701", "operator": "\u4eac\u6d5c\u6025\u884c\u96fb\u9244 (Keikyu Corporation)", "operator:en": "Keikyu Corporation", "operator:ja": "\u4eac\u6d5c\u6025\u884c\u96fb\u9244", "public_transport": "station", "railway": "station", "ref": "KK60", "source": "Bing", "source_ref": "http://nlftp.mlit.go.jp/ksj/jpgis/datalist/KsjTmplt-N02-v1_1.html", "wikidata": "Q6391354", "wikipedia": "ja:\u770c\u7acb\u5927\u5b66\u99c5"}}, {"type": "node", "id": 7857842370, "lat": 35.2784995, "lon": 139.670433, "tags": {"gauge": "1435", "name": "\u6a2a\u9808\u8cc0\u4e2d\u592e", "name:en": "Yokosuka-chuo", "name:ja": "\u6a2a\u9808\u8cc0\u4e2d\u592e", "name:ja_kana": "\u3088\u3053\u3059\u304b\u3061\u3085\u3046\u304a\u3046", "name:ja_rm": "Yokosuka ch\u016b\u014d", "name:ko": "\uc694\ucf54\uc2a4\uce74\ucd94\uc624", "operator": "\u4eac\u6d5c\u6025\u884c\u96fb\u9244 (Keikyu Corporation)", "operator:en": "Keikyu Corporation", "operator:ja": "\u4eac\u6d5c\u6025\u884c\u96fb\u9244", "public_transport": "station", "railway": "station", "ref": "KK59", "source": "Bing", "source_ref": "http://nlftp.mlit.go.jp/ksj/jpgis/datalist/KsjTmplt-N02-v1_1.html", "toilets:wheelchair": "yes", "wheelchair": "yes", "wikidata": "Q8054669", "wikipedia": "ja:\u6a2a\u9808\u8cc0\u4e2d\u592e\u99c5"}}, {"type": "node", "id": 7857842371, "lat": 35.2802909, "lon": 139.6621587, "tags": {"gauge": "1435", "name": "\u6c50\u5165", "name:en": "Shioiri", "name:ja": "\u6c50\u5165", "name:ja_kana": "\u3057\u304a\u3044\u308a", "name:ja_rm": "Shioiri", "name:ko": "\uc2dc\uc624\uc774\ub9ac", "public_transport": "station", "railway": "station", "ref": "KK58", "source": "KSJ2", "source_ref": "http://nlftp.mlit.go.jp/ksj/jpgis/datalist/KsjTmplt-N02-v1_1.html", "wikidata": "Q7497872", "wikipedia": "ja:\u6c50\u5165\u99c5"}}, {"type": "node", "id": 7857842373, "lat": 35.2805449, "lon": 139.6528199, "tags": {"gauge": "1435", "name": "\u9038\u898b", "name:en": "Hemi", "name:ja": "\u9038\u898b", "name:ja_kana": "\u3078\u307f", "name:ja_rm": "Hemi", "name:ko": "\ud5e4\ubbf8", "operator": "\u4eac\u6d5c\u6025\u884c\u96fb\u9244 (Keikyu Corporation)", "operator:en": "Keikyu Corporation", "operator:ja": "\u4eac\u6d5c\u6025\u884c\u96fb\u9244", "public_transport": "station", "railway": "station", "ref": "KK57", "source": "Bing", "source_ref": "http://nlftp.mlit.go.jp/ksj/jpgis/datalist/KsjTmplt-N02-v1_1.html", "wikidata": "Q5711388", "wikipedia": "ja:\u9038\u898b\u99c5"}}, {"type": "node", "id": 7857842374, "lat": 35.2866492, "lon": 139.6430319, "tags": {"gauge": "1435", "name": "\u5b89\u91dd\u585a", "name:en": "Anjinzuka", "name:ja": "\u5b89\u91dd\u585a", "name:ja_kana": "\u3042\u3093\u3058\u3093\u3065\u304b", "name:ja_rm": "Anjinzuka", "name:ko": "\uc548\uc9c4\uc988\uce74", "operator": "\u4eac\u6d5c\u6025\u884c\u96fb\u9244", "operator:en": "Keikyu Corporation", "operator:ja": "\u4eac\u6d5c\u6025\u884c\u96fb\u9244", "public_transport": "station", "railway": "station", "ref": "KK56", "source": "Bing", "source_ref": "http://nlftp.mlit.go.jp/ksj/jpgis/datalist/KsjTmplt-N02-v1_1.html", "wikidata": "Q4765822", "wikipedia": "ja:\u5b89\u91dd\u585a\u99c5"}}, {"type": "node", "id": 7857842376, "lat": 35.3008945, "lon": 139.6255173, "tags": {"gauge": "1435", "name": "\u4eac\u6025\u7530\u6d66", "name:en": "Keikyu-Taura", "name:ja": "\u4eac\u6025\u7530\u6d66", "name:ja_kana": "\u3051\u3044\u304d\u3085\u3046\u305f\u3046\u3089", "name:ja_rm": "Keiky\u016b Taura", "name:ko": "\uac8c\uc774\ud050\ub2e4\uc6b0\ub77c", "operator": "\u4eac\u6d5c\u6025\u884c\u96fb\u9244 (Keikyu Corporation)", "operator:en": "Keikyu Corporation", "operator:ja": "\u4eac\u6d5c\u6025\u884c\u96fb\u9244", "public_transport": "station", "railway": "station", "ref": "KK55", "source": "KSJ2;Bing", "source_ref": "http://nlftp.mlit.go.jp/ksj/jpgis/datalist/KsjTmplt-N02-v1_1.html", "wikidata": "Q6383711", "wikipedia": "ja:\u4eac\u6025\u7530\u6d66\u99c5"}}, {"type": "node", "id": 7857842377, "lat": 35.315811, "lon": 139.6248191, "tags": {"gauge": "1435", "name": "\u8ffd\u6d5c", "name:en": "Oppama", "name:ja": "\u8ffd\u6d5c", "name:ja_kana": "\u304a\u3063\u3071\u307e", "name:ja_rm": "Oppama", "name:ko": "\uc637\ud30c\ub9c8", "operator": "\u4eac\u6d5c\u6025\u884c\u96fb\u9244", "operator:en": "Keikyu Corporation", "operator:ja": "\u4eac\u6d5c\u6025\u884c\u96fb\u9244", "public_transport": "station", "railway": "station", "ref": "KK54", "source": "Bing", "source_ref": "http://nlftp.mlit.go.jp/ksj/jpgis/datalist/KsjTmplt-N02-v1_1.html", "wikidata": "Q7098536", "wikipedia": "ja:\u8ffd\u6d5c\u99c5"}}, {"type": "node", "id": 7857902092, "lat": 35.3608505, "lon": 139.6294203, "tags": {"gauge": "1435", "name": "\u80fd\u898b\u53f0", "name:en": "Nokendai", "name:ja": "\u80fd\u898b\u53f0", "name:ja_kana": "\u306e\u3046\u3051\u3093\u3060\u3044", "name:ja_rm": "N\u014dkendai", "name:ko": "\ub178\ucf04\ub2e4\uc774", "operator": "\u4eac\u6d5c\u6025\u884c\u96fb\u9244 (Keikyu Corporation)", "operator:en": "Keikyu Corporation", "operator:ja": "\u4eac\u6d5c\u6025\u884c\u96fb\u9244", "public_transport": "station", "railway": "station", "ref": "KK48", "source": "Bing", "source_ref": "http://nlftp.mlit.go.jp/ksj/jpgis/datalist/KsjTmplt-N02-v1_1.html", "wikidata": "Q7071606", "wikipedia": "ja:\u80fd\u898b\u53f0\u99c5"}}, {"type": "node", "id": 7865831100, "lat": 35.2935249, "lon": 139.5802218, "tags": {"name": "\u9017\u5b50\u30fb\u8449\u5c71", "name:en": "Zushi\u30fbHayama", "name:ja": "\u9017\u5b50\u30fb\u8449\u5c71", "name:ja_kana": "\u305a\u3057\u30fb\u306f\u3084\u307e", "name:ja_rm": "Zushi\u30fbHayama", "name:ko": "\uc988\uc2dc \u30fb\ud558\uc57c\ub9c8", "old_name": "\u65b0\u9017\u5b50", "operator": "\u4eac\u6d5c\u6025\u884c\u96fb\u9244", "operator:en": "Keikyu Corporation", "operator:ja": "\u4eac\u6d5c\u6025\u884c\u96fb\u9244", "public_transport": "station", "railway": "station", "ref": "KK53", "source": "Bing", "source_ref": "http://nlftp.mlit.go.jp/ksj/jpgis/datalist/KsjTmplt-N02-v1_1.html", "wheelchair": "yes", "wikidata": "Q3266545", "wikipedia": "ja:\u9017\u5b50\u30fb\u8449\u5c71\u99c5"}}, {"type": "node", "id": 7865832908, "lat": 35.306427, "lon": 139.5932669, "tags": {"name": "\u795e\u6b66\u5bfa", "name:en": "Jimmuji", "name:ja": "\u795e\u6b66\u5bfa", "name:ja_kana": "\u3058\u3093\u3080\u3058", "name:ja_rm": "Jimmuji", "name:ko": "\uc9c4\ubb34\uc9c0", "operator": "\u4eac\u6d5c\u6025\u884c\u96fb\u9244", "operator:en": "Keikyu Corporation", "operator:ja": "\u4eac\u6d5c\u6025\u884c\u96fb\u9244", "public_transport": "station", "railway": "station", "ref": "KK52", "source": "Bing", "source_ref": "http://nlftp.mlit.go.jp/ksj/jpgis/datalist/KsjTmplt-N02-v1_1.html", "wikidata": "Q6199430", "wikipedia": "ja:\u795e\u6b66\u5bfa\u99c5"}}, {"type": "node", "id": 7888589498, "lat": 35.2568206, "lon": 139.6900836, "tags": {"KSJ2:LIN": "\u4e45\u91cc\u6d5c\u7dda", "name": "\u65b0\u5927\u6d25", "name:en": "Shin-otsu", "name:ja": "\u65b0\u5927\u6d25", "name:ja_kana": "\u3057\u3093\u304a\u304a\u3064", "name:ja_rm": "Shin \u014ctsu", "name:ko": "\uc2e0\uc624\uc4f0", "note": "National-Land Numerical Information (Railway) 2007, MLIT Japan", "note:ja": "\u56fd\u571f\u6570\u5024\u60c5\u5831\uff08\u9244\u9053\u30c7\u30fc\u30bf\uff09\u5e73\u621019\u5e74\u3000\u56fd\u571f\u4ea4\u901a\u7701", "operator": "\u4eac\u6d5c\u6025\u884c\u96fb\u9244", "operator:en": "Keikyu Corporation", "operator:ja": "\u4eac\u6d5c\u6025\u884c\u96fb\u9244", "public_transport": "station", "railway": "station", "ref": "KK62", "source": "Bing", "source_ref": "http://nlftp.mlit.go.jp/ksj/jpgis/datalist/KsjTmplt-N02-v1_1.html", "wikidata": "Q5370229", "wikipedia": "ja:\u65b0\u5927\u6d25\u99c5"}}, {"type": "node", "id": 7888589500, "lat": 35.2313499, "lon": 139.702245, "tags": {"KSJ2:LIN": "\u4e45\u91cc\u6d5c\u7dda", "name": "\u4eac\u6025\u4e45\u91cc\u6d5c", "name:en": "Keikyu Kurihama", "name:ja": "\u4eac\u6025\u4e45\u91cc\u6d5c", "name:ja_kana": "\u3051\u3044\u304d\u3085\u3046\u304f\u308a\u306f\u307e", "name:ja_rm": "Keiky\u016b Kurihama", "name:ko": "\uac8c\uc774\ud050\uad6c\ub9ac\ud558\ub9c8", "note": "National-Land Numerical Information (Railway) 2007, MLIT Japan", "note:ja": "\u56fd\u571f\u6570\u5024\u60c5\u5831\uff08\u9244\u9053\u30c7\u30fc\u30bf\uff09\u5e73\u621019\u5e74\u3000\u56fd\u571f\u4ea4\u901a\u7701", "operator": "\u4eac\u6d5c\u6025\u884c\u96fb\u9244", "operator:en": "Keikyu Corporation", "operator:ja": "\u4eac\u6d5c\u6025\u884c\u96fb\u9244", "public_transport": "station", "railway": "station", "ref": "KK67", "source": "Bing", "source_ref": "http://nlftp.mlit.go.jp/ksj/jpgis/datalist/KsjTmplt-N02-v1_1.html", "toilets:wheelchair": "yes", "wheelchair": "yes", "wikidata": "Q6383706", "wikipedia": "ja:\u4eac\u6025\u4e45\u91cc\u6d5c\u99c5"}}, {"type": "node", "id": 7888589503, "lat": 35.2121005, "lon": 139.6849914, "tags": {"KSJ2:LIN": "\u4e45\u91cc\u6d5c\u7dda", "name": "YRP\u91ce\u6bd4", "name:en": "YRP Nobi", "name:ja": "YRP\u91ce\u6bd4", "name:ja_kana": "\u308f\u3044\u3042\u30fc\u308b\u3074\u30fc\u306e\u3073", "name:ja_rm": "YRP Nobi", "name:ko": "YRP\ub178\ube44", "note": "National-Land Numerical Information (Railway) 2007, MLIT Japan", "note:ja": "\u56fd\u571f\u6570\u5024\u60c5\u5831\uff08\u9244\u9053\u30c7\u30fc\u30bf\uff09\u5e73\u621019\u5e74\u3000\u56fd\u571f\u4ea4\u901a\u7701", "operator": "\u4eac\u6d5c\u6025\u884c\u96fb\u9244", "operator:en": "Keikyu Corporation", "operator:ja": "\u4eac\u6d5c\u6025\u884c\u96fb\u9244", "public_transport": "station", "railway": "station", "ref": "KK68", "source": "Bing", "source_ref": "http://nlftp.mlit.go.jp/ksj/jpgis/datalist/KsjTmplt-N02-v1_1.html", "wheelchair": "yes", "wikidata": "Q8046018", "wikipedia": "ja:YRP\u91ce\u6bd4\u99c5"}}, {"type": "node", "id": 7888589505, "lat": 35.249514, "lon": 139.6864169, "tags": {"KSJ2:LIN": "\u4e45\u91cc\u6d5c\u7dda", "name": "\u5317\u4e45\u91cc\u6d5c", "name:en": "Kitakurihama", "name:ja": "\u5317\u4e45\u91cc\u6d5c", "name:ja_kana": "\u304d\u305f\u304f\u308a\u306f\u307e", "name:ja_rm": "Kita Kurihama", "name:ko": "\uae30\ud0c0\ucfe0\ub9ac\ud558\ub9c8", "note": "National-Land Numerical Information (Railway) 2007, MLIT Japan", "note:ja": "\u56fd\u571f\u6570\u5024\u60c5\u5831\uff08\u9244\u9053\u30c7\u30fc\u30bf\uff09\u5e73\u621019\u5e74\u3000\u56fd\u571f\u4ea4\u901a\u7701", "operator": "\u4eac\u6d5c\u6025\u884c\u96fb\u9244", "operator:en": "Keikyu Corporation", "operator:ja": "\u4eac\u6d5c\u6025\u884c\u96fb\u9244", "public_transport": "station", "railway": "station", "ref": "KK63", "source": "Bing", "source_ref": "http://nlftp.mlit.go.jp/ksj/jpgis/datalist/KsjTmplt-N02-v1_1.html", "wikidata": "Q5370713", "wikipedia": "ja:\u5317\u4e45\u91cc\u6d5c\u99c5"}}, {"type": "node", "id": 8062656936, "lat": 35.3043634, "lon": 139.5219, "tags": {"KSJ2:LIN": "\u6c5f\u30ce\u5cf6\u96fb\u9244\u7dda", "name": "\u7a32\u6751\u30f6\u5d0e", "name:en": "Inamuragasaki", "name:ja": "\u7a32\u6751\u30f6\u5d0e", "name:ja_kana": "\u3044\u306a\u3080\u3089\u304c\u3055\u304d", "name:ja_rm": "Inamuragasaki", "name:ko": "\uc774\ub098\ubb34\ub77c\uac00\uc0ac\ud0a4", "name:zh": "\u7a3b\u6751\u5d0e", "note": "National-Land Numerical Information (Railway) 2007, MLIT Japan", "note:ja": "\u56fd\u571f\u6570\u5024\u60c5\u5831\uff08\u9244\u9053\u30c7\u30fc\u30bf\uff09\u5e73\u621019\u5e74\u3000\u56fd\u571f\u4ea4\u901a\u7701", "operator": "\u6c5f\u30ce\u5cf6\u96fb\u9244", "public_transport": "station", "railway": "station", "ref": "EN-10", "source": "KSJ2", "source_ref": "http://nlftp.mlit.go.jp/ksj/jpgis/datalist/KsjTmplt-N02-v1_1.html", "station": "light_rail", "wheelchair": "yes", "wikidata": "Q858991", "wikipedia": "ja:\u7a32\u6751\u30f6\u5d0e\u99c5"}}, {"type": "node", "id": 8062865731, "lat": 35.3112923, "lon": 139.5358669, "tags": {"name": "\u9577\u8c37", "name:en": "Hase", "name:es": "Hase", "name:fr": "Hase", "name:ja": "\u9577\u8c37", "name:ja_kana": "\u306f\u305b", "name:ja_rm": "Hase", "name:ko": "\ud558\uc138", "name:zh": "\u9577\u8c37 (\u795e\u5948\u5ddd\u7e23)", "operator": "\u6c5f\u30ce\u5cf6\u96fb\u9244", "public_transport": "station", "railway": "station", "ref": "EN-12", "source": "KSJ2", "source_ref": "http://nlftp.mlit.go.jp/ksj/jpgis/datalist/KsjTmplt-N02-v1_1.html", "station": "light_rail", "train": "yes", "wheelchair": "yes", "wikidata": "Q858830", "wikipedia": "ja:\u9577\u8c37\u99c5 (\u795e\u5948\u5ddd\u770c)"}}, {"type": "node", "id": 8062865734, "lat": 35.3214239, "lon": 139.4826015, "tags": {"light_rail": "yes", "name": "\u9d60\u6cbc", "name:en": "Kugenuma", "name:ja": "\u9d60\u6cbc", "name:ja-Hira": "\u304f\u3052\u306c\u307e", "name:ja-Latn": "Kugenuma", "name:ko": "\uad6c\uac8c\ub204\ub9c8", "name:zh": "\u9d60\u6cbc", "operator": "\u6c5f\u30ce\u5cf6\u96fb\u9244", "public_transport": "station", "railway": "station", "ref": "EN-04", "source": "KSJ2", "station": "light_rail", "wikidata": "Q858839", "wikipedia": "ja:\u9d60\u6cbc\u99c5"}}, {"type": "node", "id": 8062865735, "lat": 35.3110438, "lon": 139.4875422, "tags": {"loc_ref": "2", "local_ref": "2", "name": "\u6c5f\u30ce\u5cf6", "name:en": "Enoshima", "name:ja": "\u6c5f\u30ce\u5cf6", "name:ja_kana": "\u3048\u306e\u3057\u307e", "name:ja_rm": "Enoshima", "name:ko": "\uc5d0\ub178\uc2dc\ub9c8", "name:zh": "\u6c5f\u4e4b\u5cf6", "operator": "\u6c5f\u30ce\u5cf6\u96fb\u9244", "public_transport": "station", "railway": "station", "ref": "EN-06", "source": "KSJ2", "station": "light_rail", "wikidata": "Q846972", "wikipedia": "ja:\u6c5f\u30ce\u5cf6\u99c5"}}, {"type": "node", "id": 8062865737, "lat": 35.3371925, "lon": 139.4871318, "tags": {"KSJ2:LIN": "\u6c5f\u30ce\u5cf6\u96fb\u9244\u7dda", "light_rail": "yes", "name": "\u85e4\u6ca2", "name:en": "Fujisawa", "name:ja": "\u85e4\u6ca2", "name:ja-Hira": "\u3075\u3058\u3055\u308f", "name:ja-Latn": "Fujisawa", "name:ko": "\ud6c4\uc9c0\uc0ac\uc640", "name:ru": "\u0424\u0443\u0434\u0437\u0438\u0441\u0430\u0432\u0430", "name:zh": "\u85e4\u6fa4", "note": "National-Land Numerical Information (Railway) 2007, MLIT Japan", "note:ja": "\u56fd\u571f\u6570\u5024\u60c5\u5831\uff08\u9244\u9053\u30c7\u30fc\u30bf\uff09\u5e73\u621019\u5e74\u3000\u56fd\u571f\u4ea4\u901a\u7701", "operator": "\u6c5f\u30ce\u5cf6\u96fb\u9244", "public_transport": "station", "railway": "station", "ref": "EN01", "source": "KSJ2", "source_ref": "http://nlftp.mlit.go.jp/ksj/jpgis/datalist/KsjTmplt-N02-v1_1.html", "station": "light_rail", "wikidata": "Q1133110", "wikipedia": "ja:\u85e4\u6ca2\u99c5"}}, {"type": "node", "id": 8062865738, "lat": 35.31839, "lon": 139.5500883, "tags": {"addr:block_number": "1", "addr:city": "\u938c\u5009\u5e02", "addr:housenumber": "15", "addr:postcode": "248-0012", "addr:province": "\u795e\u5948\u5ddd\u770c", "addr:quarter": "\u5fa1\u6210\u753a", "name": "\u938c\u5009", "name:en": "Kamakura", "name:es": "Kamakura Enoden", "name:it": "Kamakura", "name:ja": "\u938c\u5009", "name:ja-Hira": "\u304b\u307e\u304f\u3089", "name:ja-Latn": "Kamakura", "name:ko": "\uac00\ub9c8\ucfe0\ub77c", "name:zh": "\u9570\u4ed3", "operator": "\u6c5f\u30ce\u5cf6\u96fb\u9244", "public_transport": "station", "railway": "station", "ref": "EN-15", "source": "KSJ2", "source_ref": "http://nlftp.mlit.go.jp/ksj/jpgis/datalist/KsjTmplt-N02-v1_1.html", "train": "yes", "wikidata": "Q932895", "wikipedia": "ja:\u938c\u5009\u99c5"}}, {"type": "node", "id": 8063948626, "lat": 35.3062815, "lon": 139.510117, "tags": {"name": "\u4e03\u91cc\u30f6\u6d5c", "name:en": "Shichirigahama", "name:ja": "\u4e03\u91cc\u30f6\u6d5c", "name:ja_kana": "\u3057\u3061\u308a\u304c\u306f\u307e", "name:ja_rm": "Shichirigahama", "name:ko": "\uc2dc\uce58\ub9ac\uac00\ud558\ub9c8", "name:zh": "\u4e03\u91cc\u6ff1", "operator": "\u6c5f\u30ce\u5cf6\u96fb\u9244", "public_transport": "station", "railway": "station", "ref": "EN09", "source": "KSJ2", "station": "light_rail", "wikidata": "Q858960", "wikipedia": "ja:\u4e03\u91cc\u30f6\u6d5c\u99c5"}}, {"type": "node", "id": 8063948628, "lat": 35.3137097, "lon": 139.5455001, "tags": {"addr:block_number": "4", "addr:city": "\u938c\u5009\u5e02", "addr:neighbourhood": "\uff13\u4e01\u76ee", "addr:postcode": "248-0014", "addr:province": "\u795e\u5948\u5ddd\u770c", "addr:quarter": "\u7531\u6bd4\u30ac\u6d5c", "name": "\u548c\u7530\u585a", "name:en": "Wadazuka", "name:ja": "\u548c\u7530\u585a", "name:ja_kana": "\u308f\u3060\u3065\u304b", "name:ja_rm": "Wadazuka", "name:ko": "\uc640\ub2e4\uc988\uce74", "name:zh": "\u548c\u7530\u585a", "operator": "\u6c5f\u30ce\u5cf6\u96fb\u9244", "public_transport": "station", "railway": "station", "ref": "EN14", "source": "KSJ2", "source_ref": "http://nlftp.mlit.go.jp/ksj/jpgis/datalist/KsjTmplt-N02-v1_1.html", "train": "yes", "wikidata": "Q858969", "wikipedia": "ja:\u548c\u7530\u585a\u99c5"}}, {"type": "node", "id": 8063948629, "lat": 35.312772, "lon": 139.5413644, "tags": {"name": "\u7531\u6bd4\u30f6\u6d5c", "name:en": "Yuigahama", "name:ja": "\u7531\u6bd4\u30f6\u6d5c", "name:ja_kana": "\u3086\u3044\u304c\u306f\u307e", "name:ja_rm": "Yuigahama", "name:ko": "\uc720\uc774\uac00\ud558\ub9c8", "name:zh": "\u7531\u6bd4\u6ff1", "operator": "\u6c5f\u30ce\u5cf6\u96fb\u9244", "public_transport": "station", "railway": "station", "ref": "EN13", "source": "KSJ2", "source_ref": "http://nlftp.mlit.go.jp/ksj/jpgis/datalist/KsjTmplt-N02-v1_1.html", "train": "yes", "wikidata": "Q859070", "wikipedia": "ja:\u7531\u6bd4\u30f6\u6d5c\u99c5"}}, {"type": "node", "id": 8063948630, "lat": 35.3092118, "lon": 139.5286725, "tags": {"KSJ2:LIN": "\u6c5f\u30ce\u5cf6\u96fb\u9244\u7dda", "name": "\u6975\u697d\u5bfa", "name:en": "Gokurakuji", "name:ja": "\u6975\u697d\u5bfa", "name:ja_kana": "\u3054\u304f\u3089\u304f\u3058", "name:ja_rm": "Gokurakuji", "name:ko": "\uace0\ucfe0\ub77c\ucfe0\uc9c0", "name:zh": "\u6975\u6a02\u5bfa", "note": "National-Land Numerical Information (Railway) 2007, MLIT Japan", "note:ja": "\u56fd\u571f\u6570\u5024\u60c5\u5831\uff08\u9244\u9053\u30c7\u30fc\u30bf\uff09\u5e73\u621019\u5e74\u3000\u56fd\u571f\u4ea4\u901a\u7701", "operator": "\u6c5f\u30ce\u5cf6\u96fb\u9244", "public_transport": "station", "railway": "station", "ref": "EN11", "source": "KSJ2", "source_ref": "http://nlftp.mlit.go.jp/ksj/jpgis/datalist/KsjTmplt-N02-v1_1.html", "station": "light_rail", "wikidata": "Q858997", "wikipedia": "ja:\u6975\u697d\u5bfa\u99c5"}}, {"type": "node", "id": 8063951768, "lat": 35.3321271, "lon": 139.4855196, "tags": {"KSJ2:LIN": "\u6c5f\u30ce\u5cf6\u96fb\u9244\u7dda", "name": "\u77f3\u4e0a", "name:en": "Ishigami", "name:ja": "\u77f3\u4e0a", "name:ja_kana": "\u3044\u3057\u304c\u307f", "name:ja_rm": "Ishigami", "name:ko": "\uc774\uc2dc\uac00\ubbf8", "name:zh": "\u77f3\u4e0a", "note": "National-Land Numerical Information (Railway) 2007, MLIT Japan", "note:ja": "\u56fd\u571f\u6570\u5024\u60c5\u5831\uff08\u9244\u9053\u30c7\u30fc\u30bf\uff09\u5e73\u621019\u5e74\u3000\u56fd\u571f\u4ea4\u901a\u7701", "operator": "\u6c5f\u30ce\u5cf6\u96fb\u9244", "public_transport": "station", "railway": "station", "ref": "EN02", "source": "KSJ2", "source_ref": "http://nlftp.mlit.go.jp/ksj/jpgis/datalist/KsjTmplt-N02-v1_1.html", "station": "light_rail", "wikidata": "Q859782", "wikipedia": "ja:\u77f3\u4e0a\u99c5"}}, {"type": "node", "id": 8063951769, "lat": 35.3276307, "lon": 139.4851812, "tags": {"KSJ2:LIN": "\u6c5f\u30ce\u5cf6\u96fb\u9244\u7dda", "name": "\u67f3\u5c0f\u8def", "name:en": "Yanagikoji", "name:ja": "\u67f3\u5c0f\u8def", "name:ja_kana": "\u3084\u306a\u304e\u3053\u3046\u3058", "name:ja_rm": "Yanagik\u014dji", "name:ko": "\uc57c\ub098\uae30\ucf54\uc9c0", "name:zh": "\u67f3\u5c0f\u8def", "note": "National-Land Numerical Information (Railway) 2007, MLIT Japan", "note:ja": "\u56fd\u571f\u6570\u5024\u60c5\u5831\uff08\u9244\u9053\u30c7\u30fc\u30bf\uff09\u5e73\u621019\u5e74\u3000\u56fd\u571f\u4ea4\u901a\u7701", "operator": "\u6c5f\u30ce\u5cf6\u96fb\u9244", "public_transport": "station", "railway": "station", "ref": "EN03", "source": "KSJ2", "source_ref": "http://nlftp.mlit.go.jp/ksj/jpgis/datalist/KsjTmplt-N02-v1_1.html", "station": "light_rail", "wikidata": "Q859740", "wikipedia": "ja:\u67f3\u5c0f\u8def\u99c5"}}, {"type": "node", "id": 8063964898, "lat": 35.3083817, "lon": 139.4932077, "tags": {"name": "\u8170\u8d8a", "name:en": "Koshigoe", "name:ja": "\u8170\u8d8a", "name:ja_kana": "\u3053\u3057\u3054\u3048", "name:ja_rm": "Koshigoe", "name:ko": "\uace0\uc2dc\uace0\uc5d0", "name:zh": "\u8170\u8d8a", "operator": "\u6c5f\u30ce\u5cf6\u96fb\u9244", "public_transport": "station", "railway": "station", "ref": "EN07", "source": "KSJ2", "station": "light_rail", "wikidata": "Q858923", "wikipedia": "ja:\u8170\u8d8a\u99c5"}}, {"type": "node", "id": 8063964899, "lat": 35.3067209, "lon": 139.5007098, "tags": {"alt_name:ko": "\uac00\ub9c8\ucfe0\ub77c\ucf54\ucf54\ub9c8\uc5d0", "name": "\u938c\u5009\u9ad8\u6821\u524d", "name:en": "Kamakurakokomae", "name:ja": "\u938c\u5009\u9ad8\u6821\u524d", "name:ja_kana": "\u304b\u307e\u304f\u3089\u3053\u3046\u3053\u3046\u307e\u3048", "name:ja_rm": "Kamakura k\u014dk\u014d mae", "name:ko": "\uac00\ub9c8\ucfe0\ub77c\uace0\uad50\uc55e", "name:zh": "\u938c\u5009\u9ad8\u6821\u524d", "operator": "\u6c5f\u30ce\u5cf6\u96fb\u9244", "public_transport": "station", "railway": "station", "ref": "EN08", "source": "KSJ2", "station": "light_rail", "wikidata": "Q859202", "wikipedia": "ja:\u938c\u5009\u9ad8\u6821\u524d\u99c5"}}, {"type": "node", "id": 8063967424, "lat": 35.3149457, "lon": 139.4836473, "tags": {"name": "\u6e58\u5357\u6d77\u5cb8\u516c\u5712", "name:en": "Shonankaigankoen", "name:ja": "\u6e58\u5357\u6d77\u5cb8\u516c\u5712", "name:ja_kana": "\u3057\u3087\u3046\u306a\u3093\u304b\u3044\u304c\u3093\u3053\u3046\u3048\u3093", "name:ja_rm": "Sh\u014dnan kaigan k\u014den", "name:ko": "\uc1fc\ub09c\ud574\uc548\uacf5\uc6d0", "name:zh": "\u6e58\u5357\u6d77\u5cb8\u516c\u5712", "operator": "\u6c5f\u30ce\u5cf6\u96fb\u9244", "public_transport": "station", "railway": "station", "ref": "EN05", "source": "KSJ2", "station": "light_rail", "wikidata": "Q858964", "wikipedia": "ja:\u6e58\u5357\u6d77\u5cb8\u516c\u5712\u99c5"}}, {"type": "node", "id": 9166651391, "lat": 35.3833902, "lon": 139.4711134}, {"type": "node", "id": 9166651392, "lat": 35.3833016, "lon": 139.4707197}, {"type": "node", "id": 9166651393, "lat": 35.3836702, "lon": 139.470597}, {"type": "node", "id": 9166651394, "lat": 35.3836807, "lon": 139.4706522}, {"type": "node", "id": 9166651395, "lat": 35.3836464, "lon": 139.4706645}, {"type": "node", "id": 9166651396, "lat": 35.3836578, "lon": 139.4707197}, {"type": "node", "id": 9166651397, "lat": 35.3836242, "lon": 139.4707314}, {"type": "node", "id": 9166651398, "lat": 35.3836474, "lon": 139.4708587}, {"type": "node", "id": 9166651399, "lat": 35.3836807, "lon": 139.4708458}, {"type": "node", "id": 9166651400, "lat": 35.3836977, "lon": 139.4709178}, {"type": "node", "id": 9166651401, "lat": 35.3836595, "lon": 139.4709305}, {"type": "node", "id": 9166651402, "lat": 35.3836788, "lon": 139.4710199}, {"type": "node", "id": 9901562017, "lat": 35.3308469, "lon": 139.474844, "tags": {"railway": "train_station_entrance"}}, {"type": "node", "id": 9901562018, "lat": 35.3206688, "lon": 139.4710592, "tags": {"railway": "train_station_entrance"}}, {"type": "node", "id": 9956641195, "lat": 35.3836669, "lon": 139.4709703}, {"type": "node", "id": 9973475378, "lat": 35.3207427, "lon": 139.4711016}, {"type": "node", "id": 9973475379, "lat": 35.3207646, "lon": 139.4711512}, {"type": "node", "id": 9973475384, "lat": 35.3206639, "lon": 139.4710473}, {"type": "node", "id": 9973475385, "lat": 35.3206969, "lon": 139.471127}, {"type": "node", "id": 9973475386, "lat": 35.320857, "lon": 139.4710312}, {"type": "node", "id": 9973475387, "lat": 35.3208171, "lon": 139.4709501}, {"type": "node", "id": 9973475396, "lat": 35.3208937, "lon": 139.4710574}, {"type": "node", "id": 9973482219, "lat": 35.3308731, "lon": 139.4749499}, {"type": "node", "id": 9973482220, "lat": 35.330825, "lon": 139.4749063}, {"type": "node", "id": 9973482221, "lat": 35.3308556, "lon": 139.4748527}, {"type": "node", "id": 9973482222, "lat": 35.3307588, "lon": 139.4747555}, {"type": "node", "id": 9973482223, "lat": 35.3306767, "lon": 139.4748862}, {"type": "node", "id": 9973482224, "lat": 35.3308233, "lon": 139.475027}, {"type": "node", "id": 9973482225, "lat": 35.3308534, "lon": 139.4749798}, {"type": "node", "id": 9973482248, "lat": 35.3627907, "lon": 139.4730395}, {"type": "node", "id": 9973482249, "lat": 35.3627951, "lon": 139.4730918}, {"type": "node", "id": 9973482250, "lat": 35.3626857, "lon": 139.4731025}, {"type": "node", "id": 9973482251, "lat": 35.3626846, "lon": 139.4731709}, {"type": "node", "id": 9973482252, "lat": 35.3626387, "lon": 139.4731763}, {"type": "node", "id": 9973482253, "lat": 35.3626474, "lon": 139.4733104}, {"type": "node", "id": 9973482254, "lat": 35.3626912, "lon": 139.4733037}, {"type": "node", "id": 9973482255, "lat": 35.3626956, "lon": 139.4733533}, {"type": "node", "id": 9973482256, "lat": 35.3628093, "lon": 139.4733399}, {"type": "node", "id": 9973482257, "lat": 35.3628126, "lon": 139.4734123}, {"type": "node", "id": 9973482258, "lat": 35.3628815, "lon": 139.4734016}, {"type": "node", "id": 9973482259, "lat": 35.3628662, "lon": 139.4730382}, {"type": "node", "id": 10082866963, "lat": 35.3479933, "lon": 139.4760805, "tags": {"name": "\u85e4\u6ca2\u672c\u753a", "name:en": "Fujisawa-Hommachi", "name:ja": "\u85e4\u6ca2\u672c\u753a", "name:ja_rm": "Fujisawa-Honmachi", "name:ko": "\ud6c4\uc9c0\uc0ac\uc640\ud63c\ub9c8\uce58", "name:ru": "\u0424\u0443\u0434\u0437\u0438\u0441\u0430\u0432\u0430-\u0425\u043e\u043c\u043c\u0430\u0442\u0438", "railway": "station", "ref": "OE-12", "wikidata": "Q4493282", "wikipedia": "ja:\u85e4\u6ca2\u672c\u753a\u99c5"}}, {"type": "node", "id": 10108140336, "lat": 35.383501, "lon": 139.4708439, "tags": {"name": "\u516d\u4f1a\u65e5\u5927\u524d", "name:en": "Mutsuai-Nichidaimae", "public_transport": "station", "railway": "station", "train": "yes"}}, {"type": "node", "id": 10108140338, "lat": 35.3307789, "lon": 139.4748915, "tags": {"building": "train_station", "name": "\u672c\u9d60\u6cbc", "name:en": "Hon-Kugenuma", "name:ja": "\u672c\u9d60\u6cbc", "name:ja-Hira": "\u307b\u3093\u304f\u3052\u306c\u307e", "name:ja-Latn": "Hon Kugenuma", "name:ko": "\ud63c\ucfe0\uac8c\ub204\ub9c8", "name:ru": "\u0425\u043e\u043d-\u041a\u0443\u0433\u044d\u043d\u0443\u043c\u0430", "operator": "\u5c0f\u7530\u6025\u96fb\u9244", "public_transport": "station", "railway": "station", "ref": "OE14", "source": "KSJ2", "train": "yes", "wikidata": "Q4499731", "wikipedia": "ja:\u672c\u9d60\u6cbc\u99c5"}}, {"type": "node", "id": 10108140339, "lat": 35.3207842, "lon": 139.4710725, "tags": {"KSJ2:LIN": "\u6c5f\u30ce\u5cf6\u7dda", "name": "\u9d60\u6cbc\u6d77\u5cb8", "name:en": "Kugenuma-Kaigan", "name:ja": "\u9d60\u6cbc\u6d77\u5cb8", "name:ja-Hira": "\u304f\u3052\u306c\u307e\u304b\u3044\u304c\u3093", "name:ja-Latn": "Kugenuma kaigan", "name:ko": "\ucfe0\uac8c\ub204\ub9c8 \uce74\uc774\uac04", "name:ru": "\u041a\u0443\u0433\u044d\u043d\u0443\u043c\u0430-\u041a\u0430\u0439\u0433\u0430\u043d", "note": "National-Land Numerical Information (Railway) 2007, MLIT Japan", "note:ja": "\u56fd\u571f\u6570\u5024\u60c5\u5831\uff08\u9244\u9053\u30c7\u30fc\u30bf\uff09\u5e73\u621019\u5e74\u3000\u56fd\u571f\u4ea4\u901a\u7701", "operator": "\u5c0f\u7530\u6025\u96fb\u9244", "public_transport": "station", "railway": "station", "ref": "OE15", "source": "KSJ2", "source_ref": "http://nlftp.mlit.go.jp/ksj/jpgis/datalist/KsjTmplt-N02-v1_1.html", "train": "yes", "wikidata": "Q4244329", "wikipedia": "ja:\u9d60\u6cbc\u6d77\u5cb8\u99c5"}}, {"type": "node", "id": 10108140345, "lat": 35.3627792, "lon": 139.4732265, "tags": {"name": "\u5584\u884c", "name:en": "Zengyo", "name:ja": "\u5584\u884c", "name:ja_rm": "Zengy\u014d", "name:ko": "\uc820\uad50", "name:ru": "\u0414\u0437\u044d\u043d\u0433\u0451", "public_transport": "station", "railway": "station", "source": "KSJ2", "train": "yes", "wikidata": "Q4160904", "wikipedia": "ru:\u0414\u0437\u044d\u043d\u0433\u0451 (\u0441\u0442\u0430\u043d\u0446\u0438\u044f)"}}, {"type": "way", "id": 183535997, "nodes": [1939348197, 1939348192, 1939348195, 1939348181, 1939348175, 1939348179, 1939348172, 1939348174, 1939348169, 1939348177, 1939348183, 1939348186, 1939348248, 1939348197], "tags": {"building": "yes", "building:levels": "1", "name": "\u8e0a\u5834\u99c5", "public_transport": "station", "railway": "station", "station": "subway", "subway": "yes"}}, {"type": "way", "id": 267917213, "nodes": [2733108868, 2733108869, 7601112409, 7601112412, 7601112411, 7601112410, 2733108870, 2733108871, 2733108868], "tags": {"building": "yes", "name": "\u7acb\u5834\u99c5", "public_transport": "station", "railway": "station", "station": "subway", "subway": "yes"}}, {"type": "way", "id": 992141091, "nodes": [9166651391, 9166651392, 9166651393, 9166651394, 9166651395, 9166651396, 9166651397, 9166651398, 9166651399, 9166651400, 9166651401, 9956641195, 9166651402, 9166651391], "tags": {"building": "train_station", "layer": "1", "name": "\u516d\u4f1a\u65e5\u5927\u524d", "name:en": "Mutsuai-Nichidaimae", "name:ja": "\u516d\u4f1a\u65e5\u5927\u524d", "name:ja_rm": "Mutsuai Nichidai Mae", "name:ko": "\ubb34\uc4f0\uc544\uc774\ub2c8\uce58\ub2e4\uc774\uc55e", "name:ru": "\u041c\u0443\u0446\u0443\u0430\u0439-\u041d\u0438\u0442\u0438\u0434\u0430\u0439\u043c\u0430\u044d", "public_transport": "station", "railway": "station", "ref": "OE-10", "source": "KSJ2", "train": "yes", "wikidata": "Q4309032", "wikipedia": "ru:\u041c\u0443\u0446\u0443\u0430\u0439-\u041d\u0438\u0442\u0438\u0434\u0430\u0439\u043c\u0430\u044d (\u0441\u0442\u0430\u043d\u0446\u0438\u044f)"}}, {"type": "way", "id": 1088626189, "nodes": [9973475387, 9973475386, 9973475396, 9973475379, 9973475378, 9973475385, 9901562018, 9973475384, 9973475387], "tags": {"KSJ2:LIN": "\u6c5f\u30ce\u5cf6\u7dda", "name": "\u9d60\u6cbc\u6d77\u5cb8", "name:en": "Kugenuma-Kaigan", "name:ja": "\u9d60\u6cbc\u6d77\u5cb8", "name:ja-Hira": "\u304f\u3052\u306c\u307e\u304b\u3044\u304c\u3093", "name:ja-Latn": "Kugenuma kaigan", "name:ko": "\ucfe0\uac8c\ub204\ub9c8 \uce74\uc774\uac04", "name:ru": "\u041a\u0443\u0433\u044d\u043d\u0443\u043c\u0430-\u041a\u0430\u0439\u0433\u0430\u043d", "note": "National-Land Numerical Information (Railway) 2007, MLIT Japan", "note:ja": "\u56fd\u571f\u6570\u5024\u60c5\u5831\uff08\u9244\u9053\u30c7\u30fc\u30bf\uff09\u5e73\u621019\u5e74\u3000\u56fd\u571f\u4ea4\u901a\u7701", "operator": "\u5c0f\u7530\u6025\u96fb\u9244", "public_transport": "station", "railway": "station", "ref": "OE15", "source": "KSJ2", "source_ref": "http://nlftp.mlit.go.jp/ksj/jpgis/datalist/KsjTmplt-N02-v1_1.html", "wikidata": "Q4244329", "wikipedia": "ja:\u9d60\u6cbc\u6d77\u5cb8\u99c5"}}, {"type": "way", "id": 1088626194, "nodes": [9973482223, 9973482222, 9901562017, 9973482221, 9973482220, 9973482219, 9973482225, 9973482224, 9973482223], "tags": {"building": "train_station", "name": "\u672c\u9d60\u6cbc", "name:en": "Hon-Kugenuma", "name:ja": "\u672c\u9d60\u6cbc", "name:ja-Hira": "\u307b\u3093\u304f\u3052\u306c\u307e", "name:ja-Latn": "Hon Kugenuma", "name:ko": "\ud63c\ucfe0\uac8c\ub204\ub9c8", "name:ru": "\u0425\u043e\u043d-\u041a\u0443\u0433\u044d\u043d\u0443\u043c\u0430", "operator": "\u5c0f\u7530\u6025\u96fb\u9244", "public_transport": "station", "railway": "station", "ref": "OE14", "source": "KSJ2", "wikidata": "Q4499731", "wikipedia": "ja:\u672c\u9d60\u6cbc\u99c5"}}, {"type": "way", "id": 1088626204, "nodes": [9973482259, 9973482258, 9973482257, 9973482256, 9973482255, 9973482254, 9973482253, 9973482252, 9973482251, 9973482250, 9973482249, 9973482248, 9973482259], "tags": {"building": "train_station", "name": "\u5584\u884c", "name:en": "Zengyo", "name:ja": "\u5584\u884c", "name:ja_rm": "Zengy\u014d", "name:ko": "\uc820\uad50", "name:ru": "\u0414\u0437\u044d\u043d\u0433\u0451", "public_transport": "station", "railway": "station", "source": "KSJ2", "wikidata": "Q4160904", "wikipedia": "ru:\u0414\u0437\u044d\u043d\u0433\u0451 (\u0441\u0442\u0430\u043d\u0446\u0438\u044f)"}}]}