{"version": 0.6, "generator": "Overpass API 0.7.62.4 2390de5a", "osm3s": {"timestamp_osm_base": "2024-12-30T15:16:45Z", "copyright": "The data included in this document is from www.openstreetmap.org. The data is made available under ODbL."}, "elements": [{"type": "node", "id": 264449897, "lat": 44.6646869, "lon": 142.2587113, "tags": {"KSJ2:LIN": "\u5b97\u8c37\u7dda", "KSJ2:STN": "\u5929\u5869\u5ddd\u6e29\u6cc9", "alt_name:ko": "\ub370\uc2dc\uc624\uac00\uc640\uc628\uc13c", "name": "\u5929\u5869\u5ddd\u6e29\u6cc9", "name:en": "Teshiogawa-Onsen", "name:ja": "\u5929\u5869\u5ddd\u6e29\u6cc9", "name:ko": "\ub370\uc2dc\uc624\uac00\uc640\uc628\ucc9c", "name:ru": "\u0422\u0435\u0441\u0438\u043e\u0433\u0430\u0432\u0430-\u041e\u043d\u0441\u044d\u043d", "name:zh": "\u5929\u76d0\u5ddd\u6e29\u6cc9\u7ad9", "note": "National-Land Numerical Information (Railway) 2007, MLIT Japan", "note:ja": "\u56fd\u571f\u6570\u5024\u60c5\u5831\uff08\u9244\u9053\u30c7\u30fc\u30bf\uff09\u5e73\u621019\u5e74\u3000\u56fd\u571f\u4ea4\u901a\u7701", "public_transport": "station", "railway": "station", "source": "KSJ2", "source_ref": "http://nlftp.mlit.go.jp/ksj/jpgis/datalist/KsjTmplt-N02-v1_1.html", "wikidata": "Q7705483", "wikipedia": "ja:\u5929\u5869\u5ddd\u6e29\u6cc9\u99c5"}}, {"type": "node", "id": 264450609, "lat": 44.483243, "lon": 142.3504292, "tags": {"KSJ2:LIN": "\u5b97\u8c37\u7dda", "KSJ2:STN": "\u7f8e\u6df1", "name": "\u7f8e\u6df1", "name:en": "Bifuka", "name:ja": "\u7f8e\u6df1", "name:ko": "\ube44\ud6c4\uce74", "name:ru": "\u0411\u0438\u0444\u0443\u043a\u0430", "note": "National-Land Numerical Information (Railway) 2007, MLIT Japan", "note:ja": "\u56fd\u571f\u6570\u5024\u60c5\u5831\uff08\u9244\u9053\u30c7\u30fc\u30bf\uff09\u5e73\u621019\u5e74\u3000\u56fd\u571f\u4ea4\u901a\u7701", "public_transport": "station", "railway": "station", "source": "KSJ2", "source_ref": "http://nlftp.mlit.go.jp/ksj/jpgis/datalist/KsjTmplt-N02-v1_1.html", "wikidata": "Q4904819", "wikipedia": "ja:\u7f8e\u6df1\u99c5"}}, {"type": "node", "id": 264451080, "lat": 44.738889, "lon": 142.1978373, "tags": {"KSJ2:LIN": "\u5b97\u8c37\u7dda", "KSJ2:STN": "\u7b6c\u5cf6", "name": "\u7b6c\u5cf6", "name:en": "Osashima", "name:ja": "\u7b6c\u5cf6", "name:ko": "\uc624\uc0ac\uc2dc\ub9c8", "name:ru": "\u041e\u0441\u0430\u0441\u0438\u043c\u0430", "note": "National-Land Numerical Information (Railway) 2007, MLIT Japan", "note:ja": "\u56fd\u571f\u6570\u5024\u60c5\u5831\uff08\u9244\u9053\u30c7\u30fc\u30bf\uff09\u5e73\u621019\u5e74\u3000\u56fd\u571f\u4ea4\u901a\u7701", "public_transport": "station", "railway": "station", "source": "KSJ2", "source_ref": "http://nlftp.mlit.go.jp/ksj/jpgis/datalist/KsjTmplt-N02-v1_1.html", "wikidata": "Q7105719", "wikipedia": "ja:\u7b6c\u5cf6\u99c5"}}, {"type": "node", "id": 264451867, "lat": 44.7293837, "lon": 142.2596728, "tags": {"KSJ2:LIN": "\u5b97\u8c37\u7dda", "KSJ2:STN": "\u97f3\u5a01\u5b50\u5e9c", "name": "\u97f3\u5a01\u5b50\u5e9c", "name:en": "Otoineppu", "name:ja": "\u97f3\u5a01\u5b50\u5e9c", "name:ko": "\uc624\ud1a0\uc774\ub137\ud478", "name:ru": "\u041e\u0442\u043e\u0438\u043d\u0435\u043f\u043f\u0443", "name:zh": "\u97f3\u5a01\u5b50\u5e9c", "note": "National-Land Numerical Information (Railway) 2007, MLIT Japan", "note:ja": "\u56fd\u571f\u6570\u5024\u60c5\u5831\uff08\u9244\u9053\u30c7\u30fc\u30bf\uff09\u5e73\u621019\u5e74\u3000\u56fd\u571f\u4ea4\u901a\u7701", "public_transport": "station", "railway": "station", "source": "KSJ2", "source_ref": "http://nlftp.mlit.go.jp/ksj/jpgis/datalist/KsjTmplt-N02-v1_1.html", "wikidata": "Q7108943", "wikipedia": "ja:\u97f3\u5a01\u5b50\u5e9c\u99c5"}}, {"type": "node", "id": 264452640, "lat": 44.6923808, "lon": 142.2673918, "tags": {"KSJ2:LIN": "\u5b97\u8c37\u7dda", "KSJ2:STN": "\u54b2\u6765", "name": "\u54b2\u6765", "name:en": "Sakkuru", "name:ja": "\u54b2\u6765", "name:ko": "\uc0bf\ucfe0\ub8e8", "name:ru": "\u0421\u0430\u043a\u043a\u0443\u0440\u0443", "note": "National-Land Numerical Information (Railway) 2007, MLIT Japan", "note:ja": "\u56fd\u571f\u6570\u5024\u60c5\u5831\uff08\u9244\u9053\u30c7\u30fc\u30bf\uff09\u5e73\u621019\u5e74\u3000\u56fd\u571f\u4ea4\u901a\u7701", "public_transport": "station", "railway": "station", "source": "KSJ2", "source_ref": "http://nlftp.mlit.go.jp/ksj/jpgis/datalist/KsjTmplt-N02-v1_1.html", "wikidata": "Q7403031", "wikipedia": "ja:\u54b2\u6765\u99c5"}}, {"type": "node", "id": 264453376, "lat": 44.8119161, "lon": 142.0753161, "tags": {"KSJ2:LIN": "\u5b97\u8c37\u7dda", "KSJ2:STN": "\u5929\u5869\u4e2d\u5ddd", "name": "\u5929\u5869\u4e2d\u5ddd", "name:en": "Teshionakagawa", "name:ja": "\u5929\u5869\u4e2d\u5ddd", "name:ko": "\ub370\uc2dc\uc624\ub098\uce74\uac00\uc640", "name:ru": "\u0422\u0435\u0441\u0438\u043e-\u041d\u0430\u043a\u0430\u0433\u0430\u0432\u0430", "note": "National-Land Numerical Information (Railway) 2007, MLIT Japan", "note:ja": "\u56fd\u571f\u6570\u5024\u60c5\u5831\uff08\u9244\u9053\u30c7\u30fc\u30bf\uff09\u5e73\u621019\u5e74\u3000\u56fd\u571f\u4ea4\u901a\u7701", "public_transport": "station", "railway": "station", "source": "KSJ2", "source_ref": "http://nlftp.mlit.go.jp/ksj/jpgis/datalist/KsjTmplt-N02-v1_1.html", "wikidata": "Q7705478", "wikipedia": "ja:\u5929\u5869\u4e2d\u5ddd\u99c5"}}, {"type": "node", "id": 264455051, "lat": 44.7440678, "lon": 142.0486078, "tags": {"KSJ2:LIN": "\u5b97\u8c37\u7dda", "KSJ2:STN": "\u4f50\u4e45", "name": "\u4f50\u4e45", "name:en": "Saku", "name:ja": "\u4f50\u4e45", "name:ko": "\uc0ac\ucfe0", "name:ru": "\u0421\u0430\u043a\u0443", "note": "National-Land Numerical Information (Railway) 2007, MLIT Japan", "note:ja": "\u56fd\u571f\u6570\u5024\u60c5\u5831\uff08\u9244\u9053\u30c7\u30fc\u30bf\uff09\u5e73\u621019\u5e74\u3000\u56fd\u571f\u4ea4\u901a\u7701", "public_transport": "station", "railway": "station", "source": "KSJ2", "source_ref": "http://nlftp.mlit.go.jp/ksj/jpgis/datalist/KsjTmplt-N02-v1_1.html", "wikidata": "Q869335", "wikipedia": "ja:\u4f50\u4e45\u99c5"}}]}