{"version": 0.6, "generator": "Overpass API 0.7.62.4 2390de5a", "osm3s": {"timestamp_osm_base": "2024-12-30T15:15:41Z", "copyright": "The data included in this document is from www.openstreetmap.org. The data is made available under ODbL."}, "elements": [{"type": "node", "id": 264225488, "lat": 40.6861241, "lon": 139.9704062, "tags": {"KSJ2:LIN": "\u4e94\u80fd\u7dda", "KSJ2:STN": "\u8ffd\u826f\u702c", "name": "\u8ffd\u826f\u702c", "name:en": "Oirase", "name:ja": "\u8ffd\u826f\u702c", "name:ja_kana": "\u304a\u3044\u3089\u305b", "name:ja_rm": "Oirase", "name:ko": "\uc624\uc774\ub77c\uc138", "note": "National-Land Numerical Information (Railway) 2007, MLIT Japan", "note:ja": "\u56fd\u571f\u6570\u5024\u60c5\u5831\uff08\u9244\u9053\u30c7\u30fc\u30bf\uff09\u5e73\u621019\u5e74\u3000\u56fd\u571f\u4ea4\u901a\u7701", "public_transport": "station", "railway": "station", "source": "KSJ2", "source_ref": "http://nlftp.mlit.go.jp/ksj/jpgis/datalist/KsjTmplt-N02-v1_1.html", "wikidata": "Q7081521", "wikipedia": "ja:\u8ffd\u826f\u702c\u99c5"}}, {"type": "node", "id": 264225492, "lat": 40.7597811, "lon": 140.0340443, "tags": {"KSJ2:LIN": "\u4e94\u80fd\u7dda", "KSJ2:STN": "\u5927\u6238\u702c", "name": "\u5927\u6238\u702c", "name:en": "\u014cdose", "name:ja": "\u5927\u6238\u702c", "name:ko": "\uc624\ub3c4\uc138", "note": "National-Land Numerical Information (Railway) 2007, MLIT Japan", "note:ja": "\u56fd\u571f\u6570\u5024\u60c5\u5831\uff08\u9244\u9053\u30c7\u30fc\u30bf\uff09\u5e73\u621019\u5e74\u3000\u56fd\u571f\u4ea4\u901a\u7701", "public_transport": "station", "railway": "station", "source": "KSJ2", "source_ref": "http://nlftp.mlit.go.jp/ksj/jpgis/datalist/KsjTmplt-N02-v1_1.html", "wikidata": "Q8081442", "wikipedia": "ja:\u5927\u6238\u702c\u99c5"}}, {"type": "node", "id": 264225687, "lat": 40.775478, "lon": 140.2208595, "tags": {"KSJ2:LIN": "\u4e94\u80fd\u7dda", "KSJ2:STN": "\u9c3a\u30f6\u6ca2", "name": "\u9c3a\u30f6\u6ca2", "name:en": "Ajigasawa", "name:ja": "\u9c3a\u30f6\u6ca2", "name:ko": "\uc544\uc9c0\uac00\uc0ac\uc640", "note": "National-Land Numerical Information (Railway) 2007, MLIT Japan", "note:ja": "\u56fd\u571f\u6570\u5024\u60c5\u5831\uff08\u9244\u9053\u30c7\u30fc\u30bf\uff09\u5e73\u621019\u5e74\u3000\u56fd\u571f\u4ea4\u901a\u7701", "railway": "station", "source": "KSJ2", "source_ref": "http://nlftp.mlit.go.jp/ksj/jpgis/datalist/KsjTmplt-N02-v1_1.html", "wikidata": "Q4699731", "wikipedia": "ja:\u9c3a\u30b1\u6ca2\u99c5"}}, {"type": "node", "id": 264225713, "lat": 40.762164, "lon": 140.162814, "tags": {"KSJ2:LIN": "\u4e94\u80fd\u7dda", "KSJ2:STN": "\u9678\u5965\u8d64\u77f3", "name": "\u9678\u5965\u8d64\u77f3", "name:en": "Mutsu-Akaishi", "name:ja": "\u9678\u5965\u8d64\u77f3", "name:ko": "\ubb34\uc4f0\uc544\uce74\uc774\uc2dc", "note": "National-Land Numerical Information (Railway) 2007, MLIT Japan", "note:ja": "\u56fd\u571f\u6570\u5024\u60c5\u5831\uff08\u9244\u9053\u30c7\u30fc\u30bf\uff09\u5e73\u621019\u5e74\u3000\u56fd\u571f\u4ea4\u901a\u7701", "public_transport": "station", "railway": "station", "source": "KSJ2", "source_ref": "http://nlftp.mlit.go.jp/ksj/jpgis/datalist/KsjTmplt-N02-v1_1.html", "wikidata": "Q11658608", "wikipedia": "ja:\u9678\u5965\u8d64\u77f3\u99c5"}}, {"type": "node", "id": 264225728, "lat": 40.6974388, "lon": 140.4616109, "tags": {"KSJ2:LIN": "\u4e94\u80fd\u7dda", "KSJ2:STN": "\u677f\u67f3", "name": "\u677f\u67f3", "name:en": "Itayanagi", "name:ja": "\u677f\u67f3", "name:ko": "\uc774\ud0c0\uc57c\ub098\uae30", "note": "National-Land Numerical Information (Railway) 2007, MLIT Japan", "note:ja": "\u56fd\u571f\u6570\u5024\u60c5\u5831\uff08\u9244\u9053\u30c7\u30fc\u30bf\uff09\u5e73\u621019\u5e74\u3000\u56fd\u571f\u4ea4\u901a\u7701", "public_transport": "station", "railway": "station", "source": "KSJ2", "source_ref": "http://nlftp.mlit.go.jp/ksj/jpgis/datalist/KsjTmplt-N02-v1_1.html", "wikidata": "Q6094184", "wikipedia": "ja:\u677f\u67f3\u99c5"}}, {"type": "node", "id": 264225883, "lat": 40.6540867, "lon": 140.4998012, "tags": {"KSJ2:LIN": "\u4e94\u80fd\u7dda", "KSJ2:STN": "\u85e4\u5d0e", "name": "\u85e4\u5d0e", "name:en": "Fujisaki", "name:ja": "\u85e4\u5d0e", "name:ja-Hira": "\u3075\u3058\u3055\u304d", "name:ko": "\ud6c4\uc9c0\uc0ac\ud0a4", "note": "National-Land Numerical Information (Railway) 2007, MLIT Japan", "note:ja": "\u56fd\u571f\u6570\u5024\u60c5\u5831\uff08\u9244\u9053\u30c7\u30fc\u30bf\uff09\u5e73\u621019\u5e74\u3000\u56fd\u571f\u4ea4\u901a\u7701", "public_transport": "station", "railway": "station", "source": "KSJ2", "source_ref": "http://nlftp.mlit.go.jp/ksj/jpgis/datalist/KsjTmplt-N02-v1_1.html", "wikidata": "Q5507474", "wikipedia": "ja:\u85e4\u5d0e\u99c5 (\u9752\u68ee\u770c)"}}, {"type": "node", "id": 264225886, "lat": 40.8089316, "lon": 140.4480325, "tags": {"KSJ2:LIN": "\u4e94\u80fd\u7dda", "KSJ2:STN": "\u4e94\u6240\u5ddd\u539f", "name": "\u4e94\u6240\u5ddd\u539f", "name:en": "Goshogawara", "name:ja": "\u4e94\u6240\u5ddd\u539f", "name:ja_kana": "\u3054\u3057\u3087\u304c\u308f\u3089", "name:ja_rm": "Goshogawara", "name:ko": "\uace0\uc1fc\uac00\uc640\ub77c", "note": "National-Land Numerical Information (Railway) 2007, MLIT Japan", "note:ja": "\u56fd\u571f\u6570\u5024\u60c5\u5831\uff08\u9244\u9053\u30c7\u30fc\u30bf\uff09\u5e73\u621019\u5e74\u3000\u56fd\u571f\u4ea4\u901a\u7701", "public_transport": "station", "railway": "station", "source": "KSJ2", "source_ref": "http://nlftp.mlit.go.jp/ksj/jpgis/datalist/KsjTmplt-N02-v1_1.html", "wikidata": "Q5587319", "wikipedia": "ja:\u4e94\u6240\u5ddd\u539f\u99c5"}}, {"type": "node", "id": 264226240, "lat": 40.7872729, "lon": 140.364149, "tags": {"KSJ2:LIN": "\u4e94\u80fd\u7dda", "KSJ2:STN": "\u4e2d\u7530", "name": "\u4e2d\u7530", "name:en": "Nakata", "name:ja": "\u4e2d\u7530", "name:ko": "\ub098\uce74\ud0c0", "note": "National-Land Numerical Information (Railway) 2007, MLIT Japan", "note:ja": "\u56fd\u571f\u6570\u5024\u60c5\u5831\uff08\u9244\u9053\u30c7\u30fc\u30bf\uff09\u5e73\u621019\u5e74\u3000\u56fd\u571f\u4ea4\u901a\u7701", "public_transport": "station", "railway": "station", "source": "KSJ2", "source_ref": "http://nlftp.mlit.go.jp/ksj/jpgis/datalist/KsjTmplt-N02-v1_1.html", "wikidata": "Q6960342", "wikipedia": "ja:\u4e2d\u7530\u99c5 (\u9752\u68ee\u770c)"}}, {"type": "node", "id": 264226244, "lat": 40.7873575, "lon": 140.2978654, "tags": {"KSJ2:LIN": "\u4e94\u80fd\u7dda", "KSJ2:STN": "\u8d8a\u6c34", "name": "\u8d8a\u6c34", "name:en": "Koshimizu", "name:ja": "\u8d8a\u6c34", "name:ko": "\uace0\uc2dc\ubbf8\uc988", "note": "National-Land Numerical Information (Railway) 2007, MLIT Japan", "note:ja": "\u56fd\u571f\u6570\u5024\u60c5\u5831\uff08\u9244\u9053\u30c7\u30fc\u30bf\uff09\u5e73\u621019\u5e74\u3000\u56fd\u571f\u4ea4\u901a\u7701", "public_transport": "station", "railway": "station", "source": "KSJ2", "source_ref": "http://nlftp.mlit.go.jp/ksj/jpgis/datalist/KsjTmplt-N02-v1_1.html", "wikidata": "Q6433130", "wikipedia": "ja:\u8d8a\u6c34\u99c5"}}, {"type": "node", "id": 264226395, "lat": 40.802565, "lon": 140.388475, "tags": {"KSJ2:LIN": "\u4e94\u80fd\u7dda", "KSJ2:STN": "\u6728\u9020", "name": "\u6728\u9020", "name:en": "Kizukuri", "name:ja": "\u6728\u9020", "name:ko": "\uae30\uc988\ucfe0\ub9ac", "note": "National-Land Numerical Information (Railway) 2007, MLIT Japan", "note:ja": "\u56fd\u571f\u6570\u5024\u60c5\u5831\uff08\u9244\u9053\u30c7\u30fc\u30bf\uff09\u5e73\u621019\u5e74\u3000\u56fd\u571f\u4ea4\u901a\u7701", "public_transport": "station", "railway": "station", "source": "KSJ2", "source_ref": "http://nlftp.mlit.go.jp/ksj/jpgis/datalist/KsjTmplt-N02-v1_1.html", "wikidata": "Q11519398", "wikipedia": "ja:\u6728\u9020\u99c5"}}, {"type": "node", "id": 264226424, "lat": 40.7318298, "lon": 139.9945608, "tags": {"KSJ2:LIN": "\u4e94\u80fd\u7dda", "KSJ2:STN": "\u98a8\u5408\u702c", "name": "\u98a8\u5408\u702c", "name:en": "Kasose", "name:ja": "\u98a8\u5408\u702c", "name:ko": "\uac00\uc18c\uc138", "note": "National-Land Numerical Information (Railway) 2007, MLIT Japan", "note:ja": "\u56fd\u571f\u6570\u5024\u60c5\u5831\uff08\u9244\u9053\u30c7\u30fc\u30bf\uff09\u5e73\u621019\u5e74\u3000\u56fd\u571f\u4ea4\u901a\u7701", "public_transport": "station", "railway": "station", "source": "KSJ2", "source_ref": "http://nlftp.mlit.go.jp/ksj/jpgis/datalist/KsjTmplt-N02-v1_1.html", "wikidata": "Q6374623", "wikipedia": "ja:\u98a8\u5408\u702c\u99c5"}}, {"type": "node", "id": 264226488, "lat": 40.7458106, "lon": 140.0955488, "tags": {"KSJ2:LIN": "\u4e94\u80fd\u7dda", "KSJ2:STN": "\u5317\u91d1\u30f6\u6ca2", "name": "\u5317\u91d1\u30f6\u6ca2", "name:en": "Kita-Kanegasawa", "name:ja": "\u5317\u91d1\u30f6\u6ca2", "name:ko": "\uae30\ud0c0\uce74\ub124\uac00\uc0ac\uc640", "note": "National-Land Numerical Information (Railway) 2007, MLIT Japan", "note:ja": "\u56fd\u571f\u6570\u5024\u60c5\u5831\uff08\u9244\u9053\u30c7\u30fc\u30bf\uff09\u5e73\u621019\u5e74\u3000\u56fd\u571f\u4ea4\u901a\u7701", "public_transport": "station", "railway": "station", "source": "KSJ2", "source_ref": "http://nlftp.mlit.go.jp/ksj/jpgis/datalist/KsjTmplt-N02-v1_1.html", "wikidata": "Q6417555", "wikipedia": "ja:\u5317\u91d1\u30b1\u6ca2\u99c5"}}, {"type": "node", "id": 264226665, "lat": 40.7365993, "lon": 140.4373796, "tags": {"KSJ2:LIN": "\u4e94\u80fd\u7dda", "KSJ2:STN": "\u9db4\u6cca", "name": "\u9db4\u6cca", "name:en": "Tsurudomari", "name:ja": "\u9db4\u6cca", "name:ko": "\uc4f0\ub8e8\ub3c4\ub9c8\ub9ac", "note": "National-Land Numerical Information (Railway) 2007, MLIT Japan", "note:ja": "\u56fd\u571f\u6570\u5024\u60c5\u5831\uff08\u9244\u9053\u30c7\u30fc\u30bf\uff09\u5e73\u621019\u5e74\u3000\u56fd\u571f\u4ea4\u901a\u7701", "public_transport": "station", "railway": "station", "source": "KSJ2", "source_ref": "http://nlftp.mlit.go.jp/ksj/jpgis/datalist/KsjTmplt-N02-v1_1.html", "wikidata": "Q7850261", "wikipedia": "ja:\u9db4\u6cca\u99c5"}}, {"type": "node", "id": 264226725, "lat": 40.7679416, "lon": 140.0551245, "tags": {"KSJ2:LIN": "\u4e94\u80fd\u7dda", "KSJ2:STN": "\u5343\u7573\u6577", "name": "\u5343\u7573\u6577", "name:en": "Senj\u014djiki", "name:ja": "\u5343\u7573\u6577", "name:ko": "\uc13c\uc870\uc9c0\ud0a4", "note": "National-Land Numerical Information (Railway) 2007, MLIT Japan", "note:ja": "\u56fd\u571f\u6570\u5024\u60c5\u5831\uff08\u9244\u9053\u30c7\u30fc\u30bf\uff09\u5e73\u621019\u5e74\u3000\u56fd\u571f\u4ea4\u901a\u7701", "public_transport": "station", "railway": "station", "source": "KSJ2", "source_ref": "http://nlftp.mlit.go.jp/ksj/jpgis/datalist/KsjTmplt-N02-v1_1.html", "train": "yes", "wikidata": "Q11405761", "wikipedia": "ja:\u5343\u7573\u6577\u99c5 (\u9752\u68ee\u770c)"}}, {"type": "node", "id": 264227159, "lat": 40.6751643, "lon": 140.4806331, "tags": {"KSJ2:LIN": "\u4e94\u80fd\u7dda", "KSJ2:STN": "\u6797\u5d0e", "name": "\u6797\u5d0e", "name:en": "Hayashzaki", "name:ja": "\u6797\u5d0e", "name:ko": "\ud558\uc57c\uc2dc\uc790\ud0a4", "note": "National-Land Numerical Information (Railway) 2007, MLIT Japan", "note:ja": "\u56fd\u571f\u6570\u5024\u60c5\u5831\uff08\u9244\u9053\u30c7\u30fc\u30bf\uff09\u5e73\u621019\u5e74\u3000\u56fd\u571f\u4ea4\u901a\u7701", "public_transport": "station", "railway": "station", "source": "KSJ2", "source_ref": "http://nlftp.mlit.go.jp/ksj/jpgis/datalist/KsjTmplt-N02-v1_1.html", "wikidata": "Q5686071", "wikipedia": "ja:\u6797\u5d0e\u99c5"}}, {"type": "node", "id": 264227349, "lat": 40.7817786, "lon": 140.3384754, "tags": {"KSJ2:LIN": "\u4e94\u80fd\u7dda", "KSJ2:STN": "\u9678\u5965\u68ee\u7530", "name": "\u9678\u5965\u68ee\u7530", "name:en": "Mutsu-Morita", "name:ja": "\u9678\u5965\u68ee\u7530", "name:ko": "\ubb34\uc4f0\ubaa8\ub9ac\ud0c0", "note": "National-Land Numerical Information (Railway) 2007, MLIT Japan", "note:ja": "\u56fd\u571f\u6570\u5024\u60c5\u5831\uff08\u9244\u9053\u30c7\u30fc\u30bf\uff09\u5e73\u621019\u5e74\u3000\u56fd\u571f\u4ea4\u901a\u7701", "public_transport": "station", "railway": "station", "source": "KSJ2", "source_ref": "http://nlftp.mlit.go.jp/ksj/jpgis/datalist/KsjTmplt-N02-v1_1.html", "wikidata": "Q6944025", "wikipedia": "ja:\u9678\u5965\u68ee\u7530\u99c5"}}, {"type": "node", "id": 264227357, "lat": 40.7411591, "lon": 140.1250127, "tags": {"KSJ2:LIN": "\u4e94\u80fd\u7dda", "KSJ2:STN": "\u9678\u5965\u67f3\u7530", "name": "\u9678\u5965\u67f3\u7530", "name:en": "Mutsu-Yanagita", "name:ja": "\u9678\u5965\u67f3\u7530", "name:ko": "\ubb34\uc4f0\uc57c\ub098\uae30\ud0c0", "note": "National-Land Numerical Information (Railway) 2007, MLIT Japan", "note:ja": "\u56fd\u571f\u6570\u5024\u60c5\u5831\uff08\u9244\u9053\u30c7\u30fc\u30bf\uff09\u5e73\u621019\u5e74\u3000\u56fd\u571f\u4ea4\u901a\u7701", "public_transport": "station", "railway": "station", "source": "KSJ2", "source_ref": "http://nlftp.mlit.go.jp/ksj/jpgis/datalist/KsjTmplt-N02-v1_1.html", "wikidata": "Q11658602", "wikipedia": "ja:\u9678\u5965\u67f3\u7530\u99c5"}}, {"type": "node", "id": 264227359, "lat": 40.7073745, "lon": 139.9832248, "tags": {"KSJ2:LIN": "\u4e94\u80fd\u7dda", "KSJ2:STN": "\u9a6b\u6728", "name": "\u9a6b\u6728", "name:en": "Todoroki", "name:ja": "\u9a6b\u6728", "name:ja_kana": "\u3068\u3069\u308d\u304d", "name:ja_rm": "Todoroki", "name:ko": "\ub3c4\ub3c4\ub85c\ud0a4", "note": "National-Land Numerical Information (Railway) 2007, MLIT Japan", "note:ja": "\u56fd\u571f\u6570\u5024\u60c5\u5831\uff08\u9244\u9053\u30c7\u30fc\u30bf\uff09\u5e73\u621019\u5e74\u3000\u56fd\u571f\u4ea4\u901a\u7701", "public_transport": "station", "railway": "station", "source": "KSJ2", "source_ref": "http://nlftp.mlit.go.jp/ksj/jpgis/datalist/KsjTmplt-N02-v1_1.html", "wikidata": "Q7812853", "wikipedia": "ja:\u9a6b\u6728\u99c5"}}, {"type": "node", "id": 264227484, "lat": 40.512981, "lon": 139.9503412, "tags": {"KSJ2:LIN": "\u4e94\u80fd\u7dda", "KSJ2:STN": "\u767d\u795e\u5cb3\u767b\u5c71\u53e3", "name": "\u767d\u795e\u5cb3\u767b\u5c71\u53e3", "name:en": "Shirakamidaketozanguchi", "name:ja": "\u767d\u795e\u5cb3\u767b\u5c71\u53e3", "name:ko": "\uc2dc\ub77c\uce74\ubbf8\ub2e4\ucf00\ud1a0\uc794\uad6c\uce58", "note": "National-Land Numerical Information (Railway) 2007, MLIT Japan", "note:ja": "\u56fd\u571f\u6570\u5024\u60c5\u5831\uff08\u9244\u9053\u30c7\u30fc\u30bf\uff09\u5e73\u621019\u5e74\u3000\u56fd\u571f\u4ea4\u901a\u7701", "public_transport": "station", "railway": "station", "source": "KSJ2", "source_ref": "http://nlftp.mlit.go.jp/ksj/jpgis/datalist/KsjTmplt-N02-v1_1.html", "wikidata": "Q7498243", "wikipedia": "ja:\u767d\u795e\u5cb3\u767b\u5c71\u53e3\u99c5"}}, {"type": "node", "id": 264227662, "lat": 40.3802448, "lon": 140.0019305, "tags": {"KSJ2:LIN": "\u4e94\u80fd\u7dda", "KSJ2:STN": "\u6edd\u30ce\u9593", "name": "\u6edd\u30ce\u9593", "name:en": "Takinoma", "name:ja": "\u6edd\u30ce\u9593", "name:ko": "\ub2e4\ud0a4\ub178\ub9c8", "note": "National-Land Numerical Information (Railway) 2007, MLIT Japan", "note:ja": "\u56fd\u571f\u6570\u5024\u60c5\u5831\uff08\u9244\u9053\u30c7\u30fc\u30bf\uff09\u5e73\u621019\u5e74\u3000\u56fd\u571f\u4ea4\u901a\u7701", "public_transport": "station", "railway": "station", "source": "KSJ2", "source_ref": "http://nlftp.mlit.go.jp/ksj/jpgis/datalist/KsjTmplt-N02-v1_1.html", "wikidata": "Q7678387", "wikipedia": "ja:\u6edd\u30ce\u9593\u99c5"}}, {"type": "node", "id": 264227686, "lat": 40.4924738, "lon": 139.9501457, "tags": {"KSJ2:LIN": "\u4e94\u80fd\u7dda", "KSJ2:STN": "\u5927\u9593\u8d8a", "name": "\u5927\u9593\u8d8a", "name:en": "\u014cmagoshi", "name:ja": "\u5927\u9593\u8d8a", "name:ko": "\uc624\ub9c8\uace0\uc2dc", "note": "National-Land Numerical Information (Railway) 2007, MLIT Japan", "note:ja": "\u56fd\u571f\u6570\u5024\u60c5\u5831\uff08\u9244\u9053\u30c7\u30fc\u30bf\uff09\u5e73\u621019\u5e74\u3000\u56fd\u571f\u4ea4\u901a\u7701", "public_transport": "station", "railway": "station", "source": "KSJ2", "source_ref": "http://nlftp.mlit.go.jp/ksj/jpgis/datalist/KsjTmplt-N02-v1_1.html", "wikidata": "Q8081604", "wikipedia": "ja:\u5927\u9593\u8d8a\u99c5"}}, {"type": "node", "id": 264227688, "lat": 40.5347511, "lon": 139.946761, "tags": {"KSJ2:LIN": "\u4e94\u80fd\u7dda", "KSJ2:STN": "\u677e\u795e", "name": "\u677e\u795e", "name:en": "Matsukami", "name:ja": "\u677e\u795e", "name:ko": "\ub9c8\uc4f0\uce74\ubbf8", "note": "National-Land Numerical Information (Railway) 2007, MLIT Japan", "note:ja": "\u56fd\u571f\u6570\u5024\u60c5\u5831\uff08\u9244\u9053\u30c7\u30fc\u30bf\uff09\u5e73\u621019\u5e74\u3000\u56fd\u571f\u4ea4\u901a\u7701", "public_transport": "station", "railway": "station", "source": "KSJ2", "source_ref": "http://nlftp.mlit.go.jp/ksj/jpgis/datalist/KsjTmplt-N02-v1_1.html", "wikidata": "Q6788107", "wikipedia": "ja:\u677e\u795e\u99c5"}}, {"type": "node", "id": 264228118, "lat": 40.40601, "lon": 139.966707, "tags": {"KSJ2:LIN": "\u4e94\u80fd\u7dda", "KSJ2:STN": "\u5ca9\u9928", "name": "\u5ca9\u9928", "name:en": "Iwadate", "name:ja": "\u5ca9\u9928", "name:ko": "\uc774\uc640\ub2e4\ud14c", "note": "National-Land Numerical Information (Railway) 2007, MLIT Japan", "note:ja": "\u56fd\u571f\u6570\u5024\u60c5\u5831\uff08\u9244\u9053\u30c7\u30fc\u30bf\uff09\u5e73\u621019\u5e74\u3000\u56fd\u571f\u4ea4\u901a\u7701", "public_transport": "station", "railway": "station", "source": "KSJ2", "source_ref": "http://nlftp.mlit.go.jp/ksj/jpgis/datalist/KsjTmplt-N02-v1_1.html", "wikidata": "Q6100271", "wikipedia": "ja:\u5ca9\u9928\u99c5"}}, {"type": "node", "id": 264461805, "lat": 40.5643684, "lon": 140.4863414, "tags": {"KSJ2:LIN": "\u5927\u9c10\u7dda", "KSJ2:STN": "\u5c0f\u6817\u5c71", "name": "\u5c0f\u6817\u5c71", "name:en": "Koguriyama", "name:ja": "\u5c0f\u6817\u5c71", "name:ko": "\uace0\uad6c\ub9ac\uc57c\ub9c8", "network": "\u5f18\u5357\u9244\u9053\u5927\u9c10\u7dda", "note": "National-Land Numerical Information (Railway) 2007, MLIT Japan", "note:ja": "\u56fd\u571f\u6570\u5024\u60c5\u5831\uff08\u9244\u9053\u30c7\u30fc\u30bf\uff09\u5e73\u621019\u5e74\u3000\u56fd\u571f\u4ea4\u901a\u7701", "operator": "\u5f18\u5357\u9244\u9053", "public_transport": "stop_position", "railway": "station", "source": "KSJ2", "source_ref": "http://nlftp.mlit.go.jp/ksj/jpgis/datalist/KsjTmplt-N02-v1_1.html", "train": "yes", "wikidata": "Q6425828", "wikipedia": "ja:\u5c0f\u6817\u5c71\u99c5"}}, {"type": "node", "id": 264461817, "lat": 40.5557908, "lon": 140.5276294, "tags": {"KSJ2:LIN": "\u5927\u9c10\u7dda", "KSJ2:STN": "\u7fa9\u587e\u9ad8\u6821\u524d", "alt_name:ko": "\uae30\uc8fc\ucfe0\ucf54\ucf54\ub9c8\uc5d0", "name": "\u7fa9\u587e\u9ad8\u6821\u524d", "name:en": "Gijukuk\u014dk\u014dmae", "name:ja": "\u7fa9\u587e\u9ad8\u6821\u524d", "name:ko": "\uae30\uc8fc\ucfe0\uace0\uad50\uc55e", "network": "\u5f18\u5357\u9244\u9053\u5927\u9c10\u7dda", "note": "National-Land Numerical Information (Railway) 2007, MLIT Japan", "note:ja": "\u56fd\u571f\u6570\u5024\u60c5\u5831\uff08\u9244\u9053\u30c7\u30fc\u30bf\uff09\u5e73\u621019\u5e74\u3000\u56fd\u571f\u4ea4\u901a\u7701", "operator": "\u5f18\u5357\u9244\u9053", "public_transport": "stop_position", "railway": "station", "source": "KSJ2", "source_ref": "http://nlftp.mlit.go.jp/ksj/jpgis/datalist/KsjTmplt-N02-v1_1.html", "train": "yes", "wikidata": "Q5560420", "wikipedia": "ja:\u7fa9\u587e\u9ad8\u6821\u524d\u99c5"}}, {"type": "node", "id": 264461931, "lat": 40.5579188, "lon": 140.5163177, "tags": {"KSJ2:LIN": "\u5927\u9c10\u7dda", "KSJ2:STN": "\u6d25\u8efd\u5927\u6ca2", "name": "\u6d25\u8efd\u5927\u6ca2", "name:en": "Tsugaru-\u014csawa", "name:ja": "\u6d25\u8efd\u5927\u6ca2", "name:ko": "\uc4f0\uac00\ub8e8\uc624\uc0ac\uc640", "network": "\u5f18\u5357\u9244\u9053\u5927\u9c10\u7dda", "note": "National-Land Numerical Information (Railway) 2007, MLIT Japan", "note:ja": "\u56fd\u571f\u6570\u5024\u60c5\u5831\uff08\u9244\u9053\u30c7\u30fc\u30bf\uff09\u5e73\u621019\u5e74\u3000\u56fd\u571f\u4ea4\u901a\u7701", "operator": "\u5f18\u5357\u9244\u9053", "public_transport": "stop_position", "railway": "station", "source": "KSJ2", "source_ref": "http://nlftp.mlit.go.jp/ksj/jpgis/datalist/KsjTmplt-N02-v1_1.html", "train": "yes", "wikidata": "Q7849966", "wikipedia": "ja:\u6d25\u8efd\u5927\u6ca2\u99c5"}}, {"type": "node", "id": 264461933, "lat": 40.576923, "lon": 140.472782, "tags": {"KSJ2:LIN": "\u5927\u9c10\u7dda", "KSJ2:STN": "\u57ce\u5357", "name": "\u8056\u611b\u4e2d\u9ad8\u524d", "name:en": "Seiaich\u016bk\u014dmae", "name:ja": "\u8056\u611b\u4e2d\u9ad8\u524d", "name:ko": "\uc138\uc774\uc544\uc774\ucd94\ucf54\ub9c8\uc5d0", "network": "\u5f18\u5357\u9244\u9053\u5927\u9c10\u7dda", "note": "National-Land Numerical Information (Railway) 2007, MLIT Japan", "note:ja": "\u56fd\u571f\u6570\u5024\u60c5\u5831\uff08\u9244\u9053\u30c7\u30fc\u30bf\uff09\u5e73\u621019\u5e74\u3000\u56fd\u571f\u4ea4\u901a\u7701", "operator": "\u5f18\u5357\u9244\u9053", "public_transport": "stop_position", "railway": "station", "source": "KSJ2", "source_ref": "http://nlftp.mlit.go.jp/ksj/jpgis/datalist/KsjTmplt-N02-v1_1.html", "train": "yes", "wikidata": "Q7446561", "wikipedia": "ja:\u8056\u611b\u4e2d\u9ad8\u524d\u99c5"}}, {"type": "node", "id": 264462141, "lat": 40.5894754, "lon": 140.5033572, "tags": {"KSJ2:LIN": "\u5f18\u5357\u7dda", "KSJ2:STN": "\u904b\u52d5\u516c\u5712\u524d", "alt_name:ko": "\uc6b4\ub3c4\ucf54\uc5d4\ub9c8\uc5d0", "name": "\u904b\u52d5\u516c\u5712\u524d", "name:en": "Und\u014dk\u014denmae", "name:ja": "\u904b\u52d5\u516c\u5712\u524d", "name:ja_kana": "\u3046\u3093\u3069\u3046\u3053\u3046\u3048\u3093\u307e\u3048", "name:ko": "\uc6b4\ub3d9\uacf5\uc6d0\uc55e", "network": "\u5f18\u5357\u9244\u9053\u5f18\u5357\u7dda", "note": "National-Land Numerical Information (Railway) 2007, MLIT Japan", "note:ja": "\u56fd\u571f\u6570\u5024\u60c5\u5831\uff08\u9244\u9053\u30c7\u30fc\u30bf\uff09\u5e73\u621019\u5e74\u3000\u56fd\u571f\u4ea4\u901a\u7701", "operator": "\u5f18\u5357\u9244\u9053", "public_transport": "stop_position", "railway": "station", "source": "KSJ2", "source_ref": "http://nlftp.mlit.go.jp/ksj/jpgis/datalist/KsjTmplt-N02-v1_1.html", "train": "yes", "wikidata": "Q7884092", "wikipedia": "ja:\u904b\u52d5\u516c\u5712\u524d\u99c5"}}, {"type": "node", "id": 264462216, "lat": 40.5873575, "lon": 140.5203011, "tags": {"KSJ2:LIN": "\u5f18\u5357\u7dda", "KSJ2:STN": "\u65b0\u91cc", "name": "\u65b0\u91cc", "name:en": "Nisato", "name:ja": "\u65b0\u91cc", "name:ja_kana": "\u306b\u3055\u3068", "name:ko": "\ub2c8\uc0ac\ud1a0", "network": "\u5f18\u5357\u9244\u9053\u5f18\u5357\u7dda", "note": "National-Land Numerical Information (Railway) 2007, MLIT Japan", "note:ja": "\u56fd\u571f\u6570\u5024\u60c5\u5831\uff08\u9244\u9053\u30c7\u30fc\u30bf\uff09\u5e73\u621019\u5e74\u3000\u56fd\u571f\u4ea4\u901a\u7701", "operator": "\u5f18\u5357\u9244\u9053", "public_transport": "stop_position", "railway": "station", "source": "KSJ2", "source_ref": "http://nlftp.mlit.go.jp/ksj/jpgis/datalist/KsjTmplt-N02-v1_1.html", "train": "yes", "wikidata": "Q7040176", "wikipedia": "ja:\u65b0\u91cc\u99c5 (\u9752\u68ee\u770c)"}}, {"type": "node", "id": 264462308, "lat": 40.5985978, "lon": 140.4857687, "tags": {"KSJ2:LIN": "\u5f18\u5357\u7dda", "KSJ2:STN": "\u5f18\u524d", "name": "\u5f18\u524d", "name:en": "Hirosaki", "name:ja": "\u5f18\u524d", "name:ko": "\ud788\ub85c\uc0ac\ud0a4", "note": "National-Land Numerical Information (Railway) 2007, MLIT Japan", "note:ja": "\u56fd\u571f\u6570\u5024\u60c5\u5831\uff08\u9244\u9053\u30c7\u30fc\u30bf\uff09\u5e73\u621019\u5e74\u3000\u56fd\u571f\u4ea4\u901a\u7701", "operator": "\u5f18\u5357\u9244\u9053", "public_transport": "stop_position", "railway": "station", "source": "KSJ2", "source_ref": "http://nlftp.mlit.go.jp/ksj/jpgis/datalist/KsjTmplt-N02-v1_1.html", "train": "yes", "wikidata": "Q5770722", "wikipedia": "ja:\u5f18\u524d\u99c5"}}, {"type": "node", "id": 264877535, "lat": 40.809895, "lon": 140.4485834, "tags": {"KSJ2:LIN": "\u6d25\u8efd\u9244\u9053\u7dda", "KSJ2:STN": "\u6d25\u8efd\u4e94\u6240\u5ddd\u539f", "name": "\u6d25\u8efd\u4e94\u6240\u5ddd\u539f", "name:en": "Tsugaru Goshogawara", "name:ja": "\u6d25\u8efd\u4e94\u6240\u5ddd\u539f", "name:ja_kana": "\u3064\u304c\u308b\u3054\u3057\u3087\u304c\u308f\u3089", "name:ja_rm": "Tsugaru Goshogawara", "name:ko": "\uace0\uc1fc\uac00\uc640\ub77c", "note": "National-Land Numerical Information (Railway) 2007, MLIT Japan", "note:ja": "\u56fd\u571f\u6570\u5024\u60c5\u5831\uff08\u9244\u9053\u30c7\u30fc\u30bf\uff09\u5e73\u621019\u5e74\u3000\u56fd\u571f\u4ea4\u901a\u7701", "public_transport": "station", "railway": "station", "source": "KSJ2", "source_ref": "http://nlftp.mlit.go.jp/ksj/jpgis/datalist/KsjTmplt-N02-v1_1.html", "wikidata": "Q5587319", "wikipedia": "ja:\u4e94\u6240\u5ddd\u539f\u99c5"}}, {"type": "node", "id": 1842264396, "lat": 40.3866983, "lon": 139.9875353, "tags": {"name": "\u3042\u304d\u305f\u767d\u795e", "name:en": "Akitashirakami", "public_transport": "station", "railway": "station", "source": "survey;image", "wikidata": "Q4701221", "wikipedia": "ja:\u3042\u304d\u305f\u767d\u795e\u99c5"}}, {"type": "node", "id": 4143883343, "lat": 40.5923016, "lon": 140.4884227, "tags": {"KSJ2:LIN": "\u5f18\u5357\u7dda", "KSJ2:STN": "\u5f18\u524d\u6771\u9ad8\u524d", "alt_name:ko": "\ud788\ub85c\uc0ac\ud0a4\ud788\uac00\uc2dc\ucf54\ub9c8\uc5d0", "name": "\u5f18\u524d\u6771\u9ad8\u524d", "name:en": "Hirosaki-Higashik\u014dmae", "name:ja": "\u5f18\u524d\u6771\u9ad8\u524d", "name:ja_kana": "\u3072\u308d\u3055\u304d\u3072\u304c\u3057\u3053\u3046\u307e\u3048", "name:ko": "\ud788\ub85c\uc0ac\ud0a4\ud788\uac00\uc2dc\uace0\uc55e", "note": "National-Land Numerical Information (Railway) 2007, MLIT Japan", "note:ja": "\u56fd\u571f\u6570\u5024\u60c5\u5831\uff08\u9244\u9053\u30c7\u30fc\u30bf\uff09\u5e73\u621019\u5e74\u3000\u56fd\u571f\u4ea4\u901a\u7701", "public_transport": "station", "railway": "station", "source": "KSJ2", "source_ref": "http://nlftp.mlit.go.jp/ksj/jpgis/datalist/KsjTmplt-N02-v1_1.html", "train": "yes", "wikidata": "Q5770706", "wikipedia": "ja:\u5f18\u524d\u6771\u9ad8\u524d\u99c5"}}, {"type": "node", "id": 6031697462, "lat": 40.370987, "lon": 140.0181367, "tags": {"KSJ2:LIN": "\u4e94\u80fd\u7dda", "KSJ2:STN": "\u516b\u68ee", "name": "\u516b\u68ee", "name:en": "Hachimori", "name:ja": "\u516b\u68ee", "name:ko": "\ud558\uce58\ubaa8\ub9ac", "note": "National-Land Numerical Information (Railway) 2007, MLIT Japan", "note:ja": "\u56fd\u571f\u6570\u5024\u60c5\u5831\uff08\u9244\u9053\u30c7\u30fc\u30bf\uff09\u5e73\u621019\u5e74\u3000\u56fd\u571f\u4ea4\u901a\u7701", "public_transport": "station", "railway": "station", "source": "KSJ2", "source_ref": "http://nlftp.mlit.go.jp/ksj/jpgis/datalist/KsjTmplt-N02-v1_1.html", "wikidata": "Q11391474", "wikipedia": "ja:\u516b\u68ee\u99c5"}}, {"type": "node", "id": 6067523339, "lat": 40.6218286, "lon": 140.4980715, "tags": {"KSJ2:LIN": "\u5965\u7fbd\u7dda", "KSJ2:STN": "\u64ab\u725b\u5b50", "addr:city": "\u5f18\u524d\u5e02", "addr:province": "\u9752\u68ee\u770c", "name": "\u64ab\u725b\u5b50", "name:de": "Naijoshi", "name:en": "Naijoshi", "name:ja": "\u64ab\u725b\u5b50", "name:ja_rm": "Naij\u014dshi", "name:ko": "\ub098\uc774\uc870\uc2dc", "note": "National-Land Numerical Information (Railway) 2007, MLIT Japan", "note:ja": "\u56fd\u571f\u6570\u5024\u60c5\u5831\uff08\u9244\u9053\u30c7\u30fc\u30bf\uff09\u5e73\u621019\u5e74\u3000\u56fd\u571f\u4ea4\u901a\u7701", "operator": "JR\u6771\u65e5\u672c", "public_transport": "station", "railway": "station", "train": "yes", "website": "https://www.jreast.co.jp/estation/station/info.aspx?StationCd=1080", "wikidata": "Q6959563", "wikipedia": "ja:\u64ab\u725b\u5b50\u99c5"}}, {"type": "node", "id": 7125719100, "lat": 40.4059002, "lon": 139.9668981}, {"type": "node", "id": 7125719101, "lat": 40.4058447, "lon": 139.9668595}, {"type": "node", "id": 7125719102, "lat": 40.4058631, "lon": 139.966814}, {"type": "node", "id": 7125719103, "lat": 40.4058434, "lon": 139.9668003}, {"type": "node", "id": 7125719104, "lat": 40.4058603, "lon": 139.9667583}, {"type": "node", "id": 7125719105, "lat": 40.4058767, "lon": 139.9667697}, {"type": "node", "id": 7125719106, "lat": 40.4059225, "lon": 139.9666563}, {"type": "node", "id": 7125719107, "lat": 40.4059812, "lon": 139.9666971}, {"type": "node", "id": 8111211131, "lat": 40.5605678, "lon": 140.4972778, "tags": {"KSJ2:LIN": "\u5927\u9c10\u7dda", "KSJ2:STN": "\u677e\u6728\u5e73", "name": "\u677e\u6728\u5e73", "name:en": "Matsukitai", "name:ja": "\u677e\u6728\u5e73", "name:ko": "\ub9c8\uc4f0\ud0a4\ud0c0\uc774", "network": "\u5f18\u5357\u9244\u9053\u5927\u9c10\u7dda", "note": "National-Land Numerical Information (Railway) 2007, MLIT Japan", "note:ja": "\u56fd\u571f\u6570\u5024\u60c5\u5831\uff08\u9244\u9053\u30c7\u30fc\u30bf\uff09\u5e73\u621019\u5e74\u3000\u56fd\u571f\u4ea4\u901a\u7701", "operator": "\u5f18\u5357\u9244\u9053", "public_transport": "station", "railway": "station", "source": "KSJ2", "source_ref": "http://nlftp.mlit.go.jp/ksj/jpgis/datalist/KsjTmplt-N02-v1_1.html", "wikidata": "Q6788116", "wikipedia": "ja:\u677e\u6728\u5e73\u99c5"}}, {"type": "node", "id": 8120213658, "lat": 40.7579873, "lon": 140.4354121, "tags": {"KSJ2:LIN": "\u4e94\u80fd\u7dda", "KSJ2:STN": "\u9678\u5965\u9db4\u7530", "name": "\u9678\u5965\u9db4\u7530", "name:en": "Mutsu-Tsuruda", "name:ja": "\u9678\u5965\u9db4\u7530", "name:ko": "\ubb34\uc4f0\uc4f0\ub8e8\ub2e4", "public_transport": "station", "railway": "station", "wikidata": "Q6944031", "wikipedia": "ja:\u9678\u5965\u9db4\u7530\u99c5"}}, {"type": "node", "id": 8649219946, "lat": 40.5995511, "lon": 140.4852086, "tags": {"KSJ2:LIN": "\u5965\u7fbd\u7dda", "KSJ2:STN": "\u5f18\u524d", "name": "\u5f18\u524d", "name:de": "Hirosaki", "name:en": "Hirosaki", "name:it": "Hirosaki", "name:ja": "\u5f18\u524d", "name:ja-Latn": "Hirosaki", "name:ko": "\ud788\ub85c\uc0ac\ud0a4", "note": "National-Land Numerical Information (Railway) 2007, MLIT Japan", "note:ja": "\u56fd\u571f\u6570\u5024\u60c5\u5831\uff08\u9244\u9053\u30c7\u30fc\u30bf\uff09\u5e73\u621019\u5e74\u3000\u56fd\u571f\u4ea4\u901a\u7701", "public_transport": "station", "railway": "station", "source": "KSJ2", "source_ref": "http://nlftp.mlit.go.jp/ksj/jpgis/datalist/KsjTmplt-N02-v1_1.html", "website": "https://www.jreast.co.jp/estation/station/info.aspx?StationCd=1344", "wikidata": "Q5770722", "wikipedia": "ja:\u5f18\u524d\u99c5"}}, {"type": "node", "id": 8651588732, "lat": 40.6469983, "lon": 140.5215325, "tags": {"KSJ2:LIN": "\u4e94\u80fd\u7dda;\u5965\u7fbd\u7dda", "KSJ2:STN": "\u5ddd\u90e8", "name": "\u5ddd\u90e8", "name:de": "Kawabe", "name:en": "Kawabe", "name:ja": "\u5ddd\u90e8", "name:ja_rm": "Kawabe", "name:ko": "\uac00\uc640\ubca0", "note": "National-Land Numerical Information (Railway) 2007, MLIT Japan", "note:ja": "\u56fd\u571f\u6570\u5024\u60c5\u5831\uff08\u9244\u9053\u30c7\u30fc\u30bf\uff09\u5e73\u621019\u5e74\u3000\u56fd\u571f\u4ea4\u901a\u7701", "public_transport": "station", "railway": "station", "source": "KSJ2", "source_ref": "http://nlftp.mlit.go.jp/ksj/jpgis/datalist/KsjTmplt-N02-v1_1.html", "website": "https://www.jreast.co.jp/estation/station/info.aspx?StationCd=534", "wikidata": "Q6379432", "wikipedia": "ja:\u5ddd\u90e8\u99c5"}}, {"type": "node", "id": 9764394383, "lat": 40.5671119, "lon": 140.4806278, "tags": {"KSJ2:LIN": "\u5927\u9c10\u7dda", "KSJ2:STN": "\u5343\u5e74", "name": "\u5343\u5e74", "name:en": "Chitose", "name:ja": "\u5343\u5e74", "name:ko": "\uc9c0\ud1a0\uc138", "network": "\u5f18\u5357\u9244\u9053\u5927\u9c10\u7dda", "operator": "\u5f18\u5357\u9244\u9053", "railway": "station", "train": "yes", "wikidata": "Q5102287", "wikipedia": "ja:\u5343\u5e74\u99c5"}}, {"type": "node", "id": 9834642569, "lat": 40.5994019, "lon": 140.4724581, "tags": {"name": "\u4e2d\u592e\u5f18\u524d", "name:en": "Ch\u016b\u014d-Hirosaki", "network": "\u5f18\u5357\u9244\u9053\u5927\u9c10\u7dda", "operator": "\u5f18\u5357\u9244\u9053", "public_transport": "station", "railway": "station", "train": "yes", "wikidata": "Q5119035"}}, {"type": "node", "id": 9834717804, "lat": 40.592987, "lon": 140.4681793, "tags": {"name": "\u5f18\u9ad8\u4e0b", "name:en": "Hirok\u014dshita", "name:ja": "\u5f18\u9ad8\u4e0b", "name:ko": "\ud788\ub85c\ucf54\uc2dc\ud0c0", "network": "\u5f18\u5357\u9244\u9053\u5927\u9c10\u7dda", "operator": "\u5f18\u5357\u9244\u9053", "public_transport": "station", "railway": "station", "train": "yes"}}, {"type": "node", "id": 9838910129, "lat": 40.5835007, "lon": 140.4705437, "tags": {"name": "\u5f18\u524d\u5b66\u9662\u5927\u524d", "name:en": "Hirosaki Gaukuin Dai Mae", "name:ja": "\u5f18\u524d\u5b66\u9662\u5927\u524d", "name:ko": "\ud788\ub85c\uc0ac\ud0a4\uac00\ucfe0\uc778\ub300\uc55e", "network": "\u5f18\u5357\u9244\u9053\u5927\u9c10\u7dda", "operator": "\u5f18\u5357\u9244\u9053", "public_transport": "station", "railway": "station", "train": "yes", "wikidata": "Q5770713", "wikipedia": "ja:\u5f18\u524d\u5b66\u9662\u5927\u524d\u99c5"}}, {"type": "way", "id": 762610013, "nodes": [7125719100, 7125719101, 7125719102, 7125719103, 7125719104, 7125719105, 7125719106, 7125719107, 7125719100], "tags": {"building": "train_station", "public_transport": "station", "railway": "station", "train": "yes"}}]}