{"version": 0.6, "generator": "Overpass API 0.7.62.4 2390de5a", "osm3s": {"timestamp_osm_base": "2024-12-30T15:08:27Z", "copyright": "The data included in this document is from www.openstreetmap.org. The data is made available under ODbL."}, "elements": [{"type": "node", "id": 265828691, "lat": 36.3836931, "lon": 137.1820057, "tags": {"KSJ2:LIN": "\u9ad8\u5c71\u7dda", "KSJ2:STN": "\u6253\u4fdd", "name": "\u6253\u4fdd", "name:en": "Utsubo", "name:ja": "\u6253\u4fdd", "name:ja-Hira": "\u3046\u3064\u307c", "name:ja-Latn": "Utsubo", "name:ko": "\uc6b0\uc4f0\ubcf4", "note": "National-Land Numerical Information (Railway) 2007, MLIT Japan", "note:ja": "\u56fd\u571f\u6570\u5024\u60c5\u5831\uff08\u9244\u9053\u30c7\u30fc\u30bf\uff09\u5e73\u621019\u5e74\u3000\u56fd\u571f\u4ea4\u901a\u7701", "public_transport": "station", "railway": "station", "source": "KSJ2", "source_ref": "http://nlftp.mlit.go.jp/ksj/jpgis/datalist/KsjTmplt-N02-v1_1.html", "wikidata": "Q5357898", "wikipedia": "ja:\u6253\u4fdd\u99c5"}}, {"type": "node", "id": 265829488, "lat": 36.3276219, "lon": 137.1409188, "tags": {"KSJ2:LIN": "\u9ad8\u5c71\u7dda", "KSJ2:STN": "\u5742\u4e0a", "name": "\u5742\u4e0a", "name:en": "Sakakami", "name:ja": "\u5742\u4e0a", "name:ja_kana": "\u3055\u304b\u304b\u307f", "name:ja_rm": "Sakakami", "name:ko": "\uc0ac\uce74\uce74\ubbf8", "note": "National-Land Numerical Information (Railway) 2007, MLIT Japan", "note:ja": "\u56fd\u571f\u6570\u5024\u60c5\u5831\uff08\u9244\u9053\u30c7\u30fc\u30bf\uff09\u5e73\u621019\u5e74\u3000\u56fd\u571f\u4ea4\u901a\u7701", "railway": "station", "source": "KSJ2", "source_ref": "http://nlftp.mlit.go.jp/ksj/jpgis/datalist/KsjTmplt-N02-v1_1.html", "wikidata": "Q5357921", "wikipedia": "ja:\u5742\u4e0a\u99c5"}}, {"type": "node", "id": 265829533, "lat": 36.3002347, "lon": 137.1132936, "tags": {"KSJ2:LIN": "\u9ad8\u5c71\u7dda", "KSJ2:STN": "\u89d2\u5ddd", "name": "\u89d2\u5ddd", "name:en": "Tsunogawa", "name:ja": "\u89d2\u5ddd", "name:ja_kana": "\u3064\u306e\u304c\u308f", "name:ja_rm": "Tsunogawa", "name:ko": "\uce20\ub178\uac00\uc640", "note": "National-Land Numerical Information (Railway) 2007, MLIT Japan", "note:ja": "\u56fd\u571f\u6570\u5024\u60c5\u5831\uff08\u9244\u9053\u30c7\u30fc\u30bf\uff09\u5e73\u621019\u5e74\u3000\u56fd\u571f\u4ea4\u901a\u7701", "railway": "station", "source": "KSJ2", "source_ref": "http://nlftp.mlit.go.jp/ksj/jpgis/datalist/KsjTmplt-N02-v1_1.html", "wikidata": "Q5358120", "wikipedia": "ja:\u89d2\u5ddd\u99c5"}}, {"type": "node", "id": 265829727, "lat": 36.4159464, "lon": 137.1923894, "tags": {"name": "\u6749\u539f", "name:en": "Sugihara", "name:ja": "\u6749\u539f", "name:ja_kana": "\u3059\u304e\u306f\u3089", "name:ja_rm": "Sugihara", "name:ko": "\uc2a4\uae30\ud558\ub77c", "public_transport": "station", "railway": "station", "source": "KSJ2", "wikidata": "Q5358130", "wikipedia": "ja:\u6749\u539f\u99c5"}}, {"type": "node", "id": 267453152, "lat": 36.6997298, "lon": 137.1775691, "tags": {"name": "\u897f\u5bcc\u5c71", "name:en": "Nishi-Toyama", "name:ja": "\u897f\u5bcc\u5c71", "name:ja_kana": "\u306b\u3057\u3068\u3084\u307e", "name:ja_rm": "Nishi-Toyama", "name:ko": "\ub2c8\uc2dc\ud1a0\uc57c\ub9c8", "public_transport": "station", "railway": "station", "source": "KSJ2", "wikidata": "Q11627677", "wikipedia": "ja:\u897f\u5bcc\u5c71\u99c5"}}, {"type": "node", "id": 267453321, "lat": 36.664023, "lon": 137.160412, "tags": {"name": "\u901f\u661f", "name:en": "Hayahoshi", "name:ja": "\u901f\u661f", "name:ja_kana": "\u306f\u3084\u307b\u3057", "name:ja_rm": "Hayahoshi", "name:ko": "\ud558\uc57c\ud638\uc2dc", "public_transport": "station", "railway": "station", "source": "KSJ2", "wikidata": "Q5685963", "wikipedia": "ja:\u901f\u661f\u99c5"}}, {"type": "node", "id": 267453505, "lat": 36.5290972, "lon": 137.2286417, "tags": {"name": "\u6961\u539f", "name:en": "Nirehara", "name:ja": "\u6961\u539f", "name:ja_kana": "\u306b\u308c\u306f\u3089", "name:ja_rm": "Nirehara", "name:ko": "\ub2c8\ub808\ud558\ub77c", "public_transport": "station", "railway": "station", "source": "KSJ2", "wikidata": "Q7039946", "wikipedia": "ja:\u6961\u539f\u99c5"}}, {"type": "node", "id": 267453678, "lat": 36.5896473, "lon": 137.1749602, "tags": {"name": "\u6771\u516b\u5c3e", "name:en": "Higashi-Yatsuo", "name:ja": "\u6771\u516b\u5c3e", "name:ja_kana": "\u3072\u304c\u3057\u3084\u3064\u304a", "name:ja_rm": "Higashi-Yatsuo", "name:ko": "\ud788\uac00\uc2dc\uc57c\uc4f0\uc624", "railway": "station", "source": "KSJ2", "wikidata": "Q5753908", "wikipedia": "ja:\u6771\u516b\u5c3e\u99c5"}}, {"type": "node", "id": 267453749, "lat": 36.5620625, "lon": 137.211214, "tags": {"name": "\u7b39\u6d25", "name:en": "Sasazu", "name:ja": "\u7b39\u6d25", "name:ja_kana": "\u3055\u3055\u3065", "name:ja_rm": "Sasazu", "name:ko": "\uc0ac\uc0ac\uc988", "railway": "station", "source": "KSJ2", "wikidata": "Q7425014", "wikipedia": "ja:\u7b39\u6d25\u99c5"}}, {"type": "node", "id": 267453832, "lat": 36.5914783, "lon": 137.1384843, "tags": {"name": "\u8d8a\u4e2d\u516b\u5c3e", "name:en": "Etchu-Yatsuo", "name:ja": "\u8d8a\u4e2d\u516b\u5c3e", "name:ja_kana": "\u3048\u3063\u3061\u3085\u3046\u3084\u3064\u304a", "name:ja_rm": "Etch\u016b-Yatsuo", "name:ko": "\uc5e3\ucd94\uc57c\uc4f0\uc624", "railway": "station", "source": "KSJ2", "wikidata": "Q5402530", "wikipedia": "ja:\u8d8a\u4e2d\u516b\u5c3e\u99c5"}}, {"type": "node", "id": 267453905, "lat": 36.6344696, "lon": 137.1324554, "tags": {"name": "\u5343\u91cc", "name:en": "Chisato", "name:ja": "\u5343\u91cc", "name:ja_kana": "\u3061\u3055\u3068", "name:ja_rm": "Chisato", "name:ko": "\uc9c0\uc0ac\ud1a0", "public_transport": "station", "railway": "station", "source": "KSJ2", "wikidata": "Q5102058", "wikipedia": "ja:\u5343\u91cc\u99c5 (\u5bcc\u5c71\u770c)"}}, {"type": "node", "id": 267456539, "lat": 36.7228176, "lon": 136.702952, "tags": {"name": "\u5b87\u91ce\u6c17", "name:en": "Unoke", "name:ja": "\u5b87\u91ce\u6c17", "name:ko": "\uc6b0\ub178\ucf00", "public_transport": "station", "railway": "station", "source": "KSJ2", "train": "yes", "wikidata": "Q11449891", "wikipedia": "ja:\u5b87\u91ce\u6c17\u99c5"}}, {"type": "node", "id": 267456605, "lat": 36.6931516, "lon": 136.7198511, "tags": {"name": "\u80fd\u702c", "name:en": "Nose", "name:ja": "\u80fd\u702c", "name:ko": "\ub178\uc138", "public_transport": "station", "railway": "station", "source": "KSJ2", "train": "yes", "wikidata": "Q11611990", "wikipedia": "ja:\u80fd\u702c\u99c5"}}, {"type": "node", "id": 267457138, "lat": 36.6713908, "lon": 136.7404126, "tags": {"name": "\u4e2d\u6d25\u5e61", "name:en": "Naka-Tsubata", "name:ja": "\u4e2d\u6d25\u5e61", "name:ja_kana": "\u306a\u304b\u3064\u3070\u305f", "name:ja_rm": "Naka-Tsubata", "name:ko": "\ub098\uce74\uc4f0\ubc14\ud0c0", "public_transport": "station", "railway": "station", "source": "KSJ2", "train": "yes", "wikidata": "Q6960100", "wikipedia": "ja:\u4e2d\u6d25\u5e61\u99c5"}}, {"type": "node", "id": 267457150, "lat": 36.6766775, "lon": 136.7320833, "tags": {"name": "\u672c\u6d25\u5e61", "name:en": "Hon-Tsubata", "name:ja": "\u672c\u6d25\u5e61", "name:ja_kana": "\u307b\u3093\u3064\u3070\u305f", "name:ja_rm": "Hon-Tsubata", "name:ko": "\ud63c\uc4f0\ubc14\ud0c0", "public_transport": "station", "railway": "station", "source": "KSJ2", "train": "yes", "wikidata": "Q5891934", "wikipedia": "ja:\u672c\u6d25\u5e61\u99c5"}}, {"type": "node", "id": 270028149, "lat": 36.6702947, "lon": 137.2204748, "tags": {"name": "\u5357\u5bcc\u5c71", "name:en": "Minami-Toyama", "name:ja": "\u5357\u5bcc\u5c71", "name:ja_kana": "\u307f\u306a\u307f\u3068\u3084\u307e", "name:ja_rm": "Minami-Toyama", "name:ko": "\ubbf8\ub098\ubbf8\ud1a0\uc57c\ub9c8", "public_transport": "station", "railway": "station", "source": "KSJ2", "wikidata": "Q6862979", "wikipedia": "ja:\u5357\u5bcc\u5c71\u99c5"}}, {"type": "node", "id": 270028206, "lat": 36.6604912, "lon": 137.224842, "tags": {"name": "\u671d\u83dc\u753a", "name:en": "Asana-machi", "name:ja": "\u671d\u83dc\u753a", "name:ja_kana": "\u3042\u3055\u306a\u307e\u3061", "name:ja_rm": "Asana-machi", "name:ko": "\uc544\uc0ac\ub098\ub9c8\uce58", "public_transport": "station", "railway": "station", "source": "KSJ2", "wikidata": "Q4803513", "wikipedia": "ja:\u671d\u83dc\u753a\u99c5"}}, {"type": "node", "id": 270043144, "lat": 36.7034886, "lon": 137.2235899, "tags": {"light_rail": "yes", "name": "\u5965\u7530\u4e2d\u5b66\u6821\u524d", "name:en": "Okuda-Chugakko-Mae", "name:ja": "\u5965\u7530\u4e2d\u5b66\u6821\u524d", "name:ja_kana": "\u304a\u304f\u3060\u3061\u3085\u3046\u304c\u3063\u3053\u3046\u307e\u3048\u3048\u304d", "name:ja_rm": "Okuda-ch\u016bgakk\u014d-mae", "operator": "\u5bcc\u5c71\u5730\u65b9\u9244\u9053", "public_transport": "station", "railway": "station", "source": "KSJ2", "station": "light_rail", "train": "yes", "wikidata": "Q11445988", "wikipedia": "ja:\u5965\u7530\u4e2d\u5b66\u6821\u524d\u99c5"}}, {"type": "node", "id": 3453769459, "lat": 36.6781737, "lon": 137.1688744, "tags": {"name": "\u5a66\u4e2d\u9d5c\u5742", "name:en": "Fuch\u016b-Usaka", "name:ja-Hira": "\u3075\u3061\u3085\u3046\u3046\u3055\u304b", "operator": "JR\u897f\u65e5\u672c", "public_transport": "station", "railway": "station", "wikidata": "Q5506961", "wikipedia": "ja:\u5a66\u4e2d\u9d5c\u5742\u99c5"}}, {"type": "node", "id": 3977703970, "lat": 36.7021317, "lon": 137.212666, "tags": {"mapillary": "190653076538198", "name": "\u5bcc\u5c71", "name:en": "Toyama", "name:ja": "\u5bcc\u5c71", "name:ja_kana": "\u3068\u3084\u307e", "name:ja_rm": "Toyama", "name:ko": "\ud1a0\uc57c\ub9c8", "operator": "\u3042\u3044\u306e\u98a8\u3068\u3084\u307e\u9244\u9053;\u897f\u65e5\u672c\u65c5\u5ba2\u9244\u9053", "public_transport": "station", "railway": "station", "source": "KSJ2", "wikidata": "Q1053070", "wikipedia": "ja:\u5bcc\u5c71\u99c5"}}, {"type": "node", "id": 3977968053, "lat": 36.7016421, "lon": 137.2127904, "tags": {"highspeed": "yes", "name": "\u5bcc\u5c71", "name:de": "Toyama", "name:en": "Toyama", "name:ja": "\u5bcc\u5c71", "name:ja_kana": "\u3068\u3084\u307e", "name:ja_rm": "Toyama", "name:ko": "\ud1a0\uc57c\ub9c8", "operator": "\u897f\u65e5\u672c\u65c5\u5ba2\u9244\u9053", "public_transport": "station", "railway": "station", "source": "KSJ2", "wheelchair": "yes", "wikidata": "Q1053070", "wikipedia": "ja:\u5bcc\u5c71\u99c5"}}, {"type": "node", "id": 3992638465, "lat": 36.6123415, "lon": 136.6896553, "tags": {"name": "\u68ee\u672c", "name:en": "Morimoto", "name:ja": "\u68ee\u672c", "name:ja-Hira": "\u3082\u308a\u3082\u3068", "name:ko": "\ubaa8\ub9ac\ubaa8\ud1a0", "operator": "IR\u3044\u3057\u304b\u308f\u9244\u9053", "public_transport": "station", "railway": "station", "source": "KSJ2", "train": "yes", "wikidata": "Q5359635", "wikipedia": "ja:\u68ee\u672c\u99c5"}}, {"type": "node", "id": 3992671130, "lat": 36.6577079, "lon": 136.7307683, "tags": {"name": "\u6d25\u5e61", "name:en": "Tsubata", "name:ja": "\u6d25\u5e61", "name:ja_kana": "\u3064\u3070\u305f", "name:ja_rm": "Tsubata", "name:ko": "\uc4f0\ubc14\ud0c0", "operator": "IR\u3044\u3057\u304b\u308f\u9244\u9053;\u897f\u65e5\u672c\u65c5\u5ba2\u9244\u9053", "public_transport": "station", "railway": "station", "source": "KSJ2", "train": "yes", "wikidata": "Q3701490", "wikipedia": "ja:\u6d25\u5e61\u99c5"}}, {"type": "node", "id": 3992713500, "lat": 36.672509, "lon": 136.7916218, "tags": {"name": "\u5036\u5229\u4f3d\u7f85", "name:en": "Kurikara", "name:ja": "\u5036\u5229\u4f3d\u7f85", "name:ja_kana": "\u304f\u308a\u304b\u3089", "name:ja_rm": "Kurikara", "name:ko": "\uad6c\ub9ac\uce74\ub77c", "operator": "IR\u3044\u3057\u304b\u308f\u9244\u9053;\u3042\u3044\u306e\u98a8\u3068\u3084\u307e\u9244\u9053", "public_transport": "station", "railway": "station", "source": "KSJ2", "wikidata": "Q5360002", "wikipedia": "ja:\u5036\u5229\u4f3d\u7f85\u99c5"}}, {"type": "node", "id": 3992874374, "lat": 36.6726074, "lon": 136.8654291, "tags": {"name": "\u77f3\u52d5", "name:en": "Isurugi", "name:ja": "\u77f3\u52d5", "name:ja_kana": "\u3044\u3059\u308b\u304e", "name:ja_rm": "Isurugi", "name:ko": "\uc774\uc2a4\ub8e8\uae30", "operator": "\u3042\u3044\u306e\u98a8\u3068\u3084\u307e\u9244\u9053;\u897f\u65e5\u672c\u65c5\u5ba2\u9244\u9053", "public_transport": "station", "railway": "station", "source": "KSJ2", "wikidata": "Q5359671", "wikipedia": "ja:\u77f3\u52d5\u99c5"}}, {"type": "node", "id": 5154379273, "lat": 36.726594, "lon": 137.010464}, {"type": "node", "id": 6433418033, "lat": 36.5583025, "lon": 136.8785696, "tags": {"name": "\u798f\u5149", "name:en": "Fukumitsu", "name:ja": "\u798f\u5149", "name:ja_kana": "\u3075\u304f\u307f\u3064", "name:ja_rm": "Fukumitsu", "name:ko": "\ud6c4\ucfe0\ubbf8\uc4f0", "public_transport": "station", "railway": "station", "source": "KSJ2", "wikidata": "Q5507669", "wikipedia": "ja:\u798f\u5149\u99c5"}}, {"type": "node", "id": 6628640619, "lat": 36.726967, "lon": 137.01199, "tags": {"highspeed": "yes", "name": "\u65b0\u9ad8\u5ca1", "name:de": "Shin-Takaoka", "name:en": "Shin-Takaoka", "name:ja-Hira": "\u3057\u3093\u305f\u304b\u304a\u304b", "name:ko": "\uc2e0\ud0c0\uce74\uc624\uce74", "operator": "\u897f\u65e5\u672c\u65c5\u5ba2\u9244\u9053", "public_transport": "station", "railway": "station", "wikidata": "Q7497129", "wikipedia": "ja:\u65b0\u9ad8\u5ca1\u99c5"}}, {"type": "node", "id": 7780378498, "lat": 36.7035971, "lon": 137.2235491, "tags": {"light_rail": "yes", "name": "\u5965\u7530\u4e2d\u5b66\u6821\u524d", "name:en": "Okuda-Chugakko-Mae", "name:ja": "\u5965\u7530\u4e2d\u5b66\u6821\u524d", "name:ja_kana": "\u304a\u304f\u3060\u3061\u3085\u3046\u304c\u3063\u3053\u3046\u307e\u3048\u3048\u304d", "name:ja_rm": "Okuda-ch\u016bgakk\u014d-mae", "operator": "\u5bcc\u5c71\u5730\u65b9\u9244\u9053", "public_transport": "station", "railway": "station", "source": "KSJ2", "station": "light_rail", "train": "yes", "wikidata": "Q11445988", "wikipedia": "ja:\u5965\u7530\u4e2d\u5b66\u6821\u524d\u99c5"}}, {"type": "node", "id": 8142027028, "lat": 36.7004704, "lon": 137.214881, "tags": {"name": "\u96fb\u9244\u5bcc\u5c71", "name:en": "Dentetsu-Toyama", "name:ja": "\u96fb\u9244\u5bcc\u5c71", "name:ja_kana": "\u3067\u3093\u3066\u3064\u3068\u3084\u307e", "name:ja_rm": "Dentetsu-Toyama", "name:ko": "\ub374\ud14c\uce20\ud1a0\uc57c\ub9c8", "public_transport": "station", "railway": "station", "source": "KSJ2", "wikidata": "Q1053070", "wikipedia": "ja:\u96fb\u9244\u5bcc\u5c71\u99c5"}}, {"type": "node", "id": 8153881894, "lat": 36.7081098, "lon": 136.9317417, "tags": {"name": "\u798f\u5ca1", "name:en": "Fukuoka", "name:ja": "\u798f\u5ca1", "name:ja_kana": "\u3075\u304f\u304a\u304b", "name:ja_rm": "Fukuoka", "name:ko": "\ud6c4\ucfe0\uc624\uce74", "old_operator": "\u897f\u65e5\u672c\u65c5\u5ba2\u9244\u9053", "operator": "\u3042\u3044\u306e\u98a8\u3068\u3084\u307e\u9244\u9053", "public_transport": "station", "railway": "station", "source": "KSJ2", "wikidata": "Q5361592", "wikipedia": "ja:\u798f\u5ca1\u99c5"}}, {"type": "node", "id": 8153881915, "lat": 36.7241638, "lon": 136.9645753, "tags": {"name": "\u897f\u9ad8\u5ca1", "name:en": "Nishi-Takaoka", "name:ja": "\u897f\u9ad8\u5ca1", "name:ja_kana": "\u306b\u3057\u305f\u304b\u304a\u304b", "name:ja_rm": "Nishi-Takaoka", "name:ko": "\ub2c8\uc2dc\ud0c0\uce74\uc624\uce74", "operator": "\u3042\u3044\u306e\u98a8\u3068\u3084\u307e\u9244\u9053;\u897f\u65e5\u672c\u65c5\u5ba2\u9244\u9053", "public_transport": "station", "railway": "station", "source": "KSJ2", "wikidata": "Q5359705", "wikipedia": "ja:\u897f\u9ad8\u5ca1\u99c5"}}, {"type": "node", "id": 8154250381, "lat": 36.719111, "lon": 137.1657966, "tags": {"name": "\u5449\u7fbd", "name:en": "Kureha", "name:ja": "\u5449\u7fbd", "name:ja_kana": "\u304f\u308c\u306f", "name:ja_rm": "Kureha", "name:ko": "\uad6c\ub808\ud558", "operator": "\u3042\u3044\u306e\u98a8\u3068\u3084\u307e\u9244\u9053", "public_transport": "station", "railway": "station", "source": "KSJ2", "wikidata": "Q5359643", "wikipedia": "ja:\u5449\u7fbd\u99c5"}}, {"type": "node", "id": 8154250389, "lat": 36.7207246, "lon": 137.0927359, "tags": {"name": "\u5c0f\u6749", "name:en": "Kosugi", "name:ja": "\u5c0f\u6749", "name:ja_kana": "\u3053\u3059\u304e", "name:ja_rm": "Kosugi", "name:ko": "\uace0\uc2a4\uae30", "operator": "\u3042\u3044\u306e\u98a8\u3068\u3084\u307e\u9244\u9053", "public_transport": "station", "railway": "station", "source": "KSJ2", "wikidata": "Q5359711", "wikipedia": "ja:\u5c0f\u6749\u99c5 (\u5bcc\u5c71\u770c\u5c04\u6c34\u5e02)"}}, {"type": "node", "id": 8154250407, "lat": 36.7344594, "lon": 137.0547625, "tags": {"name": "\u8d8a\u4e2d\u5927\u9580", "name:en": "Etchu-Daimon", "name:ja": "\u8d8a\u4e2d\u5927\u9580", "name:ja_kana": "\u3048\u3063\u3061\u3085\u3046\u3060\u3044\u3082\u3093", "name:ja_rm": "Etch\u016b-Daimon", "name:ko": "\uc5e3\ucd94\ub2e4\uc774\ubaac", "operator": "\u3042\u3044\u306e\u98a8\u3068\u3084\u307e\u9244\u9053", "public_transport": "station", "railway": "station", "source": "KSJ2", "wikidata": "Q5359830", "wikipedia": "ja:\u8d8a\u4e2d\u5927\u9580\u99c5"}}, {"type": "node", "id": 8694285094, "lat": 36.7266195, "lon": 137.010503}, {"type": "node", "id": 8694285203, "lat": 36.7267555, "lon": 137.0105003, "tags": {"highspeed": "yes", "name": "\u65b0\u9ad8\u5ca1", "name:de": "Shin-Takaoka", "name:en": "Shin-Takaoka", "name:ja-Hira": "\u3057\u3093\u305f\u304b\u304a\u304b", "name:ko": "\uc2e0\ud0c0\uce74\uc624\uce74", "network": "\u57ce\u7aef\u7dda", "operator": "\u897f\u65e5\u672c\u65c5\u5ba2\u9244\u9053", "public_transport": "station", "railway": "station", "source": "KSJ2", "wikidata": "Q7497129", "wikipedia": "ja:\u65b0\u9ad8\u5ca1\u99c5"}}, {"type": "node", "id": 9077481461, "lat": 36.7265923, "lon": 137.0105011}, {"type": "node", "id": 9077481462, "lat": 36.7266407, "lon": 137.0105045}, {"type": "node", "id": 9082285438, "lat": 36.7268132, "lon": 137.0104813}, {"type": "node", "id": 9082285439, "lat": 36.7268111, "lon": 137.0105264}, {"type": "node", "id": 9082285445, "lat": 36.7266402, "lon": 137.0105145}, {"type": "node", "id": 9082285446, "lat": 36.7267261, "lon": 137.0105205}, {"type": "node", "id": 9082285454, "lat": 36.7267859, "lon": 137.0105246, "tags": {"entrance": "yes"}}, {"type": "node", "id": 9913811842, "lat": 36.7207895, "lon": 137.0921992}, {"type": "node", "id": 9920760331, "lat": 36.7208024, "lon": 137.0921545}, {"type": "node", "id": 9920760332, "lat": 36.7208176, "lon": 137.0922086}, {"type": "node", "id": 9920760333, "lat": 36.7207958, "lon": 137.0923066}, {"type": "node", "id": 9920760334, "lat": 36.720826, "lon": 137.0923214}, {"type": "node", "id": 9920760335, "lat": 36.7208526, "lon": 137.0922215}, {"type": "node", "id": 9920760336, "lat": 36.7209309, "lon": 137.0922497}, {"type": "node", "id": 9920760337, "lat": 36.7209002, "lon": 137.0923723}, {"type": "node", "id": 9920760338, "lat": 36.7209359, "lon": 137.0923878}, {"type": "node", "id": 9920760339, "lat": 36.7209699, "lon": 137.0922184}, {"type": "node", "id": 9920760340, "lat": 36.7209628, "lon": 137.0922149}, {"type": "node", "id": 9920760341, "lat": 36.7209785, "lon": 137.0921634}, {"type": "node", "id": 9920760342, "lat": 36.7209565, "lon": 137.0921539}, {"type": "node", "id": 9920760343, "lat": 36.7209428, "lon": 137.0922095}, {"type": "node", "id": 9920760344, "lat": 36.7208505, "lon": 137.092177}, {"type": "node", "id": 9920760345, "lat": 36.720865, "lon": 137.0921197}, {"type": "node", "id": 9920760346, "lat": 36.7208409, "lon": 137.0921093}, {"type": "node", "id": 9920760347, "lat": 36.720828, "lon": 137.0921624}, {"type": "node", "id": 9961829582, "lat": 36.7208119, "lon": 137.0923145}, {"type": "node", "id": 10970864071, "lat": 36.618765, "lon": 136.9436232, "tags": {"name": "\u6771\u91ce\u5c3b", "name:en": "Higashi-Nojiri", "name:ja": "\u6771\u91ce\u5c3b", "name:ja-Latn": "Higashi-Nojiri", "name:ja_kana": "\u3072\u304c\u3057\u306e\u3058\u308a", "name:ko": "\ud788\uac00\uc2dc\ub178\uc9c0\ub9ac", "public_transport": "station", "railway": "station", "wikidata": "Q5753783", "wikipedia": "ja:\u6771\u91ce\u5c3b\u99c5"}}, {"type": "node", "id": 10970864076, "lat": 36.5221159, "lon": 136.9017325, "tags": {"name": "\u57ce\u7aef", "name:en": "Johana", "name:ja": "\u57ce\u7aef", "name:ja-Latn": "J\u014dhana", "name:ja_kana": "\u3058\u3087\u3046\u306f\u306a", "name:ko": "\uc870\ud558\ub098", "public_transport": "station", "railway": "station", "wikidata": "Q6322201", "wikipedia": "ja:\u57ce\u7aef\u99c5"}}, {"type": "node", "id": 10970864089, "lat": 36.5382411, "lon": 136.8879204, "tags": {"name": "\u8d8a\u4e2d\u5c71\u7530", "name:en": "Etchu-Yamada", "name:ja": "\u8d8a\u4e2d\u5c71\u7530", "name:ja-Latn": "Etch\u016b-Yamada", "name:ja_kana": "\u3048\u3063\u3061\u3085\u3046\u3084\u307e\u3060", "name:ko": "\uc5e3\uce04\uc57c\ub9c8\ub2e4", "public_transport": "station", "railway": "station", "wikidata": "Q5402528", "wikipedia": "ja:\u8d8a\u4e2d\u5c71\u7530\u99c5"}}, {"type": "node", "id": 10970864111, "lat": 36.5758924, "lon": 136.8979566, "tags": {"name": "\u6771\u77f3\u9ed2", "name:en": "Higashi-Ishiguro", "name:ja": "\u6771\u77f3\u9ed2", "name:ja-Latn": "Higashi-Ishiguro", "name:ja_kana": "\u3072\u304c\u3057\u3044\u3057\u3050\u308d", "name:ko": "\ud788\uac00\uc2dc\uc774\uc2dc\uad6c\ub85c", "public_transport": "station", "railway": "station", "wikidata": "Q11528125", "wikipedia": "ja:\u6771\u77f3\u9ed2\u99c5"}}, {"type": "node", "id": 10970864135, "lat": 36.5885423, "lon": 136.9234483, "tags": {"name": "\u798f\u91ce", "name:en": "Fukuno", "name:ja": "\u798f\u91ce", "name:ja-Latn": "Fukuno", "name:ja_kana": "\u3075\u304f\u306e", "name:ko": "\ud6c4\ucfe0\ub178", "public_transport": "station", "railway": "station", "wikidata": "Q5507674", "wikipedia": "ja:\u798f\u91ce\u99c5 (\u5bcc\u5c71\u770c)"}}, {"type": "node", "id": 10970864146, "lat": 36.6066443, "lon": 136.9359313}, {"type": "node", "id": 10970864147, "lat": 36.6066271, "lon": 136.9360037}, {"type": "node", "id": 10970864148, "lat": 36.6067331, "lon": 136.9360493}, {"type": "node", "id": 10970864149, "lat": 36.6067509, "lon": 136.9359742}, {"type": "node", "id": 10970864155, "lat": 36.6365585, "lon": 136.9536929, "tags": {"name": "\u783a\u6ce2", "name:en": "Tonami", "name:ja": "\u783a\u6ce2", "name:ja-Latn": "Tonami", "name:ja_kana": "\u3068\u306a\u307f", "name:ko": "\ub3c4\ub098\ubbf8", "public_transport": "station", "railway": "station", "wikidata": "Q7820730", "wikipedia": "ja:\u783a\u6ce2\u99c5"}}, {"type": "node", "id": 10970864156, "lat": 36.6550166, "lon": 136.9702072, "tags": {"name": "\u6cb9\u7530", "name:en": "Aburaden", "name:ja": "\u6cb9\u7530", "name:ja-Latn": "Aburaden", "name:ja_kana": "\u3042\u3076\u3089\u3067\u3093", "name:ko": "\uc544\ubd80\ub77c\ub374", "operator": "\u897f\u65e5\u672c\u65c5\u5ba2\u9244\u9053", "public_transport": "station", "railway": "station", "start_date": "1900-12-29", "wikidata": "Q4670654", "wikipedia": "ja:\u6cb9\u7530\u99c5"}}, {"type": "node", "id": 10970864158, "lat": 36.6841065, "lon": 136.9838208, "tags": {"name": "\u6238\u51fa", "name:en": "Toide", "name:ja": "\u6238\u51fa", "name:ja-Latn": "Toide", "name:ja_kana": "\u3068\u3044\u3067", "name:ko": "\ub3c4\uc774\ub370", "public_transport": "station", "railway": "station", "wikidata": "Q7813344", "wikipedia": "ja:\u6238\u51fa\u99c5"}}, {"type": "node", "id": 10970864161, "lat": 36.7044327, "lon": 136.9992784, "tags": {"name": "\u6797", "name:en": "Hayashi", "name:ja": "\u6797", "name:ja-Latn": "Hayashi", "name:ja_kana": "\u306f\u3084\u3057", "name:ko": "\ud558\uc57c\uc2dc", "public_transport": "station", "railway": "station", "wikidata": "Q11533385", "wikipedia": "ja:\u6797\u99c5"}}, {"type": "node", "id": 10970864162, "lat": 36.7143863, "lon": 137.0062199, "tags": {"name": "\u4e8c\u585a", "name:en": "Futatsuka", "name:ja": "\u4e8c\u585a", "name:ja-Latn": "Futatsuka", "name:ja_kana": "\u3075\u305f\u3064\u304b", "name:ko": "\ud6c4\ud0c0\uc4f0\uce74", "public_transport": "station", "railway": "station", "wikidata": "Q5510494", "wikipedia": "ja:\u4e8c\u585a\u99c5"}}, {"type": "node", "id": 11214969841, "lat": 36.7243536, "lon": 136.9657561}, {"type": "node", "id": 11214969842, "lat": 36.7246845, "lon": 136.9656432}, {"type": "node", "id": 11214969845, "lat": 36.7241421, "lon": 136.9649575}, {"type": "node", "id": 11214969847, "lat": 36.724186, "lon": 136.9644101}, {"type": "node", "id": 11214969848, "lat": 36.7241441, "lon": 136.9649118}, {"type": "node", "id": 11214969849, "lat": 36.7241884, "lon": 136.9651684}, {"type": "node", "id": 11214969850, "lat": 36.7247499, "lon": 136.9645793}, {"type": "node", "id": 11214969851, "lat": 36.724236, "lon": 136.9652272}, {"type": "node", "id": 11214969852, "lat": 36.7243186, "lon": 136.9647204}, {"type": "node", "id": 11214969853, "lat": 36.7242578, "lon": 136.9645128}, {"type": "node", "id": 11214969854, "lat": 36.7240444, "lon": 136.9644557}, {"type": "node", "id": 11214969856, "lat": 36.7246348, "lon": 136.9654101}, {"type": "node", "id": 11214969857, "lat": 36.724912, "lon": 136.9653211}, {"type": "way", "id": 982020572, "nodes": [9082285438, 9082285439, 9082285454, 9082285446, 9082285445, 9077481462, 8694285094, 9077481461, 5154379273, 9082285438], "tags": {"building": "train_station", "network": "\u57ce\u7aef\u7dda", "operator": "\u897f\u65e5\u672c\u65c5\u5ba2\u9244\u9053", "public_transport": "station", "railway": "station", "train": "yes"}}, {"type": "way", "id": 1082494402, "nodes": [9920760331, 9913811842, 9920760332, 9920760333, 9961829582, 9920760334, 9920760335, 9920760336, 9920760337, 9920760338, 9920760339, 9920760340, 9920760341, 9920760342, 9920760343, 9920760344, 9920760345, 9920760346, 9920760347, 9920760331], "tags": {"building": "yes", "layer": "2", "public_transport": "station", "railway": "station", "train": "yes"}}, {"type": "way", "id": 1181335022, "nodes": [10970864149, 10970864148, 10970864147, 10970864146, 10970864149], "tags": {"name": "\u9ad8\u5100", "name:en": "Takagi", "name:ja": "\u9ad8\u5100", "name:ja-Latn": "Takagi", "name:ja_kana": "\u305f\u304b\u304e", "name:ko": "\ub2e4\uce74\uae30", "public_transport": "station", "railway": "station", "wikidata": "Q7677015", "wikipedia": "ja:\u9ad8\u5100\u99c5"}}, {"type": "way", "id": 1210476791, "nodes": [11214969841, 11214969842, 11214969856, 11214969857, 11214969850, 11214969852, 11214969853, 11214969847, 11214969854, 11214969848, 11214969845, 11214969849, 11214969851, 11214969841], "tags": {"public_transport": "station", "railway": "station", "train": "yes"}}]}