{"version": 0.6, "generator": "Overpass API 0.7.62.4 2390de5a", "osm3s": {"timestamp_osm_base": "2024-12-30T14:56:06Z", "copyright": "The data included in this document is from www.openstreetmap.org. The data is made available under ODbL."}, "elements": [{"type": "node", "id": 264864962, "lat": 35.4294632, "lon": 137.8167188, "tags": {"KSJ2:LIN": "\u98ef\u7530\u7dda", "KSJ2:STN": "\u5343\u4ee3", "addr:city": "\u98ef\u7530\u5e02", "addr:postcode": "399-2223 \u9577\u91ce\u770c", "addr:suburb": "\u5343\u6804", "name": "\u5343\u4ee3", "name:en": "Chiyo", "name:ja": "\u5343\u4ee3", "name:ko": "\uc9c0\uc694", "note": "National-Land Numerical Information (Railway) 2007, MLIT Japan", "note:ja": "\u56fd\u571f\u6570\u5024\u60c5\u5831\uff08\u9244\u9053\u30c7\u30fc\u30bf\uff09\u5e73\u621019\u5e74\u3000\u56fd\u571f\u4ea4\u901a\u7701", "public_transport": "station", "railway": "station", "source": "KSJ2", "source_ref": "http://nlftp.mlit.go.jp/ksj/jpgis/datalist/KsjTmplt-N02-v1_1.html", "wikidata": "Q906058", "wikipedia": "ja:\u5343\u4ee3\u99c5"}}, {"type": "node", "id": 264864966, "lat": 35.5196646, "lon": 137.8211924, "tags": {"KSJ2:LIN": "\u98ef\u7530\u7dda", "KSJ2:STN": "\u98ef\u7530", "name": "\u98ef\u7530", "name:en": "Iida", "name:ja": "\u98ef\u7530", "name:ko": "\uc774\ub2e4", "note": "National-Land Numerical Information (Railway) 2007, MLIT Japan", "note:ja": "\u56fd\u571f\u6570\u5024\u60c5\u5831\uff08\u9244\u9053\u30c7\u30fc\u30bf\uff09\u5e73\u621019\u5e74\u3000\u56fd\u571f\u4ea4\u901a\u7701", "public_transport": "station", "railway": "station", "source": "KSJ2", "source_ref": "http://nlftp.mlit.go.jp/ksj/jpgis/datalist/KsjTmplt-N02-v1_1.html", "wikidata": "Q985322", "wikipedia": "ja:\u98ef\u7530\u99c5"}}, {"type": "node", "id": 264865143, "lat": 35.4638449, "lon": 137.8277122, "tags": {"KSJ2:LIN": "\u98ef\u7530\u7dda", "KSJ2:STN": "\u6642\u53c8", "name": "\u6642\u53c8", "name:en": "Tokimata", "name:ja": "\u6642\u53c8", "name:ja-Hira": "\u3068\u304d\u307e\u305f", "name:ja-Latn": "Tokimata", "name:ko": "\ub3c4\ud0a4\ub9c8\ud0c0", "note": "National-Land Numerical Information (Railway) 2007, MLIT Japan", "note:ja": "\u56fd\u571f\u6570\u5024\u60c5\u5831\uff08\u9244\u9053\u30c7\u30fc\u30bf\uff09\u5e73\u621019\u5e74\u3000\u56fd\u571f\u4ea4\u901a\u7701", "public_transport": "station", "railway": "station", "source": "KSJ2", "source_ref": "http://nlftp.mlit.go.jp/ksj/jpgis/datalist/KsjTmplt-N02-v1_1.html", "wikidata": "Q984977", "wikipedia": "ja:\u6642\u53c8\u99c5"}}, {"type": "node", "id": 264869658, "lat": 35.5126482, "lon": 137.8091975, "tags": {"KSJ2:LIN": "\u98ef\u7530\u7dda", "KSJ2:STN": "\u5207\u77f3", "name": "\u5207\u77f3", "name:en": "Kiriishi", "name:ja": "\u5207\u77f3", "name:ko": "\uae30\ub9ac\uc774\uc2dc", "note": "National-Land Numerical Information (Railway) 2007, MLIT Japan", "note:ja": "\u56fd\u571f\u6570\u5024\u60c5\u5831\uff08\u9244\u9053\u30c7\u30fc\u30bf\uff09\u5e73\u621019\u5e74\u3000\u56fd\u571f\u4ea4\u901a\u7701", "public_transport": "station", "railway": "station", "source": "KSJ2", "source_ref": "http://nlftp.mlit.go.jp/ksj/jpgis/datalist/KsjTmplt-N02-v1_1.html", "wikidata": "Q985307", "wikipedia": "ja:\u5207\u77f3\u99c5"}}, {"type": "node", "id": 264870114, "lat": 35.4528025, "lon": 137.8156754, "tags": {"KSJ2:LIN": "\u98ef\u7530\u7dda", "KSJ2:STN": "\u5ddd\u8def", "name": "\u5ddd\u8def", "name:en": "Kawaji", "name:ja": "\u5ddd\u8def", "name:ko": "\uac00\uc640\uc9c0", "network": "JR", "note": "National-Land Numerical Information (Railway) 2007, MLIT Japan", "note:ja": "\u56fd\u571f\u6570\u5024\u60c5\u5831\uff08\u9244\u9053\u30c7\u30fc\u30bf\uff09\u5e73\u621019\u5e74\u3000\u56fd\u571f\u4ea4\u901a\u7701", "public_transport": "station", "railway": "station", "source": "KSJ2", "source_ref": "http://nlftp.mlit.go.jp/ksj/jpgis/datalist/KsjTmplt-N02-v1_1.html", "wikidata": "Q984933", "wikipedia": "ja:\u5ddd\u8def\u99c5"}}, {"type": "node", "id": 722149752, "lat": 35.4461812, "lon": 137.4289568, "tags": {"KSJ2:LIN": "\u660e\u77e5\u7dda", "KSJ2:RAS": "eb03_10234", "KSJ2:STN": "\u6771\u91ce", "KSJ2:segment": "eb02_21778", "name": "\u6771\u91ce", "name:en": "Higashino", "name:ja": "\u6771\u91ce", "name:ko": "\ud788\uac00\uc2dc\ub178", "network": "\u660e\u77e5\u7dda", "note": "National-Land Numerical Information (Railway) 2007, MLIT Japan", "note:ja": "\u56fd\u571f\u6570\u5024\u60c5\u5831\uff08\u9244\u9053\u30c7\u30fc\u30bf\uff09\u5e73\u621019\u5e74\u3000\u56fd\u571f\u4ea4\u901a\u7701", "operator": "\u660e\u77e5\u9244\u9053", "operator:website": "https://www.aketetsu.co.jp/", "public_transport": "station", "railway": "station", "source": "KSJ2", "source_ref": "http://nlftp.mlit.go.jp/ksj/jpgis/datalist/KsjTmplt-N02-v1_1.html", "website": "https://www.aketetsu.co.jp/station/higashino/", "wikidata": "Q5754116", "wikipedia": "ja:\u6771\u91ce\u99c5 (\u5c90\u961c\u770c)"}}, {"type": "node", "id": 722149909, "lat": 35.4184022, "lon": 137.4611046, "tags": {"KSJ2:LIN": "\u660e\u77e5\u7dda", "KSJ2:RAS": "eb03_10241", "KSJ2:STN": "\u98ef\u6cbc", "KSJ2:segment": "eb02_21770", "name": "\u98ef\u6cbc", "name:en": "Iinuma", "name:ja": "\u98ef\u6cbc", "name:ko": "\uc774\ub204\ub9c8", "network": "\u660e\u77e5\u7dda", "note": "National-Land Numerical Information (Railway) 2007, MLIT Japan", "note:ja": "\u56fd\u571f\u6570\u5024\u60c5\u5831\uff08\u9244\u9053\u30c7\u30fc\u30bf\uff09\u5e73\u621019\u5e74\u3000\u56fd\u571f\u4ea4\u901a\u7701", "operator": "\u660e\u77e5\u9244\u9053", "operator:website": "https://www.aketetsu.co.jp/", "public_transport": "station", "railway": "station", "source": "KSJ2", "source_ref": "http://nlftp.mlit.go.jp/ksj/jpgis/datalist/KsjTmplt-N02-v1_1.html", "website": "https://www.aketetsu.co.jp/station/iinuma/", "wikidata": "Q5994986", "wikipedia": "ja:\u98ef\u6cbc\u99c5"}}, {"type": "node", "id": 1674241891, "lat": 35.7250452, "lon": 137.6282268, "tags": {"name": "\u4e38\u5c71\u6e21", "railway": "station"}}, {"type": "node", "id": 1674242000, "lat": 35.7323089, "lon": 137.6252925, "tags": {"railway": "station"}}, {"type": "node", "id": 6025282798, "lat": 35.8439371, "lon": 137.693597, "tags": {"name": "\u6728\u66fd\u798f\u5cf6", "name:en": "Kiso-Fukushima", "name:ja": "\u6728\u66fd\u798f\u5cf6", "name:ja-Latn": "Kisofukushima", "name:ko": "\uae30\uc18c\ud6c4\ucfe0\uc2dc\ub9c8", "operator:website": "https://jr-central.co.jp/", "public_transport": "station", "railway": "station", "source": "KSJ2", "train": "yes", "website": "https://railway.jr-central.co.jp/station-guide/tokai/kiso-fukushima/index.html", "wikidata": "Q5359264", "wikipedia": "ja:\u6728\u66fd\u798f\u5cf6\u99c5"}}, {"type": "node", "id": 6033821064, "lat": 35.7840442, "lon": 137.6932571, "tags": {"addr:city": "\u4e0a\u677e\u753a", "addr:county": "\u6728\u66fd\u90e1", "addr:province": "\u9577\u91ce\u770c", "name": "\u4e0a\u677e", "name:en": "Agematsu", "network": "CF \u4e2d\u592e\u672c\u7dda", "operator": "\u6771\u6d77\u65c5\u5ba2\u9244\u9053", "operator:website": "https://jr-central.co.jp/", "public_transport": "station", "railway": "station", "source": "KSJ2", "start_date": "1910-10-05", "train": "yes", "wikidata": "Q871440", "wikipedia": "ja:\u4e0a\u677e\u99c5"}}, {"type": "node", "id": 6033934363, "lat": 35.6843918, "lon": 137.6643026, "tags": {"name": "\u5927\u6851", "name:en": "Okuwa", "operator:website": "https://jr-central.co.jp/", "public_transport": "station", "railway": "station", "source": "KSJ2", "train": "yes", "wikidata": "Q5359405", "wikipedia": "ja:\u5927\u6851\u99c5 (\u9577\u91ce\u770c)"}}, {"type": "node", "id": 6033934364, "lat": 35.6733831, "lon": 137.6364304, "tags": {"name": "\u91ce\u5c3b", "name:en": "Nojiri", "operator:website": "https://jr-central.co.jp/", "public_transport": "station", "railway": "station", "source": "KSJ2", "train": "yes", "wikidata": "Q5359695", "wikipedia": "ja:\u91ce\u5c3b\u99c5"}}, {"type": "node", "id": 6033934369, "lat": 35.697532, "lon": 137.694346, "tags": {"name": "\u9808\u539f", "name:en": "Suhara", "operator:website": "https://jr-central.co.jp/", "public_transport": "station", "railway": "station", "source": "KSJ2", "train": "yes", "wikidata": "Q5359482", "wikipedia": "ja:\u9808\u539f\u99c5"}}, {"type": "node", "id": 6033943472, "lat": 35.7330676, "lon": 137.7142695, "tags": {"name": "\u5009\u672c", "name:en": "Kuramoto", "operator:website": "https://jr-central.co.jp/", "public_transport": "station", "railway": "station", "source": "KSJ2", "train": "yes", "wikidata": "Q5359488", "wikipedia": "ja:\u5009\u672c\u99c5"}}, {"type": "node", "id": 6034012555, "lat": 35.5881746, "lon": 137.5491768, "tags": {"name": "\u7530\u7acb", "name:en": "Tadachi", "operator:website": "https://jr-central.co.jp/", "public_transport": "station", "railway": "station", "source": "KSJ2", "train": "yes", "wikidata": "Q5359428", "wikipedia": "ja:\u7530\u7acb\u99c5"}}, {"type": "node", "id": 6034012565, "lat": 35.5988145, "lon": 137.608646, "tags": {"name": "\u5357\u6728\u66fd", "name:en": "Nagiso", "name:es": "Nagiso", "operator:website": "https://jr-central.co.jp/", "public_transport": "station", "railway": "station", "source": "KSJ2", "train": "yes", "wikidata": "Q5359502", "wikipedia": "ja:\u5357\u6728\u66fd\u99c5"}}, {"type": "node", "id": 6034012584, "lat": 35.6450376, "lon": 137.6173961, "tags": {"name": "\u5341\u4e8c\u517c", "name:en": "Junikane", "operator:website": "https://jr-central.co.jp/", "public_transport": "station", "railway": "station", "source": "KSJ2", "train": "yes", "wikidata": "Q5359491", "wikipedia": "ja:\u5341\u4e8c\u517c\u99c5"}}, {"type": "node", "id": 6035931680, "lat": 35.5746826, "lon": 137.5310907, "tags": {"name": "\u5742\u4e0b", "name:en": "Sakashita", "operator:website": "https://jr-central.co.jp/", "public_transport": "station", "railway": "station", "source": "KSJ2", "train": "yes", "wikidata": "Q5359513", "wikipedia": "ja:\u5742\u4e0b\u99c5"}}, {"type": "node", "id": 6035939550, "lat": 35.5248111, "lon": 137.529763, "tags": {"name": "\u843d\u5408\u5ddd", "name:en": "Ochiaigawa", "operator:website": "https://jr-central.co.jp/", "public_transport": "station", "railway": "station", "source": "KSJ2", "train": "yes", "wikidata": "Q5359520", "wikipedia": "ja:\u843d\u5408\u5ddd\u99c5"}}, {"type": "node", "id": 6036031705, "lat": 35.500617, "lon": 137.502847, "tags": {"name": "\u4e2d\u6d25\u5ddd", "name:en": "Nakatsugawa", "name:es": "Nakatsugawa", "name:ja": "\u4e2d\u6d25\u5ddd", "operator:website": "https://jr-central.co.jp/", "public_transport": "station", "railway": "station", "ref": "CF19", "source": "KSJ2", "train": "yes", "website": "https://railway.jr-central.co.jp/station-guide/tokai/nakatsugawa/index.html", "wikidata": "Q5359511", "wikipedia": "ja:\u4e2d\u6d25\u5ddd\u99c5"}}, {"type": "node", "id": 6036032332, "lat": 35.479371, "lon": 137.4498358, "tags": {"name": "\u7f8e\u4e43\u5742\u672c", "name:en": "Minosakamoto", "name:ja": "\u7f8e\u4e43\u5742\u672c", "operator:website": "https://jr-central.co.jp/", "public_transport": "station", "railway": "station", "ref": "CF18", "source": "KSJ2", "train": "yes", "wikidata": "Q5359412", "wikipedia": "ja:\u7f8e\u4e43\u5742\u672c\u99c5"}}, {"type": "node", "id": 6050449426, "lat": 35.4552746, "lon": 137.4084816, "tags": {"mapillary": "437043987825692", "name": "\u6075\u90a3", "name:en": "Ena", "name:ja": "\u6075\u90a3", "name:ko": "\uc5d0\ub098", "network": "\u660e\u77e5\u7dda", "operator": "\u660e\u77e5\u9244\u9053", "operator:website": "https://www.aketetsu.co.jp/", "public_transport": "station", "railway": "station", "ref": "CF17", "source": "KSJ2", "train": "yes", "website": "https://railway.jr-central.co.jp/station-guide/tokai/ena/", "wheelchair": "yes", "wikidata": "Q870596", "wikipedia": "ja:\u6075\u90a3\u99c5"}}, {"type": "node", "id": 6050596385, "lat": 35.4113845, "lon": 137.3053251, "tags": {"local_ref": "1", "name": "\u91dc\u6238", "name:en": "Kamado", "name:ja": "\u91dc\u6238", "name:ko": "\uac00\ub9c8\ub3c4", "operator:website": "https://jr-central.co.jp/", "public_transport": "station", "railway": "station", "ref": "CF15", "source": "KSJ2", "train": "yes", "wikidata": "Q5359393", "wikipedia": "ja:\u91dc\u6238\u99c5"}}, {"type": "node", "id": 6050596391, "lat": 35.437688, "lon": 137.3538483, "tags": {"name": "\u6b66\u4e26", "name:en": "Takenami", "name:ja": "\u6b66\u4e26", "name:ko": "\ub2e4\ucf00\ub098\ubbf8", "operator:website": "https://jr-central.co.jp/", "public_transport": "station", "railway": "station", "ref": "CF16", "source": "KSJ2", "train": "yes", "wikidata": "Q5359525", "wikipedia": "ja:\u6b66\u4e26\u99c5"}}, {"type": "node", "id": 9198462022, "lat": 35.4807963, "lon": 137.4493333, "tags": {"name": "\u5c90\u961c\u770c\u99c5\u3001\u4eee\u79f0", "name:en": "Gifu Prefecture station(TBD)", "name:ja": "\u5c90\u961c\u770c\u99c5\u3001\u4eee\u79f0", "public_transport": "station", "railway": "station", "wikidata": "Q106837642", "wikipedia": "ja:\u5c90\u961c\u770c\u99c5"}}, {"type": "node", "id": 9525636103, "lat": 35.4409649, "lon": 137.8173682, "tags": {"KSJ2:LIN": "\u98ef\u7530\u7dda", "KSJ2:STN": "\u5929\u7adc\u5ce1", "name": "\u5929\u7adc\u5ce1", "name:en": "Tenry\u016bky\u014d", "name:ja": "\u5929\u7adc\u5ce1", "name:ko": "\ub374\ub958\ucfc4", "public_transport": "station", "railway": "station", "wikidata": "Q906304", "wikipedia": "ja:\u5929\u7adc\u5ce1\u99c5"}}]}