{"version": 0.6, "generator": "Overpass API 0.7.62.4 2390de5a", "osm3s": {"timestamp_osm_base": "2024-12-30T15:15:41Z", "copyright": "The data included in this document is from www.openstreetmap.org. The data is made available under ODbL."}, "elements": [{"type": "node", "id": 264261869, "lat": 38.3165097, "lon": 139.4498478, "tags": {"KSJ2:LIN": "\u7fbd\u8d8a\u7dda", "KSJ2:STN": "\u8d8a\u5f8c\u65e9\u5ddd", "name": "\u8d8a\u5f8c\u65e9\u5ddd", "name:en": "Echigo-Hayakawa", "name:ja": "\u8d8a\u5f8c\u65e9\u5ddd", "name:ko": "\uc5d0\uce58\uace0\ud558\uc57c\uce74\uc640", "note": "National-Land Numerical Information (Railway) 2007, MLIT Japan", "note:ja": "\u56fd\u571f\u6570\u5024\u60c5\u5831\uff08\u9244\u9053\u30c7\u30fc\u30bf\uff09\u5e73\u621019\u5e74\u3000\u56fd\u571f\u4ea4\u901a\u7701", "public_transport": "station", "railway": "station", "source": "KSJ2", "source_ref": "http://nlftp.mlit.go.jp/ksj/jpgis/datalist/KsjTmplt-N02-v1_1.html", "wikidata": "Q5332408", "wikipedia": "ja:\u8d8a\u5f8c\u65e9\u5ddd\u99c5"}}, {"type": "node", "id": 264261911, "lat": 38.4491242, "lon": 139.4903829, "tags": {"KSJ2:LIN": "\u7fbd\u8d8a\u7dda", "KSJ2:STN": "\u8d8a\u5f8c\u5bd2\u5ddd", "name": "\u8d8a\u5f8c\u5bd2\u5ddd", "name:en": "Echigo-Kangawa", "name:ja": "\u8d8a\u5f8c\u5bd2\u5ddd", "name:ko": "\uc5d0\uce58\uace0\uce78\uac00\uc640", "note": "National-Land Numerical Information (Railway) 2007, MLIT Japan", "note:ja": "\u56fd\u571f\u6570\u5024\u60c5\u5831\uff08\u9244\u9053\u30c7\u30fc\u30bf\uff09\u5e73\u621019\u5e74\u3000\u56fd\u571f\u4ea4\u901a\u7701", "public_transport": "station", "railway": "station", "source": "KSJ2", "source_ref": "http://nlftp.mlit.go.jp/ksj/jpgis/datalist/KsjTmplt-N02-v1_1.html", "wikidata": "Q5332416", "wikipedia": "ja:\u8d8a\u5f8c\u5bd2\u5ddd\u99c5"}}, {"type": "node", "id": 264261965, "lat": 38.2729581, "lon": 139.450234, "tags": {"name": "\u9593\u5cf6", "name:en": "Majima", "name:ja": "\u9593\u5cf6", "name:ko": "\ub9c8\uc9c0\ub9c8", "public_transport": "station", "railway": "station", "source": "KSJ2", "train": "yes", "wikidata": "Q6737891", "wikipedia": "ja:\u9593\u5cf6\u99c5"}}, {"type": "node", "id": 264262549, "lat": 38.3750015, "lon": 139.4585432, "tags": {"KSJ2:LIN": "\u7fbd\u8d8a\u7dda", "KSJ2:STN": "\u6851\u5ddd", "name": "\u6851\u5ddd", "name:en": "Kuwagawa", "name:ja": "\u6851\u5ddd", "name:ko": "\uad6c\uc640\uac00\uc640", "note": "National-Land Numerical Information (Railway) 2007, MLIT Japan", "note:ja": "\u56fd\u571f\u6570\u5024\u60c5\u5831\uff08\u9244\u9053\u30c7\u30fc\u30bf\uff09\u5e73\u621019\u5e74\u3000\u56fd\u571f\u4ea4\u901a\u7701", "public_transport": "station", "railway": "station", "source": "KSJ2", "source_ref": "http://nlftp.mlit.go.jp/ksj/jpgis/datalist/KsjTmplt-N02-v1_1.html", "wikidata": "Q6448806", "wikipedia": "ja:\u6851\u5ddd\u99c5"}}, {"type": "node", "id": 264262727, "lat": 38.4903993, "lon": 139.5175571, "tags": {"KSJ2:LIN": "\u7fbd\u8d8a\u7dda", "KSJ2:STN": "\u52dd\u6728", "name": "\u52dd\u6728", "name:en": "Gatsugi", "name:ja": "\u52dd\u6728", "name:ko": "\uac00\uc4f0\uae30", "note": "National-Land Numerical Information (Railway) 2007, MLIT Japan", "note:ja": "\u56fd\u571f\u6570\u5024\u60c5\u5831\uff08\u9244\u9053\u30c7\u30fc\u30bf\uff09\u5e73\u621019\u5e74\u3000\u56fd\u571f\u4ea4\u901a\u7701", "public_transport": "station", "railway": "station", "source": "KSJ2", "source_ref": "http://nlftp.mlit.go.jp/ksj/jpgis/datalist/KsjTmplt-N02-v1_1.html", "wikidata": "Q5527499", "wikipedia": "ja:\u52dd\u6728\u99c5"}}, {"type": "node", "id": 264263530, "lat": 38.4103628, "lon": 139.4683638, "tags": {"KSJ2:LIN": "\u7fbd\u8d8a\u7dda", "KSJ2:STN": "\u4eca\u5ddd", "name": "\u4eca\u5ddd", "name:en": "Imagawa", "name:ja": "\u4eca\u5ddd", "name:ko": "\uc774\ub9c8\uac00\uc640", "note": "National-Land Numerical Information (Railway) 2007, MLIT Japan", "note:ja": "\u56fd\u571f\u6570\u5024\u60c5\u5831\uff08\u9244\u9053\u30c7\u30fc\u30bf\uff09\u5e73\u621019\u5e74\u3000\u56fd\u571f\u4ea4\u901a\u7701", "public_transport": "station", "railway": "station", "source": "KSJ2", "source_ref": "http://nlftp.mlit.go.jp/ksj/jpgis/datalist/KsjTmplt-N02-v1_1.html", "wikidata": "Q11376951", "wikipedia": "ja:\u4eca\u5ddd\u99c5 (\u65b0\u6f5f\u770c)"}}, {"type": "node", "id": 264264196, "lat": 38.5140857, "lon": 139.5311433, "tags": {"KSJ2:LIN": "\u7fbd\u8d8a\u7dda", "KSJ2:STN": "\u5e9c\u5c4b", "name": "\u5e9c\u5c4b", "name:en": "Fuya", "name:ja": "\u5e9c\u5c4b", "name:ko": "\ud6c4\uc57c", "note": "National-Land Numerical Information (Railway) 2007, MLIT Japan", "note:ja": "\u56fd\u571f\u6570\u5024\u60c5\u5831\uff08\u9244\u9053\u30c7\u30fc\u30bf\uff09\u5e73\u621019\u5e74\u3000\u56fd\u571f\u4ea4\u901a\u7701", "public_transport": "station", "railway": "station", "source": "KSJ2", "source_ref": "http://nlftp.mlit.go.jp/ksj/jpgis/datalist/KsjTmplt-N02-v1_1.html", "wikidata": "Q5510961", "wikipedia": "ja:\u5e9c\u5c4b\u99c5"}}, {"type": "node", "id": 4500141823, "lat": 38.1499749, "lon": 139.4590888, "tags": {"name": "\u5e73\u6797", "name:en": "Hirabayashi", "name:ja-Hira": "\u3072\u3089\u3070\u3084\u3057", "name:ja-Latn": "Hirabayashi", "public_transport": "station", "railway": "station", "source": "KSJ2", "train": "yes", "wikidata": "Q11483132", "wikipedia": "ja:\u5e73\u6797\u99c5 (\u65b0\u6f5f\u770c)"}}, {"type": "node", "id": 5643114266, "lat": 38.5556283, "lon": 139.548666, "tags": {"name": "\u9f20\u30f6\u95a2", "name:en": "Nezugaseki", "public_transport": "station", "railway": "station", "source": "KSJ2", "train": "yes", "wikidata": "Q7021636", "wikipedia": "ja:\u9f20\u30b1\u95a2\u99c5"}}, {"type": "node", "id": 6138457049, "lat": 38.2202897, "lon": 139.4632776, "tags": {"name": "\u6751\u4e0a", "name:en": "Murakami", "name:ja-Hira": "\u3080\u3089\u304b\u307f", "name:ja-Latn": "Murakami", "public_transport": "station", "railway": "station", "source": "KSJ2", "train": "yes", "wikidata": "Q6937257", "wikipedia": "ja:\u6751\u4e0a\u99c5 (\u65b0\u6f5f\u770c)"}}, {"type": "node", "id": 6141702702, "lat": 38.1834183, "lon": 139.4593871, "tags": {"name": "\u5ca9\u8239\u753a", "name:en": "Iwafunemachi", "name:ja-Hira": "\u3044\u308f\u3075\u306d\u307e\u3061", "name:ja-Latn": "Iwafunemachi", "public_transport": "station", "railway": "station", "source": "KSJ2", "train": "yes", "wikidata": "Q6100285", "wikipedia": "ja:\u5ca9\u8239\u753a\u99c5"}}]}