{"version": 0.6, "generator": "Overpass API 0.7.62.4 2390de5a", "osm3s": {"timestamp_osm_base": "2024-12-30T15:15:41Z", "copyright": "The data included in this document is from www.openstreetmap.org. The data is made available under ODbL."}, "elements": [{"type": "node", "id": 240509491, "lat": 36.370781, "lon": 140.4762395, "tags": {"name": "\u6c34\u6238", "name:en": "Mito", "name:ja": "\u6c34\u6238", "name:ja-Hira": "\u307f\u3068", "name:ja-Latn": "Mito", "public_transport": "station", "railway": "station", "source": "KSJ2", "wikidata": "Q909499", "wikipedia": "ja:\u6c34\u6238\u99c5"}}, {"type": "node", "id": 263168723, "lat": 36.7708676, "lon": 140.3506722, "tags": {"name": "\u5e38\u9678\u5927\u5b50", "name:en": "Hitachi-Daigo", "name:ja-Hira": "\u3072\u305f\u3061\u3060\u3044\u3054", "name:ja-Latn": "Hitachi-Daigo", "public_transport": "station", "railway": "station", "source": "KSJ2", "train": "yes", "wikidata": "Q11481693", "wikipedia": "ja:\u5e38\u9678\u5927\u5b50\u99c5"}}, {"type": "node", "id": 263171062, "lat": 36.579092, "lon": 140.3744964, "tags": {"name": "\u7389\u5ddd\u6751", "name:en": "Tamagawamura", "name:ja-Hira": "\u305f\u307e\u304c\u308f\u3080\u3089", "name:ja-Latn": "Tamagawamura", "public_transport": "station", "railway": "station", "source": "KSJ2", "train": "yes", "wikidata": "Q7680541", "wikipedia": "ja:\u7389\u5ddd\u6751\u99c5"}}, {"type": "node", "id": 263173754, "lat": 36.7544103, "lon": 140.3795927, "tags": {"name": "\u888b\u7530", "name:en": "Fukuroda", "name:ja-Hira": "\u3075\u304f\u308d\u3060", "name:ja-Latn": "Fukuroda", "public_transport": "station", "railway": "station", "source": "KSJ2", "train": "yes", "wikidata": "Q5507709", "wikipedia": "ja:\u888b\u7530\u99c5"}}, {"type": "node", "id": 264412594, "lat": 36.3733104, "lon": 140.2460444, "tags": {"name": "\u7b20\u9593", "name:en": "Kasama", "name:ko": "\uac00\uc0ac\ub9c8", "public_transport": "station", "railway": "station", "source": "KSJ2", "train": "yes", "wikidata": "Q6373988", "wikipedia": "ja:\u7b20\u9593\u99c5"}}, {"type": "node", "id": 264412596, "lat": 36.3686231, "lon": 140.2145322, "tags": {"name": "\u7a32\u7530", "name:en": "Inada", "name:ja": "\u7a32\u7530", "name:ko": "\uc774\ub098\ub2e4", "public_transport": "station", "railway": "station", "source": "KSJ2", "train": "yes", "wikidata": "Q6013353", "wikipedia": "ja:\u7a32\u7530\u99c5"}}, {"type": "node", "id": 264412753, "lat": 36.3595968, "lon": 140.1082972, "tags": {"name": "\u5ca9\u702c", "name:en": "Iwase", "name:ja-Hira": "\u3044\u308f\u305b", "name:ja-Latn": "Iwase", "name:ko": "\uc774\uc640\uc138", "public_transport": "station", "railway": "station", "source": "KSJ2", "train": "yes", "wikidata": "Q6100731", "wikipedia": "ja:\u5ca9\u702c\u99c5"}}, {"type": "node", "id": 823274691, "lat": 36.5336707, "lon": 140.1454147, "tags": {"name": "\u7b39\u539f\u7530", "name:en": "Sasaharada", "name:ja": "\u7b39\u539f\u7530", "name:ja_rm": "Sasaharada", "name:ko": "\uc0ac\uc0ac\ud558\ub77c\ub2e4", "note": "National-Land Numerical Information (Railway) 2007, MLIT Japan", "note:ja": "\u56fd\u571f\u6570\u5024\u60c5\u5831\uff08\u9244\u9053\u30c7\u30fc\u30bf\uff09\u5e73\u621019\u5e74\u3000\u56fd\u571f\u4ea4\u901a\u7701", "operator": "\u771f\u5ca1\u9435\u9053", "operator:en": "Mooka Railway", "public_transport": "station", "railway": "station", "source": "KSJ2", "source_ref": "http://nlftp.mlit.go.jp/ksj/jpgis/datalist/KsjTmplt-N02-v1_1.html", "wikidata": "Q7424980", "wikipedia": "ja:\u7b39\u539f\u7530\u99c5"}}, {"type": "node", "id": 823274752, "lat": 36.4632043, "lon": 140.0887212, "tags": {"name": "\u76ca\u5b50", "name:en": "Mashiko", "name:ja": "\u76ca\u5b50", "name:ja_rm": "Mashiko", "name:ko": "\ub9c8\uc2dc\ucf54", "note": "National-Land Numerical Information (Railway) 2007, MLIT Japan", "note:ja": "\u56fd\u571f\u6570\u5024\u60c5\u5831\uff08\u9244\u9053\u30c7\u30fc\u30bf\uff09\u5e73\u621019\u5e74\u3000\u56fd\u571f\u4ea4\u901a\u7701", "operator": "\u771f\u5ca1\u9435\u9053", "operator:en": "Mooka Railway", "public_transport": "station", "railway": "station", "source": "KSJ2", "source_ref": "http://nlftp.mlit.go.jp/ksj/jpgis/datalist/KsjTmplt-N02-v1_1.html", "wikidata": "Q6783153", "wikipedia": "ja:\u76ca\u5b50\u99c5"}}, {"type": "node", "id": 823275153, "lat": 36.4922043, "lon": 140.0944136, "tags": {"name": "\u4e03\u4e95", "name:en": "Nanai", "name:ja": "\u4e03\u4e95", "name:ja_rm": "Nanai", "name:ko": "\ub098\ub098\uc774", "note": "National-Land Numerical Information (Railway) 2007, MLIT Japan", "note:ja": "\u56fd\u571f\u6570\u5024\u60c5\u5831\uff08\u9244\u9053\u30c7\u30fc\u30bf\uff09\u5e73\u621019\u5e74\u3000\u56fd\u571f\u4ea4\u901a\u7701", "operator": "\u771f\u5ca1\u9435\u9053", "operator:en": "Mooka Railway", "public_transport": "station", "railway": "station", "source": "KSJ2", "source_ref": "http://nlftp.mlit.go.jp/ksj/jpgis/datalist/KsjTmplt-N02-v1_1.html", "wikidata": "Q6962361", "wikipedia": "ja:\u4e03\u4e95\u99c5"}}, {"type": "node", "id": 823275182, "lat": 36.4393792, "lon": 140.002758, "tags": {"name": "\u771f\u5ca1", "name:en": "Mooka", "name:ja": "\u771f\u5ca1", "name:ja_rm": "Mooka", "name:ko": "\ubaa8\uce74", "note": "National-Land Numerical Information (Railway) 2007, MLIT Japan", "operator": "\u771f\u5ca1\u9435\u9053", "operator:en": "Mooka Railway", "public_transport": "station", "railway": "station", "source": "KSJ2", "source_ref": "http://nlftp.mlit.go.jp/ksj/jpgis/datalist/KsjTmplt-N02-v1_1.html", "wikidata": "Q6907305", "wikipedia": "ja:\u771f\u5ca1\u99c5"}}, {"type": "node", "id": 823275908, "lat": 36.5307389, "lon": 140.1814246, "tags": {"name": "\u8302\u6728", "name:en": "Motegi", "name:ja": "\u8302\u6728", "name:ja_rm": "Motegi", "name:ko": "\ubaa8\ud14c\uae30", "note": "National-Land Numerical Information (Railway) 2007, MLIT Japan", "note:ja": "\u56fd\u571f\u6570\u5024\u60c5\u5831\uff08\u9244\u9053\u30c7\u30fc\u30bf\uff09\u5e73\u621019\u5e74\u3000\u56fd\u571f\u4ea4\u901a\u7701", "operator": "\u771f\u5ca1\u9435\u9053", "operator:en": "Mooka Railway", "public_transport": "station", "railway": "station", "source": "KSJ2", "source_ref": "http://nlftp.mlit.go.jp/ksj/jpgis/datalist/KsjTmplt-N02-v1_1.html", "wikidata": "Q6917169", "wikipedia": "ja:\u8302\u6728\u99c5"}}, {"type": "node", "id": 823276794, "lat": 36.4533933, "lon": 140.0487194, "tags": {"KSJ2:LIN": "\u771f\u5ca1\u7dda", "KSJ2:RAS": "eb03_3381", "KSJ2:STN": "\u897f\u7530\u4e95", "KSJ2:segment": "eb02_6862", "name": "\u897f\u7530\u4e95", "name:en": "Nishidai", "name:ja": "\u897f\u7530\u4e95", "name:ja_rm": "Nishidai", "name:ko": "\ub2c8\uc2dc\ub2e4\uc774", "note": "National-Land Numerical Information (Railway) 2007, MLIT Japan", "note:ja": "\u56fd\u571f\u6570\u5024\u60c5\u5831\uff08\u9244\u9053\u30c7\u30fc\u30bf\uff09\u5e73\u621019\u5e74\u3000\u56fd\u571f\u4ea4\u901a\u7701", "operator": "\u771f\u5ca1\u9435\u9053", "operator:en": "Mooka Railway", "public_transport": "station", "railway": "station", "source": "KSJ2", "source_ref": "http://nlftp.mlit.go.jp/ksj/jpgis/datalist/KsjTmplt-N02-v1_1.html", "wikidata": "Q337972", "wikipedia": "ja:\u897f\u7530\u4e95\u99c5"}}, {"type": "node", "id": 823276903, "lat": 36.4557094, "lon": 140.0676491, "tags": {"KSJ2:LIN": "\u771f\u5ca1\u7dda", "KSJ2:RAS": "eb03_3380", "KSJ2:STN": "\u5317\u5c71", "KSJ2:segment": "eb02_6859", "name": "\u5317\u5c71", "name:en": "Kitayama", "name:ja": "\u5317\u5c71", "name:ja_rm": "Kitayama", "name:ko": "\uae30\ud0c0\uc57c\ub9c8", "note": "National-Land Numerical Information (Railway) 2007, MLIT Japan", "note:ja": "\u56fd\u571f\u6570\u5024\u60c5\u5831\uff08\u9244\u9053\u30c7\u30fc\u30bf\uff09\u5e73\u621019\u5e74\u3000\u56fd\u571f\u4ea4\u901a\u7701", "operator": "\u771f\u5ca1\u9435\u9053", "operator:en": "Mooka Railway", "public_transport": "station", "railway": "station", "source": "KSJ2", "source_ref": "http://nlftp.mlit.go.jp/ksj/jpgis/datalist/KsjTmplt-N02-v1_1.html", "wikidata": "Q6417936", "wikipedia": "ja:\u5317\u5c71\u99c5 (\u6803\u6728\u770c)"}}, {"type": "node", "id": 823277344, "lat": 36.5292839, "lon": 140.1559496, "tags": {"name": "\u5929\u77e2\u5834", "name:en": "Ten-yaba", "name:ja": "\u5929\u77e2\u5834", "name:ja_rm": "Ten'yaba", "name:ko": "\ub374\uc57c\ubc14", "note": "National-Land Numerical Information (Railway) 2007, MLIT Japan", "note:ja": "\u56fd\u571f\u6570\u5024\u60c5\u5831\uff08\u9244\u9053\u30c7\u30fc\u30bf\uff09\u5e73\u621019\u5e74\u3000\u56fd\u571f\u4ea4\u901a\u7701", "operator": "\u771f\u5ca1\u9435\u9053", "operator:en": "Mooka Railway", "public_transport": "station", "railway": "station", "source": "KSJ2", "source_ref": "http://nlftp.mlit.go.jp/ksj/jpgis/datalist/KsjTmplt-N02-v1_1.html", "wikidata": "Q7699102", "wikipedia": "ja:\u5929\u77e2\u5834\u99c5"}}, {"type": "node", "id": 823277385, "lat": 36.5381552, "lon": 140.1103587, "tags": {"name": "\u5e02\u5859", "name:en": "Ichihana", "name:ja": "\u5e02\u5859", "name:ja_rm": "Ichihana", "name:ko": "\uc774\uce58\ud558\ub098", "note": "National-Land Numerical Information (Railway) 2007, MLIT Japan", "note:ja": "\u56fd\u571f\u6570\u5024\u60c5\u5831\uff08\u9244\u9053\u30c7\u30fc\u30bf\uff09\u5e73\u621019\u5e74\u3000\u56fd\u571f\u4ea4\u901a\u7701", "operator": "\u771f\u5ca1\u9435\u9053", "operator:en": "Mooka Railway", "public_transport": "station", "railway": "station", "source": "KSJ2", "source_ref": "http://nlftp.mlit.go.jp/ksj/jpgis/datalist/KsjTmplt-N02-v1_1.html", "wikidata": "Q5986130", "wikipedia": "ja:\u5e02\u5859\u99c5"}}, {"type": "node", "id": 823277442, "lat": 36.5158951, "lon": 140.0899057, "tags": {"name": "\u591a\u7530\u7f85", "name:en": "Tatara", "name:ja": "\u591a\u7530\u7f85", "name:ja_rm": "Tatara", "name:ko": "\ub2e4\ud0c0\ub77c", "note": "National-Land Numerical Information (Railway) 2007, MLIT Japan", "note:ja": "\u56fd\u571f\u6570\u5024\u60c5\u5831\uff08\u9244\u9053\u30c7\u30fc\u30bf\uff09\u5e73\u621019\u5e74\u3000\u56fd\u571f\u4ea4\u901a\u7701", "operator": "\u771f\u5ca1\u9435\u9053", "operator:en": "Mooka Railway", "public_transport": "station", "railway": "station", "source": "KSJ2", "source_ref": "http://nlftp.mlit.go.jp/ksj/jpgis/datalist/KsjTmplt-N02-v1_1.html", "wikidata": "Q7687886", "wikipedia": "ja:\u591a\u7530\u7f85\u99c5"}}, {"type": "node", "id": 823277559, "lat": 36.4490851, "lon": 140.0138697, "tags": {"KSJ2:LIN": "\u771f\u5ca1\u7dda", "KSJ2:RAS": "eb03_3383", "KSJ2:STN": "\u5317\u771f\u5ca1", "KSJ2:segment": "eb02_6856", "name": "\u5317\u771f\u5ca1", "name:en": "Kita-Moka", "name:ja": "\u5317\u771f\u5ca1", "name:ja_rm": "Kita-M\u014dka", "name:ko": "\uae30\ud0c0\ubaa8\uce74", "note": "National-Land Numerical Information (Railway) 2007, MLIT Japan", "note:ja": "\u56fd\u571f\u6570\u5024\u60c5\u5831\uff08\u9244\u9053\u30c7\u30fc\u30bf\uff09\u5e73\u621019\u5e74\u3000\u56fd\u571f\u4ea4\u901a\u7701", "operator": "\u771f\u5ca1\u9435\u9053", "operator:en": "Mooka Railway", "public_transport": "station", "railway": "station", "source": "KSJ2", "source_ref": "http://nlftp.mlit.go.jp/ksj/jpgis/datalist/KsjTmplt-N02-v1_1.html", "wikidata": "Q6417569", "wikipedia": "ja:\u5317\u771f\u5ca1\u99c5"}}, {"type": "node", "id": 2398353601, "lat": 36.3704036, "lon": 140.3533152, "tags": {"name": "\u5185\u539f", "name:en": "Uchihara", "name:ja": "\u5185\u539f", "name:ja-Hira": "\u3046\u3061\u306f\u3089", "name:ja-Latn": "Uchihara", "operator": "\u6771\u65e5\u672c\u65c5\u5ba2\u9244\u9053", "operator:ja": "\u6771\u65e5\u672c\u65c5\u5ba2\u9244\u9053", "public_transport": "station", "railway": "station", "source": "GSImaps/ort", "wikidata": "Q5365679", "wikipedia": "ja:\u5185\u539f\u99c5"}}, {"type": "node", "id": 2398353606, "lat": 36.3819368, "lon": 140.4152492, "tags": {"name": "\u8d64\u585a", "name:en": "Akatsuka", "name:ja": "\u8d64\u585a", "name:ja-Hira": "\u3042\u304b\u3064\u304b", "name:ja-Latn": "Akatsuka", "operator": "\u6771\u65e5\u672c\u65c5\u5ba2\u9244\u9053", "operator:ja": "\u6771\u65e5\u672c\u65c5\u5ba2\u9244\u9053", "public_transport": "station", "railway": "station", "source": "GSImaps/ort", "wikidata": "Q865269", "wikipedia": "ja:\u8d64\u585a\u99c5"}}, {"type": "node", "id": 2493510748, "lat": 36.3730982, "lon": 140.4562281, "tags": {"name": "\u5055\u697d\u5712", "name:en": "Kairakuen", "name:ja": "\u5055\u697d\u5712", "name:ja-Hira": "\u304b\u3044\u3089\u304f\u3048\u3093", "name:ja-Latn": "Kairakuen", "network": "\u5e38\u78d0\u7dda", "operator": "\u6771\u65e5\u672c\u65c5\u5ba2\u9244\u9053", "operator:ja": "\u6771\u65e5\u672c\u65c5\u5ba2\u9244\u9053", "public_transport": "station", "railway": "station", "source": "GSImaps/ort", "wikidata": "Q6348234", "wikipedia": "ja:\u5055\u697d\u5712\u99c5"}}, {"type": "node", "id": 3730492328, "lat": 36.355239, "lon": 140.1434163, "tags": {"name": "\u7fbd\u9ed2", "name:en": "Haguro", "name:ja": "\u7fbd\u9ed2", "name:ja_rm": "Haguro", "name:ko": "\ud558\uad6c\ub85c", "operator": "\u6771\u65e5\u672c\u65c5\u5ba2\u9244\u9053", "operator:en": "East Japan Railway Company", "railway": "station", "source": "KSJ2", "wikidata": "Q5638843", "wikipedia": "ja:\u7fbd\u9ed2\u99c5 (\u8328\u57ce\u770c)"}}, {"type": "node", "id": 3799563057, "lat": 36.3944346, "lon": 140.5242433, "tags": {"name": "\u52dd\u7530", "name:en": "Katsuta", "name:ja": "\u52dd\u7530", "name:ja-Hira": "\u304b\u3064\u305f", "name:ja-Latn": "Katsuta", "operator": "\u6771\u65e5\u672c\u65c5\u5ba2\u9244\u9053", "operator:ja": "\u6771\u65e5\u672c\u65c5\u5ba2\u9244\u9053", "public_transport": "station", "railway": "station", "source": "GSImaps/ort", "wikidata": "Q859695", "wikipedia": "ja:\u52dd\u7530\u99c5"}}, {"type": "node", "id": 5604726300, "lat": 36.472522, "lon": 140.4675919, "tags": {"name": "\u5e38\u9678\u9d3b\u5de3", "name:en": "Hitachi-Konosu", "public_transport": "station", "railway": "station", "source": "GSImaps/ort", "train": "yes", "wikidata": "Q5871600", "wikipedia": "ja:\u5e38\u9678\u9d3b\u5de3\u99c5"}}, {"type": "node", "id": 5604726675, "lat": 36.4554063, "lon": 140.4924412, "tags": {"name": "\u4e0a\u83c5\u8c37", "name:en": "Kami-Sugaya", "name:ja-Hira": "\u304b\u307f\u3059\u304c\u3084", "name:ja-Latn": "Kamisugaya", "public_transport": "station", "railway": "station", "source": "GSImaps/ort", "train": "yes", "wikidata": "Q6357196", "wikipedia": "ja:\u4e0a\u83c5\u8c37\u99c5"}}, {"type": "node", "id": 5604726708, "lat": 36.4458648, "lon": 140.4926363, "tags": {"name": "\u4e2d\u83c5\u8c37", "name:en": "Naka-Sugaya", "name:ja-Hira": "\u306a\u304b\u3059\u304c\u3084", "name:ja-Latn": "Nakasugaya", "public_transport": "station", "railway": "station", "source": "GSImaps/ort", "train": "yes", "wikidata": "Q6960095", "wikipedia": "ja:\u4e2d\u83c5\u8c37\u99c5"}}, {"type": "node", "id": 5604726727, "lat": 36.435349, "lon": 140.4940613, "tags": {"name": "\u4e0b\u83c5\u8c37", "name:en": "Shimo-Sugaya", "name:ja-Hira": "\u3057\u3082\u3059\u304c\u3084", "name:ja-Latn": "Shimosugaya", "public_transport": "station", "railway": "station", "source": "GSImaps/ort", "train": "yes", "wikidata": "Q7496935", "wikipedia": "ja:\u4e0b\u83c5\u8c37\u99c5"}}, {"type": "node", "id": 5604930900, "lat": 36.4981274, "lon": 140.449723, "tags": {"name": "\u74dc\u9023", "name:en": "Urizura", "name:ja-Hira": "\u3046\u308a\u3065\u3089", "name:ja-Latn": "Urizura", "public_transport": "station", "railway": "station", "source": "GSImaps/ort", "train": "yes", "wikidata": "Q7900656", "wikipedia": "ja:\u74dc\u9023\u99c5"}}, {"type": "node", "id": 5604934663, "lat": 36.4773699, "lon": 140.4984936, "tags": {"name": "\u5357\u9152\u51fa", "name:en": "Minami-Sakaide", "public_transport": "station", "railway": "station", "source": "GSImaps/ort", "train": "yes", "wikidata": "Q6862962", "wikipedia": "ja:\u5357\u9152\u51fa\u99c5"}}, {"type": "node", "id": 5604941424, "lat": 36.4857123, "lon": 140.5034141, "tags": {"name": "\u984d\u7530", "name:en": "Nukada", "public_transport": "station", "railway": "station", "source": "GSImaps/ort", "train": "yes", "wikidata": "Q7068845", "wikipedia": "ja:\u984d\u7530\u99c5 (\u8328\u57ce\u770c)"}}, {"type": "node", "id": 5609791263, "lat": 36.530947, "lon": 140.5281012, "tags": {"name": "\u5e38\u9678\u592a\u7530", "name:en": "Hitachi-Ota", "public_transport": "station", "railway": "station", "source": "GSImaps/ort", "train": "yes", "wikidata": "Q1305575", "wikipedia": "ja:\u5e38\u9678\u592a\u7530\u99c5"}}, {"type": "node", "id": 5609791274, "lat": 36.5198585, "lon": 140.5250904, "tags": {"name": "\u8c37\u6cb3\u539f", "name:en": "Yagawara", "public_transport": "station", "railway": "station", "source": "GSImaps/ort", "train": "yes", "wikidata": "Q8046691", "wikipedia": "ja:\u8c37\u6cb3\u539f\u99c5"}}, {"type": "node", "id": 5609791293, "lat": 36.5082505, "lon": 140.5171357, "tags": {"name": "\u6cb3\u5408", "name:en": "Kawai", "public_transport": "station", "railway": "station", "source": "GSImaps/ort", "train": "yes", "wikidata": "Q6379532", "wikipedia": "ja:\u6cb3\u5408\u99c5"}}, {"type": "node", "id": 5648101311, "lat": 36.3618876, "lon": 140.5157087, "tags": {"name": "\u6771\u6c34\u6238", "name:en": "Higashi-Mito", "name:ja": "\u6771\u6c34\u6238", "name:ja-Hira": "\u3072\u304c\u3057\u307f\u3068", "name:ja-Latn": "Higashimito", "public_transport": "station", "railway": "station", "source": "KSJ2", "wikidata": "Q11527562", "wikipedia": "ja:\u6771\u6c34\u6238\u99c5"}}, {"type": "node", "id": 5660663159, "lat": 36.4298353, "lon": 140.5403025, "tags": {"name": "\u4f50\u548c", "name:en": "Sawa", "name:ja": "\u4f50\u548c", "name:ja-Hira": "\u3055\u308f", "name:ja-Latn": "Sawa", "operator": "\u6771\u65e5\u672c\u65c5\u5ba2\u9244\u9053", "operator:ja": "\u6771\u65e5\u672c\u65c5\u5ba2\u9244\u9053", "public_transport": "station", "railway": "station", "source": "GSImaps/ort", "wikidata": "Q8011234", "wikipedia": "ja:\u4f50\u548c\u99c5"}}, {"type": "node", "id": 5685127415, "lat": 36.3825755, "lon": 140.5337861, "tags": {"name": "\u91d1\u4e0a", "name:en": "Kaneage", "name:ja-Hira": "\u304b\u306d\u3042\u3052", "name:ja-Latn": "Kaneage", "public_transport": "station", "railway": "station", "source": "GSImaps/ort", "train": "yes", "wikidata": "Q6361889", "wikipedia": "ja:\u91d1\u4e0a\u99c5"}}, {"type": "node", "id": 5685127419, "lat": 36.3879522, "lon": 140.524735, "tags": {"name": "\u5de5\u6a5f\u524d", "old_name": "\u65e5\u5de5\u524d", "old_name:en": "Nikkomae", "old_name:ja-Hira": "\u306b\u3063\u3053\u3046\u307e\u3048", "old_name:ja-Latn": "Nikk\u014dmae", "public_transport": "station", "railway": "station", "source": "GSImaps/ort", "train": "yes", "wikidata": "Q7035321", "wikipedia": "ja:\u5de5\u6a5f\u524d\u99c5"}}, {"type": "node", "id": 6050594487, "lat": 36.4043824, "lon": 140.4829687, "tags": {"name": "\u5e38\u9678\u6d25\u7530", "name:en": "Hitachi-Tsuda", "name:ja-Hira": "\u3072\u305f\u3061\u3064\u3060", "name:ja-Latn": "Hitachitsuda", "public_transport": "station", "railway": "station", "train": "yes", "wikidata": "Q5871609", "wikipedia": "ja:\u5e38\u9678\u6d25\u7530\u99c5"}}, {"type": "node", "id": 6050595329, "lat": 36.5060366, "lon": 140.4381637, "tags": {"name": "\u9759", "name:en": "Shizu", "name:ja-Hira": "\u3057\u305a", "name:ja-Latn": "Shizu", "public_transport": "station", "railway": "station", "train": "yes", "wikidata": "Q7499473", "wikipedia": "ja:\u9759\u99c5"}}, {"type": "node", "id": 6050595988, "lat": 36.4238012, "lon": 140.4899709, "tags": {"name": "\u5f8c\u53f0", "name:en": "Godai", "name:ja-Hira": "\u3054\u3060\u3044", "name:ja-Latn": "Godai", "public_transport": "station", "railway": "station", "train": "yes", "wikidata": "Q5576119", "wikipedia": "ja:\u5f8c\u53f0\u99c5"}}, {"type": "node", "id": 6050596751, "lat": 36.384134, "lon": 140.484499, "tags": {"name": "\u5e38\u9678\u9752\u67f3", "name:en": "Hitachi-Aoyagi", "name:ja-Hira": "\u3072\u305f\u3061\u3042\u304a\u3084\u304e", "name:ja-Latn": "Hitachiaoyagi", "public_transport": "station", "railway": "station", "source": "GSImaps/ort", "train": "yes", "wikidata": "Q5871587", "wikipedia": "ja:\u5e38\u9678\u9752\u67f3\u99c5"}}, {"type": "node", "id": 6101409049, "lat": 36.6504536, "lon": 140.1550367, "tags": {"name": "\u70cf\u5c71", "name:en": "Karasuyama", "name:ja-Hira": "\u304b\u3089\u3059\u3084\u307e", "name:ja-Latn": "Karasuyama", "public_transport": "station", "railway": "station", "source": "KSJ2", "train": "yes", "wikidata": "Q6368662", "wikipedia": "ja:\u70cf\u5c71\u99c5"}}, {"type": "node", "id": 6101409050, "lat": 36.6485524, "lon": 140.1384258, "tags": {"name": "\u6edd", "name:en": "Taki", "name:ja-Hira": "\u305f\u304d", "name:ja-Latn": "Taki", "public_transport": "station", "railway": "station", "source": "KSJ2", "train": "yes", "wikidata": "Q7678283", "wikipedia": "ja:\u6edd\u99c5 (\u6803\u6728\u770c)"}}, {"type": "node", "id": 6101409051, "lat": 36.642957, "lon": 140.1168501, "tags": {"name": "\u5c0f\u5859", "name:en": "Kobana", "name:ja-Hira": "\u3053\u3070\u306a", "name:ja-Latn": "Kobana", "public_transport": "station", "railway": "station", "source": "KSJ2", "train": "yes", "wikidata": "Q6424264", "wikipedia": "ja:\u5c0f\u5859\u99c5"}}, {"type": "node", "id": 6101409060, "lat": 36.6564475, "lon": 140.0956392, "tags": {"name": "\u5927\u91d1", "name:en": "Ogane", "name:ja-Hira": "\u304a\u304a\u304c\u306d", "name:ja-Latn": "\u014cgane", "public_transport": "station", "railway": "station", "source": "KSJ2", "train": "yes", "wikidata": "Q8081465", "wikipedia": "ja:\u5927\u91d1\u99c5"}}, {"type": "node", "id": 6101410890, "lat": 36.6664557, "lon": 140.0517261, "tags": {"name": "\u9d3b\u91ce\u5c71", "name:en": "Konoyama", "name:ja-Hira": "\u3053\u3046\u306e\u3084\u307e", "name:ja-Latn": "K\u014dnoyama", "public_transport": "station", "railway": "station", "source": "KSJ2", "train": "yes", "wikidata": "Q6455244", "wikipedia": "ja:\u9d3b\u91ce\u5c71\u99c5"}}, {"type": "node", "id": 6101410916, "lat": 36.6572135, "lon": 140.0298581, "tags": {"name": "\u4ec1\u4e95\u7530", "name:en": "Niita", "name:ja": "\u4ec1\u4e95\u7530", "name:ja-Hira": "\u306b\u3044\u305f", "name:ja-Latn": "Niita", "name:ko": "\ub2c8\ud0c0", "public_transport": "station", "railway": "station", "source": "KSJ2", "train": "yes", "wikidata": "Q7034487", "wikipedia": "ja:\u4ec1\u4e95\u7530\u99c5 (\u6803\u6728\u770c)"}}, {"type": "node", "id": 6101410937, "lat": 36.6499587, "lon": 140.0085667, "tags": {"name": "\u4e0b\u91ce\u82b1\u5ca1", "name:en": "Shimotsuke-Hanaoka", "name:ja": "\u4e0b\u91ce\u82b1\u5ca1", "name:ja-Hira": "\u3057\u3082\u3064\u3051\u306f\u306a\u304a\u304b", "name:ja-Latn": "Shimotsuke-Hanaoka", "name:ko": "\uc2dc\ubaa8\uc4f0\ucf00\ud558\ub098\uc624\uce74", "public_transport": "station", "railway": "station", "source": "KSJ2", "train": "yes", "wikidata": "Q7497017", "wikipedia": "ja:\u4e0b\u91ce\u82b1\u5ca1\u99c5"}}, {"type": "node", "id": 6101775679, "lat": 36.6058813, "lon": 140.3902541, "tags": {"name": "\u91ce\u4e0a\u539f", "name:en": "Nogamihara", "name:ja-Hira": "\u306e\u304c\u307f\u306f\u3089", "name:ja-Latn": "Nogamihara", "public_transport": "station", "railway": "station", "source": "KSJ2", "train": "yes", "wikidata": "Q11644956", "wikipedia": "ja:\u91ce\u4e0a\u539f\u99c5"}}, {"type": "node", "id": 6104557870, "lat": 36.5475245, "lon": 140.412451, "tags": {"name": "\u5e38\u9678\u5927\u5bae", "name:en": "Hitachi-Omiya", "name:ja-Hira": "\u3072\u305f\u3061\u304a\u304a\u307f\u3084", "name:ja-Latn": "Hitachi\u014dmiya", "public_transport": "station", "railway": "station", "source": "KSJ2", "train": "yes", "wikidata": "Q5871607", "wikipedia": "ja:\u5e38\u9678\u5927\u5bae\u99c5"}}, {"type": "node", "id": 6104559359, "lat": 36.6952875, "lon": 140.3866294, "tags": {"name": "\u897f\u91d1", "name:en": "Saigane", "name:ja-Hira": "\u3055\u3044\u304c\u306d", "name:ja-Latn": "Saigane", "public_transport": "station", "railway": "station", "source": "KSJ2", "train": "yes", "wikidata": "Q7400054", "wikipedia": "ja:\u897f\u91d1\u99c5"}}, {"type": "node", "id": 6104559360, "lat": 36.6690357, "lon": 140.3870248, "tags": {"name": "\u4e0b\u5c0f\u5ddd", "name:en": "Shimo-Ogawa", "name:ja-Hira": "\u3057\u3082\u304a\u304c\u308f", "name:ja-Latn": "Shimoogawa", "public_transport": "station", "railway": "station", "source": "KSJ2", "train": "yes", "wikidata": "Q7496929", "wikipedia": "ja:\u4e0b\u5c0f\u5ddd\u99c5"}}, {"type": "node", "id": 6104559361, "lat": 36.6456412, "lon": 140.3923216, "tags": {"name": "\u4e2d\u821f\u751f", "name:en": "Naka-Funyu", "name:ja-Hira": "\u306a\u304b\u3075\u306b\u3085\u3046", "name:ja-Latn": "Nakafuny\u016b", "public_transport": "station", "railway": "station", "source": "KSJ2", "train": "yes", "wikidata": "Q6960079", "wikipedia": "ja:\u4e2d\u821f\u751f\u99c5"}}, {"type": "node", "id": 6104559362, "lat": 36.6246422, "lon": 140.4012536, "tags": {"name": "\u5c71\u65b9\u5bbf", "name:en": "Yamagatajuku", "name:ja-Hira": "\u3084\u307e\u304c\u305f\u3058\u3085\u304f", "name:ja-Latn": "Yamagatajuku", "public_transport": "station", "railway": "station", "source": "KSJ2", "train": "yes", "wikidata": "Q8047626", "wikipedia": "ja:\u5c71\u65b9\u5bbf\u99c5"}}, {"type": "node", "id": 6104573691, "lat": 36.7190466, "lon": 140.3790589, "tags": {"name": "\u4e0a\u5c0f\u5ddd", "name:en": "Kami-Ogawa", "name:ja-Hira": "\u304b\u307f\u304a\u304c\u308f", "name:ja-Latn": "Kamiogawa", "public_transport": "station", "railway": "station", "source": "KSJ2", "train": "yes", "wikidata": "Q6357184", "wikipedia": "ja:\u4e0a\u5c0f\u5ddd\u99c5"}}, {"type": "node", "id": 7896595650, "lat": 36.3705955, "lon": 140.476529, "tags": {"local_ref": "8", "name": "\u6c34\u6238", "name:en": "Mito", "name:ja": "\u6c34\u6238", "public_transport": "station", "railway": "station"}}]}