{"version": 0.6, "generator": "Overpass API 0.7.62.4 2390de5a", "osm3s": {"timestamp_osm_base": "2024-12-30T15:08:27Z", "copyright": "The data included in this document is from www.openstreetmap.org. The data is made available under ODbL."}, "elements": [{"type": "node", "id": 264459590, "lat": 37.1091614, "lon": 136.8534559, "tags": {"name": "\u80fd\u767b\u4e2d\u5cf6", "name:en": "Noto-Nakajima", "name:ja": "\u80fd\u767b\u4e2d\u5cf6", "name:ja_rm": "Noto-Nakajima", "name:ko": "\ub178\ud1a0\ub098\uce74\uc9c0\ub9c8", "note": "National-Land Numerical Information (Railway) 2007, MLIT Japan", "public_transport": "station", "railway": "station", "source": "KSJ2", "train": "yes", "wikidata": "Q7063098", "wikipedia": "ja:\u80fd\u767b\u4e2d\u5cf6\u99c5"}}, {"type": "node", "id": 264459916, "lat": 37.1477663, "lon": 136.8744197, "tags": {"name": "\u897f\u5cb8", "name:en": "Nishigishi", "name:ja": "\u897f\u5cb8", "name:ko": "\ub2c8\uc2dc\uae30\uc2dc", "note": "National-Land Numerical Information (Railway) 2007, MLIT Japan", "public_transport": "station", "railway": "station", "source": "KSJ2", "train": "yes", "wikidata": "Q8189152", "wikipedia": "ja:\u897f\u5cb8\u99c5"}}, {"type": "node", "id": 264460117, "lat": 37.0792899, "lon": 136.8575121, "tags": {"name": "\u7b20\u5e2b\u4fdd", "name:en": "Kasashiho", "name:ja": "\u7b20\u5e2b\u4fdd", "name:ja_rm": "Kasashiho", "name:ko": "\uac00\uc0ac\uc2dc\ud638", "public_transport": "station", "railway": "station", "source": "KSJ2", "train": "yes", "wikidata": "Q6374045", "wikipedia": "ja:\u7b20\u5e2b\u4fdd\u99c5"}}, {"type": "node", "id": 264460209, "lat": 37.0657581, "lon": 136.8910036, "tags": {"name": "\u7530\u9db4\u6d5c", "name:en": "Tatsuruhama", "name:ja": "\u7530\u9db4\u6d5c", "name:ja_rm": "Tatsuruhama", "name:ko": "\ub2e4\uc4f0\ub8e8\ud558\ub9c8", "public_transport": "station", "railway": "station", "source": "KSJ2", "train": "yes", "wikidata": "Q7688336", "wikipedia": "ja:\u7530\u9db4\u6d5c\u99c5"}}, {"type": "node", "id": 267305796, "lat": 36.7411592, "lon": 137.0147573, "tags": {"name": "\u9ad8\u5ca1", "name:en": "Takaoka", "name:ja": "\u9ad8\u5ca1", "name:ja_kana": "\u305f\u304b\u304a\u304b", "name:ja_rm": "Takaoka", "name:ko": "\ud0c0\uce74\uc624\uce74", "operator": "\u3042\u3044\u306e\u98a8\u3068\u3084\u307e\u9244\u9053;\u897f\u65e5\u672c\u65c5\u5ba2\u9244\u9053", "public_transport": "station", "railway": "station", "source": "KSJ2", "wikidata": "Q871547", "wikipedia": "ja:\u9ad8\u5ca1\u99c5"}}, {"type": "node", "id": 267456422, "lat": 36.7475748, "lon": 136.7167644, "tags": {"name": "\u6a2a\u5c71", "name:en": "Yokoyama", "name:ja": "\u6a2a\u5c71", "name:ja-Hira": "\u3088\u3053\u3084\u307e", "name:ko": "\uc694\ucf54\uc57c\ub9c8", "public_transport": "station", "railway": "station", "source": "KSJ2", "train": "yes", "wikidata": "Q8054695", "wikipedia": "ja:\u6a2a\u5c71\u99c5 (\u77f3\u5ddd\u770c)"}}, {"type": "node", "id": 267456424, "lat": 36.8481531, "lon": 136.773362, "tags": {"name": "\u6577\u6d6a", "name:en": "Shikinami", "name:ja": "\u6577\u6d6a", "name:ko": "\uc2dc\ud0a4\ub098\ubbf8", "public_transport": "station", "railway": "station", "source": "KSJ2", "train": "yes", "wikidata": "Q7496593", "wikipedia": "ja:\u6577\u6d6a\u99c5"}}, {"type": "node", "id": 267456462, "lat": 37.0071586, "lon": 136.9299834, "tags": {"name": "\u5fb3\u7530", "name:en": "Tokuda", "name:ja": "\u5fb3\u7530", "name:ko": "\ub3c4\ucfe0\ub2e4", "public_transport": "station", "railway": "station", "source": "KSJ2", "train": "yes", "wikidata": "Q7813710", "wikipedia": "ja:\u5fb3\u7530\u99c5 (\u77f3\u5ddd\u770c)"}}, {"type": "node", "id": 267456483, "lat": 36.9612706, "lon": 136.8697667, "tags": {"name": "\u80fd\u767b\u90e8", "name:en": "Notobe", "name:ja": "\u80fd\u767b\u90e8", "name:ko": "\ub178\ud1a0\ubca0", "public_transport": "station", "railway": "station", "source": "KSJ2", "train": "yes", "wikidata": "Q7063127", "wikipedia": "ja:\u80fd\u767b\u90e8\u99c5"}}, {"type": "node", "id": 267456540, "lat": 36.9281885, "lon": 136.8011133, "tags": {"name": "\u5343\u8def", "name:en": "Chiji", "name:ja": "\u5343\u8def", "name:ko": "\uc9c0\uc9c0", "public_transport": "station", "railway": "station", "source": "KSJ2", "train": "yes", "wikidata": "Q5097324", "wikipedia": "ja:\u5343\u8def\u99c5"}}, {"type": "node", "id": 267456560, "lat": 36.8709019, "lon": 136.7747302, "tags": {"name": "\u5357\u7fbd\u548b", "name:en": "Minami-Hakui", "name:ja": "\u5357\u7fbd\u548b", "name:ko": "\ubbf8\ub098\ubbf8\ud558\ucfe0\uc774", "public_transport": "station", "railway": "station", "source": "KSJ2", "train": "yes", "wikidata": "Q6862870", "wikipedia": "ja:\u5357\u7fbd\u548b\u99c5"}}, {"type": "node", "id": 267456607, "lat": 36.8203681, "lon": 136.7622915, "tags": {"name": "\u5b9d\u9054", "name:en": "H\u014ddatsu", "name:ja": "\u5b9d\u9054", "name:ko": "\ud638\ub2e4\uc4f0", "public_transport": "station", "railway": "station", "source": "KSJ2", "train": "yes", "wikidata": "Q5965165", "wikipedia": "ja:\u5b9d\u9054\u99c5"}}, {"type": "node", "id": 267456611, "lat": 36.9765732, "lon": 136.8943465, "tags": {"name": "\u826f\u5ddd", "name:en": "Yoshikawa", "name:ja": "\u826f\u5ddd", "name:ko": "\uc694\uc2dc\uce74\uc640", "public_transport": "station", "railway": "station", "source": "KSJ2", "train": "yes", "wikidata": "Q8056106", "wikipedia": "ja:\u826f\u5ddd\u99c5"}}, {"type": "node", "id": 267456630, "lat": 36.943469, "lon": 136.8364897, "tags": {"name": "\u91d1\u4e38", "name:en": "Kanemaru", "name:ja": "\u91d1\u4e38", "name:ko": "\uac00\ub124\ub9c8\ub8e8", "public_transport": "station", "railway": "station", "source": "KSJ2", "train": "yes", "wikidata": "Q11646313", "wikipedia": "ja:\u91d1\u4e38\u99c5"}}, {"type": "node", "id": 267456631, "lat": 36.795429, "lon": 136.7472773, "tags": {"name": "\u514d\u7530", "name:en": "Menden", "name:ja": "\u514d\u7530", "name:ko": "\uba58\ub374", "public_transport": "station", "railway": "station", "source": "KSJ2", "wheelchair": "yes", "wikidata": "Q6816597", "wikipedia": "ja:\u514d\u7530\u99c5"}}, {"type": "node", "id": 267456893, "lat": 36.7683145, "lon": 136.7288109, "tags": {"name": "\u9ad8\u677e", "name:en": "Takamatsu", "name:ja": "\u9ad8\u677e", "name:ko": "\ub2e4\uce74\ub9c8\uc4f0", "public_transport": "station", "railway": "station", "source": "KSJ2", "train": "yes", "wikidata": "Q7677134", "wikipedia": "ja:\u9ad8\u677e\u99c5 (\u77f3\u5ddd\u770c)"}}, {"type": "node", "id": 267456957, "lat": 36.9850426, "lon": 136.917533, "tags": {"name": "\u80fd\u767b\u4e8c\u5bae", "name:en": "Noto-Ninomiya", "name:ja": "\u80fd\u767b\u4e8c\u5bae", "name:ko": "\ub178\ud1a0\ub2c8\ub178\ubbf8\uc57c", "public_transport": "station", "railway": "station", "source": "KSJ2", "train": "yes", "wikidata": "Q7063099", "wikipedia": "ja:\u80fd\u767b\u4e8c\u5bae\u99c5"}}, {"type": "node", "id": 267457450, "lat": 36.7919439, "lon": 137.0582194, "tags": {"name": "\u4f0f\u6728", "name:en": "Fushiki", "name:ja": "\u4f0f\u6728", "name:ja_kana": "\u3075\u3057\u304d", "name:ja_rm": "Fushiki", "name:ko": "\ud6c4\uc2dc\ud0a4", "public_transport": "station", "railway": "station", "source": "KSJ2", "wikidata": "Q5510021", "wikipedia": "ja:\u4f0f\u6728\u99c5"}}, {"type": "node", "id": 267457467, "lat": 36.8050046, "lon": 137.0506333, "tags": {"name": "\u8d8a\u4e2d\u56fd\u5206", "name:en": "Etchu-Kokubun", "name:ja": "\u8d8a\u4e2d\u56fd\u5206", "name:ja_kana": "\u3048\u3063\u3061\u3085\u3046\u3053\u304f\u3076\u3093", "name:ja_rm": "Etch\u016b-Kokubun", "name:ko": "\uc5e3\ucd94\ucf54\ucfe0\ubd80", "railway": "station", "source": "KSJ2", "wikidata": "Q11636382", "wikipedia": "ja:\u8d8a\u4e2d\u56fd\u5206\u99c5"}}, {"type": "node", "id": 267457490, "lat": 36.8165756, "lon": 137.0373973, "tags": {"name": "\u96e8\u6674", "name:en": "Amaharashi", "name:ja": "\u96e8\u6674", "name:ja_kana": "\u3042\u307e\u306f\u3089\u3057", "name:ja_rm": "Amaharashi", "name:ko": "\uc544\ub9c8\ud558\ub77c\uc2dc", "railway": "station", "source": "KSJ2", "wikidata": "Q4739145", "wikipedia": "ja:\u96e8\u6674\u99c5"}}, {"type": "node", "id": 267457514, "lat": 36.7688316, "lon": 137.0399982, "tags": {"name": "\u80fd\u753a", "name:en": "Nomachi", "name:ja": "\u80fd\u753a", "name:ja_kana": "\u306e\u3046\u307e\u3061", "name:ja_rm": "N\u014dmachi", "name:ko": "\ub178\ub9c8\uce58", "public_transport": "station", "railway": "station", "source": "KSJ2", "wikidata": "Q7071607", "wikipedia": "ja:\u80fd\u753a\u99c5"}}, {"type": "node", "id": 267457515, "lat": 36.8284124, "lon": 137.0127771, "tags": {"name": "\u5cf6\u5c3e", "name:en": "Shimao", "name:ja": "\u5cf6\u5c3e", "name:ja_kana": "\u3057\u307e\u304a", "name:ja_rm": "Shimao", "name:ko": "\uc2dc\ub9c8\uc624", "railway": "station", "source": "KSJ2", "wikidata": "Q7496841", "wikipedia": "ja:\u5cf6\u5c3e\u99c5"}}, {"type": "node", "id": 267457547, "lat": 36.7497265, "lon": 137.0278322, "tags": {"name": "\u8d8a\u4e2d\u4e2d\u5ddd", "name:en": "Etchu-Nakagawa", "name:ja": "\u8d8a\u4e2d\u4e2d\u5ddd", "name:ja_kana": "\u3048\u3063\u3061\u3085\u3046\u306a\u304b\u304c\u308f", "name:ja_rm": "Etch\u016b-Nakagawa", "name:ko": "\uc5e3\ucd94\ub098\uce74\uac00\uc640", "public_transport": "station", "railway": "station", "source": "KSJ2", "wikidata": "Q5402525", "wikipedia": "ja:\u8d8a\u4e2d\u4e2d\u5ddd\u99c5"}}, {"type": "node", "id": 267457571, "lat": 36.8493922, "lon": 136.9908551, "tags": {"name": "\u6c37\u898b", "name:en": "Himi", "name:ja": "\u6c37\u898b", "name:ja_kana": "\u3072\u307f", "name:ja_rm": "Himi", "name:ko": "\ud788\ubbf8", "railway": "station", "source": "KSJ2", "wikidata": "Q5765332", "wikipedia": "ja:\u6c37\u898b\u99c5"}}, {"type": "node", "id": 335655726, "lat": 36.7747477, "lon": 137.1117988, "tags": {"name": "\u8d8a\u30ce\u6f5f", "name:ja": "\u8d8a\u30ce\u6f5f", "name:ko": "\uace0\uc2dc\ub178\uce74\ud0c0", "public_transport": "station", "railway": "station", "source": "KSJ2", "wikidata": "Q6433137", "wikipedia": "ja:\u8d8a\u30ce\u6f5f\u99c5"}}, {"type": "node", "id": 335655728, "lat": 36.7788735, "lon": 137.0843397, "tags": {"name": "\u65b0\u753a\u53e3", "name:ja": "\u65b0\u753a\u53e3", "name:ko": "\uc2e0\ub9c8\uce58\uad6c\uce58", "public_transport": "station", "railway": "station", "source": "KSJ2", "wikidata": "Q7497663", "wikipedia": "ja:\u65b0\u753a\u53e3\u99c5"}}, {"type": "node", "id": 335655732, "lat": 36.781267, "lon": 137.0784907, "tags": {"name": "\u7b2c\u4e00\u30a4\u30f3\u65b0\u6e4a\u30af\u30ed\u30b9\u30d9\u30a4\u524d", "name:ja": "\u7b2c\u4e00\u30a4\u30f3\u65b0\u6e4a\u30af\u30ed\u30b9\u30d9\u30a4\u524d", "name:ko": "\ub2c8\uc2dc\uc2e0\ubbf8\ub098\ud1a0", "public_transport": "station", "railway": "station", "source": "KSJ2", "wikidata": "Q6004206", "wikipedia": "ja:\u7b2c\u4e00\u30a4\u30f3\u65b0\u6e4a\u30af\u30ed\u30b9\u30d9\u30a4\u524d\u99c5"}}, {"type": "node", "id": 335655737, "lat": 36.77796, "lon": 137.0987359, "tags": {"name": "\u6771\u65b0\u6e4a", "name:ja": "\u6771\u65b0\u6e4a", "name:ko": "\ud788\uac00\uc2dc\uc2e0\ubbf8\ub098\ud1a0", "public_transport": "station", "railway": "station", "source": "KSJ2", "wikidata": "Q5753983", "wikipedia": "ja:\u6771\u65b0\u6e4a\u99c5"}}, {"type": "node", "id": 335655739, "lat": 36.7844919, "lon": 137.0706824, "tags": {"name": "\u5e84\u5ddd\u53e3", "name:ja": "\u5e84\u5ddd\u53e3", "name:ko": "\uc1fc\uac00\uc640\uad6c\uce58", "public_transport": "station", "railway": "station", "source": "KSJ2", "wikidata": "Q7506111", "wikipedia": "ja:\u5e84\u5ddd\u53e3\u99c5"}}, {"type": "node", "id": 335655776, "lat": 36.7751799, "lon": 137.0886347, "tags": {"name": "\u4e2d\u65b0\u6e4a", "name:ja": "\u4e2d\u65b0\u6e4a", "name:ko": "\ub098\uce74\uc2e0\ubbf8\ub098\ud1a0", "operator": "\u4e07\u8449\u7dda", "operator:wikidata": "Q1582213", "public_transport": "station", "railway": "station", "source": "KSJ2", "train": "yes", "wikidata": "Q6960106", "wikipedia": "ja:\u4e2d\u65b0\u6e4a\u99c5"}}, {"type": "node", "id": 6280678637, "lat": 36.7373719, "lon": 136.988547}, {"type": "node", "id": 6280678638, "lat": 36.7373978, "lon": 136.9885693}, {"type": "node", "id": 6280678639, "lat": 36.737383, "lon": 136.988597}, {"type": "node", "id": 6280678640, "lat": 36.7373596, "lon": 136.9885759}, {"type": "node", "id": 6280678641, "lat": 36.7373483, "lon": 136.9885971}, {"type": "node", "id": 6280678642, "lat": 36.7373343, "lon": 136.9885854}, {"type": "node", "id": 6280678643, "lat": 36.737265, "lon": 136.9887186}, {"type": "node", "id": 6280678644, "lat": 36.7372955, "lon": 136.9887732}, {"type": "node", "id": 6280678645, "lat": 36.7372371, "lon": 136.9888002}, {"type": "node", "id": 6280678646, "lat": 36.7370967, "lon": 136.9886851}, {"type": "node", "id": 6280678647, "lat": 36.737157, "lon": 136.9886438}, {"type": "node", "id": 6280678648, "lat": 36.7372391, "lon": 136.9886974}, {"type": "node", "id": 6280678649, "lat": 36.7373131, "lon": 136.9885557}, {"type": "node", "id": 6280678650, "lat": 36.7372322, "lon": 136.9884958}, {"type": "node", "id": 6280678651, "lat": 36.737264, "lon": 136.9884364}, {"type": "node", "id": 6280678652, "lat": 36.7373801, "lon": 136.9885321}, {"type": "node", "id": 6641719628, "lat": 36.896877, "lon": 136.7834571, "tags": {"name": "\u7fbd\u548b", "name:en": "Hakui", "name:ja": "\u7fbd\u548b", "name:ja_kana": "\u306f\u304f\u3044", "name:ja_rm": "Hakui", "name:ko": "\ud558\ucfe0\uc774", "public_transport": "station", "railway": "station", "source": "KSJ2", "train": "yes", "wikidata": "Q5640629", "wikipedia": "ja:\u7fbd\u548b\u99c5"}}, {"type": "node", "id": 6641863475, "lat": 37.074912, "lon": 136.9256945, "tags": {"name": "\u548c\u5009\u6e29\u6cc9", "name:en": "Wakura-Onsen", "name:ja": "\u548c\u5009\u6e29\u6cc9", "name:ko": "\uc640\ucfe0\ub77c\uc628\uc13c", "note": "National-Land Numerical Information (Railway) 2007, MLIT Japan", "public_transport": "station", "railway": "station", "source": "KSJ2", "train": "yes", "wikidata": "Q6138219", "wikipedia": "ja:\u548c\u5009\u6e29\u6cc9\u99c5"}}, {"type": "node", "id": 6641863484, "lat": 37.0419859, "lon": 136.9639832, "tags": {"name": "\u4e03\u5c3e", "name:en": "Nanao", "name:ja": "\u4e03\u5c3e", "public_transport": "station", "railway": "station", "train": "yes", "wikidata": "Q6962435", "wikipedia": "ja:\u4e03\u5c3e\u99c5"}}, {"type": "node", "id": 8153881893, "lat": 36.7372495, "lon": 136.9886541, "tags": {"addr:full": "\u5bcc\u5c71\u770c\u9ad8\u5ca1\u5e02\u7fbd\u5e8332\u756a\u57303\u53f7", "name": "\u9ad8\u5ca1\u3084\u3076\u306a\u307f", "name:en": "Takaoka-Yabunami", "name:ja": "\u9ad8\u5ca1\u3084\u3076\u306a\u307f", "operator": "\u3042\u3044\u306e\u98a8\u3068\u3084\u307e\u9244\u9053", "public_transport": "station", "railway": "station", "website": "https://ainokaze.co.jp/station/takaokayabunami", "wikidata": "Q28805225", "wikipedia": "ja:\u9ad8\u5ca1\u3084\u3076\u306a\u307f\u99c5"}}, {"type": "node", "id": 9935194104, "lat": 36.7371478, "lon": 136.9886569}, {"type": "node", "id": 9935194105, "lat": 36.7371224, "lon": 136.9886379}, {"type": "node", "id": 9935194106, "lat": 36.7372465, "lon": 136.9887813}, {"type": "node", "id": 9935194107, "lat": 36.7372819, "lon": 136.9888042}, {"type": "node", "id": 9935194108, "lat": 36.7372664, "lon": 136.988753}, {"type": "node", "id": 9956342478, "lat": 36.7373572, "lon": 136.9885132}, {"type": "node", "id": 9956342491, "lat": 36.7371517, "lon": 136.9887302}, {"type": "node", "id": 9956342497, "lat": 36.7372653, "lon": 136.9887934}, {"type": "node", "id": 10926985933, "lat": 36.7751228, "lon": 137.0886, "tags": {"name": "\u4e2d\u65b0\u6e4a", "name:ja": "\u4e2d\u65b0\u6e4a", "name:ko": "\ub098\uce74\uc2e0\ubbf8\ub098\ud1a0", "operator": "\u4e07\u8449\u7dda", "operator:wikidata": "Q1582213", "public_transport": "station", "railway": "station", "train": "yes", "wikidata": "Q6960106", "wikipedia": "ja:\u4e2d\u65b0\u6e4a\u99c5"}}, {"type": "way", "id": 670686728, "nodes": [6280678652, 9956342478, 6280678651, 6280678650, 6280678649, 6280678648, 6280678647, 9935194104, 9935194105, 6280678646, 9956342491, 6280678645, 9935194106, 9956342497, 9935194107, 6280678644, 9935194108, 6280678643, 6280678642, 6280678641, 6280678640, 6280678639, 6280678638, 6280678637, 6280678652], "tags": {"building": "train_station", "building:levels": "2", "internet_access": "no", "layer": "1", "name": "\u9ad8\u5ca1\u3084\u3076\u306a\u307f\u99c5", "public_transport": "station", "railway": "station", "train": "yes"}}]}