{"version": 0.6, "generator": "Overpass API 0.7.62.4 2390de5a", "osm3s": {"timestamp_osm_base": "2024-12-30T15:08:27Z", "copyright": "The data included in this document is from www.openstreetmap.org. The data is made available under ODbL."}, "elements": [{"type": "node", "id": 270012058, "lat": 36.7863774, "lon": 137.6250536, "tags": {"name": "\u9ed2\u8599", "name:en": "Kuronagi", "name:ja": "\u9ed2\u8599", "name:ja_kana": "\u304f\u308d\u306a\u304e", "name:ja_rm": "Kuronagi", "name:ko": "\uad6c\ub85c\ub098\uae30", "railway": "station", "source": "KSJ2", "wikidata": "Q11678814", "wikipedia": "ja:\u9ed2\u8599\u99c5"}}, {"type": "node", "id": 270012264, "lat": 36.7830171, "lon": 137.6240614, "tags": {"name": "\u7b39\u5e73", "name:en": "Sasadaira", "name:ja": "\u7b39\u5e73", "name:ja_kana": "\u3055\u3055\u3060\u3044\u3089", "name:ja_rm": "Sasadaira", "name:ko": "\uc0ac\uc0ac\ub2e4\uc774\ub77c", "railway": "station", "source": "KSJ2", "wikidata": "Q11602590", "wikipedia": "ja:\u7b39\u5e73\u99c5"}}, {"type": "node", "id": 270012567, "lat": 36.7670314, "lon": 137.6339656, "tags": {"name": "\u51fa\u5e73", "name:en": "Dashidaira", "name:ja": "\u51fa\u5e73", "name:ja_kana": "\u3060\u3057\u3060\u3044\u3089", "name:ja_rm": "Dashidaira", "name:ko": "\ub2e4\uc2dc\ub2e4\uc774\ub77c", "railway": "station", "source": "KSJ2", "wikidata": "Q11395632", "wikipedia": "ja:\u51fa\u5e73\u99c5"}}, {"type": "node", "id": 270012584, "lat": 36.8031863, "lon": 137.5916713, "tags": {"name": "\u67f3\u6a4b", "name:en": "Yanagibashi", "name:ja": "\u67f3\u6a4b", "name:ja_kana": "\u3084\u306a\u304e\u3070\u3057", "name:ja_rm": "Yanagibashi", "name:ko": "\uc57c\ub098\uae30\ubc14\uc2dc", "railway": "station", "source": "KSJ2", "wikidata": "Q11534356", "wikipedia": "ja:\u67f3\u6a4b\u99c5 (\u5bcc\u5c71\u770c)"}}, {"type": "node", "id": 270012768, "lat": 36.8154157, "lon": 137.5851867, "tags": {"name": "\u5b87\u5948\u6708", "name:en": "Unazuki", "name:ja": "\u5b87\u5948\u6708", "name:ja_kana": "\u3046\u306a\u3065\u304d", "name:ja_rm": "Unazuki", "name:ko": "\uc6b0\ub098\uc988\ud0a4", "railway": "station", "source": "KSJ2", "wheelchair": "yes", "wikidata": "Q7882346", "wikipedia": "ja:\u5b87\u5948\u6708\u99c5"}}, {"type": "node", "id": 270012773, "lat": 36.791879, "lon": 137.6129842, "tags": {"name": "\u68ee\u77f3", "name:en": "Moriishi", "name:ja": "\u68ee\u77f3", "name:ja_kana": "\u3082\u308a\u3044\u3057", "name:ja_rm": "Moriishi", "name:ko": "\ubaa8\ub9ac\uc774\uc2dc", "railway": "station", "source": "KSJ2", "wikidata": "Q11540199", "wikipedia": "ja:\u68ee\u77f3\u99c5"}}, {"type": "node", "id": 270014091, "lat": 36.840389, "lon": 137.5599, "tags": {"name": "\u97f3\u6ca2", "name:en": "Otozawa", "name:ja": "\u97f3\u6ca2", "name:ja_kana": "\u304a\u3068\u3056\u308f", "name:ja_rm": "Otozawa", "name:ko": "\uc624\ud1a0\uc790\uc640", "railway": "station", "source": "KSJ2", "wikidata": "Q7109028", "wikipedia": "ja:\u97f3\u6ca2\u99c5"}}, {"type": "node", "id": 270014154, "lat": 36.863588, "lon": 137.519154, "tags": {"name": "\u6d66\u5c71", "name:en": "Urayama", "name:ja": "\u6d66\u5c71", "name:ja_kana": "\u3046\u3089\u3084\u307e", "name:ja_rm": "Urayama", "name:ko": "\uc6b0\ub77c\uc57c\ub9c8", "railway": "station", "source": "KSJ2", "wikidata": "Q7899809", "wikipedia": "ja:\u6d66\u5c71\u99c5"}}, {"type": "node", "id": 270014158, "lat": 36.8152081, "lon": 137.4004857, "tags": {"name": "\u96fb\u9244\u9b5a\u6d25", "name:en": "Dentetsu-Uozu", "name:ja": "\u96fb\u9244\u9b5a\u6d25", "name:ja_kana": "\u3067\u3093\u3066\u3064\u3046\u304a\u3065", "name:ja_rm": "Dentetsu-U\u014dzu", "name:ko": "\ub374\ud14c\uc4f0\uc6b0\uc624\uc988", "railway": "station", "source": "KSJ2", "wikidata": "Q5259471", "wikipedia": "ja:\u96fb\u9244\u9b5a\u6d25\u99c5"}}, {"type": "node", "id": 270014209, "lat": 36.846463, "lon": 137.5568684, "tags": {"name": "\u5185\u5c71", "name:en": "Uchiyama", "name:ja": "\u5185\u5c71", "name:ja_kana": "\u3046\u3061\u3084\u307e", "name:ja_rm": "Uchiyama", "name:ko": "\uc6b0\uce58\uc57c\ub9c8", "railway": "station", "source": "KSJ2", "wikidata": "Q7876748", "wikipedia": "ja:\u5185\u5c71\u99c5"}}, {"type": "node", "id": 270014285, "lat": 36.7552056, "lon": 137.3348323, "tags": {"name": "\u897f\u6ed1\u5ddd", "name:en": "Nishi-Namerikawa", "name:ja": "\u897f\u6ed1\u5ddd", "name:ja_kana": "\u306b\u3057\u306a\u3081\u308a\u304b\u308f", "name:ja_rm": "Nishi-Namerikawa", "name:ko": "\ub2c8\uc2dc\ub098\uba54\ub9ac\uce74\uc640", "railway": "station", "source": "KSJ2", "wikidata": "Q7040384", "wikipedia": "ja:\u897f\u6ed1\u5ddd\u99c5"}}, {"type": "node", "id": 270014288, "lat": 36.8747257, "lon": 137.4506283, "tags": {"name": "\u6771\u4e09\u65e5\u5e02", "name:en": "Higashi-Mikkaichi", "name:ja": "\u6771\u4e09\u65e5\u5e02", "name:ja_kana": "\u3072\u304c\u3057\u307f\u3063\u304b\u3044\u3061", "name:ja_rm": "Higashi-Mikkaichi", "name:ko": "\ud788\uac00\uc2dc\ubc0b\uce74\uc774\uce58", "operator": "\u5bcc\u5c71\u5730\u65b9\u9244\u9053", "railway": "station", "source": "KSJ2", "wikidata": "Q5753706", "wikipedia": "ja:\u6771\u4e09\u65e5\u5e02\u99c5"}}, {"type": "node", "id": 270014291, "lat": 36.7775547, "lon": 137.3615156, "tags": {"name": "\u6d5c\u52a0\u7a4d", "name:en": "Hamakazumi", "name:ja": "\u6d5c\u52a0\u7a4d", "name:ja_kana": "\u306f\u307e\u304b\u305a\u307f", "name:ja_rm": "Hamakazumi", "name:ko": "\ud558\ub9c8\uce74\uc988\ubbf8", "railway": "station", "source": "KSJ2", "wikidata": "Q5644001", "wikipedia": "ja:\u6d5c\u52a0\u7a4d\u99c5"}}, {"type": "node", "id": 270014297, "lat": 36.7466883, "lon": 137.3400834, "tags": {"name": "\u897f\u52a0\u7a4d", "name:en": "Nishi-Kazumi", "name:ja": "\u897f\u52a0\u7a4d", "name:ja_kana": "\u306b\u3057\u304b\u305a\u307f", "name:ja_rm": "Nishi-Kazumi", "name:ko": "\ub2c8\uc2dc\uce74\uc988\ubbf8", "railway": "station", "source": "KSJ2", "wikidata": "Q11627294", "wikipedia": "ja:\u897f\u52a0\u7a4d\u99c5"}}, {"type": "node", "id": 270014371, "lat": 36.859417, "lon": 137.533361, "tags": {"name": "\u4e0b\u7acb\u53e3", "name:en": "Oritateguchi", "name:ja": "\u4e0b\u7acb\u53e3", "name:ja_kana": "\u304a\u308a\u305f\u3066\u3050\u3061", "name:ja_rm": "Oritateguchi", "name:ko": "\uc624\ub9ac\ud0c0\ud14c\uad6c\uce58", "railway": "station", "source": "KSJ2", "wikidata": "Q7102875", "wikipedia": "ja:\u4e0b\u7acb\u53e3\u99c5"}}, {"type": "node", "id": 270014377, "lat": 36.8698634, "lon": 137.5056811, "tags": {"name": "\u6803\u5c4b", "name:en": "Tochiya", "name:ja": "\u6803\u5c4b", "name:ja_kana": "\u3068\u3061\u3084", "name:ja_rm": "Tochiya", "name:ko": "\ub3c4\uce58\uc57c", "railway": "station", "source": "KSJ2", "wikidata": "Q7812010", "wikipedia": "ja:\u6803\u5c4b\u99c5"}}, {"type": "node", "id": 270014493, "lat": 36.8553661, "lon": 137.553871, "tags": {"name": "\u611b\u672c", "name:en": "Aimoto", "name:ja": "\u611b\u672c", "name:ja_kana": "\u3042\u3044\u3082\u3068", "name:ja_rm": "Aimoto", "name:ko": "\uc544\uc774\ubaa8\ud1a0", "railway": "station", "source": "KSJ2", "wikidata": "Q4697186", "wikipedia": "ja:\u611b\u672c\u99c5"}}, {"type": "node", "id": 270014506, "lat": 36.8578158, "lon": 137.5413324, "tags": {"name": "\u4e0b\u7acb", "name:en": "Oritate", "name:ja": "\u4e0b\u7acb", "name:ja_kana": "\u304a\u308a\u305f\u3066", "name:ja_rm": "Oritate", "name:ko": "\uc624\ub9ac\ud0c0\ud14c", "railway": "station", "source": "KSJ2", "wikidata": "Q7102873", "wikipedia": "ja:\u4e0b\u7acb\u99c5"}}, {"type": "node", "id": 270014507, "lat": 36.7691519, "lon": 137.3488867, "tags": {"name": "\u6ed1\u5ddd", "name:en": "Namerikawa", "name:ja": "\u6ed1\u5ddd", "name:ja_kana": "\u306a\u3081\u308a\u304b\u308f", "name:ja_rm": "Namerikawa", "name:ko": "\ub098\uba54\ub9ac\uce74\uc640", "operator": "\u5bcc\u5c71\u5730\u65b9\u9244\u9053", "railway": "station", "source": "KSJ2", "wikidata": "Q5359984", "wikipedia": "ja:\u6ed1\u5ddd\u99c5"}}, {"type": "node", "id": 270014579, "lat": 36.8040819, "lon": 137.3948433, "tags": {"name": "\u897f\u9b5a\u6d25", "name:en": "Nishi-Uozu", "name:ja": "\u897f\u9b5a\u6d25", "name:ja_kana": "\u306b\u3057\u3046\u304a\u3065", "name:ja_rm": "Nishi-U\u014dzu", "name:ko": "\ub2c8\uc2dc\uc6b0\uc624\uc988", "railway": "station", "source": "KSJ2", "wikidata": "Q11630014", "wikipedia": "ja:\u897f\u9b5a\u6d25\u99c5"}}, {"type": "node", "id": 270014650, "lat": 36.8711382, "lon": 137.4928231, "tags": {"name": "\u82e5\u6817", "name:en": "Wakaguri", "name:ja": "\u82e5\u6817", "name:ja_kana": "\u308f\u304b\u3050\u308a", "name:ja_rm": "Wakaguri", "name:ko": "\uc640\uce74\uad6c\ub9ac", "railway": "station", "source": "KSJ2", "wikidata": "Q7960765", "wikipedia": "ja:\u82e5\u6817\u99c5"}}, {"type": "node", "id": 270014677, "lat": 36.8741184, "lon": 137.443888, "tags": {"name": "\u96fb\u9244\u9ed2\u90e8", "name:en": "Dentetsu-Kurobe", "name:ja": "\u96fb\u9244\u9ed2\u90e8", "name:ja_kana": "\u3067\u3093\u3066\u3064\u304f\u308d\u3079", "name:ja_rm": "Dentetsu-Kurobe", "name:ko": "\ub374\ud14c\uc4f0\ucfe0\ub85c\ubca0", "operator": "\u5bcc\u5c71\u5730\u65b9\u9244\u9053", "railway": "station", "source": "KSJ2", "wikidata": "Q5259472", "wikipedia": "ja:\u96fb\u9244\u9ed2\u90e8\u99c5"}}, {"type": "node", "id": 270014704, "lat": 36.866178, "lon": 137.423301, "tags": {"name": "\u96fb\u9244\u77f3\u7530", "name:en": "Dentetsu-Ishida", "name:ja": "\u96fb\u9244\u77f3\u7530", "name:ja_kana": "\u3067\u3093\u3066\u3064\u3044\u3057\u3060", "name:ja_rm": "Dentetsu-Ishida", "name:ko": "\ub374\ud14c\uc4f0\uc774\uc2dc\ub2e4", "railway": "station", "source": "KSJ2", "wikidata": "Q5259468", "wikipedia": "ja:\u96fb\u9244\u77f3\u7530\u99c5"}}, {"type": "node", "id": 270014747, "lat": 36.8490926, "lon": 137.4163587, "tags": {"name": "\u7d4c\u7530", "name:en": "Kyoden", "name:ja": "\u7d4c\u7530", "name:ja_kana": "\u304d\u3087\u3046\u3067\u3093", "name:ja_rm": "Ky\u014dden", "name:ko": "\uad50\ub374", "railway": "station", "source": "KSJ2", "wikidata": "Q11606497", "wikipedia": "ja:\u7d4c\u7530\u99c5"}}, {"type": "node", "id": 270014757, "lat": 36.7619482, "lon": 137.3399033, "tags": {"name": "\u4e2d\u6ed1\u5ddd", "name:en": "Naka-Namerikawa", "name:ja": "\u4e2d\u6ed1\u5ddd", "name:ja_kana": "\u306a\u304b\u306a\u3081\u308a\u304b\u308f", "name:ja_rm": "Naka-Namerikawa", "name:ko": "\ub098\uce74\ub098\uba54\ub9ac\uce74\uc640", "railway": "station", "source": "KSJ2", "wikidata": "Q6960089", "wikipedia": "ja:\u4e2d\u6ed1\u5ddd\u99c5"}}, {"type": "node", "id": 270014774, "lat": 36.8750627, "lon": 137.4594362, "tags": {"name": "\u837b\u751f", "name:en": "Ogyu", "name:ja": "\u837b\u751f", "name:ja_kana": "\u304a\u304e\u3085\u3046", "name:ja_rm": "Ogy\u016b", "name:ko": "\uc624\uaddc", "railway": "station", "source": "KSJ2", "wikidata": "Q7080334", "wikipedia": "ja:\u837b\u751f\u99c5"}}, {"type": "node", "id": 270014775, "lat": 36.826962, "lon": 137.405399, "tags": {"name": "\u65b0\u9b5a\u6d25", "name:en": "Shin-Uozu", "name:ja": "\u65b0\u9b5a\u6d25", "name:ja_kana": "\u3057\u3093\u3046\u304a\u3065", "name:ja_rm": "Shin-U\u014dzu", "name:ko": "\uc6b0\uc624\uc988", "public_transport": "station", "railway": "station", "source": "KSJ2", "wikidata": "Q5359637", "wikipedia": "ja:\u9b5a\u6d25\u99c5"}}, {"type": "node", "id": 270014777, "lat": 36.8721863, "lon": 137.4855618, "tags": {"name": "\u820c\u5c71", "name:en": "Shitayama", "name:ja": "\u820c\u5c71", "name:ja_kana": "\u3057\u305f\u3084\u307e", "name:ja_rm": "Shitayama", "name:ko": "\uc2dc\ud0c0\uc57c\ub9c8", "railway": "station", "source": "KSJ2", "wikidata": "Q7499147", "wikipedia": "ja:\u820c\u5c71\u99c5"}}, {"type": "node", "id": 270014779, "lat": 36.8737003, "lon": 137.4703883, "tags": {"name": "\u9577\u5c4b", "name:en": "Nagaya", "name:ja": "\u9577\u5c4b", "name:ja_kana": "\u306a\u304c\u3084", "name:ja_rm": "Nagaya", "name:ko": "\ub098\uac00\uc57c", "railway": "station", "source": "KSJ2", "wikidata": "Q6958717", "wikipedia": "ja:\u9577\u5c4b\u99c5"}}, {"type": "node", "id": 270014924, "lat": 36.7838825, "lon": 137.3717194, "tags": {"name": "\u65e9\u6708\u52a0\u7a4d", "name:en": "Hayatsukikazumi", "name:ja": "\u65e9\u6708\u52a0\u7a4d", "name:ja_kana": "\u306f\u3084\u3064\u304d\u304b\u305a\u307f", "name:ja_rm": "Hayatsukikazumi", "name:ko": "\ud558\uc57c\uc4f0\ud0a4\uce74\uc988\ubbf8", "railway": "station", "source": "KSJ2", "wikidata": "Q5686180", "wikipedia": "ja:\u65e9\u6708\u52a0\u7a4d\u99c5"}}, {"type": "node", "id": 270026300, "lat": 36.7905764, "lon": 137.3824345, "tags": {"name": "\u8d8a\u4e2d\u4e2d\u6751", "name:en": "Etchu-Nakamura", "name:ja": "\u8d8a\u4e2d\u4e2d\u6751", "name:ja_kana": "\u3048\u3063\u3061\u3085\u3046\u306a\u304b\u3080\u3089", "name:ja_rm": "Etch\u016b-Nakamura", "name:ko": "\uc5e3\ucd94\ub098\uce74\ubb34\ub77c", "railway": "station", "source": "KSJ2", "wikidata": "Q5402522", "wikipedia": "ja:\u8d8a\u4e2d\u4e2d\u6751\u99c5"}}, {"type": "node", "id": 270043102, "lat": 36.7481061, "lon": 137.2283002, "tags": {"description": "2020\u5e743\u6708\u306b\u5927\u5e83\u7530\u99c5\u304b\u3089\u6539\u79f0", "name": "\u8429\u6d66\u5c0f\u5b66\u6821\u524d", "name:en": "Hagiurash\u014dgakk\u014d-mae", "name:ja": "\u8429\u6d66\u5c0f\u5b66\u6821\u524d", "operator": "\u5bcc\u5c71\u5730\u65b9\u9244\u9053", "public_transport": "station", "railway": "station", "source": "KSJ2;survey", "train": "yes", "wikidata": "Q11435331", "wikipedia": "ja:\u8429\u6d66\u5c0f\u5b66\u6821\u524d\u99c5"}}, {"type": "node", "id": 270043168, "lat": 36.7615162, "lon": 137.2340029, "tags": {"name": "\u5ca9\u702c\u6d5c", "name:en": "Iwasehama", "name:es": "Iwasehama", "name:ja": "\u5ca9\u702c\u6d5c", "public_transport": "station", "railway": "station", "source": "KSJ2", "train": "yes", "wikidata": "Q11475415", "wikipedia": "ja:\u5ca9\u702c\u6d5c\u99c5"}}, {"type": "node", "id": 270043178, "lat": 36.7574739, "lon": 137.2338439, "tags": {"name": "\u7af6\u8f2a\u5834\u524d", "name:en": "Keirinjomae", "name:ja": "\u7af6\u8f2a\u5834\u524d", "operator": "\u5bcc\u5c71\u5730\u65b9\u9244\u9053", "public_transport": "station", "railway": "station", "source": "KSJ2", "train": "yes", "wikidata": "Q17217095", "wikipedia": "ja:\u7af6\u8f2a\u5834\u524d\u99c5 (\u5bcc\u5c71\u770c)"}}, {"type": "node", "id": 5211478960, "lat": 36.7425979, "lon": 137.2275798, "tags": {"light_rail": "yes", "name": "\u84ee\u753a\uff08\u99ac\u5834\u8a18\u5ff5\u516c\u5712\u524d\uff09", "name:en": "Hasumachi (Babakinenk\u014den-mae)", "name:ja": "\u84ee\u753a\uff08\u99ac\u5834\u8a18\u5ff5\u516c\u5712\u524d\uff09", "operator": "\u5bcc\u5c71\u5730\u65b9\u9244\u9053", "public_transport": "station", "railway": "station", "source": "KSJ2", "station": "light_rail", "train": "yes", "wikidata": "Q11621722", "wikipedia": "ja:\u84ee\u753a\uff08\u99ac\u5834\u8a18\u5ff5\u516c\u5712\u524d\uff09\u99c5"}}, {"type": "node", "id": 5211622524, "lat": 36.752703, "lon": 137.2309052, "tags": {"light_rail": "yes", "name": "\u6771\u5ca9\u702c", "name:en": "Higashi-Iwase", "name:ja": "\u6771\u5ca9\u702c", "operator": "\u5bcc\u5c71\u5730\u65b9\u9244\u9053", "public_transport": "station", "railway": "station", "source": "KSJ2", "train": "yes", "wikidata": "Q11526767", "wikipedia": "ja:\u6771\u5ca9\u702c\u99c5"}}, {"type": "node", "id": 6050880711, "lat": 36.8264529, "lon": 137.4057296, "tags": {"name": "\u9b5a\u6d25", "name:en": "Uozu", "name:ja": "\u9b5a\u6d25", "name:ja_kana": "\u3046\u304a\u3065", "name:ja_rm": "U\u014dzu", "name:ko": "\uc6b0\uc624\uc988", "operator": "\u3042\u3044\u306e\u98a8\u3068\u3084\u307e\u9244\u9053", "public_transport": "station", "railway": "station", "source": "KSJ2", "wikidata": "Q5359637", "wikipedia": "ja:\u9b5a\u6d25\u99c5"}}, {"type": "node", "id": 8142013200, "lat": 36.815569, "lon": 137.5841421, "tags": {"alt_name:ko": "\uc6b0\ub098\uc988\ud0a4\uc628\uc13c", "name": "\u5b87\u5948\u6708\u6e29\u6cc9", "name:en": "Unazukionsen", "name:ja": "\u5b87\u5948\u6708\u6e29\u6cc9", "name:ja_kana": "\u3046\u306a\u3065\u304d\u304a\u3093\u305b\u3093", "name:ja_rm": "Unazukionsen", "name:ko": "\uc6b0\ub098\uc988\ud0a4\uc628\ucc9c", "public_transport": "station", "railway": "station", "source": "KSJ2", "wheelchair": "yes", "wikidata": "Q7882349", "wikipedia": "ja:\u5b87\u5948\u6708\u6e29\u6cc9\u99c5"}}, {"type": "node", "id": 8142323099, "lat": 36.8731731, "lon": 137.4810621, "tags": {"name": "\u65b0\u9ed2\u90e8", "name:en": "Shin-Kurobe", "name:ja": "\u65b0\u9ed2\u90e8", "name:ja-Hira": "\u3057\u3093\u304f\u308d\u3079", "operator": "\u5bcc\u5c71\u5730\u65b9\u9244\u9053", "public_transport": "station", "railway": "station", "source": "KSJ2", "wikidata": "Q7497114", "wikipedia": "ja:\u65b0\u9ed2\u90e8\u99c5"}}, {"type": "node", "id": 8153717184, "lat": 36.7692379, "lon": 137.3487622, "tags": {"name": "\u6ed1\u5ddd", "name:en": "Namerikawa", "name:ja": "\u6ed1\u5ddd", "name:ja_kana": "\u306a\u3081\u308a\u304b\u308f", "name:ja_rm": "Namerikawa", "name:ko": "\ub098\uba54\ub9ac\uce74\uc640", "operator": "\u3042\u3044\u306e\u98a8\u3068\u3084\u307e\u9244\u9053", "public_transport": "station", "railway": "station", "source": "KSJ2", "wikidata": "Q5359984", "wikipedia": "ja:\u6ed1\u5ddd\u99c5"}}, {"type": "node", "id": 8153723815, "lat": 36.8701841, "lon": 137.4341449, "tags": {"name": "\u9ed2\u90e8", "name:en": "Kurobe", "name:ja": "\u9ed2\u90e8", "name:ja_kana": "\u304f\u308d\u3079", "name:ja_rm": "Kurobe", "name:ko": "\uad6c\ub85c\ubca0", "operator": "\u3042\u3044\u306e\u98a8\u3068\u3084\u307e\u9244\u9053", "public_transport": "station", "railway": "station", "source": "KSJ2", "wikidata": "Q5359624", "wikipedia": "ja:\u9ed2\u90e8\u99c5"}}, {"type": "node", "id": 8153723834, "lat": 36.9058319, "lon": 137.426561, "tags": {"name": "\u751f\u5730", "name:en": "Ikuji", "name:ja": "\u751f\u5730", "name:ko": "\uc774\ucfe0\uc9c0", "operator": "\u3042\u3044\u306e\u98a8\u3068\u3084\u307e\u9244\u9053", "public_transport": "station", "railway": "station", "source": "KSJ2", "wikidata": "Q5359690", "wikipedia": "ja:\u751f\u5730\u99c5"}}, {"type": "node", "id": 8153723835, "lat": 36.9301496, "lon": 137.4591055, "tags": {"name": "\u897f\u5165\u5584", "name:en": "Nishi-Nyuzen", "name:ja": "\u897f\u5165\u5584", "name:ja_kana": "\u306b\u3057\u306b\u3085\u3046\u305c\u3093", "name:ja_rm": "Nishi-Ny\u016bzen", "name:ko": "\ub2c8\uc2dc\ub274\uc820", "operator": "\u3042\u3044\u306e\u98a8\u3068\u3084\u307e\u9244\u9053", "public_transport": "station", "railway": "station", "source": "KSJ2", "wikidata": "Q5359656", "wikipedia": "ja:\u897f\u5165\u5584\u99c5"}}, {"type": "node", "id": 8153723836, "lat": 36.9415048, "lon": 137.4996901, "tags": {"name": "\u5165\u5584", "name:en": "Nyuzen", "name:ja": "\u5165\u5584", "name:ja_kana": "\u306b\u3085\u3046\u305c\u3093", "name:ja_rm": "Ny\u016bzen", "name:ko": "\ub274\uc820", "operator": "\u3042\u3044\u306e\u98a8\u3068\u3084\u307e\u9244\u9053", "public_transport": "station", "railway": "station", "source": "KSJ2", "wikidata": "Q3701521", "wikipedia": "ja:\u5165\u5584\u99c5"}}, {"type": "node", "id": 8153724219, "lat": 36.9518488, "lon": 137.5557549, "tags": {"name": "\u6cca", "name:en": "Tomari", "name:ja": "\u6cca", "name:ko": "\ub3c4\ub9c8\ub9ac", "public_transport": "station", "railway": "station", "source": "KSJ2", "wikidata": "Q5359691", "wikipedia": "ja:\u6cca\u99c5 (\u5bcc\u5c71\u770c)"}}, {"type": "node", "id": 8153724249, "lat": 36.9737486, "lon": 137.5987426, "tags": {"name": "\u8d8a\u4e2d\u5bae\u5d0e", "name:en": "Etchu-Miyazaki", "name:ja": "\u8d8a\u4e2d\u5bae\u5d0e", "name:ja_kana": "\u3048\u3063\u3061\u3085\u3046\u307f\u3084\u3056\u304d", "name:ja_rm": "Etch\u016b-Miyazaki", "name:ko": "\uc5e3\ucd94\ubbf8\uc57c\uc790\ud0a4", "operator": "\u3042\u3044\u306e\u98a8\u3068\u3084\u307e\u9244\u9053", "public_transport": "station", "railway": "station", "source": "KSJ2", "wikidata": "Q3701462", "wikipedia": "ja:\u8d8a\u4e2d\u5bae\u5d0e\u99c5"}}, {"type": "node", "id": 8153724311, "lat": 36.9804094, "lon": 137.6502143, "tags": {"name": "\u5e02\u632f", "name:en": "Ichiburi", "name:ja": "\u5e02\u632f", "public_transport": "station", "railway": "station"}}, {"type": "node", "id": 8153881916, "lat": 36.7883, "lon": 137.3786205, "tags": {"name": "\u6771\u6ed1\u5ddd", "name:en": "Higashi-\u200bNamerikawa", "name:ja": "\u6771\u6ed1\u5ddd", "name:ja_kana": "\u3072\u304c\u3057\u306a\u3081\u308a\u304b\u308f", "name:ja_rm": "Higashi-Namerikawa", "name:ko": "\ud788\uac00\uc2dc\ub098\uba54\ub9ac\uce74\uc640", "operator": "\u3042\u3044\u306e\u98a8\u3068\u3084\u307e\u9244\u9053", "public_transport": "station", "railway": "station", "source": "KSJ2", "wikidata": "Q5359850", "wikipedia": "ja:\u6771\u6ed1\u5ddd\u99c5"}}, {"type": "node", "id": 8154338341, "lat": 36.7434682, "lon": 137.2983125, "tags": {"name": "\u6c34\u6a4b", "name:en": "Mizuhashi", "name:ja": "\u6c34\u6a4b", "name:ko": "\ubbf8\uc988\ud558\uc2dc", "operator": "\u3042\u3044\u306e\u98a8\u3068\u3084\u307e\u9244\u9053", "public_transport": "station", "railway": "station", "source": "KSJ2", "wikidata": "Q5359616", "wikipedia": "ja:\u6c34\u6a4b\u99c5"}}, {"type": "node", "id": 11733499148, "lat": 36.8743189, "lon": 137.481437, "tags": {"highspeed": "yes", "name": "\u9ed2\u90e8\u5b87\u5948\u6708\u6e29\u6cc9", "name:en": "Kurobe-Unazuki-Onsen", "name:ja-Hira": "\u304f\u308d\u3079\u3046\u306a\u3065\u304d\u304a\u3093\u305b\u3093", "name:ja_rm": "Kurobe-Unazuki-Onsen", "operator": "\u897f\u65e5\u672c\u65c5\u5ba2\u9244\u9053", "public_transport": "station", "railway": "station", "wikidata": "Q7497114", "wikipedia": "ja:\u9ed2\u90e8\u5b87\u5948\u6708\u6e29\u6cc9\u99c5"}}, {"type": "node", "id": 11733603219, "lat": 37.0068013, "lon": 137.7382109, "tags": {"name": "\u89aa\u4e0d\u77e5", "name:en": "Oyashirazu", "name:ja": "\u89aa\u4e0d\u77e5", "name:ko": "\uc624\uc57c\uc2dc\ub77c\uc988", "operator": "\u3048\u3061\u3054\u30c8\u30ad\u3081\u304d\u9244\u9053", "public_transport": "station", "railway": "station", "source": "KSJ2", "wikidata": "Q5359597", "wikipedia": "ja:\u89aa\u4e0d\u77e5\u99c5"}}]}