{"version": 0.6, "generator": "Overpass API 0.7.62.4 2390de5a", "osm3s": {"timestamp_osm_base": "2024-12-30T15:08:27Z", "copyright": "The data included in this document is from www.openstreetmap.org. The data is made available under ODbL."}, "elements": [{"type": "node", "id": 7924683443, "lat": 37.3717915, "lon": 137.2380984, "tags": {"addr:block_number": "9", "addr:city": "\u80fd\u767b\u753a", "addr:county": "\u9cf3\u73e0\u90e1", "addr:postcode": "927-0601", "addr:province": "\u77f3\u5ddd\u770c", "addr:quarter": "\u604b\u8def", "description": "\u306e\u3068\u9244\u9053\u80fd\u767b\u7dda\u5ec3\u7dda\u5f8c\u3001\u89b3\u5149\u65bd\u8a2d\u300c\u5965\u306e\u3068\u30c8\u30ed\u30c3\u30b3\u9244\u9053\u300d\u306e\u4e00\u90e8\u3068\u3057\u3066\u55b6\u696d\u4e2d", "name": "\u604b\u8def", "name:en": "Koiji", "name:ja": "\u604b\u8def", "phone": "080-8698-2559", "public_transport": "station", "railway": "station", "source": "survey", "train": "yes", "website": "https://notocho.jp/experience/1317/", "wikidata": "Q6426272", "wikipedia": "ja:\u604b\u8def\u99c5"}}, {"type": "node", "id": 7924683446, "lat": 37.3733878, "lon": 137.2375837, "tags": {"description": "\u89b3\u5149\u65bd\u8a2d\u300c\u5965\u306e\u3068\u30c8\u30ed\u30c3\u30b3\u9244\u9053\u300d\u6298\u308a\u8fd4\u3057\u5730\u70b9", "name": "\u5b97\u7384", "name:en": "S\u014dgen", "name:ja": "\u5b97\u7384", "public_transport": "station", "railway": "station", "source": "survey", "train": "yes"}}]}