{"version": 0.6, "generator": "Overpass API 0.7.62.4 2390de5a", "osm3s": {"timestamp_osm_base": "2024-12-30T15:15:41Z", "copyright": "The data included in this document is from www.openstreetmap.org. The data is made available under ODbL."}, "elements": [{"type": "node", "id": 264227559, "lat": 40.5515624, "lon": 139.9422281, "tags": {"KSJ2:LIN": "\u4e94\u80fd\u7dda", "KSJ2:STN": "\u5341\u4e8c\u6e56", "name": "\u5341\u4e8c\u6e56", "name:en": "J\u016bniko", "name:ja": "\u5341\u4e8c\u6e56", "name:ko": "\uc8fc\ub2c8\ucf54", "note": "National-Land Numerical Information (Railway) 2007, MLIT Japan", "note:ja": "\u56fd\u571f\u6570\u5024\u60c5\u5831\uff08\u9244\u9053\u30c7\u30fc\u30bf\uff09\u5e73\u621019\u5e74\u3000\u56fd\u571f\u4ea4\u901a\u7701", "public_transport": "station", "railway": "station", "source": "KSJ2", "source_ref": "http://nlftp.mlit.go.jp/ksj/jpgis/datalist/KsjTmplt-N02-v1_1.html", "wikidata": "Q6322342", "wikipedia": "ja:\u5341\u4e8c\u6e56\u99c5"}}, {"type": "node", "id": 264227563, "lat": 40.6082019, "lon": 139.8645962, "tags": {"KSJ2:LIN": "\u4e94\u80fd\u7dda", "KSJ2:STN": "\u826b\u4f5c", "name": "\u826b\u4f5c", "name:en": "Henashi", "name:ja": "\u826b\u4f5c", "name:ja_kana": "\u3078\u306a\u3057", "name:ja_rm": "Henashi", "name:ko": "\ud5e4\ub098\uc2dc", "note": "National-Land Numerical Information (Railway) 2007, MLIT Japan", "note:ja": "\u56fd\u571f\u6570\u5024\u60c5\u5831\uff08\u9244\u9053\u30c7\u30fc\u30bf\uff09\u5e73\u621019\u5e74\u3000\u56fd\u571f\u4ea4\u901a\u7701", "public_transport": "station", "railway": "station", "source": "KSJ2", "source_ref": "http://nlftp.mlit.go.jp/ksj/jpgis/datalist/KsjTmplt-N02-v1_1.html", "wikidata": "Q5713066", "wikipedia": "ja:\u826b\u4f5c\u99c5"}}, {"type": "node", "id": 264227648, "lat": 40.5933058, "lon": 139.871245, "tags": {"KSJ2:LIN": "\u4e94\u80fd\u7dda", "KSJ2:STN": "\u30a6\u30a7\u30b9\u30d1\u693f\u5c71", "name": "\u30a6\u30a7\u30b9\u30d1\u693f\u5c71", "name:en": "WeSPa-Tsubakiyama", "name:ja": "\u30a6\u30a7\u30b9\u30d1\u693f\u5c71", "name:ja_kana": "\u30a6\u30a7\u30b9\u30d1\u3064\u3070\u304d\u3084\u307e", "name:ko": "\uc6e8\uc2a4\ud30c\uc4f0\ubc14\ud0a4\uc57c\ub9c8", "note": "National-Land Numerical Information (Railway) 2007, MLIT Japan", "note:ja": "\u56fd\u571f\u6570\u5024\u60c5\u5831\uff08\u9244\u9053\u30c7\u30fc\u30bf\uff09\u5e73\u621019\u5e74\u3000\u56fd\u571f\u4ea4\u901a\u7701", "public_transport": "station", "railway": "station", "source": "KSJ2", "source_ref": "http://nlftp.mlit.go.jp/ksj/jpgis/datalist/KsjTmplt-N02-v1_1.html", "wikidata": "Q7977214", "wikipedia": "ja:\u30a6\u30a7\u30b9\u30d1\u693f\u5c71\u99c5"}}, {"type": "node", "id": 264227789, "lat": 40.6300899, "lon": 139.8913309, "tags": {"KSJ2:LIN": "\u4e94\u80fd\u7dda", "KSJ2:STN": "\u6a2a\u78ef", "name": "\u6a2a\u78ef", "name:en": "Yokoiso", "name:ja": "\u6a2a\u78ef", "name:ko": "\uc694\ucf54\uc774\uc18c", "note": "National-Land Numerical Information (Railway) 2007, MLIT Japan", "note:ja": "\u56fd\u571f\u6570\u5024\u60c5\u5831\uff08\u9244\u9053\u30c7\u30fc\u30bf\uff09\u5e73\u621019\u5e74\u3000\u56fd\u571f\u4ea4\u901a\u7701", "public_transport": "station", "railway": "station", "source": "KSJ2", "source_ref": "http://nlftp.mlit.go.jp/ksj/jpgis/datalist/KsjTmplt-N02-v1_1.html", "wikidata": "Q8054652", "wikipedia": "ja:\u6a2a\u78ef\u99c5"}}, {"type": "node", "id": 264227791, "lat": 40.586154, "lon": 139.8954495, "tags": {"KSJ2:LIN": "\u4e94\u80fd\u7dda", "KSJ2:STN": "\u9678\u5965\u6ca2\u8fba", "name": "\u9678\u5965\u6ca2\u8fba", "name:en": "Mutsu-Sawabe", "name:ja": "\u9678\u5965\u6ca2\u8fba", "name:ko": "\ubb34\uc4f0\uc0ac\uc640\ubca0", "note": "National-Land Numerical Information (Railway) 2007, MLIT Japan", "note:ja": "\u56fd\u571f\u6570\u5024\u60c5\u5831\uff08\u9244\u9053\u30c7\u30fc\u30bf\uff09\u5e73\u621019\u5e74\u3000\u56fd\u571f\u4ea4\u901a\u7701", "public_transport": "station", "railway": "station", "source": "KSJ2", "source_ref": "http://nlftp.mlit.go.jp/ksj/jpgis/datalist/KsjTmplt-N02-v1_1.html", "wikidata": "Q6944026", "wikipedia": "ja:\u9678\u5965\u6ca2\u8fba\u99c5"}}, {"type": "node", "id": 264228069, "lat": 40.5830902, "lon": 139.9245094, "tags": {"KSJ2:LIN": "\u4e94\u80fd\u7dda", "KSJ2:STN": "\u9678\u5965\u5ca9\u5d0e", "name": "\u9678\u5965\u5ca9\u5d0e", "name:en": "Mutsu-Iwasaki", "name:ja": "\u9678\u5965\u5ca9\u5d0e", "name:ko": "\ubb34\uc4f0\uc774\uc640\uc0ac\ud0a4", "note": "National-Land Numerical Information (Railway) 2007, MLIT Japan", "note:ja": "\u56fd\u571f\u6570\u5024\u60c5\u5831\uff08\u9244\u9053\u30c7\u30fc\u30bf\uff09\u5e73\u621019\u5e74\u3000\u56fd\u571f\u4ea4\u901a\u7701", "public_transport": "station", "railway": "station", "source": "KSJ2", "source_ref": "http://nlftp.mlit.go.jp/ksj/jpgis/datalist/KsjTmplt-N02-v1_1.html", "wikidata": "Q6944024", "wikipedia": "ja:\u9678\u5965\u5ca9\u5d0e\u99c5"}}, {"type": "node", "id": 9122714690, "lat": 40.6504406, "lon": 139.9294496, "tags": {"name": "\u6df1\u6d66", "name:en": "Fukaura", "name:ja": "\u6df1\u6d66", "name:ko": "\ud6c4\uce74\uc6b0\ub77c", "public_transport": "station", "railway": "station", "wikidata": "Q5507586", "wikipedia": "ja:\u6df1\u6d66\u99c5"}}]}