{"version": 0.6, "generator": "Overpass API 0.7.62.4 2390de5a", "osm3s": {"timestamp_osm_base": "2024-12-30T15:10:30Z", "copyright": "The data included in this document is from www.openstreetmap.org. The data is made available under ODbL."}, "elements": [{"type": "node", "id": 263064566, "lat": 37.3927414, "lon": 139.4134817, "tags": {"KSJ2:LIN": "\u53ea\u898b\u7dda", "KSJ2:STN": "\u4f1a\u6d25\u5927\u5869", "name": "\u4f1a\u6d25\u5927\u5869", "name:en": "Aizu-Oshio", "name:ja": "\u4f1a\u6d25\u5927\u5869", "name:ja_rm": "Aizu-\u014cshio", "name:ko": "\uc544\uc774\uc988\uc624\uc2dc\uc624", "note": "National-Land Numerical Information (Railway) 2007, MLIT Japan", "note:ja": "\u56fd\u571f\u6570\u5024\u60c5\u5831\uff08\u9244\u9053\u30c7\u30fc\u30bf\uff09\u5e73\u621019\u5e74\u3000\u56fd\u571f\u4ea4\u901a\u7701", "public_transport": "station", "railway": "station", "source": "KSJ2", "source_ref": "http://nlftp.mlit.go.jp/ksj/jpgis/datalist/KsjTmplt-N02-v1_1.html", "wikidata": "Q4699467", "wikipedia": "ja:\u4f1a\u6d25\u5927\u5869\u99c5"}}, {"type": "node", "id": 263065568, "lat": 37.347094, "lon": 139.050894, "tags": {"KSJ2:LIN": "\u53ea\u898b\u7dda", "KSJ2:STN": "\u4e0a\u6761", "name": "\u4e0a\u6761", "name:en": "Kamij\u014d", "name:ja": "\u4e0a\u6761", "name:ja-Hira": "\u304b\u307f\u3058\u3087\u3046", "name:ja_rm": "Kamij\u014d", "name:ko": "\uac00\ubbf8\uc870", "note": "National-Land Numerical Information (Railway) 2007, MLIT Japan", "note:ja": "\u56fd\u571f\u6570\u5024\u60c5\u5831\uff08\u9244\u9053\u30c7\u30fc\u30bf\uff09\u5e73\u621019\u5e74\u3000\u56fd\u571f\u4ea4\u901a\u7701", "public_transport": "station", "railway": "station", "source": "KSJ2", "source_ref": "http://nlftp.mlit.go.jp/ksj/jpgis/datalist/KsjTmplt-N02-v1_1.html", "wikidata": "Q6357835", "wikipedia": "ja:\u4e0a\u6761\u99c5 (\u65b0\u6f5f\u770c)"}}, {"type": "node", "id": 263065569, "lat": 37.3584139, "lon": 139.0660163, "tags": {"KSJ2:LIN": "\u53ea\u898b\u7dda", "KSJ2:STN": "\u5165\u5e83\u702c", "name": "\u5165\u5e83\u702c", "name:en": "Irihirose", "name:ja": "\u5165\u5e83\u702c", "name:ja_rm": "Irihirose", "name:ko": "\uc774\ub9ac\ud788\ub85c\uc138", "note": "National-Land Numerical Information (Railway) 2007, MLIT Japan", "note:ja": "\u56fd\u571f\u6570\u5024\u60c5\u5831\uff08\u9244\u9053\u30c7\u30fc\u30bf\uff09\u5e73\u621019\u5e74\u3000\u56fd\u571f\u4ea4\u901a\u7701", "public_transport": "station", "railway": "station", "source": "KSJ2", "source_ref": "http://nlftp.mlit.go.jp/ksj/jpgis/datalist/KsjTmplt-N02-v1_1.html", "wikidata": "Q6069716", "wikipedia": "ja:\u5165\u5e83\u702c\u99c5"}}, {"type": "node", "id": 263065570, "lat": 37.3936494, "lon": 139.3554577, "tags": {"KSJ2:LIN": "\u53ea\u898b\u7dda", "KSJ2:STN": "\u4f1a\u6d25\u5869\u6ca2", "name": "\u4f1a\u6d25\u5869\u6ca2", "name:en": "Aizu-Shiozawa", "name:ja": "\u4f1a\u6d25\u5869\u6ca2", "name:ja_rm": "Aizu-Shiozawa", "name:ko": "\uc544\uc774\uc988\uc2dc\uc624\uc790\uc640", "note": "National-Land Numerical Information (Railway) 2007, MLIT Japan", "note:ja": "\u56fd\u571f\u6570\u5024\u60c5\u5831\uff08\u9244\u9053\u30c7\u30fc\u30bf\uff09\u5e73\u621019\u5e74\u3000\u56fd\u571f\u4ea4\u901a\u7701", "railway": "station", "source": "KSJ2", "source_ref": "http://nlftp.mlit.go.jp/ksj/jpgis/datalist/KsjTmplt-N02-v1_1.html", "wikidata": "Q4699457", "wikipedia": "ja:\u4f1a\u6d25\u5869\u6ca2\u99c5"}}, {"type": "node", "id": 263065744, "lat": 37.3416074, "lon": 139.120983, "tags": {"KSJ2:LIN": "\u53ea\u898b\u7dda", "KSJ2:STN": "\u5927\u767d\u5ddd", "name": "\u5927\u767d\u5ddd", "name:en": "\u014cshirakawa", "name:ja": "\u5927\u767d\u5ddd", "name:ja_rm": "\u014cshirakawa", "name:ko": "\uc624\uc2dc\ub77c\uce74\uc640", "note": "National-Land Numerical Information (Railway) 2007, MLIT Japan", "note:ja": "\u56fd\u571f\u6570\u5024\u60c5\u5831\uff08\u9244\u9053\u30c7\u30fc\u30bf\uff09\u5e73\u621019\u5e74\u3000\u56fd\u571f\u4ea4\u901a\u7701", "public_transport": "station", "railway": "station", "source": "KSJ2", "source_ref": "http://nlftp.mlit.go.jp/ksj/jpgis/datalist/KsjTmplt-N02-v1_1.html", "wikidata": "Q8081711", "wikipedia": "ja:\u5927\u767d\u5ddd\u99c5"}}, {"type": "node", "id": 263065974, "lat": 37.3816379, "lon": 139.3332882, "tags": {"KSJ2:LIN": "\u53ea\u898b\u7dda", "KSJ2:STN": "\u4f1a\u6d25\u84b2\u751f", "name": "\u4f1a\u6d25\u84b2\u751f", "name:en": "Aizu-Gamo", "name:ja": "\u4f1a\u6d25\u84b2\u751f", "name:ja_rm": "Aizu-Gam\u014d", "name:ko": "\uc544\uc774\uc988\uac00\ubaa8", "note": "National-Land Numerical Information (Railway) 2007, MLIT Japan", "note:ja": "\u56fd\u571f\u6570\u5024\u60c5\u5831\uff08\u9244\u9053\u30c7\u30fc\u30bf\uff09\u5e73\u621019\u5e74\u3000\u56fd\u571f\u4ea4\u901a\u7701", "public_transport": "station", "railway": "station", "source": "KSJ2", "source_ref": "http://nlftp.mlit.go.jp/ksj/jpgis/datalist/KsjTmplt-N02-v1_1.html", "wikidata": "Q4699443", "wikipedia": "ja:\u4f1a\u6d25\u84b2\u751f\u99c5"}}, {"type": "node", "id": 263065976, "lat": 37.257108, "lon": 138.976124, "tags": {"KSJ2:LIN": "\u53ea\u898b\u7dda", "KSJ2:STN": "\u85ea\u795e", "name": "\u85ea\u795e", "name:en": "Yabukami", "name:ja": "\u85ea\u795e", "name:ja_rm": "Yabukami", "name:ko": "\uc57c\ubd80\uce74\ubbf8", "note": "National-Land Numerical Information (Railway) 2007, MLIT Japan", "note:ja": "\u56fd\u571f\u6570\u5024\u60c5\u5831\uff08\u9244\u9053\u30c7\u30fc\u30bf\uff09\u5e73\u621019\u5e74\u3000\u56fd\u571f\u4ea4\u901a\u7701", "public_transport": "station", "railway": "station", "source": "KSJ2", "source_ref": "http://nlftp.mlit.go.jp/ksj/jpgis/datalist/KsjTmplt-N02-v1_1.html", "wikidata": "Q8046393", "wikipedia": "ja:\u85ea\u795e\u99c5"}}, {"type": "node", "id": 263066045, "lat": 37.274883, "lon": 138.981489, "tags": {"KSJ2:LIN": "\u53ea\u898b\u7dda", "KSJ2:STN": "\u8d8a\u5f8c\u5e83\u702c", "name": "\u8d8a\u5f8c\u5e83\u702c", "name:en": "Echigo-Hirose", "name:ja": "\u8d8a\u5f8c\u5e83\u702c", "name:ja_rm": "Echigo-Hirose", "name:ko": "\uc5d0\uce58\uace0\ud788\ub85c\uc138", "note": "National-Land Numerical Information (Railway) 2007, MLIT Japan", "note:ja": "\u56fd\u571f\u6570\u5024\u60c5\u5831\uff08\u9244\u9053\u30c7\u30fc\u30bf\uff09\u5e73\u621019\u5e74\u3000\u56fd\u571f\u4ea4\u901a\u7701", "public_transport": "station", "railway": "station", "source": "KSJ2", "source_ref": "http://nlftp.mlit.go.jp/ksj/jpgis/datalist/KsjTmplt-N02-v1_1.html", "wikidata": "Q5332409", "wikipedia": "ja:\u8d8a\u5f8c\u5e83\u702c\u99c5"}}, {"type": "node", "id": 263066146, "lat": 37.3204553, "lon": 139.0176287, "tags": {"KSJ2:LIN": "\u53ea\u898b\u7dda", "KSJ2:STN": "\u8d8a\u5f8c\u9808\u539f", "name": "\u8d8a\u5f8c\u9808\u539f", "name:en": "Echigo-Suhara", "name:ja": "\u8d8a\u5f8c\u9808\u539f", "name:ja_rm": "Echigo-Suhara", "name:ko": "\uc5d0\uce58\uace0\uc2a4\ud558\ub77c", "note": "National-Land Numerical Information (Railway) 2007, MLIT Japan", "note:ja": "\u56fd\u571f\u6570\u5024\u60c5\u5831\uff08\u9244\u9053\u30c7\u30fc\u30bf\uff09\u5e73\u621019\u5e74\u3000\u56fd\u571f\u4ea4\u901a\u7701", "public_transport": "station", "railway": "station", "source": "KSJ2", "source_ref": "http://nlftp.mlit.go.jp/ksj/jpgis/datalist/KsjTmplt-N02-v1_1.html", "wikidata": "Q5332423", "wikipedia": "ja:\u8d8a\u5f8c\u9808\u539f\u99c5"}}, {"type": "node", "id": 263066252, "lat": 37.3506308, "lon": 139.3151856, "tags": {"KSJ2:LIN": "\u53ea\u898b\u7dda", "KSJ2:STN": "\u53ea\u898b", "name": "\u53ea\u898b", "name:en": "Tadami", "name:ja": "\u53ea\u898b", "name:ja_rm": "Tadami", "name:ko": "\ub2e4\ub2e4\ubbf8", "note": "National-Land Numerical Information (Railway) 2007, MLIT Japan", "note:ja": "\u56fd\u571f\u6570\u5024\u60c5\u5831\uff08\u9244\u9053\u30c7\u30fc\u30bf\uff09\u5e73\u621019\u5e74\u3000\u56fd\u571f\u4ea4\u901a\u7701", "public_transport": "station", "railway": "station", "source": "KSJ2", "source_ref": "http://nlftp.mlit.go.jp/ksj/jpgis/datalist/KsjTmplt-N02-v1_1.html", "wikidata": "Q7674312", "wikipedia": "ja:\u53ea\u898b\u99c5"}}, {"type": "node", "id": 263066521, "lat": 37.2943922, "lon": 138.9926298, "tags": {"KSJ2:LIN": "\u53ea\u898b\u7dda", "KSJ2:STN": "\u9b5a\u6cbc\u7530\u4e2d", "name": "\u9b5a\u6cbc\u7530\u4e2d", "name:en": "Uonuma-Tanaka", "name:ja": "\u9b5a\u6cbc\u7530\u4e2d", "name:ja_rm": "Uonuma-Tanaka", "name:ko": "\uc6b0\uc624\ub204\ub9c8\ud0c0\ub098\uce74", "note": "National-Land Numerical Information (Railway) 2007, MLIT Japan", "note:ja": "\u56fd\u571f\u6570\u5024\u60c5\u5831\uff08\u9244\u9053\u30c7\u30fc\u30bf\uff09\u5e73\u621019\u5e74\u3000\u56fd\u571f\u4ea4\u901a\u7701", "public_transport": "station", "railway": "station", "source": "KSJ2", "source_ref": "http://nlftp.mlit.go.jp/ksj/jpgis/datalist/KsjTmplt-N02-v1_1.html", "wikidata": "Q286320", "wikipedia": "ja:\u9b5a\u6cbc\u7530\u4e2d\u99c5"}}, {"type": "node", "id": 264414325, "lat": 37.6548332, "lon": 138.8737274, "tags": {"KSJ2:LIN": "\u8d8a\u5f8c\u7dda", "KSJ2:STN": "\u7c9f\u751f\u6d25", "name": "\u7c9f\u751f\u6d25", "name:en": "Aouzu", "name:ja": "\u7c9f\u751f\u6d25", "name:ko": "\uc544\uc624\uc988", "note": "National-Land Numerical Information (Railway) 2007, MLIT Japan", "note:ja": "\u56fd\u571f\u6570\u5024\u60c5\u5831\uff08\u9244\u9053\u30c7\u30fc\u30bf\uff09\u5e73\u621019\u5e74\u3000\u56fd\u571f\u4ea4\u901a\u7701", "railway": "station", "source": "KSJ2", "source_ref": "http://nlftp.mlit.go.jp/ksj/jpgis/datalist/KsjTmplt-N02-v1_1.html", "wikidata": "Q4833414", "wikipedia": "ja:\u7c9f\u751f\u6d25\u99c5"}}, {"type": "node", "id": 264414567, "lat": 37.6728105, "lon": 138.8709498, "tags": {"KSJ2:LIN": "\u8d8a\u5f8c\u7dda", "KSJ2:STN": "\u5357\u5409\u7530", "name": "\u5357\u5409\u7530", "name:en": "Minami-Yoshida", "name:ja": "\u5357\u5409\u7530", "name:ja_rm": "Minami Yoshida", "name:ko": "\ubbf8\ub098\ubbf8\uc694\uc2dc\ub2e4", "note": "National-Land Numerical Information (Railway) 2007, MLIT Japan", "note:ja": "\u56fd\u571f\u6570\u5024\u60c5\u5831\uff08\u9244\u9053\u30c7\u30fc\u30bf\uff09\u5e73\u621019\u5e74\u3000\u56fd\u571f\u4ea4\u901a\u7701", "railway": "station", "source": "KSJ2", "source_ref": "http://nlftp.mlit.go.jp/ksj/jpgis/datalist/KsjTmplt-N02-v1_1.html", "wikidata": "Q6862991", "wikipedia": "ja:\u5357\u5409\u7530\u99c5"}}, {"type": "node", "id": 264801521, "lat": 37.5726667, "lon": 138.9280776, "tags": {"KSJ2:LIN": "\u4fe1\u8d8a\u7dda", "KSJ2:STN": "\u5e2f\u7e54", "name": "\u5e2f\u7e54", "name:en": "Obiori", "name:ja": "\u5e2f\u7e54", "name:ja_rm": "Obiori", "name:ko": "\uc624\ube44\uc624\ub9ac", "name:ru": "\u041e\u0431\u0438\u043e\u0440\u0438", "note": "National-Land Numerical Information (Railway) 2007, MLIT Japan", "note:ja": "\u56fd\u571f\u6570\u5024\u60c5\u5831\uff08\u9244\u9053\u30c7\u30fc\u30bf\uff09\u5e73\u621019\u5e74\u3000\u56fd\u571f\u4ea4\u901a\u7701", "public_transport": "station", "railway": "station", "source": "KSJ2", "source_ref": "http://nlftp.mlit.go.jp/ksj/jpgis/datalist/KsjTmplt-N02-v1_1.html", "wikidata": "Q11481209", "wikipedia": "ja:\u5e2f\u7e54\u99c5"}}, {"type": "node", "id": 264801525, "lat": 37.5047526, "lon": 138.8812197, "tags": {"KSJ2:LIN": "\u4fe1\u8d8a\u7dda", "KSJ2:STN": "\u62bc\u5207", "name": "\u62bc\u5207", "name:en": "Oshikiri", "name:ja": "\u62bc\u5207", "name:ja_rm": "Oshikiri", "name:ko": "\uc624\uc2dc\ud0a4\ub9ac", "name:ru": "\u041e\u0441\u0438\u043a\u0438\u0440\u0438", "note": "National-Land Numerical Information (Railway) 2007, MLIT Japan", "note:ja": "\u56fd\u571f\u6570\u5024\u60c5\u5831\uff08\u9244\u9053\u30c7\u30fc\u30bf\uff09\u5e73\u621019\u5e74\u3000\u56fd\u571f\u4ea4\u901a\u7701", "public_transport": "station", "railway": "station", "source": "KSJ2", "source_ref": "http://nlftp.mlit.go.jp/ksj/jpgis/datalist/KsjTmplt-N02-v1_1.html", "wikidata": "Q7106616", "wikipedia": "ja:\u62bc\u5207\u99c5"}}, {"type": "node", "id": 264801586, "lat": 37.6589007, "lon": 139.0492466, "tags": {"KSJ2:LIN": "\u4fe1\u8d8a\u7dda", "KSJ2:STN": "\u52a0\u8302", "addr:block_number": "1", "addr:city": "\u52a0\u8302\u5e02", "addr:postcode": "9591378", "addr:province": "\u65b0\u6f5f\u770c", "addr:quarter": "\u99c5\u524d", "name": "\u52a0\u8302", "name:en": "Kamo", "name:ja": "\u52a0\u8302", "name:ja_rm": "Kamo", "name:ko": "\uac00\ubaa8", "name:ru": "\u041a\u0430\u043c\u043e", "note": "National-Land Numerical Information (Railway) 2007, MLIT Japan", "note:ja": "\u56fd\u571f\u6570\u5024\u60c5\u5831\uff08\u9244\u9053\u30c7\u30fc\u30bf\uff09\u5e73\u621019\u5e74\u3000\u56fd\u571f\u4ea4\u901a\u7701", "public_transport": "station", "railway": "station", "source": "KSJ2", "source_ref": "http://nlftp.mlit.go.jp/ksj/jpgis/datalist/KsjTmplt-N02-v1_1.html", "wikidata": "Q6358928", "wikipedia": "ja:\u52a0\u8302\u99c5 (\u65b0\u6f5f\u770c)"}}, {"type": "node", "id": 264801688, "lat": 37.6393074, "lon": 139.0147116, "tags": {"KSJ2:LIN": "\u4fe1\u8d8a\u7dda", "KSJ2:STN": "\u4fdd\u5185", "name": "\u4fdd\u5185", "name:en": "Honai", "name:ja": "\u4fdd\u5185", "name:ja_rm": "Honai", "name:ko": "\ud638\ub098\uc774", "name:ru": "\u0425\u043e\u043d\u0430\u0439", "note": "National-Land Numerical Information (Railway) 2007, MLIT Japan", "note:ja": "\u56fd\u571f\u6570\u5024\u60c5\u5831\uff08\u9244\u9053\u30c7\u30fc\u30bf\uff09\u5e73\u621019\u5e74\u3000\u56fd\u571f\u4ea4\u901a\u7701", "public_transport": "station", "railway": "station", "source": "KSJ2", "source_ref": "http://nlftp.mlit.go.jp/ksj/jpgis/datalist/KsjTmplt-N02-v1_1.html", "wikidata": "Q5891998", "wikipedia": "ja:\u4fdd\u5185\u99c5"}}, {"type": "node", "id": 264802111, "lat": 37.5940323, "lon": 138.9436914, "tags": {"KSJ2:LIN": "\u4fe1\u8d8a\u7dda", "KSJ2:STN": "\u6771\u5149\u5bfa", "name": "\u6771\u5149\u5bfa", "name:en": "Toukouji", "name:ja": "\u6771\u5149\u5bfa", "name:ja_rm": "T\u014dk\u014dji", "name:ko": "\ub3c4\ucf54\uc9c0", "name:ru": "\u0422\u043e\u043a\u043e\u0434\u0437\u0438", "note": "National-Land Numerical Information (Railway) 2007, MLIT Japan", "note:ja": "\u56fd\u571f\u6570\u5024\u60c5\u5831\uff08\u9244\u9053\u30c7\u30fc\u30bf\uff09\u5e73\u621019\u5e74\u3000\u56fd\u571f\u4ea4\u901a\u7701", "public_transport": "station", "railway": "station", "source": "KSJ2", "source_ref": "http://nlftp.mlit.go.jp/ksj/jpgis/datalist/KsjTmplt-N02-v1_1.html", "wikidata": "Q7862700", "wikipedia": "ja:\u6771\u5149\u5bfa\u99c5"}}, {"type": "node", "id": 264802208, "lat": 37.6211398, "lon": 138.960895, "tags": {"KSJ2:LIN": "\u4fe1\u8d8a\u7dda", "KSJ2:STN": "\u4e09\u6761", "name": "\u4e09\u6761", "name:en": "Sanjo", "name:ja": "\u4e09\u6761", "name:ja_rm": "Sanj\u014d", "name:ko": "\uc0b0\uc870", "name:ru": "\u0421\u0430\u043d\u0434\u0437\u0451", "note": "National-Land Numerical Information (Railway) 2007, MLIT Japan", "note:ja": "\u56fd\u571f\u6570\u5024\u60c5\u5831\uff08\u9244\u9053\u30c7\u30fc\u30bf\uff09\u5e73\u621019\u5e74\u3000\u56fd\u571f\u4ea4\u901a\u7701", "public_transport": "station", "railway": "station", "source": "KSJ2", "source_ref": "http://nlftp.mlit.go.jp/ksj/jpgis/datalist/KsjTmplt-N02-v1_1.html", "wikidata": "Q7418606", "wikipedia": "ja:\u4e09\u6761\u99c5 (\u65b0\u6f5f\u770c)"}}, {"type": "node", "id": 264802952, "lat": 37.632893, "lon": 138.954867, "tags": {"KSJ2:LIN": "\u5f25\u5f66\u7dda", "KSJ2:STN": "\u5317\u4e09\u6761", "name": "\u5317\u4e09\u6761", "name:en": "Kita-Sanjo", "name:ja": "\u5317\u4e09\u6761", "name:ko": "\uae30\ud0c0\uc0b0\uc870", "note": "National-Land Numerical Information (Railway) 2007, MLIT Japan", "note:ja": "\u56fd\u571f\u6570\u5024\u60c5\u5831\uff08\u9244\u9053\u30c7\u30fc\u30bf\uff09\u5e73\u621019\u5e74\u3000\u56fd\u571f\u4ea4\u901a\u7701", "railway": "station", "source": "KSJ2", "source_ref": "http://nlftp.mlit.go.jp/ksj/jpgis/datalist/KsjTmplt-N02-v1_1.html", "wikidata": "Q6417595", "wikipedia": "ja:\u5317\u4e09\u6761\u99c5"}}, {"type": "node", "id": 264803061, "lat": 37.6485485, "lon": 138.9401008, "tags": {"KSJ2:LIN": "\u5f25\u5f66\u7dda", "KSJ2:STN": "\u71d5\u4e09\u6761", "name": "\u71d5\u4e09\u6761", "name:en": "Tsubame Sanjo", "name:ja": "\u71d5\u4e09\u6761", "name:ko": "\uc4f0\ubc14\uba54\uc0b0\uc870", "railway": "station", "source": "KSJ2", "wikidata": "Q1131871", "wikipedia": "ja:\u71d5\u4e09\u6761\u99c5"}}, {"type": "node", "id": 264812345, "lat": 37.2557054, "lon": 138.8964258, "tags": {"KSJ2:LIN": "\u4e0a\u8d8a\u7dda", "KSJ2:STN": "\u5317\u5800\u4e4b\u5185", "name": "\u5317\u5800\u4e4b\u5185", "name:en": "Kita-Horinouchi", "name:ja": "\u5317\u5800\u4e4b\u5185", "name:ja_rm": "Kita-Horinouchi", "name:ko": "\uae30\ud0c0\ud638\ub9ac\ub178\uc6b0\uce58", "note": "National-Land Numerical Information (Railway) 2007, MLIT Japan", "note:ja": "\u56fd\u571f\u6570\u5024\u60c5\u5831\uff08\u9244\u9053\u30c7\u30fc\u30bf\uff09\u5e73\u621019\u5e74\u3000\u56fd\u571f\u4ea4\u901a\u7701", "public_transport": "station", "railway": "station", "source": "KSJ2", "source_ref": "http://nlftp.mlit.go.jp/ksj/jpgis/datalist/KsjTmplt-N02-v1_1.html", "wikidata": "Q3698870", "wikipedia": "ja:\u5317\u5800\u4e4b\u5185\u99c5"}}, {"type": "node", "id": 264813042, "lat": 37.2390504, "lon": 138.9278948, "tags": {"KSJ2:LIN": "\u4e0a\u8d8a\u7dda", "KSJ2:STN": "\u8d8a\u5f8c\u5800\u4e4b\u5185", "name": "\u8d8a\u5f8c\u5800\u4e4b\u5185", "name:en": "Echigo-Horinouchi", "name:ja": "\u8d8a\u5f8c\u5800\u4e4b\u5185", "name:ja_rm": "Echigo-Horinouchi", "name:ko": "\uc5d0\uce58\uace0\ud638\ub9ac\ub178\uc6b0\uce58", "note": "National-Land Numerical Information (Railway) 2007, MLIT Japan", "note:ja": "\u56fd\u571f\u6570\u5024\u60c5\u5831\uff08\u9244\u9053\u30c7\u30fc\u30bf\uff09\u5e73\u621019\u5e74\u3000\u56fd\u571f\u4ea4\u901a\u7701", "public_transport": "station", "railway": "station", "source": "KSJ2", "source_ref": "http://nlftp.mlit.go.jp/ksj/jpgis/datalist/KsjTmplt-N02-v1_1.html", "wikidata": "Q3660584", "wikipedia": "ja:\u8d8a\u5f8c\u5800\u4e4b\u5185\u99c5"}}, {"type": "node", "id": 3548915152, "lat": 37.2337116, "lon": 138.953482, "tags": {"KSJ2:LIN": "\u4e0a\u8d8a\u7dda;\u53ea\u898b\u7dda", "KSJ2:STN": "\u5c0f\u51fa", "name": "\u5c0f\u51fa", "name:en": "Koide", "name:ja": "\u5c0f\u51fa", "name:ja_rm": "Koide", "name:ko": "\uace0\uc774\ub370", "note": "National-Land Numerical Information (Railway) 2007, MLIT Japan", "note:ja": "\u56fd\u571f\u6570\u5024\u60c5\u5831\uff08\u9244\u9053\u30c7\u30fc\u30bf\uff09\u5e73\u621019\u5e74\u3000\u56fd\u571f\u4ea4\u901a\u7701", "public_transport": "station", "railway": "station", "source": "KSJ2", "source_ref": "http://nlftp.mlit.go.jp/ksj/jpgis/datalist/KsjTmplt-N02-v1_1.html", "wikidata": "Q3660515", "wikipedia": "ja:\u5c0f\u51fa\u99c5"}}, {"type": "node", "id": 4358959796, "lat": 37.6285961, "lon": 138.9744628, "tags": {"KSJ2:LIN": "\u4fe1\u8d8a\u7dda;\u5f25\u5f66\u7dda", "KSJ2:STN": "\u6771\u4e09\u6761", "name": "\u6771\u4e09\u6761", "name:en": "Higashi-Sanjou", "name:ja": "\u6771\u4e09\u6761", "name:ja_rm": "Higashi-Sanj\u014d", "name:ko": "\ud788\uac00\uc2dc\uc0b0\uc870", "name:ru": "\u0425\u0438\u0433\u0430\u0441\u0438-\u0421\u0430\u043d\u0434\u0437\u0451", "note": "National-Land Numerical Information (Railway) 2007, MLIT Japan", "note:ja": "\u56fd\u571f\u6570\u5024\u60c5\u5831\uff08\u9244\u9053\u30c7\u30fc\u30bf\uff09\u5e73\u621019\u5e74\u3000\u56fd\u571f\u4ea4\u901a\u7701", "public_transport": "station", "railway": "station", "source": "KSJ2", "source_ref": "http://nlftp.mlit.go.jp/ksj/jpgis/datalist/KsjTmplt-N02-v1_1.html", "wikidata": "Q5753817", "wikipedia": "ja:\u6771\u4e09\u6761\u99c5"}}, {"type": "node", "id": 4358959799, "lat": 37.5401782, "lon": 138.9049476, "tags": {"KSJ2:LIN": "\u4fe1\u8d8a\u7dda", "KSJ2:STN": "\u898b\u9644", "name": "\u898b\u9644", "name:en": "Mitsuke", "name:ja": "\u898b\u9644", "name:ja_rm": "Mitsuke", "name:ko": "\ubbf8\uc4f0\ucf00", "name:ru": "\u041c\u0438\u0446\u0443\u043a\u0435", "note": "National-Land Numerical Information (Railway) 2007, MLIT Japan", "note:ja": "\u56fd\u571f\u6570\u5024\u60c5\u5831\uff08\u9244\u9053\u30c7\u30fc\u30bf\uff09\u5e73\u621019\u5e74\u3000\u56fd\u571f\u4ea4\u901a\u7701", "public_transport": "station", "railway": "station", "source": "KSJ2", "source_ref": "http://nlftp.mlit.go.jp/ksj/jpgis/datalist/KsjTmplt-N02-v1_1.html", "wikidata": "Q6883273", "wikipedia": "ja:\u898b\u9644\u99c5"}}, {"type": "node", "id": 5155605399, "lat": 37.6675996, "lon": 138.928302, "tags": {"KSJ2:LIN": "\u5f25\u5f66\u7dda", "KSJ2:STN": "\u71d5", "name": "\u71d5", "name:en": "Tsubame", "name:ja": "\u71d5", "name:ko": "\uc4f0\ubc14\uba54", "note": "National-Land Numerical Information (Railway) 2007, MLIT Japan", "note:ja": "\u56fd\u571f\u6570\u5024\u60c5\u5831\uff08\u9244\u9053\u30c7\u30fc\u30bf\uff09\u5e73\u621019\u5e74\u3000\u56fd\u571f\u4ea4\u901a\u7701", "railway": "station", "source": "KSJ2", "source_ref": "http://nlftp.mlit.go.jp/ksj/jpgis/datalist/KsjTmplt-N02-v1_1.html", "wikidata": "Q7849892", "wikipedia": "ja:\u71d5\u99c5"}}, {"type": "node", "id": 9015341705, "lat": 37.6483867, "lon": 138.9390312, "tags": {"KSJ2:LIN": "\u4e0a\u8d8a\u65b0\u5e79\u7dda", "KSJ2:STN": "\u71d5\u4e09\u6761", "highspeed": "yes", "name": "\u71d5\u4e09\u6761", "name:de": "Tsubame-Sanj\u014d", "name:en": "Tsubame-Sanjo", "name:ja": "\u71d5\u4e09\u6761", "name:ja_rm": "Tsubame-Sanj\u014d", "name:ko": "\uc4f0\ubc14\uba54\uc0b0\uc870", "name:ru": "\u0426\u0443\u0431\u0430\u043c\u0435-\u0421\u0430\u043d\u0434\u0437\u0451", "note": "National-Land Numerical Information (Administrative area) 2008, MLIT Japan;National-Land Numerical Information (Railway) 2007, MLIT Japan", "note:ja": "\u56fd\u571f\u6570\u5024\u60c5\u5831\uff08\u884c\u653f\u533a\u57df\u30c7\u30fc\u30bf\uff09\u5e73\u621020\u5e74\u3000\u56fd\u571f\u4ea4\u901a\u7701;\u56fd\u571f\u6570\u5024\u60c5\u5831\uff08\u9244\u9053\u30c7\u30fc\u30bf\uff09\u5e73\u621019\u5e74\u3000\u56fd\u571f\u4ea4\u901a\u7701", "public_transport": "station", "railway": "station", "source": "KSJ2", "source_ref": "http://nlftp.mlit.go.jp/ksj/jpgis/datalist/KsjTmplt-N02-v1_1.html;http://nlftp.mlit.go.jp/ksj/jpgis/datalist/KsjTmplt-N03.html", "wikidata": "Q1131871", "wikipedia": "ja:\u71d5\u4e09\u6761\u99c5"}}]}