{"version": 0.6, "generator": "Overpass API 0.7.62.4 2390de5a", "osm3s": {"timestamp_osm_base": "2024-12-30T15:07:30Z", "copyright": "The data included in this document is from www.openstreetmap.org. The data is made available under ODbL."}, "elements": [{"type": "node", "id": 265960103, "lat": 35.2742299, "lon": 135.337472, "tags": {"KSJ2:LIN": "\u5c71\u9670\u7dda", "KSJ2:STN": "\u7acb\u6728", "name": "\u7acb\u6728", "name:en": "Tachiki", "name:ja": "\u7acb\u6728", "name:ko": "\ub2e4\uce58\ud0a4", "note": "National-Land Numerical Information (Railway) 2007, MLIT Japan", "note:ja": "\u56fd\u571f\u6570\u5024\u60c5\u5831\uff08\u9244\u9053\u30c7\u30fc\u30bf\uff09\u5e73\u621019\u5e74\u3000\u56fd\u571f\u4ea4\u901a\u7701", "railway": "station", "source": "KSJ2", "source_ref": "http://nlftp.mlit.go.jp/ksj/jpgis/datalist/KsjTmplt-N02-v1_1.html", "wikidata": "Q871559", "wikipedia": "ja:\u7acb\u6728\u99c5"}}, {"type": "node", "id": 265961022, "lat": 35.1336917, "lon": 135.4920117, "tags": {"KSJ2:LIN": "\u5c71\u9670\u7dda", "KSJ2:STN": "\u8239\u5ca1", "name": "\u8239\u5ca1", "name:en": "Funaoka", "name:ja": "\u8239\u5ca1", "name:ko": "\ud6c4\ub098\uc624\uce74", "note": "National-Land Numerical Information (Railway) 2007, MLIT Japan", "note:ja": "\u56fd\u571f\u6570\u5024\u60c5\u5831\uff08\u9244\u9053\u30c7\u30fc\u30bf\uff09\u5e73\u621019\u5e74\u3000\u56fd\u571f\u4ea4\u901a\u7701", "operator": "\u897f\u65e5\u672c\u65c5\u5ba2\u9244\u9053", "operator:en": "West Japan Railway Company", "railway": "station", "source": "KSJ2", "source_ref": "http://nlftp.mlit.go.jp/ksj/jpgis/datalist/KsjTmplt-N02-v1_1.html", "wikidata": "Q871669", "wikipedia": "ja:\u8239\u5ca1\u99c5 (\u4eac\u90fd\u5e9c)"}}, {"type": "node", "id": 265961188, "lat": 35.1953739, "lon": 135.4682631, "tags": {"KSJ2:LIN": "\u5c71\u9670\u7dda", "KSJ2:STN": "\u80e1\u9ebb", "name": "\u80e1\u9ebb", "name:en": "Goma", "name:ja": "\u80e1\u9ebb", "name:ko": "\uace0\ub9c8", "note": "National-Land Numerical Information (Railway) 2007, MLIT Japan", "note:ja": "\u56fd\u571f\u6570\u5024\u60c5\u5831\uff08\u9244\u9053\u30c7\u30fc\u30bf\uff09\u5e73\u621019\u5e74\u3000\u56fd\u571f\u4ea4\u901a\u7701", "railway": "station", "source": "KSJ2", "source_ref": "http://nlftp.mlit.go.jp/ksj/jpgis/datalist/KsjTmplt-N02-v1_1.html", "wikidata": "Q369597", "wikipedia": "ja:\u80e1\u9ebb\u99c5"}}, {"type": "node", "id": 265961219, "lat": 35.1793964, "lon": 135.4895458, "tags": {"KSJ2:LIN": "\u5c71\u9670\u7dda", "KSJ2:STN": "\u937c\u7078\u5927\u5b66\u524d", "alt_name:ko": "\uc2e0\ud050\ub2e4\uc774\uac00\ucfe0\ub9c8\uc5d0", "name": "\u937c\u7078\u5927\u5b66\u524d", "name:en": "Shinky\u016b-Daigaku-mae", "name:ja": "\u937c\u7078\u5927\u5b66\u524d", "name:ko": "\uc2e0\ud050\ub300\ud559\uc55e", "note": "National-Land Numerical Information (Railway) 2007, MLIT Japan", "note:ja": "\u56fd\u571f\u6570\u5024\u60c5\u5831\uff08\u9244\u9053\u30c7\u30fc\u30bf\uff09\u5e73\u621019\u5e74\u3000\u56fd\u571f\u4ea4\u901a\u7701", "railway": "station", "source": "KSJ2", "source_ref": "http://nlftp.mlit.go.jp/ksj/jpgis/datalist/KsjTmplt-N02-v1_1.html", "wikidata": "Q871093", "wikipedia": "ja:\u937c\u7078\u5927\u5b66\u524d\u99c5"}}, {"type": "node", "id": 265961252, "lat": 35.2661033, "lon": 135.3849568, "tags": {"KSJ2:LIN": "\u5c71\u9670\u7dda", "KSJ2:STN": "\u5b89\u6816\u91cc", "name": "\u5b89\u6816\u91cc", "name:en": "Aseri", "name:ja": "\u5b89\u6816\u91cc", "name:ko": "\uc544\uc138\ub9ac", "note": "National-Land Numerical Information (Railway) 2007, MLIT Japan", "note:ja": "\u56fd\u571f\u6570\u5024\u60c5\u5831\uff08\u9244\u9053\u30c7\u30fc\u30bf\uff09\u5e73\u621019\u5e74\u3000\u56fd\u571f\u4ea4\u901a\u7701", "railway": "station", "source": "KSJ2", "source_ref": "http://nlftp.mlit.go.jp/ksj/jpgis/datalist/KsjTmplt-N02-v1_1.html", "wikidata": "Q871103", "wikipedia": "ja:\u5b89\u6816\u91cc\u99c5"}}, {"type": "node", "id": 265961544, "lat": 35.3050925, "lon": 135.207701, "tags": {"KSJ2:LIN": "\u5c71\u9670\u7dda", "KSJ2:STN": "\u9ad8\u6d25", "name": "\u9ad8\u6d25", "name:en": "Takatsu", "name:ja": "\u9ad8\u6d25", "name:ko": "\ub2e4\uce74\uc4f0", "note": "National-Land Numerical Information (Railway) 2007, MLIT Japan", "note:ja": "\u56fd\u571f\u6570\u5024\u60c5\u5831\uff08\u9244\u9053\u30c7\u30fc\u30bf\uff09\u5e73\u621019\u5e74\u3000\u56fd\u571f\u4ea4\u901a\u7701", "railway": "station", "source": "KSJ2", "source_ref": "http://nlftp.mlit.go.jp/ksj/jpgis/datalist/KsjTmplt-N02-v1_1.html", "wikidata": "Q872015", "wikipedia": "ja:\u9ad8\u6d25\u99c5 (\u4eac\u90fd\u5e9c)"}}, {"type": "node", "id": 265961913, "lat": 35.3011336, "lon": 135.1807397, "tags": {"KSJ2:LIN": "\u5c71\u9670\u7dda", "KSJ2:STN": "\u77f3\u539f", "name": "\u77f3\u539f", "name:en": "Isa", "name:ja": "\u77f3\u539f", "name:ja_rm": "Isa", "name:ko": "\uc774\uc0ac", "note": "National-Land Numerical Information (Railway) 2007, MLIT Japan", "note:ja": "\u56fd\u571f\u6570\u5024\u60c5\u5831\uff08\u9244\u9053\u30c7\u30fc\u30bf\uff09\u5e73\u621019\u5e74\u3000\u56fd\u571f\u4ea4\u901a\u7701", "railway": "station", "source": "KSJ2", "source_ref": "http://nlftp.mlit.go.jp/ksj/jpgis/datalist/KsjTmplt-N02-v1_1.html", "wikidata": "Q871655", "wikipedia": "ja:\u77f3\u539f\u99c5 (\u4eac\u90fd\u5e9c)"}}, {"type": "node", "id": 265962639, "lat": 35.2942546, "lon": 135.3194846, "tags": {"KSJ2:LIN": "\u5c71\u9670\u7dda", "KSJ2:STN": "\u5c71\u5bb6", "name": "\u5c71\u5bb6", "name:en": "Yamaga", "name:ja": "\u5c71\u5bb6", "name:ja-Hira": "\u3084\u307e\u304c", "name:ko": "\uc57c\ub9c8\uac00", "note": "National-Land Numerical Information (Railway) 2007, MLIT Japan", "note:ja": "\u56fd\u571f\u6570\u5024\u60c5\u5831\uff08\u9244\u9053\u30c7\u30fc\u30bf\uff09\u5e73\u621019\u5e74\u3000\u56fd\u571f\u4ea4\u901a\u7701", "public_transport": "station", "railway": "station", "source": "KSJ2 ; Survey", "source_ref": "http://nlftp.mlit.go.jp/ksj/jpgis/datalist/KsjTmplt-N02-v1_1.html", "wikidata": "Q871068", "wikipedia": "ja:\u5c71\u5bb6\u99c5"}}, {"type": "node", "id": 265962645, "lat": 35.0106898, "lon": 135.6022349, "tags": {"KSJ2:LIN": "\u5c71\u9670\u7dda", "KSJ2:STN": "\u99ac\u5800", "name": "\u99ac\u5800", "name:de": "Umahori", "name:en": "Umahori", "name:fr": "Umahori", "name:ja": "\u99ac\u5800", "name:ja_kana": "\u3046\u307e\u307b\u308a", "name:ko": "\uc6b0\ub9c8\ud638\ub9ac", "note": "National-Land Numerical Information (Railway) 2007, MLIT Japan", "note:ja": "\u56fd\u571f\u6570\u5024\u60c5\u5831\uff08\u9244\u9053\u30c7\u30fc\u30bf\uff09\u5e73\u621019\u5e74\u3000\u56fd\u571f\u4ea4\u901a\u7701", "public_transport": "station", "railway": "station", "source": "KSJ2", "source_ref": "http://nlftp.mlit.go.jp/ksj/jpgis/datalist/KsjTmplt-N02-v1_1.html", "wikidata": "Q1044103", "wikipedia": "ja:\u99ac\u5800\u99c5", "wikipedia:ja": "\u99ac\u5800\u99c5"}}, {"type": "node", "id": 265963108, "lat": 35.1024868, "lon": 135.483138, "tags": {"KSJ2:LIN": "\u5c71\u9670\u7dda", "KSJ2:STN": "\u5712\u90e8", "name": "\u5712\u90e8", "name:de": "Sonobe", "name:en": "Sonobe", "name:ja": "\u5712\u90e8", "name:ko": "\uc18c\ub178\ubca0", "note": "National-Land Numerical Information (Railway) 2007, MLIT Japan", "note:ja": "\u56fd\u571f\u6570\u5024\u60c5\u5831\uff08\u9244\u9053\u30c7\u30fc\u30bf\uff09\u5e73\u621019\u5e74\u3000\u56fd\u571f\u4ea4\u901a\u7701", "railway": "station", "source": "KSJ2", "source_ref": "http://nlftp.mlit.go.jp/ksj/jpgis/datalist/KsjTmplt-N02-v1_1.html", "wikidata": "Q1044120", "wikipedia": "ja:\u5712\u90e8\u99c5"}}, {"type": "node", "id": 265963398, "lat": 35.0167548, "lon": 135.5824693, "tags": {"KSJ2:LIN": "\u5c71\u9670\u7dda", "KSJ2:STN": "\u4e80\u5ca1", "name": "\u4e80\u5ca1", "name:de": "Kameoka", "name:en": "Kameoka", "name:ja": "\u4e80\u5ca1", "name:ko": "\uac00\uba54\uc624\uce74", "note": "National-Land Numerical Information (Railway) 2007, MLIT Japan", "note:ja": "\u56fd\u571f\u6570\u5024\u60c5\u5831\uff08\u9244\u9053\u30c7\u30fc\u30bf\uff09\u5e73\u621019\u5e74\u3000\u56fd\u571f\u4ea4\u901a\u7701", "public_transport": "station", "railway": "station", "source": "KSJ2", "source_ref": "http://nlftp.mlit.go.jp/ksj/jpgis/datalist/KsjTmplt-N02-v1_1.html", "wikidata": "Q1043696", "wikipedia": "ja:\u4e80\u5ca1\u99c5"}}, {"type": "node", "id": 265964289, "lat": 35.2124712, "lon": 135.4225002, "tags": {"KSJ2:LIN": "\u5c71\u9670\u7dda", "KSJ2:STN": "\u4e0b\u5c71", "name": "\u4e0b\u5c71", "name:en": "Shimoyama", "name:ja": "\u4e0b\u5c71", "name:ko": "\uc2dc\ubaa8\uc57c\ub9c8", "note": "National-Land Numerical Information (Railway) 2007, MLIT Japan", "note:ja": "\u56fd\u571f\u6570\u5024\u60c5\u5831\uff08\u9244\u9053\u30c7\u30fc\u30bf\uff09\u5e73\u621019\u5e74\u3000\u56fd\u571f\u4ea4\u901a\u7701", "railway": "station", "source": "KSJ2", "source_ref": "http://nlftp.mlit.go.jp/ksj/jpgis/datalist/KsjTmplt-N02-v1_1.html", "wikidata": "Q871720", "wikipedia": "ja:\u4e0b\u5c71\u99c5 (\u4eac\u90fd\u5e9c)"}}, {"type": "node", "id": 265964291, "lat": 35.0230685, "lon": 135.640152, "tags": {"KSJ2:LIN": "\u5c71\u9670\u7dda", "KSJ2:STN": "\u4fdd\u6d25\u5ce1", "name": "\u4fdd\u6d25\u5ce1", "name:de": "Hozuky\u014d", "name:en": "Hozukyo", "name:ja": "\u4fdd\u6d25\u5ce1", "name:ja-Kana": "\u307b\u305a\u304d\u3087\u3046", "name:ja-Latn": "Hozuky\u014d", "name:ko": "\ud638\uc988\ucfc4", "note": "National-Land Numerical Information (Railway) 2007, MLIT Japan", "note:ja": "\u56fd\u571f\u6570\u5024\u60c5\u5831\uff08\u9244\u9053\u30c7\u30fc\u30bf\uff09\u5e73\u621019\u5e74\u3000\u56fd\u571f\u4ea4\u901a\u7701", "operator": "\u897f\u65e5\u672c\u65c5\u5ba2\u9244\u9053", "operator:en": "West Japan Railway Company", "operator:wikidata": "Q502125", "public_transport": "station", "railway": "station", "ref": "JR-E09", "source": "KSJ2", "source_ref": "http://nlftp.mlit.go.jp/ksj/jpgis/datalist/KsjTmplt-N02-v1_1.html", "url": "http://www.jr-odekake.net/eki/top.php?id=0610705", "wikidata": "Q130505", "wikipedia": "ja:\u4fdd\u6d25\u5ce1\u99c5", "wikipedia:ja": "\u4fdd\u6d25\u5ce1\u99c5"}}, {"type": "node", "id": 265964619, "lat": 35.1623504, "lon": 135.5034726, "tags": {"KSJ2:LIN": "\u5c71\u9670\u7dda", "KSJ2:STN": "\u65e5\u5409", "name": "\u65e5\u5409", "name:en": "Hiyoshi", "name:ja": "\u65e5\u5409", "name:ko": "\ud788\uc694\uc2dc", "note": "National-Land Numerical Information (Railway) 2007, MLIT Japan", "note:ja": "\u56fd\u571f\u6570\u5024\u60c5\u5831\uff08\u9244\u9053\u30c7\u30fc\u30bf\uff09\u5e73\u621019\u5e74\u3000\u56fd\u571f\u4ea4\u901a\u7701", "railway": "station", "source": "KSJ2", "source_ref": "http://nlftp.mlit.go.jp/ksj/jpgis/datalist/KsjTmplt-N02-v1_1.html", "wikidata": "Q871551", "wikipedia": "ja:\u65e5\u5409\u99c5 (\u4eac\u90fd\u5e9c)"}}, {"type": "node", "id": 265966853, "lat": 35.261162, "lon": 135.3988326, "tags": {"KSJ2:LIN": "\u5c71\u9670\u7dda", "KSJ2:STN": "\u548c\u77e5", "name": "\u548c\u77e5", "name:en": "Wachi", "name:ja": "\u548c\u77e5", "name:ko": "\uc640\uce58", "note": "National-Land Numerical Information (Railway) 2007, MLIT Japan", "note:ja": "\u56fd\u571f\u6570\u5024\u60c5\u5831\uff08\u9244\u9053\u30c7\u30fc\u30bf\uff09\u5e73\u621019\u5e74\u3000\u56fd\u571f\u4ea4\u901a\u7701", "railway": "station", "source": "KSJ2", "source_ref": "http://nlftp.mlit.go.jp/ksj/jpgis/datalist/KsjTmplt-N02-v1_1.html", "wikidata": "Q870939", "wikipedia": "ja:\u548c\u77e5\u99c5"}}, {"type": "node", "id": 519550645, "lat": 34.9016603, "lon": 135.1896709, "tags": {"KSJ2:LIN": "\u516c\u5712\u90fd\u5e02\u7dda", "KSJ2:RAS": "eb03_3452", "KSJ2:STN": "\u5357\u30a6\u30c3\u30c7\u30a3\u30bf\u30a6\u30f3", "KSJ2:segment": "eb02_7001", "name": "\u5357\u30a6\u30c3\u30c7\u30a3\u30bf\u30a6\u30f3", "name:en": "Minami Woody Town", "name:ja": "\u5357\u30a6\u30c3\u30c7\u30a3\u30bf\u30a6\u30f3", "name:ja_rm": "Minami Udd'i Taun", "name:ko": "\ubbf8\ub098\ubbf8\uc6b0\ub514\ud0c0\uc6b4", "note": "National-Land Numerical Information (Railway) 2007, MLIT Japan", "note:ja": "\u56fd\u571f\u6570\u5024\u60c5\u5831\uff08\u9244\u9053\u30c7\u30fc\u30bf\uff09\u5e73\u621019\u5e74\u3000\u56fd\u571f\u4ea4\u901a\u7701", "operator": "\u795e\u6238\u96fb\u9244", "public_transport": "station", "railway": "station", "source": "KSJ2", "source_ref": "http://nlftp.mlit.go.jp/ksj/jpgis/datalist/KsjTmplt-N02-v1_1.html", "wikidata": "Q6863052", "wikipedia": "ja:\u5357\u30a6\u30c3\u30c7\u30a3\u30bf\u30a6\u30f3\u99c5"}}, {"type": "node", "id": 519550655, "lat": 34.909716, "lon": 135.1836684, "tags": {"KSJ2:LIN": "\u516c\u5712\u90fd\u5e02\u7dda", "KSJ2:RAS": "eb03_3453", "KSJ2:STN": "\u30a6\u30c3\u30c7\u30a3\u30bf\u30a6\u30f3\u4e2d\u592e", "KSJ2:segment": "eb02_6996", "name": "\u30a6\u30c3\u30c7\u30a3\u30bf\u30a6\u30f3\u4e2d\u592e", "name:en": "Woody Town Ch\u016b\u014d", "name:ja": "\u30a6\u30c3\u30c7\u30a3\u30bf\u30a6\u30f3\u4e2d\u592e", "name:ja-Hira": "\u3046\u3063\u3067\u3043\u305f\u3046\u3093\u3061\u3085\u3046\u304a\u3046", "name:ja_rm": "Udd'i taun ch\u016b\u014d", "name:ko": "\uc6b0\ub514\ud0c0\uc6b4\ucd94\uc624", "note": "National-Land Numerical Information (Railway) 2007, MLIT Japan", "note:ja": "\u56fd\u571f\u6570\u5024\u60c5\u5831\uff08\u9244\u9053\u30c7\u30fc\u30bf\uff09\u5e73\u621019\u5e74\u3000\u56fd\u571f\u4ea4\u901a\u7701", "operator": "\u795e\u6238\u96fb\u9244", "public_transport": "station", "railway": "station", "ref": "KB33", "source": "KSJ2", "source_ref": "http://nlftp.mlit.go.jp/ksj/jpgis/datalist/KsjTmplt-N02-v1_1.html", "wikidata": "Q8033703", "wikipedia": "ja:\u30a6\u30c3\u30c7\u30a3\u30bf\u30a6\u30f3\u4e2d\u592e\u99c5"}}, {"type": "node", "id": 823215106, "lat": 34.8855795, "lon": 135.2022631, "tags": {"KSJ2:LIN": "\u516c\u5712\u90fd\u5e02\u7dda", "KSJ2:segment": "eb02_7000", "name": "\u30d5\u30e9\u30ef\u30fc\u30bf\u30a6\u30f3", "name:en": "Flower Town", "name:ja": "\u30d5\u30e9\u30ef\u30fc\u30bf\u30a6\u30f3", "network": "\u795e\u6238\u96fb\u9244\u516c\u5712\u90fd\u5e02\u7dda", "note": "National-Land Numerical Information (Railway) 2007, MLIT Japan", "note:ja": "\u56fd\u571f\u6570\u5024\u60c5\u5831\uff08\u9244\u9053\u30c7\u30fc\u30bf\uff09\u5e73\u621019\u5e74\u3000\u56fd\u571f\u4ea4\u901a\u7701", "operator": "\u795e\u6238\u96fb\u9244", "railway": "station", "source": "KSJ2", "source_ref": "http://nlftp.mlit.go.jp/ksj/jpgis/datalist/KsjTmplt-N02-v1_1.html", "wikidata": "Q5462195", "wikipedia": "ja:\u30d5\u30e9\u30ef\u30fc\u30bf\u30a6\u30f3\u99c5"}}, {"type": "node", "id": 3163215065, "lat": 34.8883709, "lon": 135.2302703, "tags": {"name": "\u4e09\u7530", "name:en": "Sanda", "name:ja": "\u4e09\u7530", "name:ja_rm": "Sanda", "network": "\u795e\u6238\u96fb\u9244\u4e09\u7530\u7dda", "operator": "\u795e\u6238\u96fb\u9244", "public_transport": "station", "railway": "station", "ref": "KB29", "website": "https://www.shintetsu.co.jp/railway/station/sanda.html", "wheelchair": "limited", "wikidata": "Q856534", "wikipedia": "ja:\u4e09\u7530\u99c5 (\u5175\u5eab\u770c)"}}, {"type": "node", "id": 3843268141, "lat": 34.8817187, "lon": 135.2296112, "tags": {"name": "\u4e09\u7530\u672c\u753a", "name:en": "Sanda Hommachi", "name:ja": "\u4e09\u7530\u672c\u753a", "name:ko": "\uc0b0\ub2e4\ud63c\ub9c8\uce58", "network": "\u795e\u6238\u96fb\u9244\u4e09\u7530\u7dda;\u795e\u6238\u96fb\u9244\u516c\u5712\u90fd\u5e02\u7dda", "operator": "\u795e\u6238\u96fb\u9244", "public_transport": "station", "railway": "station", "ref": "KB28", "website": "https://www.shintetsu.co.jp/railway/station/sanda_hommachi.html", "wheelchair": "limited", "wikidata": "Q7415919", "wikipedia": "ja:\u4e09\u7530\u672c\u753a\u99c5"}}, {"type": "node", "id": 4307273710, "lat": 35.2960352, "lon": 135.1188702, "tags": {"name": "\u798f\u77e5\u5c71", "name:en": "Fukuchiyama", "name:ja": "\u798f\u77e5\u5c71", "name:ja_rm": "Fukuchiyama", "name:ko": "\ud6c4\ucfe0\uce58\uc57c\ub9c8", "operator": "\u897f\u65e5\u672c\u65c5\u5ba2\u9244\u9053", "public_transport": "station", "railway": "station", "train": "yes", "wikidata": "Q1131673", "wikipedia": "ja:\u798f\u77e5\u5c71\u99c5"}}, {"type": "node", "id": 4463275392, "lat": 34.8931851, "lon": 135.4124922, "tags": {"name": "\u5c71\u4e0b", "name:en": "Yamashita", "name:ja": "\u5c71\u4e0b", "name:ko": "\uc57c\ub9c8\uc2dc\ud0c0", "operator": "\u80fd\u52e2\u96fb\u9244", "railway": "station", "wikidata": "Q8047950", "wikipedia": "ja:\u5c71\u4e0b\u99c5 (\u5175\u5eab\u770c)"}}, {"type": "node", "id": 4921402785, "lat": 35.3021077, "lon": 135.2524536, "tags": {"KSJ2:LIN": "\u5c71\u9670\u7dda", "KSJ2:STN": "\u7dbe\u90e8", "name": "\u7dbe\u90e8", "name:de": "Ayabe", "name:en": "Ayabe", "name:ja": "\u7dbe\u90e8", "name:ko": "\uc544\uc57c\ubca0", "note": "National-Land Numerical Information (Railway) 2007, MLIT Japan", "note:ja": "\u56fd\u571f\u6570\u5024\u60c5\u5831\uff08\u9244\u9053\u30c7\u30fc\u30bf\uff09\u5e73\u621019\u5e74\u3000\u56fd\u571f\u4ea4\u901a\u7701", "public_transport": "station", "railway": "station", "source": "KSJ2", "source_ref": "http://nlftp.mlit.go.jp/ksj/jpgis/datalist/KsjTmplt-N02-v1_1.html", "wikidata": "Q871639", "wikipedia": "ja:\u7dbe\u90e8\u99c5"}}, {"type": "node", "id": 6055006691, "lat": 35.2078994, "lon": 135.1300469, "tags": {"KSJ2:LIN": "\u798f\u77e5\u5c71\u7dda", "KSJ2:STN": "\u5e02\u5cf6", "name": "\u5e02\u5cf6", "name:en": "Ichijima", "name:ja_kana": "\u3044\u3061\u3058\u307e", "operator": "\u897f\u65e5\u672c\u65c5\u5ba2\u9244\u9053", "operator:en": "West Japan Railway Company", "railway": "station", "website": "https://www.jr-odekake.net/eki/top.php?id=0630314", "wheelchair": "limited", "wikidata": "Q1043262", "wikipedia": "ja:\u5e02\u5cf6\u99c5"}}, {"type": "node", "id": 6312271723, "lat": 34.9059233, "lon": 135.4457013, "tags": {"name": "\u685c\u8c37", "railway": "station", "station": "miniature"}}, {"type": "node", "id": 6312271724, "lat": 34.9055015, "lon": 135.4456517, "tags": {"name": "\u98a8\u306e\u5ce0", "railway": "station", "station": "miniature"}}, {"type": "node", "id": 6877765328, "lat": 35.0920719, "lon": 135.4984725, "tags": {"KSJ2:LIN": "\u5c71\u9670\u7dda", "KSJ2:STN": "\u5409\u5bcc", "name": "\u5409\u5bcc", "name:de": "Yoshitomi", "name:en": "Yoshitomi", "name:ja": "\u5409\u5bcc", "name:ko": "\uc694\uc2dc\ud1a0\ubbf8", "note": "National-Land Numerical Information (Railway) 2007, MLIT Japan", "note:ja": "\u56fd\u571f\u6570\u5024\u60c5\u5831\uff08\u9244\u9053\u30c7\u30fc\u30bf\uff09\u5e73\u621019\u5e74\u3000\u56fd\u571f\u4ea4\u901a\u7701", "public_transport": "station", "railway": "station", "source": "KSJ2", "source_ref": "http://nlftp.mlit.go.jp/ksj/jpgis/datalist/KsjTmplt-N02-v1_1.html", "wikidata": "Q1044085", "wikipedia": "ja:\u5409\u5bcc\u99c5 (\u4eac\u90fd\u5e9c)"}}, {"type": "node", "id": 6877765358, "lat": 35.0690587, "lon": 135.5318686, "tags": {"KSJ2:LIN": "\u5c71\u9670\u7dda", "KSJ2:STN": "\u516b\u6728", "name": "\u516b\u6728", "name:de": "Yagi", "name:en": "Yagi", "name:ja": "\u516b\u6728", "name:ko": "\uc57c\uae30", "note": "National-Land Numerical Information (Railway) 2007, MLIT Japan", "note:ja": "\u56fd\u571f\u6570\u5024\u60c5\u5831\uff08\u9244\u9053\u30c7\u30fc\u30bf\uff09\u5e73\u621019\u5e74\u3000\u56fd\u571f\u4ea4\u901a\u7701", "operator": "\u897f\u65e5\u672c\u65c5\u5ba2\u9244\u9053", "operator:en": "West Japan Railway Company", "public_transport": "station", "railway": "station", "source": "KSJ2", "source_ref": "http://nlftp.mlit.go.jp/ksj/jpgis/datalist/KsjTmplt-N02-v1_1.html", "wikidata": "Q1043724", "wikipedia": "ja:\u516b\u6728\u99c5"}}, {"type": "node", "id": 6877765363, "lat": 35.0485571, "lon": 135.5483494, "tags": {"KSJ2:LIN": "\u5c71\u9670\u7dda", "KSJ2:STN": "\u5343\u4ee3\u5ddd", "internet_access": "no", "name": "\u5343\u4ee3\u5ddd", "name:de": "Chiyokawa", "name:en": "Chiyokawa", "name:ja": "\u5343\u4ee3\u5ddd", "name:ko": "\uc9c0\uc694\uce74\uc640", "note": "National-Land Numerical Information (Railway) 2007, MLIT Japan", "note:ja": "\u56fd\u571f\u6570\u5024\u60c5\u5831\uff08\u9244\u9053\u30c7\u30fc\u30bf\uff09\u5e73\u621019\u5e74\u3000\u56fd\u571f\u4ea4\u901a\u7701", "operator": "\u897f\u65e5\u672c\u65c5\u5ba2\u9244\u9053", "public_transport": "station", "railway": "station", "source": "KSJ2", "source_ref": "http://nlftp.mlit.go.jp/ksj/jpgis/datalist/KsjTmplt-N02-v1_1.html", "wikidata": "Q1043705", "wikipedia": "ja:\u5343\u4ee3\u5ddd\u99c5"}}, {"type": "node", "id": 6877765372, "lat": 35.0322673, "lon": 135.5550724, "tags": {"KSJ2:LIN": "\u5c71\u9670\u7dda", "KSJ2:STN": "\u4e26\u6cb3", "name": "\u4e26\u6cb3", "name:de": "Namikawa", "name:en": "Namikawa", "name:ja": "\u4e26\u6cb3", "name:ko": "\ub098\ubbf8\uce74\uc640", "note": "National-Land Numerical Information (Railway) 2007, MLIT Japan", "note:ja": "\u56fd\u571f\u6570\u5024\u60c5\u5831\uff08\u9244\u9053\u30c7\u30fc\u30bf\uff09\u5e73\u621019\u5e74\u3000\u56fd\u571f\u4ea4\u901a\u7701", "operator": "\u897f\u65e5\u672c\u65c5\u5ba2\u9244\u9053", "public_transport": "station", "railway": "station", "source": "KSJ2", "source_ref": "http://nlftp.mlit.go.jp/ksj/jpgis/datalist/KsjTmplt-N02-v1_1.html", "wikidata": "Q1044211", "wikipedia": "ja:\u4e26\u6cb3\u99c5"}}, {"type": "node", "id": 7828849658, "lat": 34.9001191, "lon": 135.4316478, "tags": {"KSJ2:LIN": "\u5999\u898b\u7dda", "KSJ2:RAS": "eb03_8841", "KSJ2:STN": "\u5149\u98a8\u53f0", "KSJ2:segment": "eb02_18854", "name": "\u5149\u98a8\u53f0", "name:en": "K\u014df\u016bdai", "name:ja": "\u5149\u98a8\u53f0", "name:ko": "\uace0\ud6c4\ub2e4\uc774", "network": "\u80fd\u52e2\u96fb\u9244\u5999\u898b\u7dda", "note": "National-Land Numerical Information (Railway) 2007, MLIT Japan", "note:ja": "\u56fd\u571f\u6570\u5024\u60c5\u5831\uff08\u9244\u9053\u30c7\u30fc\u30bf\uff09\u5e73\u621019\u5e74\u3000\u56fd\u571f\u4ea4\u901a\u7701", "operator": "\u80fd\u52e2\u96fb\u9244", "public_transport": "station", "railway": "station", "ref": "NS12", "source": "KSJ2", "source_ref": "http://nlftp.mlit.go.jp/ksj/jpgis/datalist/KsjTmplt-N02-v1_1.html", "wikidata": "Q6455110", "wikipedia": "ja:\u5149\u98a8\u53f0\u99c5 (\u5927\u962a\u5e9c)"}}, {"type": "node", "id": 7829100834, "lat": 34.9217698, "lon": 135.4509249, "tags": {"KSJ2:LIN": "\u80fd\u52e2\u96fb\u9244", "KSJ2:RAS": "eb03_8838", "KSJ2:STN": "\u9ed2\u5ddd", "KSJ2:segment": "eb02_18836", "name": "\u9ed2\u5ddd", "name:ja": "\u9ed2\u5ddd", "name:ko": "\ubb18\ucf04", "note": "National-Land Numerical Information (Railway) 2007, MLIT Japan", "note:ja": "\u56fd\u571f\u6570\u5024\u60c5\u5831\uff08\u9244\u9053\u30c7\u30fc\u30bf\uff09\u5e73\u621019\u5e74\u3000\u56fd\u571f\u4ea4\u901a\u7701, survey", "public_transport": "station", "railway": "station", "source": "KSJ2", "source_ref": "http://nlftp.mlit.go.jp/ksj/jpgis/datalist/KsjTmplt-N02-v1_1.html", "wikidata": "Q6947939", "wikipedia": "ja:\u80fd\u52e2\u96fb\u9244\u5999\u898b\u306e\u68ee\u30b1\u30fc\u30d6\u30eb"}}, {"type": "node", "id": 7829132213, "lat": 34.9065689, "lon": 135.3930797, "tags": {"KSJ2:LIN": "\u65e5\u751f\u7dda", "KSJ2:RAS": "eb03_8836", "KSJ2:STN": "\u65e5\u751f\u4e2d\u592e", "KSJ2:segment": "eb02_18831", "name": "\u65e5\u751f\u4e2d\u592e", "name:en": "Nissei-chuo", "name:ja": "\u65e5\u751f\u4e2d\u592e", "name:ko": "\ub2db\uc138\uc774\ucd94\uc624", "note": "National-Land Numerical Information (Railway) 2007, MLIT Japan", "note:ja": "\u56fd\u571f\u6570\u5024\u60c5\u5831\uff08\u9244\u9053\u30c7\u30fc\u30bf\uff09\u5e73\u621019\u5e74\u3000\u56fd\u571f\u4ea4\u901a\u7701", "public_transport": "station", "railway": "station", "source": "KSJ2", "source_ref": "http://nlftp.mlit.go.jp/ksj/jpgis/datalist/KsjTmplt-N02-v1_1.html", "wikidata": "Q11509696", "wikipedia": "ja:\u65e5\u751f\u4e2d\u592e\u99c5"}}, {"type": "node", "id": 7829132218, "lat": 34.9115905, "lon": 135.4448142, "tags": {"KSJ2:LIN": "\u5999\u898b\u7dda", "KSJ2:RAS": "eb03_8848", "KSJ2:STN": "\u5999\u898b\u53e3", "KSJ2:segment": "eb02_18838", "name": "\u5999\u898b\u53e3", "name:en": "My\u014dkenguchi", "name:ja": "\u5999\u898b\u53e3", "name:ja-Hira": "\u307f\u3087\u3046\u3051\u3093\u3050\u3061", "name:ko": "\ubb18\ucf04\uad6c\uce58", "network": "\u80fd\u52e2\u96fb\u9244\u5999\u898b\u7dda", "note": "National-Land Numerical Information (Railway) 2007, MLIT Japan", "note:ja": "\u56fd\u571f\u6570\u5024\u60c5\u5831\uff08\u9244\u9053\u30c7\u30fc\u30bf\uff09\u5e73\u621019\u5e74\u3000\u56fd\u571f\u4ea4\u901a\u7701", "operator": "\u80fd\u52e2\u96fb\u9244", "public_transport": "station", "railway": "station", "ref": "NS14", "source": "KSJ2", "source_ref": "http://nlftp.mlit.go.jp/ksj/jpgis/datalist/KsjTmplt-N02-v1_1.html", "wikidata": "Q6949396", "wikipedia": "ja:\u5999\u898b\u53e3\u99c5"}}, {"type": "node", "id": 7829148562, "lat": 34.8937627, "lon": 135.4160669, "tags": {"KSJ2:LIN": "\u5999\u898b\u7dda", "KSJ2:RAS": "eb03_8852", "KSJ2:STN": "\u7b39\u90e8", "KSJ2:segment": "eb02_18844", "name": "\u7b39\u90e8", "name:en": "Sasabe", "name:ja": "\u7b39\u90e8", "name:ko": "\uc0ac\uc0ac\ubca0", "network": "\u80fd\u52e2\u96fb\u9244\u5999\u898b\u7dda", "note": "National-Land Numerical Information (Railway) 2007, MLIT Japan", "note:ja": "\u56fd\u571f\u6570\u5024\u60c5\u5831\uff08\u9244\u9053\u30c7\u30fc\u30bf\uff09\u5e73\u621019\u5e74\u3000\u56fd\u571f\u4ea4\u901a\u7701", "operator": "\u80fd\u52e2\u96fb\u9244", "public_transport": "station", "railway": "station", "ref": "NS11", "source": "KSJ2", "source_ref": "http://nlftp.mlit.go.jp/ksj/jpgis/datalist/KsjTmplt-N02-v1_1.html", "wikidata": "Q7424961", "wikipedia": "ja:\u7b39\u90e8\u99c5"}}, {"type": "node", "id": 7829228213, "lat": 34.9060196, "lon": 135.4379619, "tags": {"KSJ2:LIN": "\u5999\u898b\u7dda", "KSJ2:RAS": "eb03_8851", "KSJ2:STN": "\u3068\u304d\u308f\u53f0", "KSJ2:segment": "eb02_18837", "name": "\u3068\u304d\u308f\u53f0", "name:en": "Tokiwadai", "name:ja": "\u3068\u304d\u308f\u53f0", "name:ko": "\ub3c4\ud0a4\uc640\ub2e4\uc774", "network": "\u80fd\u52e2\u96fb\u9244\u5999\u898b\u7dda", "note": "National-Land Numerical Information (Railway) 2007, MLIT Japan", "note:ja": "\u56fd\u571f\u6570\u5024\u60c5\u5831\uff08\u9244\u9053\u30c7\u30fc\u30bf\uff09\u5e73\u621019\u5e74\u3000\u56fd\u571f\u4ea4\u901a\u7701", "operator": "\u80fd\u52e2\u96fb\u9244", "public_transport": "station", "railway": "station", "ref": "NS13", "source": "KSJ2", "source_ref": "http://nlftp.mlit.go.jp/ksj/jpgis/datalist/KsjTmplt-N02-v1_1.html", "wikidata": "Q11273045", "wikipedia": "ja:\u3068\u304d\u308f\u53f0\u99c5 (\u5927\u962a\u5e9c)"}}, {"type": "node", "id": 7829228214, "lat": 34.9237975, "lon": 135.4570424, "tags": {"KSJ2:LIN": "\u80fd\u52e2\u96fb\u9244", "KSJ2:RAS": "eb03_8837", "KSJ2:STN": "\u30b1\u30fc\u30d6\u30eb\u5c71\u4e0a", "KSJ2:segment": "eb02_18835", "name": "\u30b1\u30fc\u30d6\u30eb\u5c71\u4e0a", "name:ja": "\u30b1\u30fc\u30d6\u30eb\u5c71\u4e0a", "name:ko": "\ucf00\uc774\ube14 \uc0b0\uc870", "note": "National-Land Numerical Information (Railway) 2007, MLIT Japan", "note:ja": "\u56fd\u571f\u6570\u5024\u60c5\u5831\uff08\u9244\u9053\u30c7\u30fc\u30bf\uff09\u5e73\u621019\u5e74\u3000\u56fd\u571f\u4ea4\u901a\u7701", "public_transport": "station", "railway": "station", "source": "KSJ2", "source_ref": "http://nlftp.mlit.go.jp/ksj/jpgis/datalist/KsjTmplt-N02-v1_1.html", "wikidata": "Q6947939", "wikipedia": "ja:\u80fd\u52e2\u96fb\u9244\u5999\u898b\u306e\u68ee\u30b1\u30fc\u30d6\u30eb"}}, {"type": "node", "id": 7835222973, "lat": 34.9284216, "lon": 135.1914031, "tags": {"KSJ2:LIN": "\u798f\u77e5\u5c71\u7dda", "KSJ2:STN": "\u5e83\u91ce", "name": "\u5e83\u91ce", "name:en": "Hirono", "name:ja": "\u5e83\u91ce", "name:ko": "\ud788\ub85c\ub178", "note": "National-Land Numerical Information (Railway) 2007, MLIT Japan", "note:ja": "\u56fd\u571f\u6570\u5024\u60c5\u5831\uff08\u9244\u9053\u30c7\u30fc\u30bf\uff09\u5e73\u621019\u5e74\u3000\u56fd\u571f\u4ea4\u901a\u7701", "operator": "\u897f\u65e5\u672c\u65c5\u5ba2\u9244\u9053", "operator:en": "West Japan Railway Company", "public_transport": "station", "railway": "station", "ref": "JR-G63", "source": "KSJ2", "source_ref": "http://nlftp.mlit.go.jp/ksj/jpgis/datalist/KsjTmplt-N02-v1_1.html", "wikidata": "Q856530", "wikipedia": "ja:\u5e83\u91ce\u99c5 (\u5175\u5eab\u770c)"}}, {"type": "node", "id": 7884493774, "lat": 35.0562515, "lon": 135.1774791, "tags": {"KSJ2:LIN": "\u798f\u77e5\u5c71\u7dda", "KSJ2:STN": "\u7be0\u5c71\u53e3", "name": "\u7be0\u5c71\u53e3", "name:en": "Sasayamaguchi", "name:ja": "\u7be0\u5c71\u53e3", "name:ko": "\uc0ac\uc0ac\uc57c\ub9c8\uad6c\uce58", "note": "National-Land Numerical Information (Railway) 2007, MLIT Japan", "note:ja": "\u56fd\u571f\u6570\u5024\u60c5\u5831\uff08\u9244\u9053\u30c7\u30fc\u30bf\uff09\u5e73\u621019\u5e74\u3000\u56fd\u571f\u4ea4\u901a\u7701", "public_transport": "station", "railway": "station", "source": "KSJ2", "source_ref": "http://nlftp.mlit.go.jp/ksj/jpgis/datalist/KsjTmplt-N02-v1_1.html", "wikidata": "Q966175", "wikipedia": "ja:\u7be0\u5c71\u53e3\u99c5"}}, {"type": "node", "id": 7884493777, "lat": 34.9970415, "lon": 135.1523695, "tags": {"KSJ2:LIN": "\u798f\u77e5\u5c71\u7dda", "KSJ2:STN": "\u8349\u91ce", "name": "\u8349\u91ce", "name:en": "Kusano", "name:ja": "\u8349\u91ce", "name:ko": "\uad6c\uc0ac\ub178", "note": "National-Land Numerical Information (Railway) 2007, MLIT Japan", "note:ja": "\u56fd\u571f\u6570\u5024\u60c5\u5831\uff08\u9244\u9053\u30c7\u30fc\u30bf\uff09\u5e73\u621019\u5e74\u3000\u56fd\u571f\u4ea4\u901a\u7701", "public_transport": "station", "railway": "station", "railway:ref": "JR-G66", "source": "KSJ2", "source_ref": "http://nlftp.mlit.go.jp/ksj/jpgis/datalist/KsjTmplt-N02-v1_1.html", "wikidata": "Q856525", "wikipedia": "ja:\u8349\u91ce\u99c5 (\u5175\u5eab\u770c)"}}, {"type": "node", "id": 8018028575, "lat": 35.2961643, "lon": 135.1188809, "tags": {"name": "\u798f\u77e5\u5c71", "name:en": "Fukuchiyama", "name:ja": "\u798f\u77e5\u5c71", "name:ja_rm": "Fukuchiyama", "name:ko": "\ud6c4\ucfe0\uce58\uc57c\ub9c8", "public_transport": "station", "railway": "station", "wikidata": "Q1131673", "wikipedia": "ja:\u798f\u77e5\u5c71\u99c5"}}, {"type": "node", "id": 8018056594, "lat": 35.2965256, "lon": 135.1179471, "tags": {"KSJ2:LIN": "\u5bae\u798f\u7dda", "KSJ2:STN": "\u798f\u77e5\u5c71", "name": "\u798f\u77e5\u5c71", "name:en": "Fukuchiyama", "name:ja": "\u798f\u77e5\u5c71", "name:ja_rm": "Fukuchiyama", "name:ko": "\ud6c4\ucfe0\uce58\uc57c\ub9c8", "note": "National-Land Numerical Information (Railway) 2007, MLIT Japan", "note:ja": "\u56fd\u571f\u6570\u5024\u60c5\u5831\uff08\u9244\u9053\u30c7\u30fc\u30bf\uff09\u5e73\u621019\u5e74\u3000\u56fd\u571f\u4ea4\u901a\u7701", "operator": "\u4eac\u90fd\u4e39\u5f8c\u9244\u9053", "public_transport": "station", "railway": "station", "source": "Bing", "wikidata": "Q1131673", "wikipedia": "ja:\u798f\u77e5\u5c71\u99c5"}}, {"type": "node", "id": 8018060094, "lat": 34.8889012, "lon": 135.2298465, "tags": {"name": "\u4e09\u7530", "name:en": "Sanda", "name:ja": "\u4e09\u7530", "public_transport": "station", "railway": "station", "ref": "JR-G61"}}, {"type": "node", "id": 8018126428, "lat": 35.2437144, "lon": 135.1341104, "tags": {"KSJ2:LIN": "\u798f\u77e5\u5c71\u7dda", "KSJ2:STN": "\u4e39\u6ce2\u7af9\u7530", "name": "\u4e39\u6ce2\u7af9\u7530", "name2": "\u4e39\u6ce2\u7af9\u7530 (Tamba-Takeda)", "name:en": "Tamba-Takeda", "name:ja": "\u4e39\u6ce2\u7af9\u7530", "name:ko": "\ub2e8\ubc14\ud0c0\ucf00\ub2e4", "note": "National-Land Numerical Information (Railway) 2007, MLIT Japan", "note:ja": "\u56fd\u571f\u6570\u5024\u60c5\u5831\uff08\u9244\u9053\u30c7\u30fc\u30bf\uff09\u5e73\u621019\u5e74\u3000\u56fd\u571f\u4ea4\u901a\u7701", "operator": "\u897f\u65e5\u672c\u65c5\u5ba2\u9244\u9053", "operator:en": "West Japan Railway Company", "public_transport": "station", "railway": "station", "source": "KSJ2", "source_ref": "http://nlftp.mlit.go.jp/ksj/jpgis/datalist/KsjTmplt-N02-v1_1.html", "wikidata": "Q1043249", "wikipedia": "ja:\u4e39\u6ce2\u7af9\u7530\u99c5"}}, {"type": "node", "id": 8018126459, "lat": 35.0723287, "lon": 135.1687157, "tags": {"KSJ2:LIN": "\u798f\u77e5\u5c71\u7dda", "KSJ2:STN": "\u4e39\u6ce2\u5927\u5c71", "name": "\u4e39\u6ce2\u5927\u5c71", "name:en": "Tamba-\u014cyama", "name:ja": "\u4e39\u6ce2\u5927\u5c71", "name:ko": "\ub2e8\ubc14\uc624\uc57c\ub9c8", "note": "National-Land Numerical Information (Railway) 2007, MLIT Japan", "note:ja": "\u56fd\u571f\u6570\u5024\u60c5\u5831\uff08\u9244\u9053\u30c7\u30fc\u30bf\uff09\u5e73\u621019\u5e74\u3000\u56fd\u571f\u4ea4\u901a\u7701", "public_transport": "station", "railway": "station", "source": "KSJ2", "source_ref": "http://nlftp.mlit.go.jp/ksj/jpgis/datalist/KsjTmplt-N02-v1_1.html", "wikidata": "Q1043193", "wikipedia": "ja:\u4e39\u6ce2\u5927\u5c71\u99c5"}}, {"type": "node", "id": 8018126460, "lat": 35.0375741, "lon": 135.1748855, "tags": {"KSJ2:LIN": "\u798f\u77e5\u5c71\u7dda", "KSJ2:STN": "\u5357\u77e2\u4ee3", "name": "\u5357\u77e2\u4ee3", "name:en": "Minamiyashiro", "name:ja": "\u5357\u77e2\u4ee3", "name:ko": "\ubbf8\ub098\ubbf8\uc57c\uc2dc\ub85c", "note": "National-Land Numerical Information (Railway) 2007, MLIT Japan", "note:ja": "\u56fd\u571f\u6570\u5024\u60c5\u5831\uff08\u9244\u9053\u30c7\u30fc\u30bf\uff09\u5e73\u621019\u5e74\u3000\u56fd\u571f\u4ea4\u901a\u7701", "public_transport": "station", "railway": "station", "source": "KSJ2", "source_ref": "http://nlftp.mlit.go.jp/ksj/jpgis/datalist/KsjTmplt-N02-v1_1.html", "wikidata": "Q856536", "wikipedia": "ja:\u5357\u77e2\u4ee3\u99c5"}}, {"type": "node", "id": 8018126463, "lat": 35.0219486, "lon": 135.1550558, "tags": {"KSJ2:LIN": "\u798f\u77e5\u5c71\u7dda", "KSJ2:STN": "\u53e4\u5e02", "name": "\u53e4\u5e02", "name:en": "Furuichi", "name:ja": "\u53e4\u5e02", "name:ko": "\ud6c4\ub8e8\uc774\uce58", "note": "National-Land Numerical Information (Railway) 2007, MLIT Japan", "note:ja": "\u56fd\u571f\u6570\u5024\u60c5\u5831\uff08\u9244\u9053\u30c7\u30fc\u30bf\uff09\u5e73\u621019\u5e74\u3000\u56fd\u571f\u4ea4\u901a\u7701", "public_transport": "station", "railway": "station", "source": "KSJ2", "source_ref": "http://nlftp.mlit.go.jp/ksj/jpgis/datalist/KsjTmplt-N02-v1_1.html", "wikidata": "Q741929", "wikipedia": "ja:\u53e4\u5e02\u99c5 (\u5175\u5eab\u770c)"}}, {"type": "node", "id": 8018126464, "lat": 34.9770784, "lon": 135.1554803, "tags": {"KSJ2:LIN": "\u798f\u77e5\u5c71\u7dda", "KSJ2:STN": "\u85cd\u672c", "name": "\u85cd\u672c", "name:en": "Aimoto", "name:ja": "\u85cd\u672c", "name:ko": "\uc544\uc774\ubaa8\ud1a0", "note": "National-Land Numerical Information (Railway) 2007, MLIT Japan", "note:ja": "\u56fd\u571f\u6570\u5024\u60c5\u5831\uff08\u9244\u9053\u30c7\u30fc\u30bf\uff09\u5e73\u621019\u5e74\u3000\u56fd\u571f\u4ea4\u901a\u7701", "public_transport": "station", "railway": "station", "railway:ref": "JR-G65", "source": "KSJ2", "source_ref": "http://nlftp.mlit.go.jp/ksj/jpgis/datalist/KsjTmplt-N02-v1_1.html", "wikidata": "Q1043156", "wikipedia": "ja:\u85cd\u672c\u99c5"}}, {"type": "node", "id": 8018126465, "lat": 34.9476518, "lon": 135.1559228, "tags": {"KSJ2:LIN": "\u798f\u77e5\u5c71\u7dda", "KSJ2:STN": "\u76f8\u91ce", "name": "\u76f8\u91ce", "name:en": "Aino", "name:ja": "\u76f8\u91ce", "name:ko": "\uc544\uc774\ub178", "note": "National-Land Numerical Information (Railway) 2007, MLIT Japan", "note:ja": "\u56fd\u571f\u6570\u5024\u60c5\u5831\uff08\u9244\u9053\u30c7\u30fc\u30bf\uff09\u5e73\u621019\u5e74\u3000\u56fd\u571f\u4ea4\u901a\u7701", "public_transport": "station", "railway": "station", "railway:ref": "JR-G64", "source": "KSJ2", "source_ref": "http://nlftp.mlit.go.jp/ksj/jpgis/datalist/KsjTmplt-N02-v1_1.html", "wikidata": "Q1043180", "wikipedia": "ja:\u76f8\u91ce\u99c5"}}, {"type": "node", "id": 8018126467, "lat": 34.9101823, "lon": 135.2086075, "tags": {"KSJ2:LIN": "\u798f\u77e5\u5c71\u7dda", "KSJ2:STN": "\u65b0\u4e09\u7530", "name": "\u65b0\u4e09\u7530", "name:en": "Shin-Sanda", "name:ja": "\u65b0\u4e09\u7530", "name:ko": "\uc2e0\uc0b0\ub2e4", "note": "National-Land Numerical Information (Railway) 2007, MLIT Japan", "note:ja": "\u56fd\u571f\u6570\u5024\u60c5\u5831\uff08\u9244\u9053\u30c7\u30fc\u30bf\uff09\u5e73\u621019\u5e74\u3000\u56fd\u571f\u4ea4\u901a\u7701", "public_transport": "station", "railway": "station", "railway:ref": "JR-G62", "source": "KSJ2", "source_ref": "http://nlftp.mlit.go.jp/ksj/jpgis/datalist/KsjTmplt-N02-v1_1.html", "wheelchair": "yes", "wikidata": "Q856477", "wikipedia": "ja:\u65b0\u4e09\u7530\u99c5"}}]}