{"version": 0.6, "generator": "Overpass API 0.7.62.4 2390de5a", "osm3s": {"timestamp_osm_base": "2024-12-30T14:59:15Z", "copyright": "The data included in this document is from www.openstreetmap.org. The data is made available under ODbL."}, "elements": [{"type": "node", "id": 263184425, "lat": 39.8714299, "lon": 140.0630447, "tags": {"KSJ2:LIN": "\u5965\u7fbd\u7dda", "KSJ2:STN": "\u5927\u4e45\u4fdd", "name": "\u5927\u4e45\u4fdd", "name:en": "Okubo", "name:ja": "\u5927\u4e45\u4fdd", "name:ja_rm": "\u014ckubo", "name:ko": "\uc624\ucfe0\ubcf4", "note": "National-Land Numerical Information (Railway) 2007, MLIT Japan", "note:ja": "\u56fd\u571f\u6570\u5024\u60c5\u5831\uff08\u9244\u9053\u30c7\u30fc\u30bf\uff09\u5e73\u621019\u5e74\u3000\u56fd\u571f\u4ea4\u901a\u7701", "public_transport": "station", "railway": "station", "source": "KSJ2", "source_ref": "http://nlftp.mlit.go.jp/ksj/jpgis/datalist/KsjTmplt-N02-v1_1.html", "wikidata": "Q11432075", "wikipedia": "ja:\u5927\u4e45\u4fdd\u99c5 (\u79cb\u7530\u770c)"}}, {"type": "node", "id": 263189158, "lat": 39.778903, "lon": 140.068609, "tags": {"KSJ2:LIN": "\u5965\u7fbd\u7dda", "KSJ2:STN": "\u4e0a\u98ef\u5cf6", "name": "\u4e0a\u98ef\u5cf6", "name:en": "Kami-Iijima", "name:ja": "\u4e0a\u98ef\u5cf6", "name:ja_rm": "Kami-Iijima", "name:ko": "\uac00\ubbf8\uc774\uc9c0\ub9c8", "note": "National-Land Numerical Information (Railway) 2007, MLIT Japan", "note:ja": "\u56fd\u571f\u6570\u5024\u60c5\u5831\uff08\u9244\u9053\u30c7\u30fc\u30bf\uff09\u5e73\u621019\u5e74\u3000\u56fd\u571f\u4ea4\u901a\u7701", "public_transport": "station", "railway": "station", "source": "KSJ2", "source_ref": "http://nlftp.mlit.go.jp/ksj/jpgis/datalist/KsjTmplt-N02-v1_1.html", "wikidata": "Q11360525", "wikipedia": "ja:\u4e0a\u98ef\u5cf6\u99c5"}}, {"type": "node", "id": 264229972, "lat": 39.8689681, "lon": 140.0040946, "tags": {"KSJ2:LIN": "\u7537\u9e7f\u7dda", "KSJ2:STN": "\u4e0a\u4e8c\u7530", "name": "\u4e0a\u4e8c\u7530", "name:en": "Kami-Futada", "name:ja": "\u4e0a\u4e8c\u7530", "name:ko": "\uac00\ubbf8\ud6c4\ud0c0\ub2e4", "note": "National-Land Numerical Information (Railway) 2007, MLIT Japan", "note:ja": "\u56fd\u571f\u6570\u5024\u60c5\u5831\uff08\u9244\u9053\u30c7\u30fc\u30bf\uff09\u5e73\u621019\u5e74\u3000\u56fd\u571f\u4ea4\u901a\u7701", "public_transport": "station", "railway": "station", "source": "KSJ2", "source_ref": "http://nlftp.mlit.go.jp/ksj/jpgis/datalist/KsjTmplt-N02-v1_1.html", "wikidata": "Q6357116", "wikipedia": "ja:\u4e0a\u4e8c\u7530\u99c5"}}, {"type": "node", "id": 264230483, "lat": 39.8988205, "lon": 139.9636176, "tags": {"KSJ2:LIN": "\u7537\u9e7f\u7dda", "KSJ2:STN": "\u5929\u738b", "name": "\u5929\u738b", "name:en": "Tenn\u014d", "name:ja": "\u5929\u738b", "name:ko": "\ub374\ub178", "note": "National-Land Numerical Information (Railway) 2007, MLIT Japan", "note:ja": "\u56fd\u571f\u6570\u5024\u60c5\u5831\uff08\u9244\u9053\u30c7\u30fc\u30bf\uff09\u5e73\u621019\u5e74\u3000\u56fd\u571f\u4ea4\u901a\u7701", "public_transport": "station", "railway": "station", "source": "KSJ2", "source_ref": "http://nlftp.mlit.go.jp/ksj/jpgis/datalist/KsjTmplt-N02-v1_1.html", "wikidata": "Q7700530", "wikipedia": "ja:\u5929\u738b\u99c5"}}, {"type": "node", "id": 264230602, "lat": 39.844411, "lon": 140.0244751, "tags": {"KSJ2:LIN": "\u7537\u9e7f\u7dda", "KSJ2:STN": "\u51fa\u6238\u6d5c", "name": "\u51fa\u6238\u6d5c", "name:en": "Detohama", "name:ja": "\u51fa\u6238\u6d5c", "name:ko": "\ub370\ud1a0\ud558\ub9c8", "note": "National-Land Numerical Information (Railway) 2007, MLIT Japan", "note:ja": "\u56fd\u571f\u6570\u5024\u60c5\u5831\uff08\u9244\u9053\u30c7\u30fc\u30bf\uff09\u5e73\u621019\u5e74\u3000\u56fd\u571f\u4ea4\u901a\u7701", "public_transport": "station", "railway": "station", "source": "KSJ2", "source_ref": "http://nlftp.mlit.go.jp/ksj/jpgis/datalist/KsjTmplt-N02-v1_1.html", "wikidata": "Q11395640", "wikipedia": "ja:\u51fa\u6238\u6d5c\u99c5"}}, {"type": "node", "id": 264231244, "lat": 39.4895423, "lon": 140.4981067, "tags": {"KSJ2:LIN": "\u7530\u6ca2\u6e56\u7dda", "KSJ2:STN": "\u5317\u5927\u66f2", "name": "\u5317\u5927\u66f2", "name:en": "Kita-Omagari", "name:ja": "\u5317\u5927\u66f2", "name:ja_rm": "Kita-\u014cmagari", "name:ko": "\uae30\ud0c0\uc624\ub9c8\uac00\ub9ac", "note": "National-Land Numerical Information (Railway) 2007, MLIT Japan", "note:ja": "\u56fd\u571f\u6570\u5024\u60c5\u5831\uff08\u9244\u9053\u30c7\u30fc\u30bf\uff09\u5e73\u621019\u5e74\u3000\u56fd\u571f\u4ea4\u901a\u7701", "public_transport": "station", "railway": "station", "source": "KSJ2", "source_ref": "http://nlftp.mlit.go.jp/ksj/jpgis/datalist/KsjTmplt-N02-v1_1.html", "wikidata": "Q6417640", "wikipedia": "ja:\u5317\u5927\u66f2\u99c5"}}, {"type": "node", "id": 264234230, "lat": 39.5190492, "lon": 140.5275442, "tags": {"KSJ2:LIN": "\u7530\u6ca2\u6e56\u7dda", "KSJ2:STN": "\u9453\u898b\u5185", "name": "\u9453\u898b\u5185", "name:en": "Yariminai", "name:ja": "\u9453\u898b\u5185", "name:ja_rm": "Yariminai", "name:ko": "\uc57c\ub9ac\ubbf8\ub098\uc774", "note": "National-Land Numerical Information (Railway) 2007, MLIT Japan", "note:ja": "\u56fd\u571f\u6570\u5024\u60c5\u5831\uff08\u9244\u9053\u30c7\u30fc\u30bf\uff09\u5e73\u621019\u5e74\u3000\u56fd\u571f\u4ea4\u901a\u7701", "public_transport": "station", "railway": "station", "source": "KSJ2", "source_ref": "http://nlftp.mlit.go.jp/ksj/jpgis/datalist/KsjTmplt-N02-v1_1.html", "wikidata": "Q8049341", "wikipedia": "ja:\u9453\u898b\u5185\u99c5"}}, {"type": "node", "id": 264868850, "lat": 39.905164, "lon": 140.452881, "tags": {"KSJ2:LIN": "\u79cb\u7530\u5185\u9678\u7dda", "KSJ2:STN": "\u6bd4\u7acb\u5185", "name": "\u6bd4\u7acb\u5185", "name:en": "Hitachinai", "name:ja": "\u6bd4\u7acb\u5185", "name:ko": "\ud788\ud0c0\uce58\ub098\uc774", "note": "National-Land Numerical Information (Railway) 2007, MLIT Japan", "note:ja": "\u56fd\u571f\u6570\u5024\u60c5\u5831\uff08\u9244\u9053\u30c7\u30fc\u30bf\uff09\u5e73\u621019\u5e74\u3000\u56fd\u571f\u4ea4\u901a\u7701", "operator": "\u79cb\u7530\u5185\u9678\u7e26\u8cab\u9244\u9053", "operator:website": "https://www.akita-nairiku.com/", "public_transport": "station", "railway": "station", "source": "KSJ2", "source_ref": "http://nlftp.mlit.go.jp/ksj/jpgis/datalist/KsjTmplt-N02-v1_1.html", "wikidata": "Q11547484", "wikipedia": "ja:\u6bd4\u7acb\u5185\u99c5"}}, {"type": "node", "id": 264870029, "lat": 39.9194365, "lon": 140.5161018, "tags": {"KSJ2:LIN": "\u79cb\u7530\u5185\u9678\u7dda", "KSJ2:STN": "\u963f\u4ec1\u30de\u30bf\u30ae", "name": "\u963f\u4ec1\u30de\u30bf\u30ae", "name:en": "Animatagi", "name:ja": "\u963f\u4ec1\u30de\u30bf\u30ae", "name:ko": "\uc544\ub2c8\ub9c8\ud0c0\uae30", "note": "National-Land Numerical Information (Railway) 2007, MLIT Japan", "note:ja": "\u56fd\u571f\u6570\u5024\u60c5\u5831\uff08\u9244\u9053\u30c7\u30fc\u30bf\uff09\u5e73\u621019\u5e74\u3000\u56fd\u571f\u4ea4\u901a\u7701", "operator": "\u79cb\u7530\u5185\u9678\u7e26\u8cab\u9244\u9053", "operator:website": "https://www.akita-nairiku.com/", "public_transport": "station", "railway": "station", "source": "KSJ2", "source_ref": "http://nlftp.mlit.go.jp/ksj/jpgis/datalist/KsjTmplt-N02-v1_1.html", "wikidata": "Q11657204", "wikipedia": "ja:\u963f\u4ec1\u30de\u30bf\u30ae\u99c5"}}, {"type": "node", "id": 4404106250, "lat": 39.8814272, "lon": 139.9871459, "tags": {"KSJ2:LIN": "\u7537\u9e7f\u7dda", "KSJ2:STN": "\u4e8c\u7530", "name": "\u4e8c\u7530", "name:en": "Futada", "name:ja": "\u4e8c\u7530", "name:ko": "\ud6c4\ud0c0\ub2e4", "note": "National-Land Numerical Information (Railway) 2007, MLIT Japan", "note:ja": "\u56fd\u571f\u6570\u5024\u60c5\u5831\uff08\u9244\u9053\u30c7\u30fc\u30bf\uff09\u5e73\u621019\u5e74\u3000\u56fd\u571f\u4ea4\u901a\u7701", "public_transport": "station", "railway": "station", "source": "KSJ2", "source_ref": "http://nlftp.mlit.go.jp/ksj/jpgis/datalist/KsjTmplt-N02-v1_1.html", "wikidata": "Q5510446", "wikipedia": "ja:\u4e8c\u7530\u99c5"}}, {"type": "node", "id": 5643841222, "lat": 39.7168833, "lon": 140.1296657, "tags": {"name": "\u79cb\u7530", "name:de": "Akita", "name:en": "Akita", "name:ja-Hira": "\u3042\u304d\u305f", "public_transport": "station", "railway": "station", "source": "GSImaps/ort", "train": "yes", "website": "https://www.jreast.co.jp/estation/station/info.aspx?StationCd=39", "wikidata": "Q1316396", "wikipedia": "ja:\u79cb\u7530\u99c5"}}, {"type": "node", "id": 5643841278, "lat": 39.6959501, "lon": 140.1166798, "tags": {"name": "\u7fbd\u5f8c\u725b\u5cf6", "name:en": "Ugo-Ushijima", "name:ja-Hira": "\u3046\u3054\u3046\u3057\u3058\u307e", "public_transport": "station", "railway": "station", "source": "GSImaps/ort", "train": "yes", "wikidata": "Q3701407", "wikipedia": "ja:\u7fbd\u5f8c\u725b\u5cf6\u99c5"}}, {"type": "node", "id": 6138421916, "lat": 39.4935411, "lon": 140.0631416, "tags": {"name": "\u7fbd\u5f8c\u4e80\u7530", "name:en": "Ugo-Kameda", "name:ja-Hira": "\u3046\u3054\u304b\u3081\u3060", "name:ja-Latn": "Ugokameda", "public_transport": "station", "railway": "station", "source": "KSJ2", "train": "yes", "wikidata": "Q7877842", "wikipedia": "ja:\u7fbd\u5f8c\u4e80\u7530\u99c5"}}, {"type": "node", "id": 6141739544, "lat": 39.6770069, "lon": 140.087555, "tags": {"name": "\u65b0\u5c4b", "name:en": "Araya", "name:ja-Hira": "\u3042\u3089\u3084", "name:ja-Latn": "Araya", "public_transport": "station", "railway": "station", "source": "KSJ2", "train": "yes", "wheelchair": "limited", "wheelchair:description": "\u30db\u30fc\u30e0\u307e\u3067\u306f\u968e\u6bb5\u3042\u308a", "wikidata": "Q3701512", "wikipedia": "ja:\u65b0\u5c4b\u99c5 (\u79cb\u7530\u770c)"}}, {"type": "node", "id": 6141755183, "lat": 39.6477454, "lon": 140.066379, "tags": {"name": "\u6842\u6839", "name:en": "Katsurane", "name:ja-Hira": "\u304b\u3064\u3089\u306d", "name:ja-Latn": "Katsurane", "public_transport": "station", "railway": "station", "source": "KSJ2", "train": "yes", "wikidata": "Q6378186", "wikipedia": "ja:\u6842\u6839\u99c5"}}, {"type": "node", "id": 6141782744, "lat": 39.618581, "lon": 140.0644867, "tags": {"name": "\u4e0b\u6d5c", "name:en": "Shimohama", "name:ja-Hira": "\u3057\u3082\u306f\u307e", "name:ja-Latn": "Shimohama", "public_transport": "station", "railway": "station", "source": "KSJ2", "train": "yes", "wikidata": "Q7496963", "wikipedia": "ja:\u4e0b\u6d5c\u99c5"}}, {"type": "node", "id": 6142256117, "lat": 39.5455453, "lon": 140.0549394, "tags": {"name": "\u5ca9\u57ce\u307f\u306a\u3068", "name:en": "Iwaki-Minato", "name:ja-Hira": "\u3044\u308f\u304d\u307f\u306a\u3068", "name:ja-Latn": "Iwakiminato", "public_transport": "station", "railway": "station", "source": "KSJ2", "train": "yes", "wikidata": "Q6100366", "wikipedia": "ja:\u5ca9\u57ce\u307f\u306a\u3068\u99c5"}}, {"type": "node", "id": 6142256126, "lat": 39.560543, "lon": 140.0568867, "tags": {"name": "\u9053\u5ddd", "name:en": "Michikawa", "name:ja-Hira": "\u307f\u3061\u304b\u308f", "name:ja-Latn": "Michikawa", "public_transport": "station", "railway": "station", "source": "KSJ2", "train": "yes", "wikidata": "Q6837874", "wikipedia": "ja:\u9053\u5ddd\u99c5"}}, {"type": "node", "id": 6142519638, "lat": 39.4762661, "lon": 140.0911653, "tags": {"name": "\u6298\u6e21", "name:en": "Oriwatari", "name:ja-Hira": "\u304a\u308a\u308f\u305f\u308a", "name:ja-Latn": "Oriwatari", "public_transport": "station", "railway": "station", "source": "KSJ2", "train": "yes", "wikidata": "Q7102890", "wikipedia": "ja:\u6298\u6e21\u99c5"}}, {"type": "node", "id": 6939085523, "lat": 39.7585058, "lon": 140.0737444, "tags": {"KSJ2:LIN": "\u5965\u7fbd\u7dda", "KSJ2:STN": "\u571f\u5d0e", "name": "\u571f\u5d0e", "name:en": "Tsuchizaki", "name:ja": "\u571f\u5d0e", "name:ja_rm": "Tsuchizaki", "name:ko": "\uc4f0\uce58\uc790\ud0a4", "note": "National-Land Numerical Information (Railway) 2007, MLIT Japan", "note:ja": "\u56fd\u571f\u6570\u5024\u60c5\u5831\uff08\u9244\u9053\u30c7\u30fc\u30bf\uff09\u5e73\u621019\u5e74\u3000\u56fd\u571f\u4ea4\u901a\u7701", "public_transport": "station", "railway": "station", "source": "KSJ2", "source_ref": "http://nlftp.mlit.go.jp/ksj/jpgis/datalist/KsjTmplt-N02-v1_1.html", "wikidata": "Q7849925", "wikipedia": "ja:\u571f\u5d0e\u99c5"}}, {"type": "node", "id": 7212837262, "lat": 39.7556097, "lon": 140.0609539, "tags": {"name": "\u79cb\u7530\u6e2f", "public_transport": "station", "railway": "station", "train": "yes", "wikidata": "Q11595384", "wikipedia": "ja:\u79cb\u7530\u6e2f\u99c5"}}, {"type": "node", "id": 7218567202, "lat": 39.5017238, "lon": 140.5120897, "tags": {"KSJ2:LIN": "\u7530\u6ca2\u6e56\u7dda", "KSJ2:STN": "\u7fbd\u5f8c\u56db\u30c4\u5c4b", "name": "\u7fbd\u5f8c\u56db\u30c4\u5c4b", "name:en": "Ugo-Yotsuya", "name:ja": "\u7fbd\u5f8c\u56db\u30c4\u5c4b", "name:ja_rm": "Ugo-Yotsuya", "name:ko": "\uc6b0\uace0\uc694\uc4f0\uc57c", "note": "National-Land Numerical Information (Railway) 2007, MLIT Japan", "note:ja": "\u56fd\u571f\u6570\u5024\u60c5\u5831\uff08\u9244\u9053\u30c7\u30fc\u30bf\uff09\u5e73\u621019\u5e74\u3000\u56fd\u571f\u4ea4\u901a\u7701", "public_transport": "station", "railway": "station", "source": "KSJ2", "source_ref": "http://nlftp.mlit.go.jp/ksj/jpgis/datalist/KsjTmplt-N02-v1_1.html", "wikidata": "Q7877845", "wikipedia": "ja:\u7fbd\u5f8c\u56db\u30c4\u5c4b\u99c5"}}, {"type": "node", "id": 7563016859, "lat": 39.9113832, "lon": 140.4891005, "tags": {"KSJ2:LIN": "\u79cb\u7530\u5185\u9678\u7dda", "KSJ2:STN": "\u5965\u963f\u4ec1", "name": "\u5965\u963f\u4ec1", "name:en": "Okuani", "name:ja": "\u5965\u963f\u4ec1", "name:ko": "\uc624\ucfe0\uc544\ub2c8", "note": "National-Land Numerical Information (Railway) 2007, MLIT Japan", "note:ja": "\u56fd\u571f\u6570\u5024\u60c5\u5831\uff08\u9244\u9053\u30c7\u30fc\u30bf\uff09\u5e73\u621019\u5e74\u3000\u56fd\u571f\u4ea4\u901a\u7701", "operator": "\u79cb\u7530\u5185\u9678\u7e26\u8cab\u9244\u9053", "operator:website": "https://www.akita-nairiku.com/", "public_transport": "station", "railway": "station", "source": "KSJ2", "source_ref": "http://nlftp.mlit.go.jp/ksj/jpgis/datalist/KsjTmplt-N02-v1_1.html", "wikidata": "Q11446172", "wikipedia": "ja:\u5965\u963f\u4ec1\u99c5"}}, {"type": "node", "id": 8512383562, "lat": 39.7383429, "lon": 140.1121732, "tags": {"name": "\u6cc9\u5916\u65ed\u5ddd", "name:en": "Izumi-Sotoasahikawa", "name:ja": "\u6cc9\u5916\u65ed\u5ddd", "name:ja-Hira": "\u3044\u305a\u307f\u305d\u3068\u3042\u3055\u3072\u304b\u308f", "public_transport": "station", "railway": "station", "source": "survey", "train": "yes", "wikidata": "Q85663702", "wikipedia": "ja:\u6cc9\u5916\u65ed\u5ddd\u99c5"}}, {"type": "node", "id": 8552999916, "lat": 39.8993918, "lon": 140.0732937, "tags": {"KSJ2:LIN": "\u5965\u7fbd\u7dda", "KSJ2:STN": "\u7fbd\u5f8c\u98ef\u585a", "name": "\u7fbd\u5f8c\u98ef\u585a", "name:en": "Ugo-Izuka", "name:ja": "\u7fbd\u5f8c\u98ef\u585a", "name:ja-Hira": "\u3046\u3054\u3044\u3044\u3065\u304b", "name:ja-Latn": "Ugo-\u012azuka", "name:ko": "\uc6b0\uace0\uc774\uc988\uce74", "note": "National-Land Numerical Information (Railway) 2007, MLIT Japan", "note:ja": "\u56fd\u571f\u6570\u5024\u60c5\u5831\uff08\u9244\u9053\u30c7\u30fc\u30bf\uff09\u5e73\u621019\u5e74\u3000\u56fd\u571f\u4ea4\u901a\u7701", "public_transport": "station", "railway": "station", "source": "KSJ2", "source_ref": "http://nlftp.mlit.go.jp/ksj/jpgis/datalist/KsjTmplt-N02-v1_1.html", "wikidata": "Q7877840", "wikipedia": "ja:\u7fbd\u5f8c\u98ef\u585a\u99c5"}}, {"type": "node", "id": 8553017642, "lat": 39.9116805, "lon": 140.0758365, "tags": {"name": "\u4e95\u5ddd\u3055\u304f\u3089", "name:en": "Ikawa-Sakura", "name:ja": "\u4e95\u5ddd\u3055\u304f\u3089", "name:ja-Hira": "\u3044\u304b\u308f\u3055\u304f\u3089", "name:ja-Latn": "Ikawa-Sakura", "name:ko": "\uc774\uce74\uc640\uc0ac\ucfe0\ub77c", "note": "National-Land Numerical Information (Railway) 2007, MLIT Japan", "note:ja": "\u56fd\u571f\u6570\u5024\u60c5\u5831\uff08\u9244\u9053\u30c7\u30fc\u30bf\uff09\u5e73\u621019\u5e74\u3000\u56fd\u571f\u4ea4\u901a\u7701", "public_transport": "station", "railway": "station", "source": "KSJ2", "source_ref": "http://nlftp.mlit.go.jp/ksj/jpgis/datalist/KsjTmplt-N02-v1_1.html", "train": "yes", "wikidata": "Q11373502", "wikipedia": "ja:\u4e95\u5ddd\u3055\u304f\u3089\u99c5"}}, {"type": "node", "id": 8617420335, "lat": 39.6634059, "lon": 140.2740329, "tags": {"KSJ2:LIN": "\u5965\u7fbd\u7dda", "KSJ2:STN": "\u5927\u5f35\u91ce", "name": "\u5927\u5f35\u91ce", "name:en": "Obarino", "name:ja": "\u5927\u5f35\u91ce", "name:ja-Kana": "\u304a\u304a\u3070\u308a\u306e", "name:ja-Latn": "\u014cbarino", "name:ko": "\uc624\ubc14\ub9ac\ub178", "note": "National-Land Numerical Information (Railway) 2007, MLIT Japan", "note:ja": "\u56fd\u571f\u6570\u5024\u60c5\u5831\uff08\u9244\u9053\u30c7\u30fc\u30bf\uff09\u5e73\u621019\u5e74\u3000\u56fd\u571f\u4ea4\u901a\u7701", "public_transport": "station", "railway": "station", "source": "KSJ2", "source_ref": "http://nlftp.mlit.go.jp/ksj/jpgis/datalist/KsjTmplt-N02-v1_1.html", "website": "https://www.jreast.co.jp/estation/station/info.aspx?StationCd=339", "wikidata": "Q8081428", "wikipedia": "ja:\u5927\u5f35\u91ce\u99c5"}}, {"type": "node", "id": 8651010528, "lat": 39.8098882, "lon": 140.0578985, "tags": {"KSJ2:LIN": "\u7537\u9e7f\u7dda", "KSJ2:STN": "\u8ffd\u5206", "name": "\u8ffd\u5206", "name:de": "Oiwake", "name:en": "Oiwake", "name:ja": "\u8ffd\u5206", "name:ja_rm": "Oiwake", "name:ko": "\uc624\uc774\uc640\ucf00", "note": "National-Land Numerical Information (Railway) 2007, MLIT Japan", "note:ja": "\u56fd\u571f\u6570\u5024\u60c5\u5831\uff08\u9244\u9053\u30c7\u30fc\u30bf\uff09\u5e73\u621019\u5e74\u3000\u56fd\u571f\u4ea4\u901a\u7701", "public_transport": "station", "railway": "station", "source": "KSJ2", "source_ref": "http://nlftp.mlit.go.jp/ksj/jpgis/datalist/KsjTmplt-N02-v1_1.html", "wikidata": "Q7081568", "wikipedia": "ja:\u8ffd\u5206\u99c5 (\u79cb\u7530\u770c)"}}, {"type": "node", "id": 11013105088, "lat": 39.6615812, "lon": 140.1449081, "tags": {"name": "\u56db\u30c4\u5c0f\u5c4b", "name:en": "Yotsugoya", "name:ja": "\u56db\u30c4\u5c0f\u5c4b", "name:ja-Kana": "\u3088\u3064\u3054\u3084", "name:ja-Latn": "Yotsugoya", "name:ko": "\uc694\uc4f0\uace0\uc57c", "public_transport": "station", "railway": "station", "website": "https://www.jreast.co.jp/estation/station/info.aspx?StationCd=1646", "wikidata": "Q8056427", "wikipedia": "ja:\u56db\u30c4\u5c0f\u5c4b\u99c5"}}, {"type": "node", "id": 11013105096, "lat": 39.6507193, "lon": 140.218526, "tags": {"name": "\u548c\u7530", "name:en": "Wada", "name:ja": "\u548c\u7530", "name:ja-Kana": "\u308f\u3060", "name:ja-Latn": "Wada", "name:ko": "\uc640\ub2e4", "public_transport": "station", "railway": "station", "website": "https://www.jreast.co.jp/estation/station/info.aspx?StationCd=1699", "wikidata": "Q7958926", "wikipedia": "ja:\u548c\u7530\u99c5"}}, {"type": "node", "id": 11013105097, "lat": 39.619163, "lon": 140.3206371, "tags": {"name": "\u7fbd\u5f8c\u5883", "name:en": "Ugo-Sakai", "name:ja": "\u7fbd\u5f8c\u5883", "name:ja-Kana": "\u3046\u3054\u3055\u304b\u3044", "name:ja-Latn": "Ugo-Sakai", "name:ko": "\uc6b0\uace0\uc0ac\uce74\uc774", "public_transport": "station", "railway": "station", "website": "https://www.jreast.co.jp/estation/station/info.aspx?StationCd=216", "wikidata": "Q7877844", "wikipedia": "ja:\u7fbd\u5f8c\u5883\u99c5"}}, {"type": "node", "id": 11013105099, "lat": 39.5665685, "lon": 140.3231777, "tags": {"name": "\u5cf0\u5409\u5ddd", "name:en": "Mineyoshikawa", "name:ja": "\u5cf0\u5409\u5ddd", "name:ja-Kana": "\u307f\u306d\u3088\u3057\u304b\u308f", "name:ja-Latn": "Mineyoshikawa", "name:ko": "\ubbf8\ub124\uc694\uc2dc\uce74\uc640", "public_transport": "station", "railway": "station", "website": "https://www.jreast.co.jp/estation/station/info.aspx?StationCd=1506", "wikidata": "Q6864601", "wikipedia": "ja:\u5cf0\u5409\u5ddd\u99c5"}}, {"type": "node", "id": 11013108811, "lat": 39.4953616, "lon": 140.426015, "tags": {"name": "\u795e\u5bae\u5bfa", "name:en": "Jinguji", "name:ja": "\u795e\u5bae\u5bfa", "name:ja-Kana": "\u3058\u3093\u3050\u3046\u3058", "name:ja-Latn": "Jing\u016bji", "name:ko": "\uc9c4\uad6c\uc9c0", "public_transport": "station", "railway": "station", "website": "https://www.jreast.co.jp/estation/station/info.aspx?StationCd=860", "wikidata": "Q6202485", "wikipedia": "ja:\u795e\u5bae\u5bfa\u99c5"}}, {"type": "node", "id": 11016790432, "lat": 39.5481379, "lon": 140.3719859, "tags": {"name": "\u5208\u548c\u91ce", "name:de": "Kariwano", "name:en": "Kariwano", "name:ja": "\u5208\u548c\u91ce", "name:ja-Kana": "\u304b\u308a\u308f\u306e", "name:ja-Latn": "Kariwano", "name:ko": "\uac00\ub9ac\uc640\ub178", "public_transport": "station", "railway": "station", "website": "https://www.jreast.co.jp/estation/station/info.aspx?StationCd=517", "wikidata": "Q6371117", "wikipedia": "ja:\u5208\u548c\u91ce\u99c5"}}]}