{"version": 0.6, "generator": "Overpass API 0.7.62.4 2390de5a", "osm3s": {"timestamp_osm_base": "2024-12-30T14:57:07Z", "copyright": "The data included in this document is from www.openstreetmap.org. The data is made available under ODbL."}, "elements": [{"type": "node", "id": 264812081, "lat": 37.0288622, "lon": 138.8284212, "tags": {"KSJ2:LIN": "\u4e0a\u8d8a\u7dda", "KSJ2:STN": "\u4e0a\u8d8a\u56fd\u969b\u30b9\u30ad\u30fc\u5834\u524d", "alt_name:ko": "\uc870\uc5d0\uc4f0\ucf54\ucfe0\uc0ac\uc774\uc2a4\ud0a4\uc870\ub9c8\uc5d0", "name": "\u4e0a\u8d8a\u56fd\u969b\u30b9\u30ad\u30fc\u5834\u524d", "name:en": "Joetsu-Kokusai-Ski-jo-mae", "name:ja": "\u4e0a\u8d8a\u56fd\u969b\u30b9\u30ad\u30fc\u5834\u524d", "name:ja_rm": "J\u014detsu-Kokusai-Ski-j\u014d-mae", "name:ko": "\uc870\uc5d0\uc4f0\uad6d\uc81c\uc2a4\ud0a4\uc7a5\uc55e", "note": "National-Land Numerical Information (Railway) 2007, MLIT Japan", "note:ja": "\u56fd\u571f\u6570\u5024\u60c5\u5831\uff08\u9244\u9053\u30c7\u30fc\u30bf\uff09\u5e73\u621019\u5e74\u3000\u56fd\u571f\u4ea4\u901a\u7701", "public_transport": "station", "railway": "station", "source": "KSJ2", "source_ref": "http://nlftp.mlit.go.jp/ksj/jpgis/datalist/KsjTmplt-N02-v1_1.html", "wikidata": "Q3660507", "wikipedia": "ja:\u4e0a\u8d8a\u56fd\u969b\u30b9\u30ad\u30fc\u5834\u524d\u99c5"}}, {"type": "node", "id": 264814993, "lat": 36.909711, "lon": 138.8484487, "tags": {"KSJ2:LIN": "\u4e0a\u8d8a\u7dda", "KSJ2:STN": "\u8d8a\u5f8c\u4e2d\u91cc", "name": "\u8d8a\u5f8c\u4e2d\u91cc", "name:en": "Echigo-Nakazato", "name:ja": "\u8d8a\u5f8c\u4e2d\u91cc", "name:ja_rm": "Echigo-Nakazato", "name:ko": "\uc5d0\uce58\uace0\ub098\uce74\uc790\ud1a0", "note": "National-Land Numerical Information (Railway) 2007, MLIT Japan", "note:ja": "\u56fd\u571f\u6570\u5024\u60c5\u5831\uff08\u9244\u9053\u30c7\u30fc\u30bf\uff09\u5e73\u621019\u5e74\u3000\u56fd\u571f\u4ea4\u901a\u7701", "public_transport": "station", "railway": "station", "source": "KSJ2", "source_ref": "http://nlftp.mlit.go.jp/ksj/jpgis/datalist/KsjTmplt-N02-v1_1.html", "wikidata": "Q3560256", "wikipedia": "ja:\u8d8a\u5f8c\u4e2d\u91cc\u99c5"}}, {"type": "node", "id": 264815313, "lat": 37.0213756, "lon": 138.8213997, "tags": {"KSJ2:LIN": "\u4e0a\u8d8a\u7dda", "KSJ2:STN": "\u5927\u6ca2", "name": "\u5927\u6ca2", "name:en": "Osawa", "name:ja": "\u5927\u6ca2", "name:ja_rm": "\u014csawa", "name:ko": "\uc624\uc0ac\uc640", "note": "National-Land Numerical Information (Railway) 2007, MLIT Japan", "note:ja": "\u56fd\u571f\u6570\u5024\u60c5\u5831\uff08\u9244\u9053\u30c7\u30fc\u30bf\uff09\u5e73\u621019\u5e74\u3000\u56fd\u571f\u4ea4\u901a\u7701", "public_transport": "station", "railway": "station", "source": "KSJ2", "source_ref": "http://nlftp.mlit.go.jp/ksj/jpgis/datalist/KsjTmplt-N02-v1_1.html", "wikidata": "Q3660575", "wikipedia": "ja:\u5927\u6ca2\u99c5 (\u65b0\u6f5f\u770c)"}}, {"type": "node", "id": 264815406, "lat": 36.8747483, "lon": 138.8622042, "tags": {"KSJ2:LIN": "\u4e0a\u8d8a\u7dda", "KSJ2:STN": "\u571f\u6a3d", "name": "\u571f\u6a3d", "name:en": "Tsuchitaru", "note": "National-Land Numerical Information (Railway) 2007, MLIT Japan", "note:ja": "\u56fd\u571f\u6570\u5024\u60c5\u5831\uff08\u9244\u9053\u30c7\u30fc\u30bf\uff09\u5e73\u621019\u5e74\u3000\u56fd\u571f\u4ea4\u901a\u7701", "public_transport": "station", "railway": "station", "source": "KSJ2", "source_ref": "http://nlftp.mlit.go.jp/ksj/jpgis/datalist/KsjTmplt-N02-v1_1.html", "wikidata": "Q3560235", "wikipedia": "ja:\u571f\u6a3d\u99c5"}}, {"type": "node", "id": 359793059, "lat": 37.1397602, "lon": 138.7685987, "tags": {"KSJ2:LIN": "\u307b\u304f\u307b\u304f\u7dda", "KSJ2:STN": "\u3057\u3093\u3056", "addr:block_number": "288", "addr:city": "\u5341\u65e5\u753a\u5e02", "addr:housenumber": "4", "addr:quarter": "\u65b0\u5ea7\u7532", "addr:suburb": "\u65b0\u6f5f\u770c", "name": "\u3057\u3093\u3056", "name:en": "Shinza", "name:ja": "\u3057\u3093\u3056", "name:ja_rm": "Shinza", "name:ko": "\uc2e0\uc790", "note": "National-Land Numerical Information (Railway) 2007, MLIT Japan", "note:ja": "\u56fd\u571f\u6570\u5024\u60c5\u5831\uff08\u9244\u9053\u30c7\u30fc\u30bf\uff09\u5e73\u621019\u5e74\u3000\u56fd\u571f\u4ea4\u901a\u7701", "public_transport": "station", "railway": "station", "source": "KSJ2", "source_ref": "http://nlftp.mlit.go.jp/ksj/jpgis/datalist/KsjTmplt-N02-v1_1.html", "wikidata": "Q7497848", "wikipedia": "ja:\u3057\u3093\u3056\u99c5"}}, {"type": "node", "id": 359793064, "lat": 37.0964212, "lon": 138.8772201, "tags": {"KSJ2:LIN": "\u307b\u304f\u307b\u304f\u7dda", "KSJ2:STN": "\u9b5a\u6cbc\u4e18\u9675", "name": "\u9b5a\u6cbc\u4e18\u9675", "name:en": "Uonuma-Ky\u016bry\u014d", "name:ja": "\u9b5a\u6cbc\u4e18\u9675", "name:ja_rm": "Uonuma-Ky\u016bry\u014d", "name:ko": "\uc6b0\uc624\ub204\ub9c8\ud050\ub8cc", "note": "National-Land Numerical Information (Railway) 2007, MLIT Japan", "note:ja": "\u56fd\u571f\u6570\u5024\u60c5\u5831\uff08\u9244\u9053\u30c7\u30fc\u30bf\uff09\u5e73\u621019\u5e74\u3000\u56fd\u571f\u4ea4\u901a\u7701", "public_transport": "station", "railway": "station", "source": "KSJ2", "source_ref": "http://nlftp.mlit.go.jp/ksj/jpgis/datalist/KsjTmplt-N02-v1_1.html", "wikidata": "Q128916", "wikipedia": "ja:\u9b5a\u6cbc\u4e18\u9675\u99c5"}}, {"type": "node", "id": 359793066, "lat": 37.131085, "lon": 138.789529, "tags": {"KSJ2:LIN": "\u307b\u304f\u307b\u304f\u7dda", "KSJ2:STN": "\u7f8e\u4f50\u5cf6", "name": "\u7f8e\u4f50\u5cf6", "name:en": "Misashima", "name:ja": "\u7f8e\u4f50\u5cf6", "name:ja_rm": "Misashima", "name:ko": "\ubbf8\uc0ac\uc2dc\ub9c8", "note": "National-Land Numerical Information (Railway) 2007, MLIT Japan", "note:ja": "\u56fd\u571f\u6570\u5024\u60c5\u5831\uff08\u9244\u9053\u30c7\u30fc\u30bf\uff09\u5e73\u621019\u5e74\u3000\u56fd\u571f\u4ea4\u901a\u7701", "operator": "\u5317\u8d8a\u6025\u884c", "public_transport": "station", "railway": "station", "source": "KSJ2", "source_ref": "http://nlftp.mlit.go.jp/ksj/jpgis/datalist/KsjTmplt-N02-v1_1.html", "wikidata": "Q130029", "wikipedia": "ja:\u7f8e\u4f50\u5cf6\u99c5"}}, {"type": "node", "id": 359793089, "lat": 37.1347075, "lon": 138.7560125, "tags": {"KSJ2:LIN": "\u307b\u304f\u307b\u304f\u7dda", "KSJ2:STN": "\u5341\u65e5\u753a", "name": "\u5341\u65e5\u753a", "name:en": "Tokamachi", "name:ja": "\u5341\u65e5\u753a", "name:ko": "\ub3c4\uce74\ub9c8\uce58", "note": "National-Land Numerical Information (Railway) 2007, MLIT Japan", "note:ja": "\u56fd\u571f\u6570\u5024\u60c5\u5831\uff08\u9244\u9053\u30c7\u30fc\u30bf\uff09\u5e73\u621019\u5e74\u3000\u56fd\u571f\u4ea4\u901a\u7701", "public_transport": "station", "railway": "station", "source": "KSJ2", "source_ref": "http://nlftp.mlit.go.jp/ksj/jpgis/datalist/KsjTmplt-N02-v1_1.html", "wikidata": "Q7862688", "wikipedia": "ja:\u5341\u65e5\u753a\u99c5"}}, {"type": "node", "id": 359793286, "lat": 37.1981889, "lon": 138.361687, "tags": {"name": "\u304f\u3073\u304d", "name:en": "Kubiki", "name:ja": "\u304f\u3073\u304d", "name:ja_rm": "Kubiki", "name:ko": "\uad6c\ube44\ud0a4", "public_transport": "station", "railway": "station", "source": "KSJ2", "wikidata": "Q6441253", "wikipedia": "ja:\u304f\u3073\u304d\u99c5"}}, {"type": "node", "id": 359793288, "lat": 37.1322013, "lon": 138.6138021, "tags": {"KSJ2:LIN": "\u307b\u304f\u307b\u304f\u7dda", "KSJ2:STN": "\u307e\u3064\u3060\u3044", "name": "\u307e\u3064\u3060\u3044", "name:en": "Matsudai", "name:ja": "\u307e\u3064\u3060\u3044", "name:ja-Latn": "Matsudai", "name:ja_rm": "Matsudai", "name:ko": "\ub9c8\uc4f0\ub2e4\uc774", "network": "\u307b\u304f\u307b\u304f\u7dda", "note": "National-Land Numerical Information (Railway) 2007, MLIT Japan", "note:ja": "\u56fd\u571f\u6570\u5024\u60c5\u5831\uff08\u9244\u9053\u30c7\u30fc\u30bf\uff09\u5e73\u621019\u5e74\u3000\u56fd\u571f\u4ea4\u901a\u7701", "operator": "\u5317\u8d8a\u6025\u884c", "public_transport": "station", "railway": "station", "source": "KSJ2", "source_ref": "http://nlftp.mlit.go.jp/ksj/jpgis/datalist/KsjTmplt-N02-v1_1.html", "wikidata": "Q6788033", "wikipedia": "ja:\u307e\u3064\u3060\u3044\u99c5"}}, {"type": "node", "id": 359793585, "lat": 37.1844374, "lon": 138.3733142, "tags": {"name": "\u5927\u6c60\u3044\u3053\u3044\u306e\u68ee", "name:en": "\u014cike-Ikoi-no-mori", "name:ja": "\u5927\u6c60\u3044\u3053\u3044\u306e\u68ee", "name:ja_rm": "\u014cike-Ikoi-no-mori", "name:ko": "\uc624\uc774\ucf00\uc774\ucf54\uc774\ub178\ubaa8\ub9ac", "public_transport": "station", "railway": "station", "source": "KSJ2", "train": "yes", "wikidata": "Q130526", "wikipedia": "ja:\u5927\u6c60\u3044\u3053\u3044\u306e\u68ee\u99c5"}}, {"type": "node", "id": 359793614, "lat": 37.1469389, "lon": 138.5095257, "tags": {"KSJ2:LIN": "\u307b\u304f\u307b\u304f\u7dda", "KSJ2:STN": "\u307b\u304f\u307b\u304f\u5927\u5cf6", "name": "\u307b\u304f\u307b\u304f\u5927\u5cf6", "name:en": "Hokuhoku-\u014cshima", "name:ja": "\u307b\u304f\u307b\u304f\u5927\u5cf6", "name:ja_rm": "Hokuhoku-\u014cshima", "name:ko": "\ud638\ucfe0\ud638\ucfe0\uc624\uc2dc\ub9c8", "note": "National-Land Numerical Information (Railway) 2007, MLIT Japan", "note:ja": "\u56fd\u571f\u6570\u5024\u60c5\u5831\uff08\u9244\u9053\u30c7\u30fc\u30bf\uff09\u5e73\u621019\u5e74\u3000\u56fd\u571f\u4ea4\u901a\u7701", "public_transport": "station", "railway": "station", "source": "KSJ2", "source_ref": "http://nlftp.mlit.go.jp/ksj/jpgis/datalist/KsjTmplt-N02-v1_1.html", "train": "yes", "wikidata": "Q5878294", "wikipedia": "ja:\u307b\u304f\u307b\u304f\u5927\u5cf6\u99c5"}}, {"type": "node", "id": 359793977, "lat": 37.159138, "lon": 138.419373, "tags": {"name": "\u3046\u3089\u304c\u308f\u3089", "name:en": "Uragawara", "name:ja": "\u3046\u3089\u304c\u308f\u3089", "name:ja_rm": "Uragawara", "name:ko": "\uc6b0\ub77c\uac00\uc640\ub77c", "note": "National-Land Numerical Information (Railway) 2007, MLIT Japan", "public_transport": "station", "railway": "station", "source": "KSJ2", "wikidata": "Q7899560", "wikipedia": "ja:\u3046\u3089\u304c\u308f\u3089\u99c5"}}, {"type": "node", "id": 1095684792, "lat": 36.8087846, "lon": 138.3491729, "tags": {"name": "\u84ee", "name:en": "Hachisu", "railway": "station", "wikidata": "Q5637088", "wikipedia": "ja:\u84ee\u99c5"}}, {"type": "node", "id": 1095684842, "lat": 36.8462882, "lon": 138.3587871, "tags": {"name": "\u98ef\u5c71", "name:en": "Iiyama", "operator": "\u6771\u65e5\u672c\u65c5\u5ba2\u9244\u9053", "public_transport": "station", "railway": "station", "wikidata": "Q5995045", "wikipedia": "ja:\u98ef\u5c71\u99c5"}}, {"type": "node", "id": 1095690198, "lat": 36.8588134, "lon": 138.3637797, "tags": {"name": "\u5317\u98ef\u5c71", "name:en": "Kita-Iiyama", "name:ja_rm": "Kita-Iiyama", "railway": "station", "wikidata": "Q6417544", "wikipedia": "ja:\u5317\u98ef\u5c71\u99c5"}}, {"type": "node", "id": 1095690216, "lat": 36.8849169, "lon": 138.3785259, "tags": {"name": "\u4fe1\u6fc3\u5e73", "name:en": "Shinano-Taira", "name:ja_rm": "Shinano-Taira", "railway": "station", "wikidata": "Q7497266", "wikipedia": "ja:\u4fe1\u6fc3\u5e73\u99c5"}}, {"type": "node", "id": 1095690230, "lat": 36.9171309, "lon": 138.3933788, "tags": {"alt_name:ko": "\ub3c4\uac00\ub9ac\ub178\uc790\uc640\uc628\uc13c", "name": "\u6238\u72e9\u91ce\u6ca2\u6e29\u6cc9", "name:en": "Togarinozawa-Onsen", "name:ja": "\u6238\u72e9\u91ce\u6ca2\u6e29\u6cc9", "name:ja_kana": "\u3068\u304c\u308a\u306e\u3056\u308f\u304a\u3093\u305b\u3093", "name:ja_rm": "Togarinozawa-Onsen", "name:ko": "\ub3c4\uac00\ub9ac\ub178\uc790\uc640\uc628\ucc9c", "railway": "station", "wikidata": "Q7813041", "wikipedia": "ja:\u6238\u72e9\u91ce\u6ca2\u6e29\u6cc9\u99c5"}}, {"type": "node", "id": 1095690282, "lat": 36.9380083, "lon": 138.4190544, "tags": {"name": "\u4e0a\u5883", "name:en": "Kami-Sakai", "railway": "station", "wikidata": "Q6358498", "wikipedia": "ja:\u4e0a\u5883\u99c5"}}, {"type": "node", "id": 1095694895, "lat": 36.9625284, "lon": 138.4413142, "tags": {"name": "\u4e0a\u6851\u540d\u5ddd", "name:en": "Kami-Kuwanagawa", "railway": "station", "wikidata": "Q6357167", "wikipedia": "ja:\u4e0a\u6851\u540d\u5ddd\u99c5"}}, {"type": "node", "id": 1095708694, "lat": 36.983586, "lon": 138.5030265, "tags": {"name": "\u4fe1\u6fc3\u767d\u9ce5", "name:en": "Shinano-Shiratori", "public_transport": "station", "railway": "station", "wikidata": "Q7497265", "wikipedia": "ja:\u4fe1\u6fc3\u767d\u9ce5\u99c5"}}, {"type": "node", "id": 1095709098, "lat": 36.9757866, "lon": 138.4577692, "tags": {"name": "\u6851\u540d\u5ddd", "name:en": "Kuwanagawa", "name:ja_rm": "Kuwanagawa", "public_transport": "station", "railway": "station", "wikidata": "Q6449053", "wikipedia": "ja:\u6851\u540d\u5ddd\u99c5"}}, {"type": "node", "id": 1095709134, "lat": 36.9792194, "lon": 138.4809219, "tags": {"name": "\u897f\u5927\u6edd", "name:en": "Nishi-\u014ctaki", "name:ja_rm": "Nishi-\u014ctaki", "public_transport": "station", "railway": "station", "wikidata": "Q7040475", "wikipedia": "ja:\u897f\u5927\u6edd\u99c5"}}, {"type": "node", "id": 1095750140, "lat": 36.9860336, "lon": 138.5335568, "tags": {"name": "\u5e73\u6edd", "name:en": "Hirataki", "public_transport": "station", "railway": "station", "wikidata": "Q5769513", "wikipedia": "ja:\u5e73\u6edd\u99c5"}}, {"type": "node", "id": 1445190888, "lat": 37.198452, "lon": 138.7800326, "tags": {"KSJ2:LIN": "\u98ef\u5c71\u7dda", "KSJ2:STN": "\u4e0b\u6761", "name": "\u4e0b\u6761", "name:en": "Gej\u014d", "name:ja": "\u4e0b\u6761", "name:ja-Latn": "Gejyo", "name:ko": "\uac8c\uc870", "note": "National-Land Numerical Information (Railway) 2007, MLIT Japan", "note:ja": "\u56fd\u571f\u6570\u5024\u60c5\u5831\uff08\u9244\u9053\u30c7\u30fc\u30bf\uff09\u5e73\u621019\u5e74\u3000\u56fd\u571f\u4ea4\u901a\u7701", "railway": "station", "source": "KSJ2", "source_ref": "http://nlftp.mlit.go.jp/ksj/jpgis/datalist/KsjTmplt-N02-v1_1.html", "wikidata": "Q2368853", "wikipedia": "ja:\u4e0b\u6761\u99c5"}}, {"type": "node", "id": 1445190890, "lat": 37.1345335, "lon": 138.7562605, "tags": {"KSJ2:LIN": "\u98ef\u5c71\u7dda", "KSJ2:STN": "\u5341\u65e5\u753a", "name": "\u5341\u65e5\u753a", "name:en": "Tokamachi", "name:ja": "\u5341\u65e5\u753a", "name:ko": "\ub3c4\uce74\ub9c8\uce58", "note": "National-Land Numerical Information (Railway) 2007, MLIT Japan", "note:ja": "\u56fd\u571f\u6570\u5024\u60c5\u5831\uff08\u9244\u9053\u30c7\u30fc\u30bf\uff09\u5e73\u621019\u5e74\u3000\u56fd\u571f\u4ea4\u901a\u7701", "public_transport": "station", "railway": "station", "source": "KSJ2", "source_ref": "http://nlftp.mlit.go.jp/ksj/jpgis/datalist/KsjTmplt-N02-v1_1.html", "wikidata": "Q7862688", "wikipedia": "ja:\u5341\u65e5\u753a\u99c5"}}, {"type": "node", "id": 1445190892, "lat": 36.98926, "lon": 138.57798, "tags": {"KSJ2:LIN": "\u98ef\u5c71\u7dda", "KSJ2:STN": "\u68ee\u5bae\u91ce\u539f", "name": "\u68ee\u5bae\u91ce\u539f", "name:en": "Morimiyanohara", "name:ja": "\u68ee\u5bae\u91ce\u539f", "name:ko": "\ubaa8\ub9ac\ubbf8\uc57c\ub178\ud558\ub77c", "note": "National-Land Numerical Information (Railway) 2007, MLIT Japan", "note:ja": "\u56fd\u571f\u6570\u5024\u60c5\u5831\uff08\u9244\u9053\u30c7\u30fc\u30bf\uff09\u5e73\u621019\u5e74\u3000\u56fd\u571f\u4ea4\u901a\u7701", "public_transport": "station", "railway": "station", "source": "KSJ2", "source_ref": "http://nlftp.mlit.go.jp/ksj/jpgis/datalist/KsjTmplt-N02-v1_1.html", "wikidata": "Q6912094", "wikipedia": "ja:\u68ee\u5bae\u91ce\u539f\u99c5"}}, {"type": "node", "id": 1445190893, "lat": 36.98003, "lon": 138.55074, "tags": {"KSJ2:LIN": "\u98ef\u5c71\u7dda", "KSJ2:STN": "\u6a2a\u5009", "name": "\u6a2a\u5009", "name:en": "Yokokura", "name:ja": "\u6a2a\u5009", "name:ja_rm": "Yokokura", "name:ko": "\uc694\ucf54\ucfe0\ub77c", "note": "National-Land Numerical Information (Railway) 2007, MLIT Japan", "note:ja": "\u56fd\u571f\u6570\u5024\u60c5\u5831\uff08\u9244\u9053\u30c7\u30fc\u30bf\uff09\u5e73\u621019\u5e74\u3000\u56fd\u571f\u4ea4\u901a\u7701", "public_transport": "station", "railway": "station", "source": "KSJ2", "source_ref": "http://nlftp.mlit.go.jp/ksj/jpgis/datalist/KsjTmplt-N02-v1_1.html", "wikidata": "Q8054662", "wikipedia": "ja:\u6a2a\u5009\u99c5 (\u9577\u91ce\u770c)"}}, {"type": "node", "id": 1445190903, "lat": 37.1595962, "lon": 138.7725153, "tags": {"KSJ2:LIN": "\u98ef\u5c71\u7dda", "KSJ2:STN": "\u9b5a\u6cbc\u4e2d\u6761", "name": "\u9b5a\u6cbc\u4e2d\u6761", "name:en": "Uonumanakajyo", "name:ja": "\u9b5a\u6cbc\u4e2d\u6761", "name:ko": "\uc6b0\uc624\ub204\ub9c8\ub098\uce74\uc870", "note": "National-Land Numerical Information (Railway) 2007, MLIT Japan", "note:ja": "\u56fd\u571f\u6570\u5024\u60c5\u5831\uff08\u9244\u9053\u30c7\u30fc\u30bf\uff09\u5e73\u621019\u5e74\u3000\u56fd\u571f\u4ea4\u901a\u7701", "railway": "station", "source": "KSJ2", "source_ref": "http://nlftp.mlit.go.jp/ksj/jpgis/datalist/KsjTmplt-N02-v1_1.html", "wikidata": "Q7897886", "wikipedia": "ja:\u9b5a\u6cbc\u4e2d\u6761\u99c5"}}, {"type": "node", "id": 3548915150, "lat": 36.9359414, "lon": 138.8090456, "tags": {"KSJ2:LIN": "\u4e0a\u8d8a\u65b0\u5e79\u7dda", "KSJ2:STN": "\u8d8a\u5f8c\u6e6f\u6ca2", "highspeed": "yes", "name": "\u8d8a\u5f8c\u6e6f\u6ca2", "name:de": "Echigo-Yuzawa", "name:en": "Echigo-Yuzawa", "name:ja": "\u8d8a\u5f8c\u6e6f\u6ca2", "name:ja_rm": "Echigo-Yuzawa", "name:ko": "\uc5d0\uce58\ucf54 \uc720\uc790\uc640 \uc5ed", "name:ru": "\u042d\u0442\u0438\u0433\u043e-\u042e\u0434\u0437\u0430\u0432\u0430", "note": "National-Land Numerical Information (Railway) 2007, MLIT Japan", "note:ja": "\u56fd\u571f\u6570\u5024\u60c5\u5831\uff08\u9244\u9053\u30c7\u30fc\u30bf\uff09\u5e73\u621019\u5e74\u3000\u56fd\u571f\u4ea4\u901a\u7701", "public_transport": "station", "railway": "station", "source": "KSJ2", "source_ref": "http://nlftp.mlit.go.jp/ksj/jpgis/datalist/KsjTmplt-N02-v1_1.html", "wikidata": "Q1188630", "wikipedia": "ja:\u8d8a\u5f8c\u6e6f\u6ca2\u99c5"}}, {"type": "node", "id": 3548915153, "lat": 37.0671232, "lon": 138.8758939, "tags": {"KSJ2:LIN": "\u4e0a\u8d8a\u7dda;\u307b\u304f\u307b\u304f\u7dda", "KSJ2:STN": "\u516d\u65e5\u753a", "name": "\u516d\u65e5\u753a", "name:en": "Muikamachi", "name:ja": "\u516d\u65e5\u753a", "name:ja_rm": "Muikamachi", "name:ko": "\ubb34\uc774\uce74\ub9c8\uce58", "note": "National-Land Numerical Information (Railway) 2007, MLIT Japan", "note:ja": "\u56fd\u571f\u6570\u5024\u60c5\u5831\uff08\u9244\u9053\u30c7\u30fc\u30bf\uff09\u5e73\u621019\u5e74\u3000\u56fd\u571f\u4ea4\u901a\u7701", "public_transport": "station", "railway": "station", "source": "KSJ2", "source_ref": "http://nlftp.mlit.go.jp/ksj/jpgis/datalist/KsjTmplt-N02-v1_1.html", "toilets:wheelchair": "yes", "wheelchair": "yes", "wikidata": "Q3660544", "wikipedia": "ja:\u516d\u65e5\u753a\u99c5"}}, {"type": "node", "id": 4109188950, "lat": 37.1549847, "lon": 138.4410318, "tags": {"name": "\u866b\u5ddd\u5927\u6749", "name:en": "Mushigawa-\u014csugi", "name:ja": "\u866b\u5ddd\u5927\u6749", "name:ja_rm": "Mushigawa-\u014csugi", "name:ko": "\ubb34\uc2dc\uac00\uc640\uc624\uc2a4\uae30", "public_transport": "station", "railway": "station", "wikidata": "Q6941261", "wikipedia": "ja:\u866b\u5ddd\u5927\u6749\u99c5"}}, {"type": "node", "id": 4120997977, "lat": 36.8454839, "lon": 138.358746, "tags": {"highspeed": "yes", "name": "\u98ef\u5c71", "name:en": "Iiyama", "name:ja": "\u98ef\u5c71", "name:ja-Hira": "\u3044\u3044\u3084\u307e", "name:ja_rm": "Iiyama", "name:ko": "\uc774\uc57c\ub9c8", "operator": "\u6771\u65e5\u672c\u65c5\u5ba2\u9244\u9053", "public_transport": "station", "railway": "station", "wheelchair": "yes", "wikidata": "Q5995045", "wikipedia": "ja:\u98ef\u5c71\u99c5"}}, {"type": "node", "id": 6172475914, "lat": 37.0972316, "lon": 138.7293515, "tags": {"name": "\u571f\u5e02", "name:en": "Doichi", "name:ja": "\u571f\u5e02", "name:ja-Hira": "\u3069\u3044\u3061", "name:ja-Latn": "Doichi", "name:ko": "\ub3c4\uc774\uce58", "public_transport": "station", "railway": "station", "source": "KSJ2", "train": "yes", "wikidata": "Q5288614", "wikipedia": "ja:\u571f\u5e02\u99c5"}}, {"type": "node", "id": 6172475936, "lat": 37.0742449, "lon": 138.7181338, "tags": {"name": "\u8d8a\u5f8c\u6c34\u6ca2", "name:en": "Echigo-Mizusawa", "name:ja": "\u8d8a\u5f8c\u6c34\u6ca2", "name:ja-Hira": "\u3048\u3061\u3054\u307f\u305a\u3055\u308f", "name:ja-Latn": "Echigomizusawa", "name:ko": "\uc5d0\uce58\uace0\ubbf8\uc988\uc0ac\uc640", "public_transport": "station", "railway": "station", "source": "KSJ2", "train": "yes", "wikidata": "Q5332418", "wikipedia": "ja:\u8d8a\u5f8c\u6c34\u6ca2\u99c5"}}, {"type": "node", "id": 6172475945, "lat": 37.0552681, "lon": 138.6947201, "tags": {"name": "\u8d8a\u5f8c\u7530\u6ca2", "name:en": "Echigo-Tazawa", "name:ja": "\u8d8a\u5f8c\u7530\u6ca2", "name:ja-Hira": "\u3048\u3061\u3054\u305f\u3056\u308f", "name:ja-Latn": "Echigotazawa", "name:ko": "\uc5d0\uce58\uace0\ud0c0\uc790\uc640", "public_transport": "station", "railway": "station", "source": "KSJ2", "train": "yes", "wikidata": "Q5332425", "wikipedia": "ja:\u8d8a\u5f8c\u7530\u6ca2\u99c5"}}, {"type": "node", "id": 6172644829, "lat": 37.0236841, "lon": 138.6394009, "tags": {"name": "\u6d25\u5357", "name:en": "Tsunan", "name:ja-Hira": "\u3064\u306a\u3093", "name:ja-Latn": "Tsunan", "public_transport": "station", "railway": "station", "source": "KSJ2", "train": "yes", "wikidata": "Q7850176", "wikipedia": "ja:\u6d25\u5357\u99c5"}}, {"type": "node", "id": 6172644841, "lat": 37.0480723, "lon": 138.6714037, "tags": {"name": "\u8d8a\u5f8c\u9e7f\u6e21", "name:en": "Echigo-Shikawatari", "name:ja-Hira": "\u3048\u3061\u3054\u3057\u304b\u308f\u305f\u308a", "name:ja-Latn": "Echigoshikawatari", "public_transport": "station", "railway": "station", "source": "KSJ2", "train": "yes", "wikidata": "Q5332421", "wikipedia": "ja:\u8d8a\u5f8c\u9e7f\u6e21\u99c5"}}, {"type": "node", "id": 6172661602, "lat": 37.0050899, "lon": 138.6267275, "tags": {"name": "\u8d8a\u5f8c\u7530\u4e2d", "name:en": "Echigo-Tanaka", "name:ja-Hira": "\u3048\u3061\u3054\u305f\u306a\u304b", "name:ja-Latn": "Echigotanaka", "public_transport": "station", "railway": "station", "source": "KSJ2", "train": "yes", "wikidata": "Q5332424", "wikipedia": "ja:\u8d8a\u5f8c\u7530\u4e2d\u99c5"}}, {"type": "node", "id": 6176114783, "lat": 36.9990198, "lon": 138.603582, "tags": {"name": "\u8db3\u6edd", "name:en": "Ashidaki", "name:ja-Hira": "\u3042\u3057\u3060\u304d", "name:ja-Latn": "Ashidaki", "public_transport": "station", "railway": "station", "source": "KSJ2", "train": "yes", "wikidata": "Q4805058", "wikipedia": "ja:\u8db3\u6edd\u99c5"}}, {"type": "node", "id": 6744995324, "lat": 37.0674006, "lon": 138.875628}, {"type": "node", "id": 6744995325, "lat": 37.0670999, "lon": 138.8761283}, {"type": "node", "id": 6744995326, "lat": 37.0669506, "lon": 138.8759782}, {"type": "node", "id": 6744995327, "lat": 37.0671652, "lon": 138.8756079}, {"type": "node", "id": 6744995328, "lat": 37.067269, "lon": 138.8756937}, {"type": "node", "id": 6744995329, "lat": 37.0673, "lon": 138.8756428}, {"type": "node", "id": 6744995330, "lat": 37.0673428, "lon": 138.875573}, {"type": "node", "id": 6744995331, "lat": 37.0671252, "lon": 138.876091}, {"type": "node", "id": 6744995332, "lat": 37.067326, "lon": 138.8756005}, {"type": "node", "id": 6744995334, "lat": 37.0671101, "lon": 138.8761133}, {"type": "node", "id": 6744995350, "lat": 37.0669654, "lon": 138.8759527}, {"type": "node", "id": 8186997799, "lat": 37.041563, "lon": 138.8484348, "tags": {"KSJ2:LIN": "\u4e0a\u8d8a\u7dda", "KSJ2:STN": "\u5869\u6ca2", "name": "\u5869\u6ca2", "name:en": "Shiozawa", "name:ja": "\u5869\u6ca2", "name:ja_rm": "Shiozawa", "name:ko": "\uc2dc\uc624\uc790\uc640", "note": "National-Land Numerical Information (Railway) 2007, MLIT Japan", "note:ja": "\u56fd\u571f\u6570\u5024\u60c5\u5831\uff08\u9244\u9053\u30c7\u30fc\u30bf\uff09\u5e73\u621019\u5e74\u3000\u56fd\u571f\u4ea4\u901a\u7701", "public_transport": "station", "railway": "station", "source": "KSJ2", "source_ref": "http://nlftp.mlit.go.jp/ksj/jpgis/datalist/KsjTmplt-N02-v1_1.html", "wikidata": "Q3660533", "wikipedia": "ja:\u5869\u6ca2\u99c5"}}, {"type": "node", "id": 9013930719, "lat": 36.9502508, "lon": 138.7995543, "tags": {"KSJ2:LIN": "\u4e0a\u8d8a\u7dda", "KSJ2:STN": "\u30ac\u30fc\u30e9\u6e6f\u6ca2", "name": "\u30ac\u30fc\u30e9\u6e6f\u6ca2", "name:en": "Gala-Yuzawa", "name:ja": "\u30ac\u30fc\u30e9\u6e6f\u6ca2", "name:ko": "\uac08\ub77c \uc720\uc790\uc640 \uc5ed", "note": "National-Land Numerical Information (Railway) 2007, MLIT Japan", "note:ja": "\u56fd\u571f\u6570\u5024\u60c5\u5831\uff08\u9244\u9053\u30c7\u30fc\u30bf\uff09\u5e73\u621019\u5e74\u3000\u56fd\u571f\u4ea4\u901a\u7701", "public_transport": "station", "railway": "station", "seasonal": "winter", "source": "KSJ2", "source_ref": "http://nlftp.mlit.go.jp/ksj/jpgis/datalist/KsjTmplt-N02-v1_1.html", "wikidata": "Q1054907", "wikipedia": "ja:\u30ac\u30fc\u30e9\u6e6f\u6ca2\u99c5"}}, {"type": "node", "id": 9013930777, "lat": 36.9893095, "lon": 138.8040912, "tags": {"KSJ2:LIN": "\u4e0a\u8d8a\u7dda", "KSJ2:STN": "\u77f3\u6253", "name": "\u77f3\u6253", "name:en": "Ishiuchi", "name:ja": "\u77f3\u6253", "name:ja_rm": "Ishiuchi", "name:ko": "\uc774\uc2dc\uc6b0\uce58", "note": "National-Land Numerical Information (Railway) 2007, MLIT Japan", "note:ja": "\u56fd\u571f\u6570\u5024\u60c5\u5831\uff08\u9244\u9053\u30c7\u30fc\u30bf\uff09\u5e73\u621019\u5e74\u3000\u56fd\u571f\u4ea4\u901a\u7701", "public_transport": "station", "railway": "station", "source": "KSJ2", "source_ref": "http://nlftp.mlit.go.jp/ksj/jpgis/datalist/KsjTmplt-N02-v1_1.html", "wikidata": "Q3660496", "wikipedia": "ja:\u77f3\u6253\u99c5"}}, {"type": "node", "id": 9013930783, "lat": 36.9242628, "lon": 138.8397525, "tags": {"KSJ2:LIN": "\u4e0a\u8d8a\u7dda", "KSJ2:STN": "\u5ca9\u539f\u30b9\u30ad\u30fc\u5834\u524d", "alt_name:ko": "\uc774\uc653\ud30c\ub77c\uc2a4\ud0a4\uc870\ub9c8\uc5d0", "name": "\u5ca9\u539f\u30b9\u30ad\u30fc\u5834\u524d", "name:en": "Iwappara-Ski-jo-mae", "name:ja": "\u5ca9\u539f\u30b9\u30ad\u30fc\u5834\u524d", "name:ja_rm": "Iwappara-Ski-j\u014d-mae", "name:ko": "\uc774\uc653\ud30c\ub77c\uc2a4\ud0a4\uc7a5\uc55e", "note": "National-Land Numerical Information (Railway) 2007, MLIT Japan", "note:ja": "\u56fd\u571f\u6570\u5024\u60c5\u5831\uff08\u9244\u9053\u30c7\u30fc\u30bf\uff09\u5e73\u621019\u5e74\u3000\u56fd\u571f\u4ea4\u901a\u7701", "public_transport": "station", "railway": "station", "source": "KSJ2", "source_ref": "http://nlftp.mlit.go.jp/ksj/jpgis/datalist/KsjTmplt-N02-v1_1.html", "wikidata": "Q3560110", "wikipedia": "ja:\u5ca9\u539f\u30b9\u30ad\u30fc\u5834\u524d\u99c5"}}, {"type": "node", "id": 9459580800, "lat": 37.0965876, "lon": 138.8772328}, {"type": "node", "id": 9459580801, "lat": 37.0965053, "lon": 138.8771579}, {"type": "node", "id": 9459580802, "lat": 37.0964722, "lon": 138.877215}, {"type": "node", "id": 9459580803, "lat": 37.0964479, "lon": 138.8771929}, {"type": "node", "id": 9459580804, "lat": 37.0963308, "lon": 138.8773951}, {"type": "node", "id": 9459580805, "lat": 37.0963706, "lon": 138.8774313}, {"type": "node", "id": 9459580806, "lat": 37.096504, "lon": 138.8772008}, {"type": "node", "id": 9459580807, "lat": 37.0965709, "lon": 138.8772617}, {"type": "way", "id": 718233183, "nodes": [6744995324, 6744995331, 6744995334, 6744995325, 6744995326, 6744995350, 6744995327, 6744995328, 6744995329, 6744995332, 6744995330, 6744995324], "tags": {"building": "train_station", "building:levels": "2", "layer": "1", "min_level": "1", "name": "\u516d\u65e5\u753a", "name:en": "Muikamachi", "name:ko": "\ubb34\uc774\uce74\ub9c8\uce58", "network": "\u4e0a\u8d8a\u7dda", "operator": "JR\u6771\u65e5\u672c", "public_transport": "station", "railway": "station", "train": "yes"}}, {"type": "way", "id": 1026013863, "nodes": [9459580800, 9459580801, 9459580802, 9459580803, 9459580804, 9459580805, 9459580806, 9459580807, 9459580800], "tags": {"building": "train_station", "public_transport": "station", "railway": "station", "train": "yes"}}]}