{"version": 0.6, "generator": "Overpass API 0.7.62.4 2390de5a", "osm3s": {"timestamp_osm_base": "2024-12-30T14:59:15Z", "copyright": "The data included in this document is from www.openstreetmap.org. The data is made available under ODbL."}, "elements": [{"type": "node", "id": 264401562, "lat": 38.7649613, "lon": 140.4542354, "tags": {"KSJ2:LIN": "\u9678\u7fbd\u6771\u7dda", "KSJ2:STN": "\u9d5c\u6749", "name": "\u9d5c\u6749", "name:en": "Usugi", "name:ja": "\u9d5c\u6749", "name:ja_rm": "Usugi", "name:ko": "\uc6b0\uc2a4\uae30", "note": "National-Land Numerical Information (Railway) 2007, MLIT Japan", "note:ja": "\u56fd\u571f\u6570\u5024\u60c5\u5831\uff08\u9244\u9053\u30c7\u30fc\u30bf\uff09\u5e73\u621019\u5e74\u3000\u56fd\u571f\u4ea4\u901a\u7701", "public_transport": "station", "railway": "station", "source": "KSJ2", "source_ref": "http://nlftp.mlit.go.jp/ksj/jpgis/datalist/KsjTmplt-N02-v1_1.html", "wikidata": "Q2026791", "wikipedia": "ja:\u9d5c\u6749\u99c5"}}, {"type": "node", "id": 264401575, "lat": 38.7561662, "lon": 140.5173539, "tags": {"KSJ2:LIN": "\u9678\u7fbd\u6771\u7dda", "KSJ2:STN": "\u6700\u4e0a", "name": "\u6700\u4e0a", "name:en": "Mogami", "name:ja": "\u6700\u4e0a", "name:ja_kana": "\u3082\u304c\u307f", "name:ja_rm": "Mogami", "name:ko": "\ubaa8\uac00\ubbf8", "note": "National-Land Numerical Information (Railway) 2007, MLIT Japan", "note:ja": "\u56fd\u571f\u6570\u5024\u60c5\u5831\uff08\u9244\u9053\u30c7\u30fc\u30bf\uff09\u5e73\u621019\u5e74\u3000\u56fd\u571f\u4ea4\u901a\u7701", "public_transport": "station", "railway": "station", "source": "KSJ2", "source_ref": "http://nlftp.mlit.go.jp/ksj/jpgis/datalist/KsjTmplt-N02-v1_1.html", "wikidata": "Q2027908", "wikipedia": "ja:\u6700\u4e0a\u99c5"}}, {"type": "node", "id": 264401913, "lat": 38.718747, "lon": 140.3820899, "tags": {"KSJ2:LIN": "\u9678\u7fbd\u6771\u7dda", "KSJ2:STN": "\u6771\u9577\u6ca2", "name": "\u6771\u9577\u6ca2", "name:en": "Higashi-Nagasawa", "name:ja": "\u6771\u9577\u6ca2", "name:ja_rm": "Higashi-Nagasawa", "name:ko": "\ud788\uac00\uc2dc\ub098\uac00\uc0ac\uc640", "note": "National-Land Numerical Information (Railway) 2007, MLIT Japan", "note:ja": "\u56fd\u571f\u6570\u5024\u60c5\u5831\uff08\u9244\u9053\u30c7\u30fc\u30bf\uff09\u5e73\u621019\u5e74\u3000\u56fd\u571f\u4ea4\u901a\u7701", "public_transport": "station", "railway": "station", "source": "KSJ2", "source_ref": "http://nlftp.mlit.go.jp/ksj/jpgis/datalist/KsjTmplt-N02-v1_1.html", "wikidata": "Q2101432", "wikipedia": "ja:\u6771\u9577\u6ca2\u99c5"}}, {"type": "node", "id": 264402016, "lat": 38.7097377, "lon": 140.3660094, "tags": {"KSJ2:LIN": "\u9678\u7fbd\u6771\u7dda", "KSJ2:STN": "\u9577\u6ca2", "name": "\u9577\u6ca2", "name:en": "Nagasawa", "name:ja": "\u9577\u6ca2", "name:ja_rm": "Nagasawa", "name:ko": "\ub098\uac00\uc0ac\uc640", "note": "National-Land Numerical Information (Railway) 2007, MLIT Japan", "note:ja": "\u56fd\u571f\u6570\u5024\u60c5\u5831\uff08\u9244\u9053\u30c7\u30fc\u30bf\uff09\u5e73\u621019\u5e74\u3000\u56fd\u571f\u4ea4\u901a\u7701", "public_transport": "station", "railway": "station", "source": "KSJ2", "source_ref": "http://nlftp.mlit.go.jp/ksj/jpgis/datalist/KsjTmplt-N02-v1_1.html", "wikidata": "Q2099810", "wikipedia": "ja:\u9577\u6ca2\u99c5"}}, {"type": "node", "id": 264402018, "lat": 38.7550211, "lon": 140.4203867, "tags": {"KSJ2:LIN": "\u9678\u7fbd\u6771\u7dda", "KSJ2:STN": "\u702c\u898b\u6e29\u6cc9", "alt_name:ko": "\uc138\ubbf8\uc628\uc13c", "name": "\u702c\u898b\u6e29\u6cc9", "name:en": "Semi-Onsen", "name:ja": "\u702c\u898b\u6e29\u6cc9", "name:ja_rm": "Semi-Onsen", "name:ko": "\uc138\ubbf8\uc628\ucc9c", "note": "National-Land Numerical Information (Railway) 2007, MLIT Japan", "note:ja": "\u56fd\u571f\u6570\u5024\u60c5\u5831\uff08\u9244\u9053\u30c7\u30fc\u30bf\uff09\u5e73\u621019\u5e74\u3000\u56fd\u571f\u4ea4\u901a\u7701", "public_transport": "station", "railway": "station", "source": "KSJ2", "source_ref": "http://nlftp.mlit.go.jp/ksj/jpgis/datalist/KsjTmplt-N02-v1_1.html", "wikidata": "Q2095056", "wikipedia": "ja:\u702c\u898b\u6e29\u6cc9\u99c5"}}, {"type": "node", "id": 264402336, "lat": 38.762785, "lon": 140.3056333, "tags": {"name": "\u65b0\u5e84", "name:de": "Shanjo", "name:en": "Shinjo", "name:ja-Hira": "\u3057\u3093\u3058\u3087\u3046", "name:ja-Latn": "Shinj\u014d", "public_transport": "station", "railway": "station", "source": "KSJ2", "train": "yes", "wikidata": "Q1188523", "wikipedia": "ja:\u65b0\u5e84\u99c5"}}, {"type": "node", "id": 264402338, "lat": 38.7934544, "lon": 139.9773788, "tags": {"KSJ2:LIN": "\u9678\u7fbd\u897f\u7dda", "KSJ2:STN": "\u72e9\u5ddd", "name": "\u72e9\u5ddd", "name:en": "Karikawa", "name:ja": "\u72e9\u5ddd", "name:ko": "\uac00\ub9ac\uce74\uc640", "note": "National-Land Numerical Information (Railway) 2007, MLIT Japan", "note:ja": "\u56fd\u571f\u6570\u5024\u60c5\u5831\uff08\u9244\u9053\u30c7\u30fc\u30bf\uff09\u5e73\u621019\u5e74\u3000\u56fd\u571f\u4ea4\u901a\u7701", "public_transport": "station", "railway": "station", "source": "KSJ2", "source_ref": "http://nlftp.mlit.go.jp/ksj/jpgis/datalist/KsjTmplt-N02-v1_1.html", "wikidata": "Q6370520", "wikipedia": "ja:\u72e9\u5ddd\u99c5"}}, {"type": "node", "id": 264402482, "lat": 38.7371616, "lon": 140.1453493, "tags": {"KSJ2:LIN": "\u9678\u7fbd\u897f\u7dda", "KSJ2:STN": "\u53e4\u53e3", "name": "\u53e4\u53e3", "name:en": "Furukuchi", "name:ja": "\u53e4\u53e3", "name:ko": "\ud6c4\ub8e8\ucfe0\uce58", "note": "National-Land Numerical Information (Railway) 2007, MLIT Japan", "note:ja": "\u56fd\u571f\u6570\u5024\u60c5\u5831\uff08\u9244\u9053\u30c7\u30fc\u30bf\uff09\u5e73\u621019\u5e74\u3000\u56fd\u571f\u4ea4\u901a\u7701", "public_transport": "station", "railway": "station", "source": "KSJ2", "source_ref": "http://nlftp.mlit.go.jp/ksj/jpgis/datalist/KsjTmplt-N02-v1_1.html", "wikidata": "Q5509803", "wikipedia": "ja:\u53e4\u53e3\u99c5"}}, {"type": "node", "id": 264402581, "lat": 38.7373047, "lon": 140.1860921, "tags": {"KSJ2:LIN": "\u9678\u7fbd\u897f\u7dda", "KSJ2:STN": "\u6d25\u8c37", "name": "\u6d25\u8c37", "name:en": "Tsuya", "name:ja": "\u6d25\u8c37", "name:ko": "\uc4f0\uc57c", "note": "National-Land Numerical Information (Railway) 2007, MLIT Japan", "note:ja": "\u56fd\u571f\u6570\u5024\u60c5\u5831\uff08\u9244\u9053\u30c7\u30fc\u30bf\uff09\u5e73\u621019\u5e74\u3000\u56fd\u571f\u4ea4\u901a\u7701", "public_transport": "station", "railway": "station", "source": "KSJ2", "source_ref": "http://nlftp.mlit.go.jp/ksj/jpgis/datalist/KsjTmplt-N02-v1_1.html", "wikidata": "Q7850358", "wikipedia": "ja:\u6d25\u8c37\u99c5"}}, {"type": "node", "id": 264402590, "lat": 38.7527396, "lon": 140.0706497, "tags": {"KSJ2:LIN": "\u9678\u7fbd\u897f\u7dda", "KSJ2:STN": "\u9ad8\u5c4b", "name": "\u9ad8\u5c4b", "name:en": "Takaya", "name:ja": "\u9ad8\u5c4b", "name:ko": "\ub2e4\uce74\uc57c", "note": "National-Land Numerical Information (Railway) 2007, MLIT Japan", "note:ja": "\u56fd\u571f\u6570\u5024\u60c5\u5831\uff08\u9244\u9053\u30c7\u30fc\u30bf\uff09\u5e73\u621019\u5e74\u3000\u56fd\u571f\u4ea4\u901a\u7701", "public_transport": "station", "railway": "station", "source": "KSJ2", "source_ref": "http://nlftp.mlit.go.jp/ksj/jpgis/datalist/KsjTmplt-N02-v1_1.html", "wikidata": "Q7677459", "wikipedia": "ja:\u9ad8\u5c4b\u99c5"}}, {"type": "node", "id": 264402593, "lat": 38.7515272, "lon": 140.2439332, "tags": {"name": "\u5347\u5f62", "name:en": "Masukata", "name:ja": "\u5347\u5f62", "name:ko": "\ub9c8\uc2a4\uce74\ud0c0", "public_transport": "station", "railway": "station", "source": "KSJ2", "train": "yes", "wikidata": "Q6785676", "wikipedia": "ja:\u5347\u5f62\u99c5"}}, {"type": "node", "id": 264402684, "lat": 38.747638, "lon": 140.208988, "tags": {"KSJ2:LIN": "\u9678\u7fbd\u897f\u7dda", "KSJ2:STN": "\u7fbd\u524d\u524d\u6ce2", "name": "\u7fbd\u524d\u524d\u6ce2", "name:en": "Uzen-Zennami", "name:ja": "\u7fbd\u524d\u524d\u6ce2", "name:ko": "\uc6b0\uc820\uc820\ub098\ubbf8", "note": "National-Land Numerical Information (Railway) 2007, MLIT Japan", "note:ja": "\u56fd\u571f\u6570\u5024\u60c5\u5831\uff08\u9244\u9053\u30c7\u30fc\u30bf\uff09\u5e73\u621019\u5e74\u3000\u56fd\u571f\u4ea4\u901a\u7701", "public_transport": "station", "railway": "station", "source": "KSJ2", "source_ref": "http://nlftp.mlit.go.jp/ksj/jpgis/datalist/KsjTmplt-N02-v1_1.html", "wikidata": "Q11610051", "wikipedia": "ja:\u7fbd\u524d\u524d\u6ce2\u99c5"}}, {"type": "node", "id": 264402724, "lat": 38.7901968, "lon": 140.0207611, "tags": {"KSJ2:LIN": "\u9678\u7fbd\u897f\u7dda", "KSJ2:STN": "\u6e05\u5ddd", "name": "\u6e05\u5ddd", "name:en": "Kiyokawa", "name:ja": "\u6e05\u5ddd", "name:ko": "\uae30\uc694\uce74\uc640", "note": "National-Land Numerical Information (Railway) 2007, MLIT Japan", "note:ja": "\u56fd\u571f\u6570\u5024\u60c5\u5831\uff08\u9244\u9053\u30c7\u30fc\u30bf\uff09\u5e73\u621019\u5e74\u3000\u56fd\u571f\u4ea4\u901a\u7701", "public_transport": "station", "railway": "station", "source": "KSJ2", "source_ref": "http://nlftp.mlit.go.jp/ksj/jpgis/datalist/KsjTmplt-N02-v1_1.html", "wikidata": "Q6419011", "wikipedia": "ja:\u6e05\u5ddd\u99c5"}}, {"type": "node", "id": 6122074672, "lat": 38.8582665, "lon": 140.2546016, "tags": {"name": "\u771f\u5ba4\u5ddd", "name:en": "Mamurogawa", "name:ja-Hira": "\u307e\u3080\u308d\u304c\u308f", "name:ja-Latn": "Mamurogawa", "public_transport": "station", "railway": "station", "source": "KSJ2", "train": "yes", "website": "https://www.jreast.co.jp/estation/station/info.aspx?StationCd=1451", "wikidata": "Q6746035", "wikipedia": "ja:\u771f\u5ba4\u5ddd\u99c5"}}, {"type": "node", "id": 6122174914, "lat": 38.8364589, "lon": 140.2422407, "tags": {"name": "\u7fbd\u524d\u8c4a\u91cc", "name:en": "Uzen-Toyosato", "name:ja-Hira": "\u3046\u305c\u3093\u3068\u3088\u3055\u3068", "name:ja-Latn": "Uzentoyosato", "public_transport": "station", "railway": "station", "source": "KSJ2", "train": "yes", "website": "https://www.jreast.co.jp/estation/station/info.aspx?StationCd=235", "wikidata": "Q7904875", "wikipedia": "ja:\u7fbd\u524d\u8c4a\u91cc\u99c5"}}, {"type": "node", "id": 6128684299, "lat": 38.7214098, "lon": 140.3163502, "tags": {"name": "\u5357\u65b0\u5e84", "name:en": "Minami-Shinjo", "name:ja-Hira": "\u307f\u306a\u307f\u3057\u3093\u3058\u3087\u3046", "name:ja-Latn": "Minamishinjo", "public_transport": "station", "railway": "station", "source": "KSJ2", "train": "yes", "wikidata": "Q2102225", "wikipedia": "ja:\u5357\u65b0\u5e84\u99c5"}}, {"type": "node", "id": 6138275416, "lat": 38.6299884, "lon": 140.3711396, "tags": {"name": "\u5317\u5927\u77f3\u7530", "name:en": "Kita-Ooishida", "name:ja-Hira": "\u304d\u305f\u304a\u304a\u3044\u3057\u3060", "name:ja-Latn": "Kita\u014dishida", "public_transport": "station", "railway": "station", "source": "KSJ2", "train": "yes", "wikidata": "Q6417636", "wikipedia": "ja:\u5317\u5927\u77f3\u7530\u99c5"}}, {"type": "node", "id": 6138275424, "lat": 38.5956294, "lon": 140.3753132, "tags": {"name": "\u5927\u77f3\u7530", "name:de": "\u014cishida", "name:en": "Oishida", "name:ja-Hira": "\u304a\u304a\u3044\u3057\u3060", "name:ja-Latn": "\u014cishida", "public_transport": "station", "railway": "station", "source": "KSJ2", "train": "yes", "wikidata": "Q1137108", "wikipedia": "ja:\u5927\u77f3\u7530\u99c5"}}, {"type": "node", "id": 6138282005, "lat": 38.6557877, "lon": 140.3611109, "tags": {"name": "\u82a6\u6ca2", "name:en": "Ashisawa", "name:ja-Hira": "\u3042\u3057\u3055\u308f", "name:ja-Latn": "Ashisawa", "public_transport": "station", "railway": "station", "source": "KSJ2", "train": "yes", "wikidata": "Q4805146", "wikipedia": "ja:\u82a6\u6ca2\u99c5"}}, {"type": "node", "id": 6138282008, "lat": 38.6917508, "lon": 140.3162764, "tags": {"name": "\u821f\u5f62", "name:en": "Funagata", "name:ja-Hira": "\u3075\u306a\u304c\u305f", "name:ja-Latn": "Funagata", "public_transport": "station", "railway": "station", "source": "KSJ2", "train": "yes", "wikidata": "Q5508714", "wikipedia": "ja:\u821f\u5f62\u99c5"}}, {"type": "node", "id": 6204970551, "lat": 38.7659809, "lon": 140.4758947, "tags": {"name": "\u5927\u5800", "name:en": "Ohori", "name:ja": "\u5927\u5800", "name:ja-Hira": "\u304a\u304a\u307b\u308a", "name:ja-Latn": "\u014chori", "name:ko": "\uc624\ud638\ub9ac", "public_transport": "station", "railway": "station", "source": "KSJ2", "train": "yes", "wikidata": "Q2027869", "wikipedia": "ja:\u5927\u5800\u99c5"}}, {"type": "node", "id": 8652905535, "lat": 38.9928091, "lon": 140.3611404, "tags": {"KSJ2:LIN": "\u5965\u7fbd\u7dda", "KSJ2:STN": "\u53ca\u4f4d", "name": "\u53ca\u4f4d", "name:de": "Nozoki", "name:en": "Nozoki", "name:ja": "\u53ca\u4f4d", "name:ja_kana": "\u306e\u305e\u304d", "name:ja_rm": "Nozoki", "name:ko": "\ub178\uc870\ud0a4", "note": "National-Land Numerical Information (Railway) 2007, MLIT Japan", "note:ja": "\u56fd\u571f\u6570\u5024\u60c5\u5831\uff08\u9244\u9053\u30c7\u30fc\u30bf\uff09\u5e73\u621019\u5e74\u3000\u56fd\u571f\u4ea4\u901a\u7701", "public_transport": "station", "railway": "station", "source": "KSJ2", "source_ref": "http://nlftp.mlit.go.jp/ksj/jpgis/datalist/KsjTmplt-N02-v1_1.html", "website": "https://www.jreast.co.jp/estation/station/info.aspx?StationCd=1205", "wikidata": "Q7067415", "wikipedia": "ja:\u53ca\u4f4d\u99c5"}}, {"type": "node", "id": 11013108882, "lat": 38.9714963, "lon": 140.3198531, "tags": {"name": "\u5927\u6edd", "name:en": "Otaki", "name:ja": "\u5927\u6edd", "name:ja_rm": "\u014ctaki", "name:ko": "\uc624\ud0c0\ud0a4", "public_transport": "station", "railway": "station", "website": "https://www.jreast.co.jp/estation/station/info.aspx?StationCd=326", "wikidata": "Q8081754", "wikipedia": "ja:\u5927\u6edd\u99c5"}}, {"type": "node", "id": 11013108883, "lat": 38.9327407, "lon": 140.2641524, "tags": {"name": "\u91dc\u6df5", "name:en": "Kamabuchi", "name:ja": "\u91dc\u6df5", "name:ja_rm": "Kamabuchi", "name:ko": "\uac00\ub9c8\ubd80\uce58", "public_transport": "station", "railway": "station", "website": "https://www.jreast.co.jp/estation/station/info.aspx?StationCd=480", "wikidata": "Q11648102", "wikipedia": "ja:\u91dc\u6df5\u99c5"}}, {"type": "node", "id": 11013108890, "lat": 38.8117771, "lon": 140.3101904, "tags": {"name": "\u6cc9\u7530", "name:en": "Izumita", "name:ja": "\u6cc9\u7530", "name:ja_rm": "Izumita", "name:ko": "\uc774\uc988\ubbf8\ud0c0", "public_transport": "station", "railway": "station", "train": "yes", "website": "https://www.jreast.co.jp/estation/station/info.aspx?StationCd=125", "wikidata": "Q6102377", "wikipedia": "ja:\u6cc9\u7530\u99c5"}}]}