{"version": 0.6, "generator": "Overpass API 0.7.62.4 2390de5a", "osm3s": {"timestamp_osm_base": "2024-12-30T14:57:07Z", "copyright": "The data included in this document is from www.openstreetmap.org. The data is made available under ODbL."}, "elements": [{"type": "node", "id": 264804048, "lat": 36.3112208, "lon": 138.4408651, "tags": {"name": "\u4e59\u5973", "name:en": "Otome", "name:ja": "\u4e59\u5973", "name:ko": "\uc624\ud1a0\uba54", "public_transport": "station", "railway": "station", "source": "KSJ2", "train": "yes", "wikidata": "Q7108977", "wikipedia": "ja:\u4e59\u5973\u99c5"}}, {"type": "node", "id": 264804148, "lat": 36.30409, "lon": 138.4486327, "tags": {"name": "\u4e09\u5ca1", "name:en": "Mitsuoka", "name:ja-Latn": "Mitsuoka", "name:ko": "\ubbf8\uc4f0\uc624\uce74", "public_transport": "station", "railway": "station", "source": "KSJ2", "train": "yes", "wikidata": "Q6883336", "wikipedia": "ja:\u4e09\u5ca1\u99c5"}}, {"type": "node", "id": 264804242, "lat": 36.291825, "lon": 138.4500658, "tags": {"name": "\u7f8e\u91cc", "name:en": "Misato", "name:ja-Hira": "\u307f\u3055\u3068", "name:ja-Latn": "Misato", "name:ko": "\ubbf8\uc0ac\ud1a0", "public_transport": "station", "railway": "station", "source": "KSJ2", "train": "yes", "wikidata": "Q6875171", "wikipedia": "ja:\u7f8e\u91cc\u99c5"}}, {"type": "node", "id": 264804269, "lat": 36.1556417, "lon": 138.485835, "tags": {"name": "\u6d77\u702c", "name:en": "Kaize", "name:ja": "\u6d77\u702c", "name:ja-Hira": "\u304b\u3044\u305c", "name:ja-Latn": "Kaize", "name:ko": "\uac00\uc774\uc81c", "public_transport": "station", "railway": "station", "source": "KSJ2", "train": "yes", "wikidata": "Q6348734", "wikipedia": "ja:\u6d77\u702c\u99c5"}}, {"type": "node", "id": 264804607, "lat": 36.061116, "lon": 138.4704765, "tags": {"name": "\u677e\u539f\u6e56", "name:en": "Matsubarako", "name:ja-Hira": "\u307e\u3064\u3070\u3089\u3053", "name:ja-Latn": "Matsubarako", "name:ko": "\ub9c8\uc4f0\ubc14\ub77c\ucf54", "public_transport": "station", "railway": "station", "source": "KSJ2", "train": "yes", "wikidata": "Q6788020", "wikipedia": "ja:\u677e\u539f\u6e56\u99c5"}}, {"type": "node", "id": 264804610, "lat": 36.0887317, "lon": 138.4827549, "tags": {"name": "\u5c0f\u6d77", "name:en": "Koumi", "name:ja": "\u5c0f\u6d77", "name:ja-Hira": "\u3053\u3046\u307f", "name:ja-Latn": "Koumi", "name:ko": "\uace0\uc6b0\ubbf8", "public_transport": "station", "railway": "station", "source": "KSJ2", "train": "yes", "wikidata": "Q6434616", "wikipedia": "ja:\u5c0f\u6d77\u99c5"}}, {"type": "node", "id": 264804801, "lat": 36.1334719, "lon": 138.4773016, "tags": {"name": "\u516b\u5343\u7a42", "name:en": "Yachiho", "name:ja-Hira": "\u3084\u3061\u307b", "name:ja-Latn": "Yachiho", "name:ko": "\uc57c\uce58\ud638", "public_transport": "station", "railway": "station", "source": "KSJ2", "train": "yes", "wikidata": "Q8046421", "wikipedia": "ja:\u516b\u5343\u7a42\u99c5"}}, {"type": "node", "id": 264805813, "lat": 36.1810906, "lon": 138.4891308, "tags": {"name": "\u9752\u6cbc", "name:en": "Aonuma", "name:ja-Hira": "\u3042\u304a\u306c\u307e", "name:ja-Latn": "Aonuma", "name:ko": "\uc544\uc624\ub204\ub9c8", "public_transport": "station", "railway": "station", "source": "KSJ2", "train": "yes", "wikidata": "Q4778718", "wikipedia": "ja:\u9752\u6cbc\u99c5"}}, {"type": "node", "id": 264805826, "lat": 36.0408627, "lon": 138.4735154, "tags": {"name": "\u6d77\u5c3b", "name:en": "Umijiri", "name:ja-Hira": "\u3046\u307f\u3058\u308a", "name:ja-Latn": "Umijiri", "name:ko": "\uc6b0\ubbf8\uc9c0\ub9ac", "public_transport": "station", "railway": "station", "source": "KSJ2", "train": "yes", "wikidata": "Q7881572", "wikipedia": "ja:\u6d77\u5c3b\u99c5"}}, {"type": "node", "id": 264806247, "lat": 36.2387947, "lon": 138.4749024, "tags": {"name": "\u6ed1\u6d25", "name:en": "Namezu", "name:ja-Hira": "\u306a\u3081\u3065", "name:ja-Latn": "Namezu", "name:ko": "\ub098\uba54\uc988", "public_transport": "station", "railway": "station", "source": "KSJ2", "train": "yes", "wikidata": "Q6961680", "wikipedia": "ja:\u6ed1\u6d25\u99c5"}}, {"type": "node", "id": 264806253, "lat": 36.2044643, "lon": 138.4907944, "tags": {"name": "\u9f8d\u5ca1\u57ce", "name:en": "Tatsuokaj\u014d", "name:ja-Latn": "Tatsuokaj\u014d", "name:ko": "\ub2e4\uc4f0\uc624\uce74\uc8e0", "public_transport": "station", "railway": "station", "source": "KSJ2", "train": "yes", "wikidata": "Q7688330", "wikipedia": "ja:\u9f8d\u5ca1\u57ce\u99c5"}}, {"type": "node", "id": 264806256, "lat": 36.2746144, "lon": 138.4723522, "tags": {"name": "\u5ca9\u6751\u7530", "name:en": "Iwamurada", "name:ja-Hira": "\u3044\u308f\u3080\u3089\u3060", "name:ja-Latn": "Iwamurada", "name:ko": "\uc774\uc640\ubb34\ub77c\ub2e4", "public_transport": "station", "railway": "station", "source": "KSJ2", "train": "yes", "wikidata": "Q6100527", "wikipedia": "ja:\u5ca9\u6751\u7530\u99c5"}}, {"type": "node", "id": 264806317, "lat": 35.8962348, "lon": 138.4094028, "tags": {"name": "\u7532\u6590\u5927\u6cc9", "name:en": "Kai-Oizumi", "name:ja-Hira": "\u304b\u3044\u304a\u304a\u3044\u305a\u307f", "name:ja-Latn": "Kai\u014dizumi", "name:ko": "\uac00\uc774\uc624\uc774\uc988\ubbf8", "public_transport": "station", "railway": "station", "source": "KSJ2", "train": "yes", "wikidata": "Q3558352", "wikipedia": "ja:\u7532\u6590\u5927\u6cc9\u99c5"}}, {"type": "node", "id": 264806412, "lat": 36.101761, "lon": 138.4858821, "tags": {"name": "\u99ac\u6d41", "name:en": "Managashi", "name:ja": "\u99ac\u6d41", "name:ja-Hira": "\u307e\u306a\u304c\u3057", "name:ja-Latn": "Managashi", "name:ko": "\ub9c8\ub098\uac00\uc2dc", "public_transport": "station", "railway": "station", "source": "KSJ2", "train": "yes", "wikidata": "Q6746622", "wikipedia": "ja:\u99ac\u6d41\u99c5"}}, {"type": "node", "id": 264806670, "lat": 36.2549328, "lon": 138.4766109, "tags": {"name": "\u5317\u4e2d\u8fbc", "name:en": "Kita-Nakagomi", "name:ja-Hira": "\u304d\u305f\u306a\u304b\u3054\u307f", "name:ja-Latn": "Kitanakagomi", "name:ko": "\uae30\ud0c0\ub098\uce74\uace0\ubbf8", "public_transport": "station", "railway": "station", "source": "KSJ2", "train": "yes", "wikidata": "Q6417576", "wikipedia": "ja:\u5317\u4e2d\u8fbc\u99c5"}}, {"type": "node", "id": 264806734, "lat": 36.2305821, "lon": 138.4792663, "tags": {"mapillary": "527122585333050", "name": "\u4e2d\u8fbc", "name:en": "Nakagomi", "name:ja-Hira": "\u306a\u304b\u3054\u307f", "name:ja-Latn": "Nakagomi", "name:ko": "\ub098\uce74\uace0\ubbf8", "public_transport": "station", "railway": "station", "source": "KSJ2", "train": "yes", "wikidata": "Q6960151", "wikipedia": "ja:\u4e2d\u8fbc\u99c5"}}, {"type": "node", "id": 264806737, "lat": 36.1160488, "lon": 138.477378, "tags": {"name": "\u9ad8\u5ca9", "name:en": "Takaiwa", "name:ja": "\u9ad8\u5ca9", "name:ja-Hira": "\u305f\u304b\u3044\u308f", "name:ja-Latn": "Takaiwa", "name:ko": "\ub2e4\uce74\uc774\uc640", "public_transport": "station", "railway": "station", "source": "KSJ2", "train": "yes", "wikidata": "Q7677090", "wikipedia": "ja:\u9ad8\u5ca9\u99c5 (\u9577\u91ce\u770c)"}}, {"type": "node", "id": 264806795, "lat": 36.1939596, "lon": 138.4880894, "tags": {"name": "\u81fc\u7530", "name:en": "Usuda", "name:ja-Latn": "Usuda", "name:ko": "\uc6b0\uc2a4\ub2e4", "railway": "station", "source": "KSJ2", "train": "yes", "wikidata": "Q7902246", "wikipedia": "ja:\u81fc\u7530\u99c5"}}, {"type": "node", "id": 264806836, "lat": 36.1664129, "lon": 138.4894681, "tags": {"name": "\u7fbd\u9ed2\u4e0b", "name:en": "Haguroshita", "name:ja-Hira": "\u306f\u3050\u308d\u3057\u305f", "name:ja-Latn": "Haguroshita", "name:ko": "\ud558\uad6c\ub85c\uc2dc\ud0c0", "public_transport": "station", "railway": "station", "source": "KSJ2", "train": "yes", "wikidata": "Q5638848", "wikipedia": "ja:\u7fbd\u9ed2\u4e0b\u99c5"}}, {"type": "node", "id": 264806842, "lat": 35.9759463, "lon": 138.5273516, "tags": {"name": "\u4fe1\u6fc3\u5ddd\u4e0a", "name:en": "Shinano-Kawakami", "name:ja-Hira": "\u3057\u306a\u306e\u304b\u308f\u304b\u307f", "name:ja-Latn": "Shinanokawakami", "name:ko": "\uc2dc\ub098\ub178\uce74\uc640\uce74\ubbf8", "public_transport": "station", "railway": "station", "source": "KSJ2", "train": "yes", "wikidata": "Q7497257", "wikipedia": "ja:\u4fe1\u6fc3\u5ddd\u4e0a\u99c5"}}, {"type": "node", "id": 264807148, "lat": 36.0212546, "lon": 138.4908253, "tags": {"name": "\u4f50\u4e45\u6d77\u30ce\u53e3", "name:en": "Saku-Uminokuchi", "name:ja-Hira": "\u3055\u304f\u3046\u307f\u306e\u304f\u3061", "name:ja-Latn": "Sakuuminokuchi", "name:ko": "\uc0ac\ucfe0\uc6b0\ubbf8\ub178\ucfe0\uce58", "public_transport": "station", "railway": "station", "source": "KSJ2", "train": "yes", "wikidata": "Q7403128", "wikipedia": "ja:\u4f50\u4e45\u6d77\u30ce\u53e3\u99c5"}}, {"type": "node", "id": 264807151, "lat": 36.0035397, "lon": 138.5193546, "tags": {"name": "\u4f50\u4e45\u5e83\u702c", "name:en": "Saku-Hirose", "name:ja-Hira": "\u3055\u304f\u3072\u308d\u305b", "name:ja-Latn": "Sakuhirose", "name:ko": "\uc0ac\ucfe0\ud788\ub85c\uc138", "public_transport": "station", "railway": "station", "source": "KSJ2", "train": "yes", "wikidata": "Q7403127", "wikipedia": "ja:\u4f50\u4e45\u5e83\u702c\u99c5"}}, {"type": "node", "id": 264807176, "lat": 36.2809948, "lon": 138.4533535, "tags": {"name": "\u4e2d\u4f50\u90fd", "name:en": "Nakasato", "name:ja-Hira": "\u306a\u304b\u3055\u3068", "name:ja-Latn": "Nakasato", "name:ko": "\ub098\uce74\uc0ac\ud1a0", "public_transport": "station", "railway": "station", "source": "KSJ2", "train": "yes", "wikidata": "Q6960311", "wikipedia": "ja:\u4e2d\u4f50\u90fd\u99c5"}}, {"type": "node", "id": 264807182, "lat": 36.2776131, "lon": 138.4635231, "tags": {"name": "\u4f50\u4e45\u5e73", "name:en": "Sakudaira", "name:ja-Hira": "\u3055\u304f\u3060\u3044\u3089", "name:ja-Latn": "Sakudaira", "name:ko": "\uc0ac\ucfe0\ub2e4\uc774\ub77c", "public_transport": "station", "railway": "station", "source": "KSJ2", "train": "yes", "wikidata": "Q1188565", "wikipedia": "ja:\u4f50\u4e45\u5e73\u99c5"}}, {"type": "node", "id": 264807679, "lat": 36.220537, "lon": 138.4875543, "tags": {"name": "\u592a\u7530\u90e8", "name:en": "\u014ctabe", "name:ja-Hira": "\u304a\u304a\u305f\u3079", "name:ja-Latn": "\u014ctabe", "name:ko": "\uc624\ud0c0\ubca0", "public_transport": "station", "railway": "station", "source": "KSJ2", "train": "yes", "wikidata": "Q8081739", "wikipedia": "ja:\u592a\u7530\u90e8\u99c5"}}, {"type": "node", "id": 264808506, "lat": 35.9553038, "lon": 138.4746495, "tags": {"internet_access": "no", "name": "\u91ce\u8fba\u5c71", "name:en": "Nobeyama", "name:ja-Hira": "\u306e\u3079\u3084\u307e", "name:ja-Latn": "Nobeyama", "name:ko": "\ub178\ubca0\uc57c\ub9c8", "public_transport": "station", "railway": "station", "source": "KSJ2", "train": "yes", "wikidata": "Q3616013", "wikipedia": "ja:\u91ce\u8fba\u5c71\u99c5"}}, {"type": "node", "id": 264808510, "lat": 35.9192642, "lon": 138.4369571, "tags": {"name": "\u6e05\u91cc", "name:en": "Kiyasato", "name:ja-Hira": "\u304d\u3088\u3055\u3068", "name:ja-Latn": "Kiyosato", "name:ko": "\uae30\uc694\uc0ac\ud1a0", "public_transport": "station", "railway": "station", "source": "KSJ2", "train": "yes", "wikidata": "Q6419072", "wikipedia": "ja:\u6e05\u91cc\u99c5"}}, {"type": "node", "id": 265040118, "lat": 36.2781104, "lon": 138.4643868, "tags": {"highspeed": "yes", "name": "\u4f50\u4e45\u5e73", "name:en": "Sakudaira", "name:ja": "\u4f50\u4e45\u5e73", "name:ja_rm": "Sakudaira", "name:ko": "\uc0ac\ucfe0\ub2e4\uc774\ub77c", "note:ja": "\u56fd\u571f\u6570\u5024\u60c5\u5831\uff08\u9244\u9053\u30c7\u30fc\u30bf\uff09\u5e73\u621019\u5e74\u3000\u56fd\u571f\u4ea4\u901a\u7701", "operator": "\u6771\u65e5\u672c\u65c5\u5ba2\u9244\u9053\u682a\u5f0f\u4f1a\u793e", "public_transport": "station", "railway": "station", "source": "KSJ2", "source_ref": "http://nlftp.mlit.go.jp/ksj/jpgis/datalist/KsjTmplt-N02-v1_1.html", "usage": "main", "wikidata": "Q1188565", "wikipedia": "ja:\u4f50\u4e45\u5e73\u99c5"}}, {"type": "node", "id": 3824505341, "lat": 36.3094214, "lon": 138.797336, "tags": {"name": "\u677e\u4e95\u7530", "name:en": "Matsuida", "name:ja": "\u677e\u4e95\u7530", "name:ja_rm": "Matsuida", "name:ko": "\ub9c8\uc4f0\uc774\ub2e4", "operator": "\u6771\u65e5\u672c\u65c5\u5ba2\u9244\u9053", "public_transport": "station", "railway": "station", "wikidata": "Q5357126", "wikipedia": "ja:\u677e\u4e95\u7530\u99c5"}}, {"type": "node", "id": 3824505344, "lat": 36.2983921, "lon": 138.8497966, "tags": {"name": "\u78ef\u90e8", "name:en": "Isobe", "name:ja": "\u78ef\u90e8", "name:ja_rm": "Isobe", "name:ko": "\uc774\uc18c\ubca0", "operator": "\u6771\u65e5\u672c\u65c5\u5ba2\u9244\u9053", "public_transport": "station", "railway": "station", "wikidata": "Q900685"}}, {"type": "node", "id": 3824505347, "lat": 36.3162627, "lon": 138.7863809, "tags": {"name": "\u897f\u677e\u4e95\u7530", "name:en": "Nishi-Matsuida", "name:ja": "\u897f\u677e\u4e95\u7530", "name:ja_rm": "Nishi-Matsuida", "name:ko": "\ub2c8\uc2dc\ub9c8\uc4f0\uc774\ub2e4", "operator": "\u6771\u65e5\u672c\u65c5\u5ba2\u9244\u9053", "public_transport": "station", "railway": "station", "wikidata": "Q5356946"}}, {"type": "node", "id": 4351338274, "lat": 36.2530369, "lon": 138.8637154, "tags": {"KSJ2:LIN": "\u4e0a\u4fe1\u7dda", "KSJ2:STN": "\u4e0a\u5dde\u4e00\u30ce\u5bae", "name": "\u4e0a\u5dde\u4e00\u30ce\u5bae", "name:en": "Joshu-Ichinomiya", "name:ja": "\u4e0a\u5dde\u4e00\u30ce\u5bae", "name:ja_rm": "J\u014dsh\u016b-Ichinomiya", "name:ko": "\uc870\uc288\uc774\uce58\ub178\ubbf8\uc57c", "note": "National-Land Numerical Information (Railway) 2007, MLIT Japan", "note:ja": "\u56fd\u571f\u6570\u5024\u60c5\u5831\uff08\u9244\u9053\u30c7\u30fc\u30bf\uff09\u5e73\u621019\u5e74\u3000\u56fd\u571f\u4ea4\u901a\u7701", "public_transport": "station", "railway": "station", "source": "KSJ2", "source_ref": "http://nlftp.mlit.go.jp/ksj/jpgis/datalist/KsjTmplt-N02-v1_1.html", "wikidata": "Q11358969", "wikipedia": "ja:\u4e0a\u5dde\u4e00\u30ce\u5bae\u99c5"}}, {"type": "node", "id": 4351338275, "lat": 36.258802, "lon": 138.8748834, "tags": {"KSJ2:LIN": "\u4e0a\u4fe1\u7dda", "KSJ2:STN": "\u4e0a\u5dde\u4e03\u65e5\u5e02", "name": "\u4e0a\u5dde\u4e03\u65e5\u5e02", "name:en": "Joshu-Nanokaichi", "name:ja": "\u4e0a\u5dde\u4e03\u65e5\u5e02", "name:ja_rm": "J\u014dsh\u016b-Nanokaichi", "name:ko": "\uc870\uc288\ub098\ub178\uce74\uc774\uce58", "note": "National-Land Numerical Information (Railway) 2007, MLIT Japan", "note:ja": "\u56fd\u571f\u6570\u5024\u60c5\u5831\uff08\u9244\u9053\u30c7\u30fc\u30bf\uff09\u5e73\u621019\u5e74\u3000\u56fd\u571f\u4ea4\u901a\u7701", "public_transport": "station", "railway": "station", "source": "KSJ2", "source_ref": "http://nlftp.mlit.go.jp/ksj/jpgis/datalist/KsjTmplt-N02-v1_1.html", "wikidata": "Q11358971", "wikipedia": "ja:\u4e0a\u5dde\u4e03\u65e5\u5e02\u99c5"}}, {"type": "node", "id": 4351338277, "lat": 36.2604237, "lon": 138.8919038, "tags": {"name": "\u4e0a\u5dde\u5bcc\u5ca1", "name:en": "Joshu-Tomioka", "name:ja": "\u4e0a\u5dde\u5bcc\u5ca1", "name:ja_rm": "J\u014dsh\u016b-Tomioka", "name:ko": "\uc870\uc288\ud1a0\ubbf8\uc624\uce74", "network": "\u4e0a\u4fe1\u7dda", "operator": "\u4e0a\u4fe1\u96fb\u9244", "operator:en": "J\u014dshin Dentetsu", "operator:ja": "\u4e0a\u4fe1\u96fb\u9244", "public_transport": "station", "railway": "station", "source": "survey 2014", "wikidata": "Q11358973"}}, {"type": "node", "id": 4351338278, "lat": 36.2426671, "lon": 138.8435266, "tags": {"KSJ2:LIN": "\u4e0a\u4fe1\u7dda", "KSJ2:STN": "\u795e\u8fb2\u539f", "name": "\u795e\u8fb2\u539f", "name:en": "Kanohara", "name:ja": "\u795e\u8fb2\u539f", "name:ja_rm": "Kanohara", "name:ko": "\uac00\ub178\ud558\ub77c", "note": "National-Land Numerical Information (Railway) 2007, MLIT Japan", "note:ja": "\u56fd\u571f\u6570\u5024\u60c5\u5831\uff08\u9244\u9053\u30c7\u30fc\u30bf\uff09\u5e73\u621019\u5e74\u3000\u56fd\u571f\u4ea4\u901a\u7701", "public_transport": "station", "railway": "station", "source": "KSJ2", "source_ref": "http://nlftp.mlit.go.jp/ksj/jpgis/datalist/KsjTmplt-N02-v1_1.html", "wikidata": "Q11590900", "wikipedia": "ja:\u795e\u8fb2\u539f\u99c5"}}, {"type": "node", "id": 4351338280, "lat": 36.2380765, "lon": 138.8138092, "tags": {"KSJ2:LIN": "\u4e0a\u4fe1\u7dda", "KSJ2:STN": "\u5357\u86c7\u4e95", "name": "\u5357\u86c7\u4e95", "name:en": "Nanjai", "name:ja": "\u5357\u86c7\u4e95", "name:ja_rm": "Nanjai", "name:ko": "\ub09c\uc790\uc774", "note": "National-Land Numerical Information (Railway) 2007, MLIT Japan", "note:ja": "\u56fd\u571f\u6570\u5024\u60c5\u5831\uff08\u9244\u9053\u30c7\u30fc\u30bf\uff09\u5e73\u621019\u5e74\u3000\u56fd\u571f\u4ea4\u901a\u7701", "public_transport": "station", "railway": "station", "source": "KSJ2", "source_ref": "http://nlftp.mlit.go.jp/ksj/jpgis/datalist/KsjTmplt-N02-v1_1.html", "wikidata": "Q11408406", "wikipedia": "ja:\u5357\u86c7\u4e95\u99c5"}}, {"type": "node", "id": 4351338281, "lat": 36.2601721, "lon": 138.8831631, "tags": {"name": "\u897f\u5bcc\u5ca1", "name:en": "Nishi-Tomioka", "name:ja": "\u897f\u5bcc\u5ca1", "name:ja_rm": "Nishi-Tomioka", "name:ko": "\ub2c8\uc2dc\ud1a0\ubbf8\uc624\uce74", "public_transport": "station", "railway": "station", "source": "Bing 2011", "wikidata": "Q11627679", "wikipedia": "ja:\u897f\u5bcc\u5ca1\u99c5"}}, {"type": "node", "id": 4351338284, "lat": 36.2301987, "lon": 138.7988431, "tags": {"KSJ2:LIN": "\u4e0a\u4fe1\u7dda", "KSJ2:STN": "\u5343\u5e73", "name": "\u5343\u5e73", "name:en": "Sendaira", "name:ja": "\u5343\u5e73", "name:ja_rm": "Sendaira", "name:ko": "\uc13c\ub2e4\uc774\ub77c", "note": "National-Land Numerical Information (Railway) 2007, MLIT Japan", "note:ja": "\u56fd\u571f\u6570\u5024\u60c5\u5831\uff08\u9244\u9053\u30c7\u30fc\u30bf\uff09\u5e73\u621019\u5e74\u3000\u56fd\u571f\u4ea4\u901a\u7701", "public_transport": "station", "railway": "station", "source": "KSJ2", "source_ref": "http://nlftp.mlit.go.jp/ksj/jpgis/datalist/KsjTmplt-N02-v1_1.html", "wikidata": "Q7450197", "wikipedia": "ja:\u5343\u5e73\u99c5"}}, {"type": "node", "id": 4351338286, "lat": 36.2104653, "lon": 138.7864082, "tags": {"KSJ2:LIN": "\u4e0a\u4fe1\u7dda", "KSJ2:STN": "\u4e0b\u4ec1\u7530", "name": "\u4e0b\u4ec1\u7530", "name:en": "Shimonita", "name:ja": "\u4e0b\u4ec1\u7530", "name:ja_rm": "Shimonita", "name:ko": "\uc2dc\ubaa8\ub2c8\ud0c0", "note": "National-Land Numerical Information (Railway) 2007, MLIT Japan", "note:ja": "\u56fd\u571f\u6570\u5024\u60c5\u5831\uff08\u9244\u9053\u30c7\u30fc\u30bf\uff09\u5e73\u621019\u5e74\u3000\u56fd\u571f\u4ea4\u901a\u7701", "public_transport": "station", "railway": "station", "source": "KSJ2", "source_ref": "http://nlftp.mlit.go.jp/ksj/jpgis/datalist/KsjTmplt-N02-v1_1.html", "wikidata": "Q7497006", "wikipedia": "ja:\u4e0b\u4ec1\u7530\u99c5"}}, {"type": "node", "id": 7196388299, "lat": 36.3189786, "lon": 138.5064425, "tags": {"name": "\u5fa1\u4ee3\u7530", "name:en": "Miyota", "name:ja": "\u5fa1\u4ee3\u7530", "name:ko": "\ubbf8\uc694\ud0c0", "public_transport": "station", "railway": "station", "wikidata": "Q11488783", "wikipedia": "ja:\u5fa1\u4ee3\u7530\u99c5"}}, {"type": "node", "id": 7196424987, "lat": 36.32701, "lon": 138.4217128, "tags": {"name": "\u5c0f\u8af8", "name:en": "Komoro", "name:ja": "\u5c0f\u8af8", "name:ja-Latn": "Komoro", "name:ko": "\uace0\ubaa8\ub85c", "public_transport": "station", "railway": "station", "train": "yes", "wikidata": "Q6428516", "wikipedia": "ja:\u5c0f\u8af8\u99c5"}}, {"type": "node", "id": 9950715676, "lat": 36.3169542, "lon": 138.4322921, "tags": {"name": "\u6771\u5c0f\u8af8", "name:en": "Higashi-Komoro", "name:ja": "\u6771\u5c0f\u8af8", "name:ja-Hira": "\u3072\u304c\u3057\u3053\u3082\u308d", "name:ja-Latn": "Higashi-Komoro", "name:ko": "\ud788\uac00\uc2dc\ucf54\ubaa8\ub85c", "public_transport": "station", "railway": "station", "train": "yes", "url": "https://www.jreast.co.jp/estation/stations/1281.html", "wikidata": "Q11526660", "wikipedia": "ja:\u6771\u5c0f\u8af8\u99c5"}}, {"type": "node", "id": 9950736255, "lat": 36.3086281, "lon": 138.4538196, "tags": {"name": "\u5e73\u539f", "name:en": "Hirahara", "name:ja": "\u5e73\u539f", "name:ja-Hira": "\u3072\u3089\u306f\u3089", "name:ja-Latn": "Hirahara", "name:ko": "\ud788\ub77c\ud558\ub77c", "public_transport": "station", "railway": "station", "train": "yes", "url": "https://www.shinanorailway.co.jp/area/hirahara.php", "wikidata": "Q5768877", "wikipedia": "ja:\u5e73\u539f\u99c5"}}]}