{"version": 0.6, "generator": "Overpass API 0.7.62.4 2390de5a", "osm3s": {"timestamp_osm_base": "2024-12-30T14:59:15Z", "copyright": "The data included in this document is from www.openstreetmap.org. The data is made available under ODbL."}, "elements": [{"type": "node", "id": 1685240260, "lat": 35.8671602, "lon": 140.395839, "tags": {"railway": "station"}}, {"type": "node", "id": 1923401945, "lat": 35.7214536, "lon": 140.0417146, "tags": {"name": "\u5317\u7fd2\u5fd7\u91ce", "name:en": "Kita-narashino", "name:es": "Kita-narashino", "name:ja": "\u5317\u7fd2\u5fd7\u91ce", "name:ja_kana": "\u304d\u305f\u306a\u3089\u3057\u306e", "name:ja_rm": "Kita-narashino", "name:ko": "\uae30\ud0c0\ub098\ub77c\uc2dc\ub178", "network": "\u6771\u8449\u9ad8\u901f\u7dda", "operator": "\u6771\u8449\u9ad8\u901f\u9244\u9053", "platforms": "2", "public_transport": "station", "railway": "station", "ref": "TR04", "station": "subway", "wheelchair": "yes", "wikidata": "Q6417578", "wikipedia": "ja:\u5317\u7fd2\u5fd7\u91ce\u99c5"}}, {"type": "node", "id": 1923703990, "lat": 35.7268419, "lon": 140.0588171, "tags": {"alt_name:ko": "\ud6c4\ub098\ubc14\uc2dc\ub2c8\uce58\ub2e4\uc774\ub9c8\uc5d0", "name": "\u8239\u6a4b\u65e5\u5927\u524d", "name:en": "Funabashi-nichidaimae", "name:es": "Funabashi-nichidaimae", "name:ja": "\u8239\u6a4b\u65e5\u5927\u524d", "name:ja_kana": "\u3075\u306a\u3070\u3057\u306b\u3061\u3060\u3044\u307e\u3048", "name:ja_rm": "Funabashi-nichidaimae", "name:ko": "\ud6c4\ub098\ubc14\uc2dc\ub2c8\ud63c\ub300\ud559\uc55e", "network": "\u6771\u8449\u9ad8\u901f\u7dda", "operator": "\u6771\u8449\u9ad8\u901f\u9244\u9053", "platforms": "2", "public_transport": "station", "railway": "station", "ref": "TR05", "station": "subway", "wheelchair": "yes", "wikidata": "Q5366251", "wikipedia": "ja:\u8239\u6a4b\u65e5\u5927\u524d\u99c5"}}, {"type": "node", "id": 1923879760, "lat": 35.7159497, "lon": 140.1260561, "tags": {"name": "\u6771\u8449\u52dd\u7530\u53f0", "name:en": "Toyo-Katsutadai", "name:es": "Toyo-Katsutadai", "name:ja": "\u6771\u8449\u52dd\u7530\u53f0", "name:ja_kana": "\u3068\u3046\u3088\u3046\u304b\u3064\u305f\u3060\u3044", "name:ja_rm": "T\u014dy\u014d Katsutadai", "name:ko": "\ub3c4\uc694\uce74\uc4f0\ud0c0\ub2e4\uc774", "network": "\u6771\u8449\u9ad8\u901f\u7dda", "operator": "\u6771\u8449\u9ad8\u901f\u9244\u9053", "phone": "+81 47 4872010", "platforms": "2", "public_transport": "station", "railway": "station", "ref": "TR09", "station": "subway", "website": "http://www.toyokosoku.co.jp/en/en-toyokatsutadai", "wheelchair": "yes", "wikidata": "Q7862750", "wikipedia": "ja:\u6771\u8449\u52dd\u7530\u53f0\u99c5"}}, {"type": "node", "id": 1950613882, "lat": 35.7653969, "lon": 140.3859899, "tags": {"alt_name": "\u7b2c1\u65c5\u5ba2\u30bf\u30fc\u30df\u30ca\u30eb", "name": "\u6210\u7530\u7a7a\u6e2f", "name:en": "Narita Airport Terminal 1", "name:es": "Terminal 1 del Aeropuerto de Narita", "name:it": "Narita Aeroporto Terminal 1", "name:ja": "\u6210\u7530\u7a7a\u6e2f", "name:ja-Hira": "\u306a\u308a\u305f\u304f\u3046\u3053\u3046", "name:ja-Latn": "Narita K\u016bk\u014d", "name:ko": "\ub098\ub9ac\ud0c0\uacf5\ud56d \uc81c1\ud130\ubbf8\ub110", "name:ru": "\u041f\u0435\u0440\u0432\u044b\u0439 \u0442\u0435\u0440\u043c\u0438\u043d\u0430\u043b \u0430\u044d\u0440\u043e\u043f\u043e\u0440\u0442\u0430 \u041d\u0430\u0440\u0438\u0442\u0430", "name:zh": "\u6210\u7530\u673a\u573a \u7b2c1\u5019\u673a\u697c", "network": "\u4eac\u6210", "operator": "\u4eac\u6210\u96fb\u9244", "platforms": "5", "public_transport": "station", "railway": "station", "ref": "KS42", "wikidata": "Q906732", "wikipedia": "ja:\u6210\u7530\u7a7a\u6e2f\u99c5"}}, {"type": "node", "id": 2018073976, "lat": 35.6088494, "lon": 140.1200969, "tags": {"alt_name:ko": "\uc694\uc2dc\uce74\uc640\ucf54\uc5d4", "monorail": "yes", "name": "\u846d\u5ddd\u516c\u5712", "name:en": "Yoshikawa-Koen", "name:ja": "\u846d\u5ddd\u516c\u5712", "name:ja_rm": "Yoshikawa-Koen", "name:ko": "\uc694\uc2dc\uce74\uc640\uacf5\uc6d0", "public_transport": "station", "railway": "station", "station": "monorail", "train": "yes", "wikidata": "Q11621166", "wikipedia": "ja:\u846d\u5ddd\u516c\u5712\u99c5"}}, {"type": "node", "id": 2018074010, "lat": 35.6129614, "lon": 140.1186221, "tags": {"monorail": "yes", "name": "\u6804\u753a", "name:en": "Sakaecho", "name:ja": "\u6804\u753a", "name:ja_rm": "Sakaech\u014d", "name:ko": "\uc0ac\uce74\uc5d0\ucd08", "operator": "\u5343\u8449\u90fd\u5e02\u30e2\u30ce\u30ec\u30fc\u30eb", "platforms": "2", "public_transport": "station", "railway": "station", "source": "GSI/KIBAN 2500; NARO; bing", "station": "monorail", "wheelchair": "yes", "wikidata": "Q7402748", "wikipedia": "ja:\u6804\u753a\u99c5 (\u5343\u8449\u770c)"}}, {"type": "node", "id": 2018074014, "lat": 35.6072241, "lon": 140.1078479, "tags": {"alt_name:ko": "\uc2dc\uc57c\ucfe0\uc1fc\ub9c8\uc5d0", "monorail": "yes", "name": "\u5e02\u5f79\u6240\u524d", "name:en": "Shiyakushomae", "name:ja": "\u5e02\u5f79\u6240\u524d", "name:ja_kana": "\u3057\u3084\u304f\u3057\u3087\u307e\u3048", "name:ja_rm": "Shiyakushomae", "name:ko": "\uc2dc\uccad\uc55e", "operator": "\u5343\u8449\u90fd\u5e02\u30e2\u30ce\u30ec\u30fc\u30eb", "platforms": "2", "public_transport": "station", "railway": "station", "source": "Bing", "station": "monorail", "wheelchair": "yes", "wikidata": "Q7499454", "wikipedia": "ja:\u5e02\u5f79\u6240\u524d\u99c5 (\u5343\u8449\u770c)"}}, {"type": "node", "id": 2018074040, "lat": 35.6036854, "lon": 140.1221568, "tags": {"alt_name:ko": "\uac90\ucd08\ub9c8\uc5d0", "monorail": "yes", "name": "\u770c\u5e81\u524d", "name:en": "Kencho-Mae", "name:ja": "\u770c\u5e81\u524d", "name:ja-Hira": "\u3051\u3093\u3061\u3087\u3046\u307e\u3048", "name:ja-Latn": "Kencho-Mae", "name:ko": "\ud604\uccad\uc55e", "public_transport": "station", "railway": "station", "station": "monorail", "wikidata": "Q6388822", "wikipedia": "ja:\u770c\u5e81\u524d\u99c5 (\u5343\u8449\u770c)"}}, {"type": "node", "id": 2065711074, "lat": 35.6395681, "lon": 140.1118771, "tags": {"monorail": "yes", "name": "\u7a74\u5ddd", "name:en": "Anagawa", "name:ja": "\u7a74\u5ddd", "name:ja_kana": "\u3042\u306a\u304c\u308f", "name:ja_rm": "Anagawa", "name:ko": "\uc544\ub098\uac00\uc640", "operator": "\u5343\u8449\u90fd\u5e02\u30e2\u30ce\u30ec\u30fc\u30eb", "platforms": "2", "public_transport": "station", "railway": "station", "source": "GSI/KIBAN 2500; NARO; bing", "station": "monorail", "wheelchair": "yes", "wikidata": "Q4750826", "wikipedia": "ja:\u7a74\u5ddd\u99c5 (\u5343\u8449\u770c)"}}, {"type": "node", "id": 2065711075, "lat": 35.6198055, "lon": 140.1178236, "tags": {"monorail": "yes", "name": "\u5343\u8449\u516c\u5712", "name:en": "Chiba-Koen", "name:ja": "\u5343\u8449\u516c\u5712", "name:ja_kana": "\u3061\u3070\u3053\u3046\u3048\u3093", "name:ja_rm": "Chiba-k\u014den", "name:ko": "\uc9c0\ubc14\ucf54\uc5d4", "operator": "\u5343\u8449\u90fd\u5e02\u30e2\u30ce\u30ec\u30fc\u30eb", "platforms": "2", "public_transport": "station", "railway": "station", "source": "GSI/KIBAN 2500; NARO; bing", "station": "monorail", "wheelchair": "yes", "wikidata": "Q5095295", "wikipedia": "ja:\u5343\u8449\u516c\u5712\u99c5"}}, {"type": "node", "id": 2065711076, "lat": 35.6256955, "lon": 140.1152507, "tags": {"monorail": "yes", "name": "\u4f5c\u8349\u90e8", "name:en": "Sakusabe", "name:ja": "\u4f5c\u8349\u90e8", "name:ja_kana": "\u3055\u304f\u3055\u3079", "name:ja_rm": "Sakusabe", "name:ko": "\uc0ac\ucfe0\uc0ac\ubca0", "operator": "\u5343\u8449\u90fd\u5e02\u30e2\u30ce\u30ec\u30fc\u30eb", "platforms": "2", "public_transport": "station", "railway": "station", "source": "GSI/KIBAN 2500; NARO; bing", "station": "monorail", "wheelchair": "yes", "wikidata": "Q7403224", "wikipedia": "ja:\u4f5c\u8349\u90e8\u99c5"}}, {"type": "node", "id": 2065711077, "lat": 35.6314182, "lon": 140.1127865, "tags": {"monorail": "yes", "name": "\u5929\u53f0", "name:en": "Tendai", "name:ja": "\u5929\u53f0", "name:ja_kana": "\u3066\u3093\u3060\u3044", "name:ja_rm": "Tendai", "name:ko": "\ub374\ub2e4\uc774", "operator": "\u5343\u8449\u90fd\u5e02\u30e2\u30ce\u30ec\u30fc\u30eb", "platforms": "2", "public_transport": "station", "railway": "station", "source": "GSI/KIBAN 2500; NARO; bing", "station": "monorail", "wheelchair": "yes", "wikidata": "Q7699571", "wikipedia": "ja:\u5929\u53f0\u99c5"}}, {"type": "node", "id": 2102593003, "lat": 35.830567, "lon": 140.193306, "tags": {"name": "\u5c0f\u6797", "name:en": "Kobayashi", "name:ja": "\u5c0f\u6797", "name:ja-Hira": "\u3053\u3070\u3084\u3057", "name:ja_rm": "Kobayashi", "name:ko": "\uace0\ubc14\uc57c\uc2dc", "network": "JR\u6210\u7530\u7dda", "operator": "\u6771\u65e5\u672c\u65c5\u5ba2\u9244\u9053", "platforms": "2", "public_transport": "station", "railway": "station", "wheelchair": "no", "wikidata": "Q5363656", "wikipedia": "ja:\u5c0f\u6797\u99c5 (\u5343\u8449\u770c)"}}, {"type": "node", "id": 2156879263, "lat": 35.872414, "lon": 140.0108445}, {"type": "node", "id": 2156879264, "lat": 35.872427, "lon": 140.0111078}, {"type": "node", "id": 2156879268, "lat": 35.8725041, "lon": 140.0109093}, {"type": "node", "id": 2156879271, "lat": 35.8725137, "lon": 140.0111045}, {"type": "node", "id": 2156879293, "lat": 35.8728431, "lon": 140.0108674}, {"type": "node", "id": 2156879294, "lat": 35.8728348, "lon": 140.0108702}, {"type": "node", "id": 2156879299, "lat": 35.8729901, "lon": 140.010864}, {"type": "node", "id": 2156879303, "lat": 35.8731544, "lon": 140.0108419}, {"type": "node", "id": 2156885278, "lat": 35.8724147, "lon": 140.010867}, {"type": "node", "id": 2156885281, "lat": 35.8724872, "lon": 140.0111065, "tags": {"entrance": "yes", "railway": "train_station_entrance"}}, {"type": "node", "id": 2156885293, "lat": 35.8730278, "lon": 140.0107956}, {"type": "node", "id": 2486366411, "lat": 35.4817067, "lon": 140.1241104, "tags": {"name": "\u6d77\u58eb\u6709\u6728", "name:en": "Amaariki", "name:ja": "\u6d77\u58eb\u6709\u6728", "name:ja_rm": "Amaariki", "name:ko": "\uc544\ub9c8\uc544\ub9ac\ud0a4", "operator": "\u5c0f\u6e4a\u9244\u9053", "operator:en": "Kominato Railway", "public_transport": "station", "railway": "station", "source": "Bing", "website": "https://www.kominato.co.jp/station/amaariki/", "wikidata": "Q4738981", "wikipedia": "ja:\u6d77\u58eb\u6709\u6728\u99c5"}}, {"type": "node", "id": 2496904129, "lat": 35.7288504, "lon": 140.0729952, "tags": {"name": "\u516b\u5343\u4ee3\u7dd1\u304c\u4e18", "name:en": "Yachiyo-midorigaoka", "name:ja": "\u516b\u5343\u4ee3\u7dd1\u304c\u4e18", "name:ja_kana": "\u3084\u3061\u3088\u307f\u3069\u308a\u304c\u304a\u304b", "name:ja_rm": "Yachiyo-midorigaoka", "name:ko": "\uc57c\uce58\uc694\ubbf8\ub3c4\ub9ac\uac00\uc624\uce74", "network": "\u6771\u8449\u9ad8\u901f\u7dda", "operator": "\u6771\u8449\u9ad8\u901f\u9244\u9053", "platforms": "4", "public_transport": "station", "railway": "station", "ref": "TR06", "station": "subway", "wheelchair": "yes", "wikidata": "Q5367282", "wikipedia": "ja:\u516b\u5343\u4ee3\u7dd1\u304c\u4e18\u99c5"}}, {"type": "node", "id": 2496905056, "lat": 35.7278521, "lon": 140.1034097, "tags": {"name": "\u516b\u5343\u4ee3\u4e2d\u592e", "name:en": "Yachiyo-chuo", "name:es": "Yachiyo-chuo", "name:ja": "\u516b\u5343\u4ee3\u4e2d\u592e", "name:ja_kana": "\u3084\u3061\u3088\u3061\u3085\u3046\u304a\u3046", "name:ja_rm": "Yachiyo-ch\u016b\u014d", "name:ko": "\uc57c\uce58\uc694\ucd94\uc624", "network": "\u6771\u8449\u9ad8\u901f\u7dda", "operator": "\u6771\u8449\u9ad8\u901f\u9244\u9053", "platforms": "2", "public_transport": "station", "railway": "station", "ref": "TR07", "station": "subway", "wheelchair": "yes", "wikidata": "Q5366268", "wikipedia": "ja:\u516b\u5343\u4ee3\u4e2d\u592e\u99c5"}}, {"type": "node", "id": 2496905171, "lat": 35.7237734, "lon": 140.1183517, "tags": {"name": "\u6751\u4e0a", "name:en": "Murakami", "name:es": "Murakami", "name:ja": "\u6751\u4e0a", "name:ja_kana": "\u3080\u3089\u304b\u307f", "name:ja_rm": "Murakami", "name:ko": "\ubb34\ub77c\uce74\ubbf8", "network": "\u6771\u8449\u9ad8\u901f\u7dda", "operator": "\u6771\u8449\u9ad8\u901f\u9244\u9053", "platforms": "2", "public_transport": "station", "railway": "station", "ref": "TR08", "station": "subway", "wheelchair": "yes", "wikidata": "Q283118", "wikipedia": "ja:\u6751\u4e0a\u99c5 (\u5343\u8449\u770c)"}}, {"type": "node", "id": 2496907359, "lat": 35.7140049, "lon": 140.0221635, "tags": {"name": "\u98ef\u5c71\u6e80", "name:en": "Hasama", "name:es": "Hasama", "name:ja": "\u98ef\u5c71\u6e80", "name:ja_kana": "\u306f\u3055\u307e", "name:ja_rm": "Hasama", "name:ko": "\ud558\uc0ac\ub9c8", "network": "\u6771\u8449\u9ad8\u901f\u7dda", "operator": "\u6771\u8449\u9ad8\u901f\u9244\u9053", "platforms": "2", "public_transport": "station", "railway": "station", "ref": "TR03", "station": "subway", "wheelchair": "yes", "wikidata": "Q5366376", "wikipedia": "ja:\u98ef\u5c71\u6e80\u99c5"}}, {"type": "node", "id": 2543426615, "lat": 35.6836333, "lon": 140.0248164, "tags": {"name": "\u4eac\u6210\u6d25\u7530\u6cbc", "name:en": "Keisei Tsudanuma", "name:it": "Keisei Tsudanuma", "name:ja": "\u4eac\u6210\u6d25\u7530\u6cbc", "name:ja-Hira": "\u3051\u3044\u305b\u3044\u3064\u3060\u306c\u307e", "name:ja-Latn": "Keisei Tsudanuma", "name:ko": "\uac8c\uc774\uc138\uc774\uc4f0\ub2e4\ub204\ub9c8", "name:ru": "\u041a\u044d\u0439\u0441\u044d\u0439-\u0426\u0443\u0434\u0430\u043d\u0443\u043c\u0430", "network": "\u4eac\u6210", "operator": "\u4eac\u6210\u96fb\u9244;\u65b0\u4eac\u6210\u96fb\u9244", "platforms": "5;1", "public_transport": "station", "railway": "station", "ref": "KS26;SL24", "website": "https://www.keisei.co.jp/keisei/tetudou/accessj/keisei-tsudanuma.php", "wheelchair": "yes", "wikidata": "Q4389595", "wikipedia": "ja:\u4eac\u6210\u6d25\u7530\u6cbc\u99c5"}}, {"type": "node", "id": 2545318838, "lat": 35.611676, "lon": 140.1142347, "tags": {"name": "\u4eac\u6210\u5343\u8449", "name:en": "Keisei Chiba", "name:ja": "\u4eac\u6210\u5343\u8449", "name:ja_kana": "\u3051\u3044\u305b\u3044\u3061\u3070", "name:ja_rm": "Keisei Chiba", "name:ko": "\uac8c\uc774\uc138\uc774\uc9c0\ubc14", "name:ru": "\u041a\u044d\u0439\u0441\u044d\u0439-\u0422\u0438\u0431\u0430", "operator": "\u4eac\u6210\u96fb\u9244", "platforms": "2", "public_transport": "station", "railway": "station", "ref": "KS59", "train": "yes", "wikidata": "Q6383838", "wikipedia": "ja:\u4eac\u6210\u5343\u8449\u99c5"}}, {"type": "node", "id": 2545318845, "lat": 35.6073676, "lon": 140.1178183, "tags": {"name": "\u5343\u8449\u4e2d\u592e", "name:en": "Chiba-Chuo", "name:ja": "\u5343\u8449\u4e2d\u592e", "name:ja_kana": "\u3061\u3070\u3061\u3085\u3046\u304a\u3046", "name:ja_rm": "Chiba-Chu\u014d", "name:ko": "\uc9c0\ubc14\ucd94\uc624", "name:ru": "\u0422\u0438\u0431\u0430-\u0422\u044e\u043e", "network": "\u4eac\u6210\u96fb\u9244", "network:en": "Keisei Electric Railway", "network:ja": "\u4eac\u6210\u96fb\u9244", "network:wikidata": "Q83538", "operator": "\u4eac\u6210\u96fb\u9244", "platforms": "2", "public_transport": "station", "railway": "station", "ref": "KS60", "train": "yes", "wheelchair": "yes", "wikidata": "Q5095292", "wikipedia": "ja:\u5343\u8449\u4e2d\u592e\u99c5"}}, {"type": "node", "id": 2545318853, "lat": 35.5338295, "lon": 140.1702772, "tags": {"name": "\u3061\u306f\u3089\u53f0", "name:en": "Chiharadai", "name:ja": "\u3061\u306f\u3089\u53f0", "name:ja_kana": "\u3061\u306f\u3089\u3060\u3044", "name:ja_rm": "Chiharadai", "name:ko": "\uc9c0\ud558\ub77c\ub2e4\uc774", "operator": "\u4eac\u6210\u96fb\u9244", "platforms": "2", "public_transport": "station", "railway": "station", "ref": "KS65", "wikidata": "Q5097270", "wikipedia": "ja:\u3061\u306f\u3089\u53f0\u99c5"}}, {"type": "node", "id": 2545318856, "lat": 35.5606158, "lon": 140.1584082, "tags": {"alt_name:ko": "\uac00\ucfe0\uc5d4\ub9c8\uc5d0", "name": "\u5b66\u5712\u524d", "name:en": "Gakuemmae", "name:ja": "\u5b66\u5712\u524d", "name:ja_kana": "\u304c\u304f\u3048\u3093\u307e\u3048", "name:ja_rm": "Gakuemmae", "name:ko": "\ud559\uc6d0\uc55e", "operator": "\u4eac\u6210\u96fb\u9244", "platforms": "2", "public_transport": "station", "railway": "station", "ref": "KS63", "source": "Bing, 2010/7-2011/6", "wikidata": "Q5517706", "wikipedia": "ja:\u5b66\u5712\u524d\u99c5 (\u5343\u8449\u770c)"}}, {"type": "node", "id": 2545318862, "lat": 35.637802, "lon": 140.0854843, "tags": {"alt_name": "\u7a32\u6bdb", "name": "\u4eac\u6210\u7a32\u6bdb", "name:en": "Keisei Inage", "name:ja": "\u4eac\u6210\u7a32\u6bdb", "name:ja_kana": "\u3051\u3044\u305b\u3044\u3044\u306a\u3052", "name:ja_rm": "Keisei Inage", "name:ko": "\uac8c\uc774\uc138\uc774\uc774\ub098\uac8c", "name:ru": "\u041a\u044d\u0439\u0441\u044d\u0439-\u0418\u043d\u0430\u0433\u044d", "network": "\u4eac\u6210\u96fb\u9244", "network:en": "Keisei Electric Railway", "network:ja": "\u4eac\u6210\u96fb\u9244", "network:wikidata": "Q83538", "operator": "\u4eac\u6210\u96fb\u9244", "platforms": "2", "public_transport": "station", "railway": "station", "ref": "KS55", "train": "yes", "wikidata": "Q11374398", "wikipedia": "ja:\u4eac\u6210\u7a32\u6bdb\u99c5"}}, {"type": "node", "id": 2545318868, "lat": 35.6526042, "lon": 140.0662809, "tags": {"building": "train_station", "name": "\u691c\u898b\u5ddd", "name:en": "Kemigawa", "name:ja": "\u691c\u898b\u5ddd", "name:ja_kana": "\u3051\u307f\u304c\u308f", "name:ja_rm": "Kemigawa", "name:ko": "\uac8c\ubbf8\uac00\uc640", "name:ru": "\u041a\u044d\u043c\u0438\u0433\u0430\u0432\u0430", "operator": "\u4eac\u6210\u96fb\u9244", "platforms": "2", "railway": "station", "ref": "KS54", "wikidata": "Q6386953", "wikipedia": "ja:\u691c\u898b\u5ddd\u99c5"}}, {"type": "node", "id": 2545318874, "lat": 35.6609528, "lon": 140.0556604, "tags": {"alt_name": "\u5e55\u5f35", "name": "\u4eac\u6210\u5e55\u5f35", "name:en": "Keisei Makuhari", "name:ja": "\u4eac\u6210\u5e55\u5f35", "name:ja_kana": "\u3051\u3044\u305b\u3044\u307e\u304f\u306f\u308a", "name:ja_rm": "Keisei Makuhari", "name:ko": "\uac8c\uc774\uc138\uc774\ub9c8\ucfe0\ud558\ub9ac", "name:ru": "\u041a\u044d\u0439\u0441\u044d\u0439-\u041c\u0430\u043a\u0443\u0445\u0430\u0440\u0438", "operator": "\u4eac\u6210\u96fb\u9244", "platforms": "2", "public_transport": "station", "railway": "station", "ref": "KS53", "wikidata": "Q6383845", "wikipedia": "ja:\u4eac\u6210\u5e55\u5f35\u99c5"}}, {"type": "node", "id": 2545318880, "lat": 35.6725988, "lon": 140.0421529, "tags": {"alt_name": "\u5e55\u5f35\u672c\u90f7", "name": "\u4eac\u6210\u5e55\u5f35\u672c\u90f7", "name:en": "Keisei Makuhari-Hongo", "name:ja": "\u4eac\u6210\u5e55\u5f35\u672c\u90f7", "name:ja_kana": "\u3051\u3044\u305b\u3044\u307e\u304f\u306f\u308a\u307b\u3093\u3054\u3046", "name:ja_rm": "Keisei Makuhari-Hong\u014d", "name:ko": "\ub9c8\ucfe0\ud558\ub9ac\ud63c\uace0", "name:ru": "\u041c\u0430\u043a\u0443\u0445\u0430\u0440\u0438-\u0425\u043e\u043d\u0433\u043e", "operator": "\u4eac\u6210\u96fb\u9244", "platforms": "2", "public_transport": "station", "railway": "station", "ref": "KS52", "wheelchair": "yes", "wikidata": "Q906124", "wikipedia": "ja:\u5e55\u5f35\u672c\u90f7\u99c5"}}, {"type": "node", "id": 2545318886, "lat": 35.6248017, "lon": 140.0977059, "tags": {"name": "\u307f\u3069\u308a\u53f0", "name:en": "Midoridai", "name:ja": "\u307f\u3069\u308a\u53f0", "name:ja_kana": "\u307f\u3069\u308a\u3060\u3044", "name:ja_rm": "Midoridai", "name:ko": "\ubbf8\ub3c4\ub9ac\ub2e4\uc774", "name:ru": "\u041c\u0438\u0434\u043e\u0440\u0438\u0434\u0430\u0439", "network": "\u4eac\u6210\u96fb\u9244", "network:en": "Keisei Electric Railway", "network:ja": "\u4eac\u6210\u96fb\u9244", "network:wikidata": "Q83538", "operator": "\u4eac\u6210\u96fb\u9244", "platforms": "2", "public_transport": "station", "railway": "station", "ref": "KS56", "train": "yes", "wikidata": "Q6842906", "wikipedia": "ja:\u307f\u3069\u308a\u53f0\u99c5"}}, {"type": "node", "id": 2545318891, "lat": 35.6174754, "lon": 140.1028028, "tags": {"building": "train_station", "name": "\u897f\u767b\u6238", "name:en": "Nishi-Nobuto", "name:ja": "\u897f\u767b\u6238", "name:ja_kana": "\u306b\u3057\u306e\u3076\u3068", "name:ja_rm": "Nishi-Nobuto", "name:ko": "\ub2c8\uc2dc\ub178\ubd80\ud1a0", "name:ru": "\u041d\u0438\u0441\u0438-\u041d\u043e\u0431\u0443\u0442\u043e", "network": "\u4eac\u6210\u96fb\u9244", "network:en": "Keisei Electric Railway", "network:ja": "\u4eac\u6210\u96fb\u9244", "network:wikidata": "Q83538", "operator": "\u4eac\u6210\u96fb\u9244", "platforms": "2", "public_transport": "station", "railway": "station", "ref": "KS57", "train": "yes", "wikidata": "Q7040665", "wikipedia": "ja:\u897f\u767b\u6238\u99c5"}}, {"type": "node", "id": 2545318902, "lat": 35.5841554, "lon": 140.1494149, "tags": {"name": "\u5927\u68ee\u53f0", "name:en": "Omoridai", "name:ja": "\u5927\u68ee\u53f0", "name:ja_kana": "\u304a\u304a\u3082\u308a\u3060\u3044", "name:ja_rm": "\u014cmoridai", "name:ko": "\uc624\ubaa8\ub9ac\ub2e4\uc774", "network": "\u4eac\u6210\u96fb\u9244", "network:en": "Keisei Electric Railway", "network:ja": "\u4eac\u6210\u96fb\u9244", "network:wikidata": "Q83538", "operator": "\u4eac\u6210\u96fb\u9244", "platforms": "2", "public_transport": "station", "railway": "station", "ref": "KS62", "train": "yes", "wikidata": "Q8081632", "wikipedia": "ja:\u5927\u68ee\u53f0\u99c5"}}, {"type": "node", "id": 2545318916, "lat": 35.6124487, "lon": 140.1082178, "tags": {"building": "train_station", "name": "\u65b0\u5343\u8449", "name:en": "Shin-Chiba", "name:ja": "\u65b0\u5343\u8449", "name:ja_kana": "\u3057\u3093\u3061\u3070", "name:ja_rm": "Shin-Chiba", "name:ko": "\uc2e0\uce58\ubc14", "name:ru": "\u0421\u0438\u043d-\u0422\u0438\u0431\u0430", "network": "\u4eac\u6210\u96fb\u9244", "network:en": "Keisei Electric Railway", "network:ja": "\u4eac\u6210\u96fb\u9244", "network:wikidata": "Q83538", "operator": "\u4eac\u6210\u96fb\u9244", "platforms": "2", "public_transport": "station", "railway": "station", "ref": "KS58", "train": "yes", "wikidata": "Q7497084", "wikipedia": "ja:\u65b0\u5343\u8449\u99c5"}}, {"type": "node", "id": 2546879658, "lat": 35.7876577, "lon": 140.2031172, "tags": {"alt_name": "\u677e\u866b\u59eb", "name": "\u5370\u65db\u65e5\u672c\u533b\u5927", "name:de": "Inba Nihon Idai", "name:en": "Inba Nihon Idai", "name:ja": "\u5370\u65db\u65e5\u672c\u533b\u5927", "name:ja_kana": "\u3044\u3093\u3070\u306b\u307b\u3093\u3044\u3060\u3044", "name:ja_rm": "Imba nihon idai", "name:ko": "\uc778\ubc14\ub2c8\ud63c\uc774\ub2e4\uc774", "name:ru": "\u0418\u043d\u0431\u0430-\u041d\u0438\u0445\u043e\u043d-\u0418\u0434\u0430\u0439", "operator": "\u5317\u7dcf\u9244\u9053", "operator:en": "Hokuso Railway", "operator:ja": "\u5317\u7dcf\u9244\u9053", "platforms": "2", "public_transport": "station", "railway": "station", "ref": "HS14", "wikidata": "Q859077", "wikipedia": "ja:\u5370\u65db\u65e5\u672c\u533b\u5927\u99c5"}}, {"type": "node", "id": 2546879659, "lat": 35.8036457, "lon": 140.1668513, "tags": {"name": "\u5370\u897f\u7267\u306e\u539f", "name:en": "Inzai-makinohara", "name:ja": "\u5370\u897f\u7267\u306e\u539f", "name:ja_kana": "\u3044\u3093\u3056\u3044\u307e\u304d\u306e\u306f\u3089", "name:ja_rm": "Inzai-makinohara", "name:ko": "\uc778\uc790\uc774\ub9c8\ud0a4\ub178\ud558\ub77c", "name:ru": "\u0418\u043d\u0434\u0437\u0430\u0439 \u041c\u0430\u043a\u0438\u043d\u043e\u0445\u0430\u0440\u0430", "operator": "\u5317\u7dcf\u9244\u9053", "operator:en": "Hokuso Railway", "operator:ja": "\u5317\u7dcf\u9244\u9053", "platforms": "4", "public_transport": "station", "railway": "station", "ref": "HS13", "train": "yes", "wikidata": "Q5366605", "wikipedia": "ja:\u5370\u897f\u7267\u306e\u539f\u99c5"}}, {"type": "node", "id": 2546879661, "lat": 35.7870031, "lon": 140.0762111, "tags": {"name": "\u5c0f\u5ba4", "name:en": "Komuro", "name:ja": "\u5c0f\u5ba4", "name:ja_kana": "\u3053\u3080\u308d", "name:ja_rm": "Komuro", "name:ko": "\uace0\ubb34\ub85c", "name:ru": "\u041a\u043e\u043c\u0443\u0440\u043e", "operator": "\u5317\u7dcf\u9244\u9053", "operator:en": "Hokuso Railway", "operator:ja": "\u5317\u7dcf\u9244\u9053", "platforms": "3", "public_transport": "station", "railway": "station", "ref": "HS11", "train": "yes", "wheelchair": "yes", "wikidata": "Q6428666", "wikipedia": "ja:\u5c0f\u5ba4\u99c5"}}, {"type": "node", "id": 2559434100, "lat": 35.6137344, "lon": 140.1125333, "tags": {"atm": "yes", "internet_access": "no", "maxspeed": "95", "name": "\u5343\u8449", "name:en": "Chiba", "name:it": "Chiba", "name:ja": "\u5343\u8449", "name:ja-Hira": "\u3061\u3070", "name:ja-Latn": "Chiba", "name:ko": "\uc9c0\ubc14", "name:ru": "\u0422\u0438\u0431\u0430", "operator": "\u6771\u65e5\u672c\u65c5\u5ba2\u9244\u9053", "platforms": "10", "public_transport": "station", "railway": "station", "train": "yes", "voltage": "1500", "website": "https://www.jreast.co.jp/estation/station/info.aspx?StationCd=0989", "wheelchair": "yes", "wikidata": "Q800625", "wikipedia": "ja:\u5343\u8449\u99c5"}}, {"type": "node", "id": 2559434102, "lat": 35.683777, "lon": 140.2884773, "tags": {"name": "\u698e\u6238", "name:en": "Enokido", "name:ja": "\u698e\u6238", "name:ja_kana": "\u3048\u306e\u304d\u3069", "name:ja_rm": "Enokido", "name:ko": "\uc5d0\ub178\ud0a4\ub3c4", "operator": "\u6771\u65e5\u672c\u65c5\u5ba2\u9244\u9053", "platforms": "2", "public_transport": "station", "railway": "station", "wheelchair": "no", "wikidata": "Q5364697", "wikipedia": "ja:\u698e\u6238\u99c5 (\u5343\u8449\u770c)"}}, {"type": "node", "id": 2559434106, "lat": 35.6168339, "lon": 140.1221308, "tags": {"internet_access": "no", "name": "\u6771\u5343\u8449", "name:en": "Higashi-Chiba", "name:it": "Higashi-Chiba", "name:ja": "\u6771\u5343\u8449", "name:ja-Hira": "\u3072\u304c\u3057\u3061\u3070", "name:ja-Latn": "Higashi-Chiba", "name:ko": "\ud788\uac00\uc2dc\uce58\ubc14", "operator": "\u6771\u65e5\u672c\u65c5\u5ba2\u9244\u9053", "platforms": "2", "public_transport": "station", "railway": "station", "source": "GSI/KIBAN 2500;NARO", "stop_id": "JO29", "wheelchair": "yes", "wikidata": "Q8013045", "wikipedia": "ja:\u6771\u5343\u8449\u99c5"}}, {"type": "node", "id": 2559434110, "lat": 35.6283537, "lon": 140.3627718, "tags": {"internet_access": "no", "name": "\u65e5\u5411", "name:en": "Hyuga", "name:ja": "\u65e5\u5411", "name:ja_kana": "\u3072\u3085\u3046\u304c", "name:ja_rm": "Hy\u016bga", "name:ko": "\ud734\uac00", "operator": "\u6771\u65e5\u672c\u65c5\u5ba2\u9244\u9053", "public_transport": "station", "railway": "station", "source": "bing", "wheelchair": "no", "wikidata": "Q5363469", "wikipedia": "ja:\u65e5\u5411\u99c5"}}, {"type": "node", "id": 2559434113, "lat": 35.6856774, "lon": 140.5224408, "tags": {"name": "\u98ef\u5009", "name:en": "Igura", "name:ja": "\u98ef\u5009", "name:ja_kana": "\u3044\u3044\u3050\u3089", "name:ja_rm": "\u012agura", "name:ko": "\uc774\uad6c\ub77c", "operator": "\u6771\u65e5\u672c\u65c5\u5ba2\u9244\u9053", "platforms": "1", "public_transport": "station", "railway": "station", "source": "bing", "wheelchair": "yes", "wikidata": "Q5363230", "wikipedia": "ja:\u98ef\u5009\u99c5"}}, {"type": "node", "id": 2559434127, "lat": 35.6360158, "lon": 140.4576611, "tags": {"name": "\u677e\u5c3e", "name:en": "Matsuo", "name:ja": "\u677e\u5c3e", "name:ja_kana": "\u307e\u3064\u304a", "name:ja_rm": "Matsuo", "name:ko": "\ub9c8\uc4f0\uc624", "operator": "\u6771\u65e5\u672c\u65c5\u5ba2\u9244\u9053", "platforms": "2", "public_transport": "station", "railway": "station", "source": "bing", "wheelchair": "no", "wikidata": "Q5365257", "wikipedia": "ja:\u677e\u5c3e\u99c5 (\u5343\u8449\u770c)"}}, {"type": "node", "id": 2559434128, "lat": 35.7044089, "lon": 140.2681631, "tags": {"name": "\u5357\u9152\u3005\u4e95", "name:en": "Minami-Shisui", "name:ja": "\u5357\u9152\u3005\u4e95", "name:ja_kana": "\u307f\u306a\u307f\u3057\u3059\u3044", "name:ja_rm": "Minami-Shisui", "name:ko": "\ubbf8\ub098\ubbf8\uc2dc\uc2a4\uc774", "operator": "\u6771\u65e5\u672c\u65c5\u5ba2\u9244\u9053", "platforms": "2", "public_transport": "station", "railway": "station", "source": "bing", "wheelchair": "no", "wikidata": "Q5364222", "wikipedia": "ja:\u5357\u9152\u3005\u4e95\u99c5"}}, {"type": "node", "id": 2559434130, "lat": 35.685674, "lon": 140.2002938, "tags": {"name": "\u7269\u4e95", "name:en": "Monoi", "name:it": "Monoi", "name:ja": "\u7269\u4e95", "name:ja-Hira": "\u3082\u306e\u3044", "name:ja-Latn": "Monoi", "name:ko": "\ubaa8\ub178\uc774", "operator": "\u6771\u65e5\u672c\u65c5\u5ba2\u9244\u9053", "platforms": "2", "public_transport": "station", "railway": "station", "source": "bing", "wheelchair": "limited", "wikidata": "Q6901635", "wikipedia": "ja:\u7269\u4e95\u99c5"}}, {"type": "node", "id": 2559434135, "lat": 35.8772317, "lon": 140.3481294, "tags": {"name": "\u6ed1\u6cb3", "name:en": "Namegawa", "name:ja": "\u6ed1\u6cb3", "name:ja_kana": "\u306a\u3081\u304c\u308f", "name:ja_rm": "Namegawa", "name:ko": "\ub098\uba54\uac00\uc640", "operator": "\u6771\u65e5\u672c\u65c5\u5ba2\u9244\u9053", "platforms": "2", "public_transport": "station", "railway": "station", "source": "survey; Bing", "wheelchair": "limited", "wikidata": "Q6961565", "wikipedia": "ja:\u6ed1\u6cb3\u99c5"}}, {"type": "node", "id": 2559434136, "lat": 35.7731974, "lon": 140.3872118, "tags": {"alt_name": "\u7b2c2\u65c5\u5ba2\u30bf\u30fc\u30df\u30ca\u30eb", "alt_name:ja": "\u6210\u7530\u7b2c2\u30fb\u7b2c3\u30bf\u30fc\u30df\u30ca\u30eb", "level": "-1", "name": "\u7a7a\u6e2f\u7b2c2\u30d3\u30eb", "name:en": "Narita Airport Terminal 2\u00b73", "name:es": "Aeropuerto de Narita Terminal 2\u00b73", "name:it": "Narita Aeroporto Terminal 2\u00b73", "name:ja": "\u7a7a\u6e2f\u7b2c2\u30d3\u30eb", "name:ja-Hira": "\u304f\u3046\u3053\u3046\u3060\u3044\u306b\u3073\u308b", "name:ja-Latn": "K\u016bk\u014d Daini biru", "name:ko": "\uacf5\ud56d 2\ube4c\ub529", "name:ru": "\u0412\u0442\u043e\u0440\u043e\u0439 \u0442\u0435\u0440\u043c\u0438\u043d\u0430\u043b \u0430\u044d\u0440\u043e\u043f\u043e\u0440\u0442\u0430 \u041d\u0430\u0440\u0438\u0442\u0430", "name:zh": "\u6210\u7530\u673a\u573a \u7b2c2\u30fb\u7b2c3\u5019\u673a\u697c", "network": "\u4eac\u6210", "operator": "\u4eac\u6210\u96fb\u9244", "platforms": "4", "public_transport": "station", "railway": "station", "ref": "KS41", "wikidata": "Q841454", "wikipedia": "ja:\u7a7a\u6e2f\u7b2c2\u30d3\u30eb\u99c5"}}, {"type": "node", "id": 2559434137, "lat": 35.7779163, "lon": 140.3140452, "tags": {"name": "\u6210\u7530", "name:en": "Narita", "name:it": "Narita", "name:ja": "\u6210\u7530", "name:ja-Hira": "\u306a\u308a\u305f", "name:ja-Latn": "Narita", "name:ko": "\ub098\ub9ac\ud0c0", "operator": "\u6771\u65e5\u672c\u65c5\u5ba2\u9244\u9053", "platforms": "6", "public_transport": "station", "railway": "station", "source": "Bing", "wheelchair": "yes", "wikidata": "Q845243", "wikipedia": "ja:\u6210\u7530\u99c5"}}, {"type": "node", "id": 2559434138, "lat": 35.6084534, "lon": 140.4108142, "tags": {"name": "\u6210\u6771", "name:en": "Naruto", "name:ja": "\u6210\u6771", "name:ja_kana": "\u306a\u308b\u3068\u3046", "name:ja_rm": "Narut\u014d", "name:ko": "\ub098\ub8e8\ud1a0", "operator": "\u6771\u65e5\u672c\u65c5\u5ba2\u9244\u9053", "platforms": "4", "public_transport": "station", "railway": "station", "source": "GSI/KIBAN 2500; NARO; bing", "wheelchair": "yes", "wikidata": "Q6966490", "wikipedia": "ja:\u6210\u6771\u99c5"}}, {"type": "node", "id": 2559434147, "lat": 35.7096485, "lon": 140.2261029, "tags": {"name": "\u4f50\u5009", "name:en": "Sakura", "name:it": "Sakura", "name:ja": "\u4f50\u5009", "name:ja-Hira": "\u3055\u304f\u3089", "name:ja-Latn": "Sakura", "name:ko": "\uc0ac\ucfe0\ub77c", "operator": "\u6771\u65e5\u672c\u65c5\u5ba2\u9244\u9053", "platforms": "4", "public_transport": "station", "railway": "station", "source": "bing", "wheelchair": "yes", "wikidata": "Q7403176", "wikipedia": "ja:\u4f50\u5009\u99c5"}}, {"type": "node", "id": 2559434150, "lat": 35.8945456, "lon": 140.4940774, "tags": {"name": "\u4f50\u539f", "name:en": "Sawara", "name:fr": "Sawara", "name:ja-Hira": "\u3055\u308f\u3089", "name:ja-Latn": "Sawara", "name:ko": "\uc0ac\uc640\ub77c", "operator": "\u6771\u65e5\u672c\u65c5\u5ba2\u9244\u9053", "operator:wikidata": "Q499071", "platforms": "4", "public_transport": "station", "railway": "station", "source": "survey, Bing", "start_date": "1898-02-03", "train": "yes", "wheelchair": "yes", "wikidata": "Q5359841", "wikimedia_commons": "Category:Sawara Station", "wikipedia": "ja:\u4f50\u539f\u99c5"}}, {"type": "node", "id": 2559434153, "lat": 35.894924, "lon": 140.4105094, "tags": {"name": "\u4e0b\u7dcf\u795e\u5d0e", "name:en": "Shimosa-Kozaki", "name:ja": "\u4e0b\u7dcf\u795e\u5d0e", "name:ja_kana": "\u3057\u3082\u3046\u3055\u3053\u3046\u3056\u304d", "name:ja_rm": "Shim\u014dsa-K\u014dzaki", "name:ko": "\uc2dc\ubaa8\uc0ac\ucf54\uc790\ud0a4", "operator": "\u6771\u65e5\u672c\u65c5\u5ba2\u9244\u9053", "platforms": "2", "public_transport": "station", "railway": "station", "source": "survey", "wheelchair": "limited", "wikidata": "Q7497064", "wikipedia": "ja:\u4e0b\u7dcf\u795e\u5d0e\u99c5"}}, {"type": "node", "id": 2559434161, "lat": 35.731812, "lon": 140.2753243, "tags": {"name": "\u9152\u3005\u4e95", "name:en": "Shisui", "name:it": "Shisui", "name:ja": "\u9152\u3005\u4e95", "name:ja-Hira": "\u3057\u3059\u3044", "name:ja-Latn": "Shisui", "name:ko": "\uc2dc\uc2a4\uc774", "operator": "\u6771\u65e5\u672c\u65c5\u5ba2\u9244\u9053", "platforms": "2", "public_transport": "station", "railway": "station", "source": "Bing, 2010/7-2011/6", "wheelchair": "yes", "wikidata": "Q7499126", "wikipedia": "ja:\u9152\u3005\u4e95\u99c5"}}, {"type": "node", "id": 2559434169, "lat": 35.636082, "lon": 140.1492345, "tags": {"name": "\u90fd\u8cc0", "name:en": "Tsuga", "name:it": "Tsuga", "name:ja": "\u90fd\u8cc0", "name:ja-Hira": "\u3064\u304c", "name:ja-Latn": "Tsuga", "name:ko": "\uc4f0\uac00", "platforms": "2", "public_transport": "station", "railway": "station", "wheelchair": "yes", "wikidata": "Q7849953", "wikipedia": "ja:\u90fd\u8cc0\u99c5"}}, {"type": "node", "id": 2559434170, "lat": 35.6630784, "lon": 140.3177463, "tags": {"name": "\u516b\u8857", "name:en": "Yachimata", "name:ja": "\u516b\u8857", "name:ja_kana": "\u3084\u3061\u307e\u305f", "name:ja_rm": "Yachimata", "name:ko": "\uc57c\uce58\ub9c8\ud0c0", "operator": "\u6771\u65e5\u672c\u65c5\u5ba2\u9244\u9053", "platforms": "3", "public_transport": "station", "railway": "station", "source": "bing", "wheelchair": "yes", "wikidata": "Q5364855", "wikipedia": "ja:\u516b\u8857\u99c5"}}, {"type": "node", "id": 2559434171, "lat": 35.6992256, "lon": 140.5520936, "tags": {"name": "\u516b\u65e5\u5e02\u5834", "name:en": "Yokaichiba", "name:ja": "\u516b\u65e5\u5e02\u5834", "name:ja_kana": "\u3088\u3046\u304b\u3044\u3061\u3070", "name:ja_rm": "Y\u014dkaichiba", "name:ko": "\uc694\uce74\uc774\uce58\ubc14", "operator": "\u6771\u65e5\u672c\u65c5\u5ba2\u9244\u9053", "platforms": "2", "public_transport": "station", "railway": "station", "wheelchair": "yes", "wikidata": "Q5363766", "wikipedia": "ja:\u516b\u65e5\u5e02\u5834\u99c5"}}, {"type": "node", "id": 2559434172, "lat": 35.6618627, "lon": 140.491109, "tags": {"addr:block_number": "1360", "addr:city": "\u6a2a\u829d\u5149\u753a", "addr:county": "\u5c71\u6b66\u90e1", "addr:postcode": "289-1732", "addr:province": "\u5343\u8449\u770c", "addr:quarter": "\u6a2a\u829d", "air_conditioning": "no", "bus": "yes", "internet_access": "no", "name": "\u6a2a\u829d", "name:en": "Yokoshiba", "name:ja": "\u6a2a\u829d", "name:ja-Latn": "Yokoshiba", "name:ja_kana": "\u30e8\u30b3\u30b7\u30d0", "name:ja_rm": "Yokoshiba", "name:ko": "\uc694\ucf54\uc2dc\ubc14", "name:th": "\u0e42\u0e22\u0e42\u0e01\u0e0a\u0e34\u0e1a\u0e30", "name:zh": "\u6a2a\u829d", "operator": "\u6771\u65e5\u672c\u65c5\u5ba2\u9244\u9053", "platforms": "3", "public_transport": "station", "railway": "station", "source": "bing", "train": "yes", "wikidata": "Q5363081", "wikipedia": "ja:\u6a2a\u829d\u99c5"}}, {"type": "node", "id": 2559434173, "lat": 35.6630267, "lon": 140.1655995, "tags": {"name": "\u56db\u8857\u9053", "name:en": "Yotsukaido", "name:it": "Yotsukaido", "name:ja": "\u56db\u8857\u9053", "name:ja-Hira": "\u3088\u3064\u304b\u3044\u3069\u3046", "name:ja-Latn": "Yotsukaid\u014d", "name:ko": "\uc694\uc4f0\uce74\uc774\ub3c4", "operator": "\u6771\u65e5\u672c\u65c5\u5ba2\u9244\u9053", "platforms": "3", "public_transport": "station", "railway": "station", "source": "knowledge", "wheelchair": "yes", "wikidata": "Q8013017", "wikipedia": "ja:\u56db\u8857\u9053\u99c5"}}, {"type": "node", "id": 2650131152, "lat": 35.7214673, "lon": 140.0419863, "tags": {"name": "\u5317\u7fd2\u5fd7\u91ce", "name:en": "Kita-narashino", "name:ja": "\u5317\u7fd2\u5fd7\u91ce", "name:ja_kana": "\u304d\u305f\u306a\u3089\u3057\u306e", "name:ja_rm": "Kita-narashino", "name:ko": "\uae30\ud0c0\ub098\ub77c\uc2dc\ub178", "operator": "\u65b0\u4eac\u6210\u96fb\u9244", "platforms": "2", "public_transport": "station", "railway": "station", "ref": "SL19", "source": "bing;GSI/KIBAN 2500;NARO", "wheelchair": "yes", "wikidata": "Q6417578", "wikipedia": "ja:\u5317\u7fd2\u5fd7\u91ce\u99c5"}}, {"type": "node", "id": 2706936168, "lat": 35.6387515, "lon": 140.1347843, "tags": {"monorail": "yes", "name": "\u307f\u3064\u308f\u53f0", "name:en": "Mitsuwadai", "name:ja": "\u307f\u3064\u308f\u53f0", "name:ja_kana": "\u307f\u3064\u308f\u3060\u3044", "name:ja_rm": "Mitsuwadai", "name:ko": "\ubbf8\uc4f0\uc640\ub2e4\uc774", "operator": "\u5343\u8449\u90fd\u5e02\u30e2\u30ce\u30ec\u30fc\u30eb", "platforms": "2", "public_transport": "station", "railway": "station", "source": "GSI/KIBAN 2500; NARO; bing", "station": "monorail", "wheelchair": "yes", "wikidata": "Q6883389", "wikipedia": "ja:\u307f\u3064\u308f\u53f0\u99c5"}}, {"type": "node", "id": 2706936169, "lat": 35.6432352, "lon": 140.1161569, "tags": {"monorail": "yes", "name": "\u30b9\u30dd\u30fc\u30c4\u30bb\u30f3\u30bf\u30fc", "name:en": "Sports Center", "name:ja": "\u30b9\u30dd\u30fc\u30c4\u30bb\u30f3\u30bf\u30fc", "name:ja_kana": "\u3059\u307d\u30fc\u3064\u305b\u3093\u305f\u30fc", "name:ja_rm": "Sup\u014dtsu-sent\u0101", "name:ko": "\uc2a4\ud3ec\uce20\uc13c\ud130", "operator": "\u5343\u8449\u90fd\u5e02\u30e2\u30ce\u30ec\u30fc\u30eb", "platforms": "2", "public_transport": "station", "railway": "station", "source": "GSI/KIBAN 2500; NARO; bing", "station": "monorail", "wheelchair": "yes", "wikidata": "Q4268568", "wikipedia": "ja:\u30b9\u30dd\u30fc\u30c4\u30bb\u30f3\u30bf\u30fc\u99c5"}}, {"type": "node", "id": 2706937292, "lat": 35.6425768, "lon": 140.1255139, "tags": {"alt_name:ko": "\ub3c4\ubd80\uc4f0\ucf54\uc5d4", "monorail": "yes", "name": "\u52d5\u7269\u516c\u5712", "name:en": "Dobutsu-Koen", "name:ja": "\u52d5\u7269\u516c\u5712", "name:ja_kana": "\u3069\u3046\u3076\u3064\u3053\u3046\u3048\u3093", "name:ja_rm": "D\u014dbutsu-k\u014den", "name:ko": "\ub3d9\ubb3c\uacf5\uc6d0", "operator": "\u5343\u8449\u90fd\u5e02\u30e2\u30ce\u30ec\u30fc\u30eb", "platforms": "4", "public_transport": "station", "railway": "station", "source": "GSI/KIBAN 2500; NARO; bing", "station": "monorail", "wheelchair": "yes", "wikidata": "Q5321252", "wikipedia": "ja:\u52d5\u7269\u516c\u5712\u99c5"}}, {"type": "node", "id": 2706937293, "lat": 35.6223287, "lon": 140.1885502, "tags": {"monorail": "yes", "name": "\u5343\u57ce\u53f0", "name:en": "Chishirodai", "name:ja": "\u5343\u57ce\u53f0", "name:ja_kana": "\u3061\u3057\u308d\u3060\u3044", "name:ja_rm": "Chishirodai", "name:ko": "\uc9c0\uc2dc\ub85c\ub2e4\uc774", "operator": "\u5343\u8449\u90fd\u5e02\u30e2\u30ce\u30ec\u30fc\u30eb", "platforms": "2", "public_transport": "station", "railway": "station", "source": "GSI/KIBAN 2500; NARO; bing", "station": "monorail", "wheelchair": "yes", "wikidata": "Q5102080", "wikipedia": "ja:\u5343\u57ce\u53f0\u99c5"}}, {"type": "node", "id": 2706937294, "lat": 35.6274151, "lon": 140.1820367, "tags": {"monorail": "yes", "name": "\u5343\u57ce\u53f0\u5317", "name:en": "Chishirodai-Kita", "name:ja": "\u5343\u57ce\u53f0\u5317", "name:ja_kana": "\u3061\u3057\u308d\u3060\u3044\u304d\u305f", "name:ja_rm": "Chishirodai-Kita", "name:ko": "\uc9c0\uc2dc\ub85c\ub2e4\uc774\ud0a4\ud0c0", "operator": "\u5343\u8449\u90fd\u5e02\u30e2\u30ce\u30ec\u30fc\u30eb", "platforms": "2", "public_transport": "station", "railway": "station", "source": "GSI/KIBAN 2500; NARO; bing", "station": "monorail", "wheelchair": "yes", "wikidata": "Q5102077", "wikipedia": "ja:\u5343\u57ce\u53f0\u5317\u99c5"}}, {"type": "node", "id": 2706937295, "lat": 35.6074412, "lon": 140.1024718, "tags": {"monorail": "yes", "name": "\u5343\u8449\u307f\u306a\u3068", "name:en": "Chiba-Minato", "name:ja": "\u5343\u8449\u307f\u306a\u3068", "name:ja_kana": "\u3061\u3070\u307f\u306a\u3068", "name:ja_rm": "Chiba-Minato", "name:ko": "\uc9c0\ubc14\ubbf8\ub098\ud1a0", "network": "Chiba Urban Monorail Line 1", "operator": "\u5343\u8449\u90fd\u5e02\u30e2\u30ce\u30ec\u30fc\u30eb", "platforms": "2", "public_transport": "station", "railway": "station", "source": "Bing", "station": "monorail", "wheelchair": "yes", "wikidata": "Q2648818", "wikipedia": "ja:\u5343\u8449\u307f\u306a\u3068\u99c5"}}, {"type": "node", "id": 2706937296, "lat": 35.6277152, "lon": 140.1717592, "tags": {"monorail": "yes", "name": "\u5c0f\u5009\u53f0", "name:en": "Oguradai", "name:ja": "\u5c0f\u5009\u53f0", "name:ja_kana": "\u304a\u3050\u3089\u3060\u3044", "name:ja_rm": "Oguradai", "name:ko": "\uc624\uad6c\ub77c\ub2e4\uc774", "operator": "\u5343\u8449\u90fd\u5e02\u30e2\u30ce\u30ec\u30fc\u30eb", "platforms": "2", "public_transport": "station", "railway": "station", "source": "GSI/KIBAN 2500; NARO; bing", "station": "monorail", "wheelchair": "yes", "wikidata": "Q7080299", "wikipedia": "ja:\u5c0f\u5009\u53f0\u99c5"}}, {"type": "node", "id": 2706937297, "lat": 35.6312486, "lon": 140.161015, "tags": {"monorail": "yes", "name": "\u685c\u6728", "name:en": "Sakuragi", "name:ja": "\u685c\u6728", "name:ja_kana": "\u3055\u304f\u3089\u304e", "name:ja_rm": "Sakuragi", "name:ko": "\uc0ac\ucfe0\ub77c\uae30", "operator": "\u5343\u8449\u90fd\u5e02\u30e2\u30ce\u30ec\u30fc\u30eb", "platforms": "2", "public_transport": "station", "railway": "station", "source": "GSI/KIBAN 2500; NARO; bing", "station": "monorail", "wheelchair": "yes", "wikidata": "Q7403200", "wikipedia": "ja:\u685c\u6728\u99c5 (\u5343\u8449\u770c)"}}, {"type": "node", "id": 2706937298, "lat": 35.6354896, "lon": 140.1487384, "tags": {"monorail": "yes", "name": "\u90fd\u8cc0", "name:en": "Tsuga", "name:ja": "\u90fd\u8cc0", "name:ja_kana": "\u3064\u304c", "name:ja_rm": "Tsuga", "name:ko": "\uc4f0\uac00", "operator": "\u5343\u8449\u90fd\u5e02\u30e2\u30ce\u30ec\u30fc\u30eb", "platforms": "2", "public_transport": "station", "railway": "station", "source": "GSI/KIBAN 2500; NARO; bing", "wheelchair": "yes", "wikidata": "Q7849953", "wikipedia": "ja:\u90fd\u8cc0\u99c5"}}, {"type": "node", "id": 2707063861, "lat": 35.6121041, "lon": 140.1141578, "tags": {"monorail": "yes", "name": "\u5343\u8449", "name:en": "Chiba", "name:ja": "\u5343\u8449", "name:ja_kana": "\u3061\u3070", "name:ja_rm": "Chiba", "name:ko": "\uc9c0\ubc14", "operator": "\u5343\u8449\u90fd\u5e02\u30e2\u30ce\u30ec\u30fc\u30eb", "platforms": "4", "public_transport": "station", "railway": "station", "ref": "CM03", "source": "GSI/KIBAN 2500; NARO; bing", "station": "monorail", "website": "https://chiba-monorail.co.jp/index.php/info-timetable/station-info/chiba-station/", "wheelchair": "yes", "wikidata": "Q800625", "wikipedia": "ja:\u5343\u8449\u99c5"}}, {"type": "node", "id": 2777911838, "lat": 35.7700881, "lon": 140.3872193, "tags": {"name": "\u6771\u6210\u7530", "name:en": "Higashi-Narita", "name:es": "Higashi-Narita", "name:it": "Higashi-Narita", "name:ja": "\u6771\u6210\u7530", "name:ja-Latn": "Higashi-Narita", "name:ja_kana": "\u3072\u304c\u3057\u306a\u308a\u305f", "name:ja_rm": "Higashi-Narita", "name:ko": "\ud788\uac00\uc2dc\ub098\ub9ac\ud0c0", "name:ru": "\u0425\u0438\u0433\u0430\u0441\u0438 \u041d\u0430\u0440\u0438\u0442\u0430", "operator": "\u4eac\u6210\u96fb\u9244", "platforms": "2", "public_transport": "station", "railway": "station", "ref": "KS44", "train": "yes", "wikidata": "Q846460", "wikipedia": "ja:\u6771\u6210\u7530\u99c5"}}, {"type": "node", "id": 2777911854, "lat": 35.7540717, "lon": 140.3995062, "tags": {"name": "\u829d\u5c71\u5343\u4ee3\u7530", "name:en": "Shibayama-Chiyoda", "name:es": "Shibayama-Chiyoda", "name:it": "Shibayama Chiyoda", "name:ja": "\u829d\u5c71\u5343\u4ee3\u7530", "name:ja-Hira": "\u3057\u3070\u3084\u307e\u3061\u3088\u3060", "name:ja-Latn": "Shibayama Chiyoda", "name:ko": "\uc2dc\ubc14\uc57c\ub9c8\uce58\uc694\ub2e4", "operator": "\u829d\u5c71\u9244\u9053", "public_transport": "station", "railway": "station", "ref": "SR01", "train": "yes", "wikidata": "Q846391", "wikipedia": "ja:\u829d\u5c71\u5343\u4ee3\u7530\u99c5"}}, {"type": "node", "id": 2987442641, "lat": 35.8731487, "lon": 140.0107867}, {"type": "node", "id": 3012068692, "lat": 35.8076583, "lon": 140.2779396, "tags": {"name": "\u4e0b\u7dcf\u677e\u5d0e", "name:en": "Shimosa-Manzaki", "name:ja": "\u4e0b\u7dcf\u677e\u5d0e", "name:ja-Hira": "\u3057\u3082\u3046\u3055\u307e\u3093\u3056\u304d", "name:ja-Latn": "Shimousa-Manzaki", "name:ko": "\uc2dc\ubaa8\uc0ac\ub9cc\uc790\ud0a4", "operator": "\u6771\u65e5\u672c\u65c5\u5ba2\u9244\u9053", "platforms": "2", "public_transport": "station", "railway": "station", "source": "Bing;survey", "wheelchair": "no", "wikidata": "Q5363815", "wikipedia": "ja:\u4e0b\u7dcf\u677e\u5d0e\u99c5"}}, {"type": "node", "id": 3012068693, "lat": 35.8323487, "lon": 140.3388809, "tags": {"name": "\u4e45\u4f4f", "name:en": "Kuzumi", "name:ja": "\u4e45\u4f4f", "name:ja_rm": "Kuzumi", "name:ko": "\uad6c\uc988\ubbf8", "public_transport": "station", "railway": "station", "wheelchair": "limited", "wikidata": "Q6449307", "wikipedia": "ja:\u4e45\u4f4f\u99c5"}}, {"type": "node", "id": 3012068698, "lat": 35.8963803, "lon": 140.0632184, "tags": {"name": "\u53d6\u624b", "name:en": "Toride", "name:ja-Hira": "\u3068\u308a\u3067", "name:ja-Latn": "Toride", "public_transport": "station", "railway": "station", "ref": "JJ10;JL32", "source": "GSImaps/ort", "train": "yes", "wikidata": "Q847830", "wikipedia": "ja:\u53d6\u624b\u99c5"}}, {"type": "node", "id": 3012068699, "lat": 35.8903536, "lon": 140.4584941, "tags": {"name": "\u5927\u6238", "name:en": "Oto", "name:ja": "\u5927\u6238", "name:ja_rm": "Oto", "name:ko": "\uc624\ud1a0", "operator": "JR\u6771\u65e5\u672c", "public_transport": "station", "railway": "station", "source": "survey, Bing", "wikidata": "Q8081763", "wikipedia": "ja:\u5927\u6238\u99c5"}}, {"type": "node", "id": 3012068700, "lat": 35.8725271, "lon": 140.0408889, "tags": {"name": "\u5929\u738b\u53f0", "name:en": "Tennodai", "name:ja-Hira": "\u3066\u3093\u306e\u3046\u3060\u3044", "name:ja-Latn": "Tenn\u014ddai", "operator": "\u6771\u65e5\u672c\u65c5\u5ba2\u9244\u9053", "platforms": "4", "public_transport": "station", "railway": "station", "ref": "JJ09;JL31", "source": "bing", "wheelchair": "yes", "wikidata": "Q1952908", "wikipedia": "ja:\u5929\u738b\u53f0\u99c5"}}, {"type": "node", "id": 3012068701, "lat": 35.8357152, "lon": 140.2420518, "tags": {"name": "\u5b89\u98df", "name:en": "Ajiki", "name:ja": "\u5b89\u98df", "name:ja_kana": "\u3042\u3058\u304d", "name:ja_rm": "Ajiki", "name:ko": "\uc544\uc9c0\ud0a4", "operator": "\u6771\u65e5\u672c\u65c5\u5ba2\u9243\u9053", "platforms": "2", "public_transport": "station", "railway": "station", "source": "GSI/KIBAN 2500; NARO; bing", "wheelchair": "limited", "wikidata": "Q864215", "wikipedia": "ja:\u5b89\u98df\u99c5"}}, {"type": "node", "id": 3012068702, "lat": 35.8490121, "lon": 140.1331197, "tags": {"name": "\u5e03\u4f50", "name:en": "Fusa", "name:ja": "\u5e03\u4f50", "name:ja_kana": "\u3075\u3055", "name:ja_rm": "Fusa", "name:ko": "\ud6c4\uc0ac", "operator": "\u6771\u65e5\u672c\u65c5\u5ba2\u9244\u9053", "platforms": "2", "public_transport": "station", "railway": "station", "source": "Bing", "wheelchair": "yes", "wikidata": "Q5366552", "wikipedia": "ja:\u5e03\u4f50\u99c5"}}, {"type": "node", "id": 3012068703, "lat": 35.872742, "lon": 140.0107711, "tags": {"name": "\u6211\u5b6b\u5b50", "name:en": "Abiko", "name:ja-Hira": "\u3042\u3073\u3053", "name:ja-Latn": "Abiko", "operator": "\u6771\u65e5\u672c\u65c5\u5ba2\u9244\u9053", "operator:en": "East Japan Railway Company", "platforms": "8", "public_transport": "station", "railway": "station", "toilets:wheelchair": "yes", "train": "yes", "wheelchair": "yes", "wikidata": "Q1043787", "wikipedia": "ja:\u6211\u5b6b\u5b50\u99c5 (\u5343\u8449\u770c)"}}, {"type": "node", "id": 3012068704, "lat": 35.8623295, "lon": 140.1071831, "tags": {"name": "\u65b0\u6728", "name:en": "Araki", "name:ja": "\u65b0\u6728", "name:ja_kana": "\u3042\u3089\u304d", "name:ja_rm": "Araki", "name:ko": "\uc544\ub77c\ud0a4", "operator": "\u6771\u65e5\u672c\u65c5\u5ba2\u9244\u9053", "platforms": "2", "public_transport": "station", "railway": "station", "source": "GSI/KIBAN 2500; NARO; bing", "wheelchair": "no", "wikidata": "Q4783839", "wikipedia": "ja:\u65b0\u6728\u99c5 (\u5343\u8449\u770c)"}}, {"type": "node", "id": 3012068706, "lat": 35.8389123, "lon": 140.1483223, "tags": {"name": "\u6728\u4e0b", "name:en": "Kioroshi", "name:ja": "\u6728\u4e0b", "name:ja_kana": "\u304d\u304a\u308d\u3057", "name:ja_rm": "Kioroshi", "name:ko": "\uae30\uc624\ub85c\uc2dc", "operator": "\u6771\u65e5\u672c\u65c5\u5ba2\u9244\u9053", "platforms": "2", "public_transport": "station", "railway": "station", "wheelchair": "yes", "wikidata": "Q6414520", "wikipedia": "ja:\u6728\u4e0b\u99c5"}}, {"type": "node", "id": 3012068707, "lat": 35.8689824, "lon": 140.0476509, "tags": {"name": "\u6771\u6211\u5b6b\u5b50", "name:en": "Higashi-Abiko", "name:ja": "\u6771\u6211\u5b6b\u5b50", "name:ja_kana": "\u3072\u304c\u3057\u3042\u3073\u3053", "name:ja_rm": "Higashi-Abiko", "name:ko": "\ud788\uac00\uc2dc\uc544\ube44\ucf54", "operator": "\u6771\u65e5\u672c\u65c5\u5ba2\u9244\u9053", "platforms": "2", "public_transport": "station", "railway": "station", "wheelchair": "limited", "wikidata": "Q5753445", "wikipedia": "ja:\u6771\u6211\u5b6b\u5b50\u99c5"}}, {"type": "node", "id": 3012068711, "lat": 35.8672452, "lon": 140.0777789, "tags": {"name": "\u6e56\u5317", "name:en": "Kohoku", "name:ja": "\u6e56\u5317", "name:ja_kana": "\u3053\u307b\u304f", "name:ja_rm": "Kohoku", "name:ko": "\uace0\ud638\ucfe0", "operator": "\u6771\u65e5\u672c\u65c5\u5ba2\u9244\u9053", "platforms": "2", "public_transport": "station", "railway": "station", "wheelchair": "yes", "wikidata": "Q5366305", "wikipedia": "ja:\u6e56\u5317\u99c5"}}, {"type": "node", "id": 3012068712, "lat": 35.8979896, "lon": 140.5320045, "tags": {"name": "\u9999\u53d6", "name:en": "Katori", "name:ja": "\u9999\u53d6", "name:ja_kana": "\u304b\u3068\u308a", "name:ja_rm": "Katori", "name:ko": "\uac00\ud1a0\ub9ac", "public_transport": "station", "railway": "station", "wikidata": "Q6377809", "wikipedia": "ja:\u9999\u53d6\u99c5"}}, {"type": "node", "id": 3014657232, "lat": 35.5130963, "lon": 140.0895617, "tags": {"name": "\u4e94\u4e95", "name:en": "Goi", "name:ja": "\u4e94\u4e95", "name:ja_kana": "\u3054\u3044", "name:ja_rm": "Goi", "name:ko": "\uace0\uc774", "name:ru": "\u0413\u043e\u0438", "operator": "\u6771\u65e5\u672c\u65c5\u5ba2\u9244\u9053", "operator:en": "East Japan Railway Company", "public_transport": "station", "railway": "station", "source": "Bing", "train": "yes", "website": "https://www.jreast.co.jp/estation/station/info.aspx?StationCd=657", "wheelchair": "limited", "wikidata": "Q573427", "wikipedia": "ja:\u4e94\u4e95\u99c5"}}, {"type": "node", "id": 3014683035, "lat": 35.5362629, "lon": 140.1201444, "tags": {"name": "\u516b\u5e61\u5bbf", "name:en": "Yawatajuku", "name:ja": "\u516b\u5e61\u5bbf", "name:ja-Kana": "\u3084\u308f\u305f\u3058\u3085\u304f", "name:ja-Latn": "Yawatajuku", "name:ko": "\uc57c\uc640\ud0c0\uc8fc\ucfe0", "name:ru": "\u042f\u0432\u0430\u0442\u0430\u0434\u0437\u0443\u043a\u0443", "operator": "\u6771\u65e5\u672c\u65c5\u5ba2\u9244\u9053", "platforms": "2", "public_transport": "station", "railway": "station", "source": "bing", "website": "https://www.jreast.co.jp/estation/station/info.aspx?StationCd=1614", "wheelchair": "yes", "wikidata": "Q573497", "wikipedia": "ja:\u516b\u5e61\u5bbf\u99c5"}}, {"type": "node", "id": 3014683044, "lat": 35.5308674, "lon": 140.2697788, "tags": {"name": "\u571f\u6c17", "name:en": "Toke", "name:ja": "\u571f\u6c17", "name:ja-Kana": "\u3068\u3051", "name:ja-Latn": "Toke", "name:ko": "\ub3c4\ucf00", "operator": "\u6771\u65e5\u672c\u65c5\u5ba2\u9244\u9053", "platforms": "2", "public_transport": "station", "railway": "station", "website": "https://www.jreast.co.jp/estation/station/info.aspx?StationCd=1052", "wheelchair": "yes", "wikidata": "Q5353420", "wikipedia": "ja:\u571f\u6c17\u99c5"}}, {"type": "node", "id": 3014683046, "lat": 35.5228296, "lon": 140.3110002, "tags": {"name": "\u5927\u7db2", "name:en": "Oami", "name:ja": "\u5927\u7db2", "name:ja_kana": "\u304a\u304a\u3042\u307f", "name:ja_rm": "\u014cami", "name:ko": "\uc624\uc544\ubbf8", "operator": "\u6771\u65e5\u672c\u65c5\u5ba2\u9244\u9053", "platforms": "4", "public_transport": "station", "railway": "station", "source": "bing", "website": "https://www.jreast.co.jp/estation/station/info.aspx?StationCd=304", "wheelchair": "yes", "wikidata": "Q5353488", "wikipedia": "ja:\u5927\u7db2\u99c5"}}, {"type": "node", "id": 3014683050, "lat": 35.4785994, "lon": 140.0421725, "tags": {"name": "\u59c9\u30b1\u5d0e", "name:en": "Anegasaki", "name:ja": "\u59c9\u30b1\u5d0e", "name:ja-Kana": "\u3042\u306d\u304c\u3055\u304d", "name:ja-Latn": "Anegasaki", "name:ko": "\uc544\ub124\uac00\uc0ac\ud0a4", "name:ru": "\u0410\u043d\u044d\u0433\u0430\u0441\u0430\u043a\u0438", "operator": "\u6771\u65e5\u672c\u65c5\u5ba2\u9244\u9053", "platforms": "4", "public_transport": "station", "railway": "station", "source": "bing", "website": "https://www.jreast.co.jp/estation/station/info.aspx?StationCd=71", "wheelchair": "yes", "wikidata": "Q573432", "wikipedia": "ja:\u59c9\u30f6\u5d0e\u99c5"}}, {"type": "node", "id": 3014683061, "lat": 35.6011214, "lon": 140.1210196, "tags": {"name": "\u672c\u5343\u8449", "name:en": "Hon-Chiba", "name:ja": "\u672c\u5343\u8449", "name:ja-Kana": "\u307b\u3093\u3061\u3070", "name:ja-Latn": "Hon-Chiba", "name:ko": "\ud63c\uce58\ubc14", "name:ru": "\u0425\u043e\u043d-\u0422\u0438\u0431\u0430", "operator": "\u6771\u65e5\u672c\u65c5\u5ba2\u9244\u9053", "platforms": "2", "public_transport": "station", "railway": "station", "source": "bing", "wheelchair": "yes", "wikidata": "Q4389608", "wikipedia": "ja:\u672c\u5343\u8449\u99c5"}}, {"type": "node", "id": 3014683062, "lat": 35.4821242, "lon": 140.307407, "tags": {"name": "\u672c\u7d0d", "name:en": "Honno", "name:ja": "\u672c\u7d0d", "name:ja-Kana": "\u307b\u3093\u306e\u3046", "name:ja-Latn": "Honn\u014d", "name:ko": "\ud63c\ub178", "operator": "\u6771\u65e5\u672c\u65c5\u5ba2\u9244\u9053", "platforms": "3", "public_transport": "station", "railway": "station", "source": "Bing,Wikipedia", "website": "https://www.jreast.co.jp/estation/station/info.aspx?StationCd=1412", "wheelchair": "no", "wikidata": "Q564470", "wikipedia": "ja:\u672c\u7d0d\u99c5"}}, {"type": "node", "id": 3014683065, "lat": 35.5602766, "lon": 140.3636144, "tags": {"name": "\u6771\u91d1", "name:en": "Togane", "name:ja": "\u6771\u91d1", "name:ja_kana": "\u3068\u3046\u304c\u306d", "name:ja_rm": "T\u014dgane", "name:ko": "\ub3c4\uac00\ub124", "operator": "\u6771\u65e5\u672c\u65c5\u5ba2\u9244\u9053", "platforms": "2", "public_transport": "station", "railway": "station", "source": "bing", "wheelchair": "yes", "wikidata": "Q5353531", "wikipedia": "ja:\u6771\u91d1\u99c5"}}, {"type": "node", "id": 3014683067, "lat": 35.5033707, "lon": 140.3110704, "tags": {"name": "\u6c38\u7530", "name:en": "Nagata", "name:ja": "\u6c38\u7530", "name:ja-Kana": "\u306a\u304c\u305f", "name:ja-Latn": "Nagata", "name:ko": "\ub098\uac00\ud0c0", "operator": "\u6771\u65e5\u672c\u65c5\u5ba2\u9244\u9053", "platforms": "2", "public_transport": "station", "railway": "station", "source": "bing", "website": "https://www.jreast.co.jp/estation/station/info.aspx?StationCd=1099", "wheelchair": "no", "wikidata": "Q564453", "wikipedia": "ja:\u6c38\u7530\u99c5 (\u5343\u8449\u770c)"}}, {"type": "node", "id": 3014683068, "lat": 35.5799098, "lon": 140.396273, "tags": {"name": "\u6c42\u540d", "name:en": "Gumyo", "name:ja": "\u6c42\u540d", "name:ja_kana": "\u3050\u307f\u3087\u3046", "name:ja_rm": "Gumy\u014d", "name:ko": "\uad6c\ubb18", "operator": "\u6771\u65e5\u672c\u65c5\u5ba2\u9244\u9053", "platforms": "2", "public_transport": "station", "railway": "station", "source": "bing", "wheelchair": "limited", "wikidata": "Q5353413", "wikipedia": "ja:\u6c42\u540d\u99c5"}}, {"type": "node", "id": 3014683070, "lat": 35.552028, "lon": 140.1321103, "tags": {"name": "\u6d5c\u91ce", "name:en": "Hamano", "name:es": "Hamano", "name:ja": "\u6d5c\u91ce", "name:ja-Kana": "\u306f\u307e\u306e", "name:ja-Latn": "Hamano", "name:ko": "\ud558\ub9c8\ub178", "name:ru": "\u0425\u0430\u043c\u0430\u043d\u043e", "operator": "\u6771\u65e5\u672c\u65c5\u5ba2\u9244\u9053", "platforms": "2", "public_transport": "station", "railway": "station", "source": "Bing, 2010/7-2011/6", "website": "https://www.jreast.co.jp/estation/station/info.aspx?StationCd=1247", "wheelchair": "yes", "wikidata": "Q571740", "wikipedia": "ja:\u6d5c\u91ce\u99c5"}}, {"type": "node", "id": 3014683074, "lat": 35.5459418, "lon": 140.3414858, "tags": {"name": "\u798f\u4ff5", "name:en": "Fukutawara", "name:ja": "\u798f\u4ff5", "name:ja_kana": "\u3075\u304f\u305f\u308f\u3089", "name:ja_rm": "Fukutawara", "name:ko": "\ud6c4\ucfe0\ud0c0\uc640\ub77c", "operator": "\u6771\u65e5\u672c\u65c5\u5ba2\u9244\u9053", "public_transport": "station", "railway": "station", "wikidata": "Q5353408", "wikipedia": "ja:\u798f\u4ff5\u99c5"}}, {"type": "node", "id": 3014683077, "lat": 35.5813725, "lon": 140.1311573, "tags": {"maxspeed": "100", "name": "\u8607\u6211", "name:en": "Soga", "name:ja": "\u8607\u6211", "name:ja-Kana": "\u305d\u304c", "name:ja-Latn": "Soga", "name:ko": "\uc18c\uac00", "name:ru": "\u0421\u043e\u0433\u0430", "operator": "\u6771\u65e5\u672c\u65c5\u5ba2\u9244\u9053", "platforms": "6", "public_transport": "station", "railway": "station", "usage": "main", "wheelchair": "yes", "wikidata": "Q844422", "wikipedia": "ja:\u8607\u6211\u99c5"}}, {"type": "node", "id": 3014683080, "lat": 35.5470106, "lon": 140.2138696, "tags": {"name": "\u8a89\u7530", "name:en": "Honda", "name:ja": "\u8a89\u7530", "name:ja-Kana": "\u307b\u3093\u3060", "name:ja-Latn": "Honda", "name:ko": "\ud63c\ub2e4", "operator": "\u6771\u65e5\u672c\u65c5\u5ba2\u9244\u9053", "platforms": "3", "public_transport": "station", "railway": "station", "source": "bing", "website": "https://www.jreast.co.jp/estation/station/info.aspx?StationCd=1409", "wheelchair": "yes", "wikidata": "Q5353370", "wikipedia": "ja:\u8a89\u7530\u99c5"}}, {"type": "node", "id": 3014683082, "lat": 35.5628336, "lon": 140.1785002, "tags": {"name": "\u938c\u53d6", "name:en": "Kamatori", "name:ja_kana": "\u304b\u307e\u3068\u308a", "name:ja_rm": "Kamatori", "platforms": "2", "public_transport": "station", "railway": "station", "roof:shape": "hipped", "source": "Bing", "website": "https://www.jreast.co.jp/estation/station/info.aspx?StationCd=479", "wheelchair": "yes", "wikidata": "Q5353463", "wikipedia": "ja:\u938c\u53d6\u99c5"}}, {"type": "node", "id": 3730429147, "lat": 35.6068892, "lon": 140.1026973, "tags": {"maxspeed": "100", "name": "\u5343\u8449\u307f\u306a\u3068", "name:en": "Chiba-Minato", "name:ja": "\u5343\u8449\u307f\u306a\u3068", "name:ja_kana": "\u3061\u3070\u307f\u306a\u3068", "name:ja_rm": "Chiba-Minato", "name:ko": "\uc9c0\ubc14\ubbf8\ub098\ud1a0", "operator": "\u6771\u65e5\u672c\u65c5\u5ba2\u9244\u9053", "platforms": "3", "public_transport": "station", "railway": "station", "source": "Bing", "usage": "main", "wheelchair": "yes", "wikidata": "Q2648818", "wikipedia": "ja:\u5343\u8449\u307f\u306a\u3068\u99c5"}}, {"type": "node", "id": 3730429155, "lat": 35.6294925, "lon": 140.0735654, "tags": {"maxspeed": "100", "name": "\u7a32\u6bdb\u6d77\u5cb8", "name:en": "Inage-Kaigan", "name:ja": "\u7a32\u6bdb\u6d77\u5cb8", "name:ja_kana": "\u3044\u306a\u3052\u304b\u3044\u304c\u3093", "name:ja_rm": "Inage-Kaigan", "name:ko": "\uc774\ub098\uac8c\uce74\uc774\uac04", "operator": "\u6771\u65e5\u672c\u65c5\u5ba2\u9244\u9053", "public_transport": "station", "railway": "station", "source": "bing", "usage": "main", "wheelchair": "yes", "wikidata": "Q2583249", "wikipedia": "ja:\u7a32\u6bdb\u6d77\u5cb8\u99c5"}}, {"type": "node", "id": 3730429159, "lat": 35.6484234, "lon": 140.041921, "tags": {"maxspeed": "100", "name": "\u6d77\u6d5c\u5e55\u5f35", "name:en": "Kaihin-Makuhari", "name:ja": "\u6d77\u6d5c\u5e55\u5f35", "name:ja_kana": "\u304b\u3044\u3072\u3093\u307e\u304f\u306f\u308a", "name:ja_rm": "Kaihin-Makuhari", "name:ko": "\uac00\uc774\ud78c\ub9c8\ucfe0\ud558\ub9ac", "operator": "\u6771\u65e5\u672c\u65c5\u5ba2\u9244\u9053", "platforms": "4", "public_transport": "station", "railway": "station", "usage": "main", "wheelchair": "yes", "wikidata": "Q906715", "wikipedia": "ja:\u6d77\u6d5c\u5e55\u5f35\u99c5"}}, {"type": "node", "id": 3730429165, "lat": 35.6372071, "lon": 140.0590771, "tags": {"maxspeed": "100", "name": "\u691c\u898b\u5ddd\u6d5c", "name:en": "Kemigawahama", "name:ja": "\u691c\u898b\u5ddd\u6d5c", "name:ja_kana": "\u3051\u307f\u304c\u308f\u306f\u307e", "name:ja_rm": "Kemigamahama", "name:ko": "\uac8c\ubbf8\uac00\uc640\ud558\ub9c8", "operator": "\u6771\u65e5\u672c\u65c5\u5ba2\u9244\u9053", "platforms": "2", "public_transport": "station", "railway": "station", "source": "Bing", "usage": "main", "wheelchair": "yes", "wikidata": "Q2493887", "wikipedia": "ja:\u691c\u898b\u5ddd\u6d5c\u99c5"}}, {"type": "node", "id": 3730429177, "lat": 35.6673499, "lon": 140.0128786, "tags": {"maxspeed": "100", "name": "\u65b0\u7fd2\u5fd7\u91ce", "name:en": "Shin-Narashino", "name:ja": "\u65b0\u7fd2\u5fd7\u91ce", "name:ja_kana": "\u3057\u3093\u306a\u3089\u3057\u306e", "name:ja_rm": "Shin-Narashino", "name:ko": "\uc2e0\ub098\ub77c\uc2dc\ub178", "operator": "\u6771\u65e5\u672c\u65c5\u5ba2\u9244\u9053", "platforms": "4", "public_transport": "station", "railway": "station", "source": "bing", "usage": "main", "wheelchair": "yes", "wikidata": "Q2370433", "wikipedia": "ja:\u65b0\u7fd2\u5fd7\u91ce\u99c5"}}, {"type": "node", "id": 5651932587, "lat": 35.8975067, "lon": 140.0638828, "tags": {"name": "\u53d6\u624b", "name:en": "Toride", "name:ja": "\u53d6\u624b", "name:ja-Hira": "\u3068\u308a\u3067", "public_transport": "station", "railway": "station", "source": "GSImaps/ort", "train": "yes", "tunnel": "yes", "wikidata": "Q847830", "wikipedia": "ja:\u53d6\u624b\u99c5"}}, {"type": "node", "id": 6725224628, "lat": 35.7307393, "lon": 140.1537491, "tags": {"alt_name:ko": "\uace0\uc5d4", "monorail": "yes", "name": "\u516c\u5712", "name:en": "Koen", "name:ja": "\u516c\u5712", "name:ja_kana": "\u3053\u3046\u3048\u3093", "name:ja_rm": "K\u014den", "name:ko": "\uacf5\uc6d0", "operator": "\u5c71\u4e07", "public_transport": "station", "railway": "station", "wheelchair": "no", "wikidata": "Q11391979", "wikipedia": "ja:\u516c\u5712\u99c5"}}, {"type": "node", "id": 7829693340, "lat": 35.4962381, "lon": 140.1002691, "tags": {"name": "\u4e0a\u7dcf\u6751\u4e0a", "name:en": "Kazusa-Murakami", "name:ja": "\u4e0a\u7dcf\u6751\u4e0a", "name:ja_kana": "\u304b\u305a\u3055\u3080\u3089\u304b\u307f", "name:ja_rm": "Kazusa-Murakami", "name:ko": "\uac00\uc988\uc0ac\ubb34\ub77c\uce74\ubbf8", "operator": "\u5c0f\u6e4a\u9244\u9053", "operator:en": "Kominato Railway", "public_transport": "station", "railway": "station", "source": "Bing", "website": "https://www.kominato.co.jp/station/kazusamurakami/", "wikidata": "Q6381713", "wikipedia": "ja:\u4e0a\u7dcf\u6751\u4e0a\u99c5"}}, {"type": "node", "id": 7829693341, "lat": 35.4660327, "lon": 140.1267656, "tags": {"name": "\u4e0a\u7dcf\u4e09\u53c8", "name:en": "Kazusa-Mitsumata", "name:ja": "\u4e0a\u7dcf\u4e09\u53c8", "name:ja_rm": "Kazusa-Mitsumata", "name:ko": "\uac00\uc988\uc0ac\ubbf8\uc4f0\ub9c8\ud0c0", "operator": "\u5c0f\u6e4a\u9244\u9053", "operator:en": "Kominato Railway", "public_transport": "station", "railway": "station", "source": "Bing", "website": "https://www.kominato.co.jp/station/kazusamitsumata/", "wikidata": "Q6381715", "wikipedia": "ja:\u4e0a\u7dcf\u4e09\u53c8\u99c5"}}, {"type": "node", "id": 7829693342, "lat": 35.7120744, "lon": 140.1079464, "tags": {"alt_name": "\u5927\u548c\u7530", "name": "\u4eac\u6210\u5927\u548c\u7530", "name:en": "Keisei-Owada", "name:it": "Keisei Owada", "name:ja": "\u4eac\u6210\u5927\u548c\u7530", "name:ja-Hira": "\u3051\u3044\u305b\u3044\u304a\u304a\u308f\u3060", "name:ja-Latn": "Keisei-\u014cwada", "name:ko": "\uac8c\uc774\uc138\uc774\uc624\uc640\ub2e4", "network": "\u4eac\u6210\u96fb\u9244", "network:en": "Keisei Electric Railway", "network:ja": "\u4eac\u6210\u96fb\u9244", "network:wikidata": "Q83538", "operator": "\u4eac\u6210\u96fb\u9244", "platforms": "2", "public_transport": "station", "railway": "station", "ref": "KS30", "train": "yes", "wikidata": "Q6383852", "wikipedia": "ja:\u4eac\u6210\u5927\u548c\u7530\u99c5"}}, {"type": "node", "id": 7858025487, "lat": 35.7604813, "lon": 140.2952613, "tags": {"name": "\u516c\u6d25\u306e\u675c", "name:en": "Kozunomori", "name:it": "Kozunomori", "name:ja": "\u516c\u6d25\u306e\u675c", "name:ja-Hira": "\u3053\u3046\u3065\u306e\u3082\u308a", "name:ja-Latn": "K\u014dzunomori", "name:ko": "\uace0\uc988\ub178\ubaa8\ub9ac", "network": "\u4eac\u6210", "operator": "\u4eac\u6210\u96fb\u9244", "platforms": "2", "public_transport": "station", "railway": "station", "ref": "KS39", "wheelchair": "yes", "wikidata": "Q6455356", "wikipedia": "ja:\u516c\u6d25\u306e\u675c\u99c5"}}, {"type": "node", "id": 7858158401, "lat": 35.6859511, "lon": 140.0481856, "tags": {"alt_name": "\u5927\u4e45\u4fdd", "name": "\u4eac\u6210\u5927\u4e45\u4fdd", "name:en": "Keisei-Okubo", "name:it": "Keisei Okubo", "name:ja": "\u4eac\u6210\u5927\u4e45\u4fdd", "name:ja-Hira": "\u3051\u3044\u305b\u3044\u304a\u304a\u304f\u307c", "name:ja-Latn": "Keisei-\u014ckubo", "name:ko": "\uac8c\uc774\uc138\uc774\uc624\ucfe0\ubcf4", "network": "\u4eac\u6210", "operator": "\u4eac\u6210\u96fb\u9244", "platforms": "2", "public_transport": "station", "railway": "station", "ref": "KS27", "wikidata": "Q6383851", "wikipedia": "ja:\u4eac\u6210\u5927\u4e45\u4fdd\u99c5"}}, {"type": "node", "id": 7858159327, "lat": 35.7012654, "lon": 140.0906181, "tags": {"name": "\u516b\u5343\u4ee3\u53f0", "name:en": "Yachiyodai", "name:it": "Yachiyodai", "name:ja": "\u516b\u5343\u4ee3\u53f0", "name:ja-Hira": "\u3084\u3061\u3088\u3060\u3044", "name:ja-Latn": "Yachiyodai", "name:ko": "\uc57c\uce58\uc694\ub2e4\uc774", "network": "\u4eac\u6210", "operator": "\u4eac\u6210\u96fb\u9244", "platforms": "4", "public_transport": "station", "railway": "station", "ref": "KS29", "wheelchair": "yes", "wikidata": "Q4373709", "wikipedia": "ja:\u516b\u5343\u4ee3\u53f0\u99c5"}}, {"type": "node", "id": 7858159331, "lat": 35.6869069, "lon": 140.0684242, "tags": {"name": "\u5b9f\u7c7e", "name:en": "Mimomi", "name:it": "Mimomi", "name:ja": "\u5b9f\u7c7e", "name:ja-Hira": "\u307f\u3082\u307f", "name:ja-Latn": "Mimomi", "name:ko": "\ubbf8\ubaa8\ubbf8", "network": "\u4eac\u6210", "operator": "\u4eac\u6210\u96fb\u9244", "platforms": "2", "public_transport": "station", "railway": "station", "ref": "KS28", "source": "KSJ2", "source_ref": "http://w3land.mlit.go.jp/ksj2/datalist/N02.html", "wikidata": "Q6862305", "wikipedia": "ja:\u5b9f\u7c7e\u99c5"}}, {"type": "node", "id": 7858182732, "lat": 35.7251893, "lon": 140.2297242, "tags": {"alt_name": "\u4f50\u5009", "name": "\u4eac\u6210\u4f50\u5009", "name:en": "Keisei-Sakura", "name:it": "Keisei Sakura", "name:ja": "\u4eac\u6210\u4f50\u5009", "name:ja-Hira": "\u3051\u3044\u305b\u3044\u3055\u304f\u3089", "name:ja-Latn": "Keisei-Sakura", "name:ko": "\uac8c\uc774\uc138\uc774\uc0ac\ucfe0\ub77c", "network": "\u4eac\u6210", "operator": "\u4eac\u6210\u96fb\u9244", "platforms": "4", "public_transport": "station", "railway": "station", "ref": "KS35", "wheelchair": "yes", "wikidata": "Q4502033", "wikipedia": "ja:\u4eac\u6210\u4f50\u5009\u99c5"}}, {"type": "node", "id": 7858182736, "lat": 35.7299183, "lon": 140.1808053, "tags": {"alt_name": "\u3046\u3059\u3044", "name": "\u4eac\u6210\u81fc\u4e95", "name:en": "Keisei-Usui", "name:it": "Keisei Usui", "name:ja": "\u4eac\u6210\u81fc\u4e95", "name:ja-Hira": "\u3051\u3044\u305b\u3044\u3046\u3059\u3044", "name:ja-Latn": "Keisei-Usui", "name:ko": "\uac8c\uc774\uc138\uc774\uc6b0\uc2a4\uc774", "network": "\u4eac\u6210\u96fb\u9244", "network:en": "Keisei Electric Railway", "network:ja": "\u4eac\u6210\u96fb\u9244", "network:wikidata": "Q83538", "operator": "\u4eac\u6210\u96fb\u9244", "platforms": "2", "public_transport": "station", "railway": "station", "ref": "KS34", "train": "yes", "wheelchair": "yes", "wikidata": "Q6383832", "wikipedia": "ja:\u4eac\u6210\u81fc\u4e95\u99c5"}}, {"type": "node", "id": 7858182738, "lat": 35.7217309, "lon": 140.1563758, "tags": {"name": "\u30e6\u30fc\u30ab\u30ea\u304c\u4e18", "name:en": "Yukarigaoka", "name:it": "Yukarigaoka", "name:ja": "\u30e6\u30fc\u30ab\u30ea\u304c\u4e18", "name:ja-Hira": "\u3086\u30fc\u304b\u308a\u304c\u304a\u304b", "name:ja-Latn": "Y\u016bkarigaoka", "name:ko": "\uc720\uce74\ub9ac\uac00\uc624\uce74", "network": "\u4eac\u6210", "operator": "\u4eac\u6210\u96fb\u9244", "platforms": "3", "public_transport": "station", "railway": "station", "ref": "KS33", "wheelchair": "yes", "wikidata": "Q8062735", "wikipedia": "ja:\u30e6\u30fc\u30ab\u30ea\u304c\u4e18\u99c5"}}, {"type": "node", "id": 7858182741, "lat": 35.7174567, "lon": 140.1449738, "tags": {"name": "\u5fd7\u6d25", "name:en": "Shizu", "name:it": "Shizu", "name:ja": "\u5fd7\u6d25", "name:ja-Hira": "\u3057\u3065", "name:ja-Latn": "Shizu", "name:ko": "\uc2dc\uc988", "network": "\u4eac\u6210", "operator": "\u4eac\u6210\u96fb\u9244", "platforms": "2", "public_transport": "station", "railway": "station", "ref": "KS32", "wheelchair": "yes", "wikidata": "Q7499472", "wikipedia": "ja:\u5fd7\u6d25\u99c5"}}, {"type": "node", "id": 7858182743, "lat": 35.715463, "lon": 140.1260447, "tags": {"name": "\u52dd\u7530\u53f0", "name:en": "Katsutadai", "name:it": "Katsutadai", "name:ja": "\u52dd\u7530\u53f0", "name:ja-Hira": "\u304b\u3064\u305f\u3060\u3044", "name:ja-Latn": "Katsutadai", "name:ko": "\uac00\uc4f0\ud0c0\ub2e4\uc774", "network": "\u4eac\u6210", "operator": "\u4eac\u6210\u96fb\u9244", "platforms": "2", "public_transport": "station", "railway": "station", "ref": "KS31", "wikidata": "Q4502157", "wikipedia": "ja:\u52dd\u7530\u53f0\u99c5"}}, {"type": "node", "id": 7858255370, "lat": 35.7650987, "lon": 140.3859428, "tags": {"alt_name": "\u7b2c1\u65c5\u5ba2\u30bf\u30fc\u30df\u30ca\u30eb", "name": "\u6210\u7530\u7a7a\u6e2f", "name:en": "Narita Airport Terminal 1", "name:es": "Terminal 1 del Aeropuerto de Narita", "name:it": "Narita Aeroporto Terminal 1", "name:ja": "\u6210\u7530\u7a7a\u6e2f", "name:ja-Hira": "\u306a\u308a\u305f\u304f\u3046\u3053\u3046", "name:ja-Latn": "Narita K\u016bk\u014d", "name:ko": "\ub098\ub9ac\ud0c0\uacf5\ud56d \uc81c1\ud130\ubbf8\ub110", "name:ru": "\u041f\u0435\u0440\u0432\u044b\u0439 \u0442\u0435\u0440\u043c\u0438\u043d\u0430\u043b \u0430\u044d\u0440\u043e\u043f\u043e\u0440\u0442\u0430 \u041d\u0430\u0440\u0438\u0442\u0430", "name:zh": "\u6210\u7530\u673a\u573a \u7b2c1\u5019\u673a\u697c", "operator": "\u6771\u65e5\u672c\u65c5\u5ba2\u9244\u9053", "public_transport": "station", "railway": "station", "ref": "JO37"}}, {"type": "node", "id": 7858255374, "lat": 35.7764435, "lon": 140.3155186, "tags": {"alt_name": "\u6210\u7530", "name": "\u4eac\u6210\u6210\u7530", "name:en": "Keisei-Narita", "name:it": "Keisei Narita", "name:ja": "\u4eac\u6210\u6210\u7530", "name:ja-Hira": "\u3051\u3044\u305b\u3044\u306a\u308a\u305f", "name:ja-Latn": "Keisei-Narita", "name:ko": "\uac8c\uc774\uc138\uc774\ub098\ub9ac\ud0c0", "network": "\u4eac\u6210", "operator": "\u4eac\u6210\u96fb\u9244", "platforms": "5", "public_transport": "station", "railway": "station", "ref": "KS40", "wheelchair": "yes", "wikidata": "Q4502163", "wikipedia": "ja:\u4eac\u6210\u6210\u7530\u99c5"}}, {"type": "node", "id": 7858255377, "lat": 35.7526509, "lon": 140.2810188, "tags": {"name": "\u5b97\u543e\u53c2\u9053", "name:en": "Sogosando", "name:it": "Sogosando", "name:ja": "\u5b97\u543e\u53c2\u9053", "name:ja-Hira": "\u305d\u3046\u3054\u3055\u3093\u3069\u3046", "name:ja-Latn": "S\u014dgosand\u014d", "name:ko": "\uc18c\uace0\uc0b0\ub3c4", "network": "\u4eac\u6210", "operator": "\u4eac\u6210\u96fb\u9244", "platforms": "3", "public_transport": "station", "railway": "station", "ref": "KS38", "wheelchair": "no", "wikidata": "Q7667572", "wikipedia": "ja:\u5b97\u543e\u53c2\u9053\u99c5"}}, {"type": "node", "id": 7858255379, "lat": 35.7367994, "lon": 140.2700492, "tags": {"alt_name": "\u9152\u3005\u4e95", "name": "\u4eac\u6210\u9152\u3005\u4e95", "name:en": "Keisei-Shisui", "name:it": "Keisei Shisui", "name:ja": "\u4eac\u6210\u9152\u3005\u4e95", "name:ja-Hira": "\u3051\u3044\u305b\u3044\u3057\u3059\u3044", "name:ja-Latn": "Keisei-Shisui", "name:ko": "\uac8c\uc774\uc138\uc774\uc2dc\uc2a4\uc774", "network": "\u4eac\u6210", "operator": "\u4eac\u6210\u96fb\u9244", "platforms": "2", "public_transport": "station", "railway": "station", "ref": "KS37", "wikidata": "Q6383847", "wikipedia": "ja:\u4eac\u6210\u9152\u3005\u4e95\u99c5"}}, {"type": "node", "id": 7858255381, "lat": 35.730076, "lon": 140.2510974, "tags": {"name": "\u5927\u4f50\u5009", "name:en": "Osakura", "name:it": "Osakura", "name:ja": "\u5927\u4f50\u5009", "name:ja-Hira": "\u304a\u304a\u3055\u304f\u3089", "name:ja-Latn": "\u014csakura", "name:ko": "\uc624\uc0ac\ucfe0\ub77c", "network": "\u4eac\u6210", "operator": "\u4eac\u6210\u96fb\u9244", "platforms": "2", "public_transport": "station", "railway": "station", "ref": "KS36", "wheelchair": "no", "wikidata": "Q8081685", "wikipedia": "ja:\u5927\u4f50\u5009\u99c5"}}, {"type": "node", "id": 7858346609, "lat": 35.7732576, "lon": 140.3873516, "tags": {"alt_name": "\u7b2c2\u65c5\u5ba2\u30bf\u30fc\u30df\u30ca\u30eb", "alt_name:ja": "\u6210\u7530\u7b2c2\u30fb\u7b2c3\u30bf\u30fc\u30df\u30ca\u30eb", "level": "-1", "name": "\u7a7a\u6e2f\u7b2c2\u30d3\u30eb", "name:en": "Narita Airport Terminal 2\u00b73", "name:es": "Aeropuerto de Narita Terminal 2\u00b73", "name:it": "Narita Aeroporto Terminal 2\u00b73", "name:ja": "\u7a7a\u6e2f\u7b2c2\u30d3\u30eb", "name:ja-Hira": "\u304f\u3046\u3053\u3046\u3060\u3044\u306b\u3073\u308b", "name:ja-Latn": "K\u016bk\u014d Daini biru", "name:ko": "\uacf5\ud56d 2\ube4c\ub529", "name:ru": "\u0412\u0442\u043e\u0440\u043e\u0439 \u0442\u0435\u0440\u043c\u0438\u043d\u0430\u043b \u0430\u044d\u0440\u043e\u043f\u043e\u0440\u0442\u0430 \u041d\u0430\u0440\u0438\u0442\u0430", "name:zh": "\u6210\u7530\u673a\u573a \u7b2c2\u30fb\u7b2c3\u5019\u673a\u697c", "operator": "\u6771\u65e5\u672c\u65c5\u5ba2\u9244\u9053", "public_transport": "station", "railway": "station", "ref": "JO36"}}, {"type": "node", "id": 7858390709, "lat": 35.7326736, "lon": 140.1485968, "tags": {"monorail": "yes", "name": "\u4e95\u91ce", "name:en": "Ino", "name:ja": "\u4e95\u91ce", "name:ja_kana": "\u3044\u306e", "name:ja_rm": "Ino", "name:ko": "\uc774\ub178", "public_transport": "station", "railway": "station", "source": "bing", "wheelchair": "no", "wikidata": "Q11373793", "wikipedia": "ja:\u4e95\u91ce\u99c5 (\u5343\u8449\u770c)"}}, {"type": "node", "id": 7858390710, "lat": 35.7402153, "lon": 140.1483869, "tags": {"monorail": "yes", "name": "\u4e2d\u5b66\u6821", "name:en": "Chugakko", "name:ja": "\u4e2d\u5b66\u6821", "name:ja_kana": "\u3061\u3085\u3046\u304c\u3063\u3053\u3046", "name:ja_rm": "Ch\u016bgakk\u014d", "name:ko": "\uc8fc\uac13\ucf54", "operator": "\u5c71\u4e07", "public_transport": "station", "railway": "station", "wheelchair": "no", "wikidata": "Q11363857", "wikipedia": "ja:\u4e2d\u5b66\u6821\u99c5"}}, {"type": "node", "id": 7858390711, "lat": 35.7382026, "lon": 140.1549737, "tags": {"monorail": "yes", "name": "\u5973\u5b50\u5927", "name:en": "Joshidai", "name:ja": "\u5973\u5b50\u5927", "name:ja_kana": "\u3058\u3087\u3057\u3060\u3044", "name:ja_rm": "Joshidai", "name:ko": "\uc870\uc2dc\ub2e4\uc774", "operator": "\u5c71\u4e07", "public_transport": "station", "railway": "station", "wikidata": "Q11446373", "wikipedia": "ja:\u5973\u5b50\u5927\u99c5"}}, {"type": "node", "id": 7858390712, "lat": 35.7259449, "lon": 140.1552553, "tags": {"monorail": "yes", "name": "\u5730\u533a\u30bb\u30f3\u30bf\u30fc", "name:en": "Chikucenter", "name:ja": "\u5730\u533a\u30bb\u30f3\u30bf\u30fc", "name:ja_kana": "\u3061\u304f\u305b\u3093\u305f\u30fc", "name:ja_rm": "Chiku Sent\u0101", "name:ko": "\uc9c0\ucfe0\uc13c\ud130", "operator": "\u5c71\u4e07", "public_transport": "station", "railway": "station", "wheelchair": "no", "wikidata": "Q11424114", "wikipedia": "ja:\u5730\u533a\u30bb\u30f3\u30bf\u30fc\u99c5"}}, {"type": "node", "id": 7858390713, "lat": 35.7221076, "lon": 140.1569706, "tags": {"monorail": "yes", "name": "\u30e6\u30fc\u30ab\u30ea\u304c\u4e18", "name:en": "Y\u016bkarigaoka", "public_transport": "station", "railway": "station", "wheelchair": "yes", "wikidata": "Q8062735", "wikipedia": "ja:\u30e6\u30fc\u30ab\u30ea\u304c\u4e18\u99c5"}}, {"type": "node", "id": 7858848010, "lat": 35.8001351, "lon": 140.116207, "tags": {"addr:block_number": "\u4e2d\u592e\u5357", "addr:city": "\u5370\u897f\u5e02", "addr:housenumber": "1-1390-1", "addr:province": "\u5343\u8449\u770c", "alt_name:ko": "\uc9c0\ubc14\ub274\ud0c0\uc6b4\ucd94\uc624", "name": "\u5343\u8449\u30cb\u30e5\u30fc\u30bf\u30a6\u30f3\u4e2d\u592e", "name:en": "Chiba Newtown Chuo", "name:ja": "\u5343\u8449\u30cb\u30e5\u30fc\u30bf\u30a6\u30f3\u4e2d\u592e", "name:ja_kana": "\u3061\u3070\u306b\u3085\u30fc\u305f\u3046\u3093\u3061\u3085\u3046\u304a\u3046", "name:ja_rm": "Chiba ny\u016btaun ch\u016b\u014d", "name:ko": "\uc9c0\ubc14\ub274\ud0c0\uc6b4\uc911\uc559", "name:ru": "\u0422\u0438\u0431\u0430 \u041d\u044c\u044e\u0442\u0430\u0443\u043d \u0422\u044e\u043e", "operator": "\u5317\u7dcf\u9244\u9053", "operator:en": "Hokuso Railway", "operator:ja": "\u5317\u7dcf\u9244\u9053", "phone": "0476-46-3711", "platforms": "2", "public_transport": "station", "railway": "station", "ref": "HS12", "website": "https://www.hokuso-railway.co.jp/railway/station/chiba_newtown_chuo.html", "wikidata": "Q855466", "wikipedia": "ja:\u5343\u8449\u30cb\u30e5\u30fc\u30bf\u30a6\u30f3\u4e2d\u592e\u99c5"}}, {"type": "node", "id": 7858848021, "lat": 35.7995534, "lon": 140.2913332, "tags": {"addr:province": "\u5343\u8449\u770c", "name": "\u6210\u7530\u6e6f\u5ddd", "name:de": "Narita Yokawa", "name:en": "Narita Yukawa", "name:ja": "\u6210\u7530\u6e6f\u5ddd", "name:ja_kana": "\u306a\u308a\u305f\u3086\u304b\u308f", "name:ja_rm": "Narita Yukawa", "name:ko": "\ub098\ub9ac\ud0c0\uc720\uce74\uc640", "name:ru": "\u041d\u0430\u0440\u0438\u0442\u0430-\u042e\u043a\u0430\u0432\u0430", "operator": "\u4eac\u6210\u96fb\u9244", "platforms": "2", "public_transport": "station", "railway": "station", "ref": "KS43", "start_date": "2010-07-17", "train": "yes", "wikidata": "Q859802", "wikipedia": "ja:\u6210\u7530\u6e6f\u5ddd\u99c5"}}, {"type": "node", "id": 7865838610, "lat": 35.659323, "lon": 140.0579864, "tags": {"maxspeed": "95", "name": "\u5e55\u5f35", "name:en": "Makuhari", "name:it": "Makuhari", "name:ja": "\u5e55\u5f35", "name:ja-Hira": "\u307e\u304f\u306f\u308a", "name:ja-Latn": "Makuhari", "name:ko": "\ub9c8\ucfe0\ud558\ub9ac", "operator": "\u6771\u65e5\u672c\u65c5\u5ba2\u9244\u9053", "platforms": "2", "public_transport": "station", "railway": "station", "source": "Bing", "wheelchair": "yes", "wikidata": "Q908755", "wikipedia": "ja:\u5e55\u5f35\u99c5"}}, {"type": "node", "id": 7865838613, "lat": 35.6726962, "lon": 140.0422955, "tags": {"maxspeed": "95", "name": "\u5e55\u5f35\u672c\u90f7", "name:en": "Makuhari-Hongo", "name:it": "Makuhari-Hongo", "name:ja": "\u5e55\u5f35\u672c\u90f7", "name:ja-Latn": "Makuhari-Hong\u014d", "name:ko": "\ub9c8\ucfe0\ud558\ub9ac\ud63c\uace0", "name:ru": "\u041c\u0430\u043a\u0443\u0445\u0430\u0440\u0438-\u0425\u043e\u043d\u0433\u043e", "operator": "\u6771\u65e5\u672c\u65c5\u5ba2\u9244\u9053", "platforms": "2", "public_transport": "station", "railway": "station", "source": "bing", "wheelchair": "yes", "wikidata": "Q906124", "wikipedia": "ja:\u5e55\u5f35\u672c\u90f7\u99c5"}}, {"type": "node", "id": 7865838615, "lat": 35.6913892, "lon": 140.02019, "tags": {"maxspeed": "95", "name": "\u6d25\u7530\u6cbc", "name:en": "Tsudanuma", "name:it": "Tsudanuma", "name:ja": "\u6d25\u7530\u6cbc", "name:ja-Hira": "\u3064\u3060\u306c\u307e", "name:ja-Latn": "Tsudanuma", "name:ko": "\uc4f0\ub2e4\ub204\ub9c8", "name:ru": "\u0426\u0443\u0434\u0430\u043d\u0443\u043c\u0430", "operator": "\u6771\u65e5\u672c\u65c5\u5ba2\u9244\u9053", "platforms": "6", "public_transport": "station", "railway": "station", "voltage": "1500", "wheelchair": "yes", "wikidata": "Q801534", "wikipedia": "ja:\u6d25\u7530\u6cbc\u99c5"}}, {"type": "node", "id": 7865838628, "lat": 35.6517845, "lon": 140.0730979, "tags": {"maxspeed": "95", "name": "\u65b0\u691c\u898b\u5ddd", "name:en": "Shin-Kemigawa", "name:it": "Shin-Kemigawa", "name:ja": "\u65b0\u691c\u898b\u5ddd", "name:ja-Hira": "\u3057\u3093\u3051\u307f\u304c\u308f", "name:ja-Latn": "Shin-Kemigawa", "name:ko": "\uc2e0\ucf00\ubbf8\uac00\uc640", "operator": "\u6771\u65e5\u672c\u65c5\u5ba2\u9244\u9053", "platforms": "2", "public_transport": "station", "railway": "station", "source": "bing", "wikidata": "Q908760", "wikipedia": "ja:\u65b0\u691c\u898b\u5ddd\u99c5"}}, {"type": "node", "id": 7865838630, "lat": 35.6370846, "lon": 140.0925674, "tags": {"maxspeed": "95", "name": "\u7a32\u6bdb", "name:en": "Inage", "name:it": "Inage", "name:ja": "\u7a32\u6bdb", "name:ja-Hira": "\u3044\u306a\u3052", "name:ja-Latn": "Inage", "name:ko": "\uc774\ub098\uac8c", "name:ru": "\u0418\u043d\u0430\u0433\u0435", "operator": "\u6771\u65e5\u672c\u65c5\u5ba2\u9244\u9053", "platforms": "4", "public_transport": "station", "railway": "station", "source": "Bing 2010", "voltage": "1500", "wikidata": "Q909403", "wikipedia": "ja:\u7a32\u6bdb\u99c5"}}, {"type": "node", "id": 7865838634, "lat": 35.6227266, "lon": 140.1031253, "tags": {"maxspeed": "95", "name": "\u897f\u5343\u8449", "name:en": "Nishi-Chiba", "name:it": "Nishi-Chiba", "name:ja": "\u897f\u5343\u8449", "name:ja-Hira": "\u306b\u3057\u3061\u3070", "name:ja-Latn": "Nishi-Chiba", "name:ko": "\ub2c8\uc2dc\uce58\ubc14", "name:ru": "\u041d\u0438\u0441\u0438-\u0422\u0438\u0431\u0430", "operator": "\u6771\u65e5\u672c\u65c5\u5ba2\u9244\u9053", "public_transport": "station", "railway": "station", "source": "bing", "wikidata": "Q1067240", "wikipedia": "ja:\u897f\u5343\u8449\u99c5"}}, {"type": "node", "id": 7962936924, "lat": 35.690358, "lon": 140.0233482, "tags": {"name": "\u65b0\u6d25\u7530\u6cbc", "name:en": "Shin-Tsudanuma", "name:ja": "\u65b0\u6d25\u7530\u6cbc", "name:ja-Hira": "\u3057\u3093\u3064\u3060\u306c\u307e", "name:ja-Latn": "Shin-Tsudanuma", "name:ko": "\uc2e0\uc4f0\ub2e4\ub204\ub9c8", "operator": "\u65b0\u4eac\u6210\u96fb\u9244", "platforms": "2", "public_transport": "station", "railway": "station", "ref": "SL23", "source": "Bing;GSI/KIBAN 2500;NARO", "start_date": "1968-05-14", "wheelchair": "yes", "wikidata": "Q285362", "wikipedia": "ja:\u65b0\u6d25\u7530\u6cbc\u99c5"}}, {"type": "node", "id": 7962936926, "lat": 35.7009518, "lon": 140.027839, "tags": {"name": "\u524d\u539f", "name:en": "Maebara", "name:ja": "\u524d\u539f", "name:ja_kana": "\u307e\u3048\u3070\u3089", "name:ja_rm": "Maebara", "name:ko": "\ub9c8\uc5d0\ubc14\ub77c", "operator": "\u65b0\u4eac\u6210\u96fb\u9244", "platforms": "2", "public_transport": "station", "railway": "station", "ref": "SL22", "source": "bing; GSI/KIBAN 2500; NARO", "wheelchair": "yes", "wikidata": "Q11397077", "wikipedia": "ja:\u524d\u539f\u99c5"}}, {"type": "node", "id": 7962936928, "lat": 35.7101593, "lon": 140.0377036, "tags": {"name": "\u85ac\u5712\u53f0", "name:en": "Yakuendai", "name:es": "Yakuendai", "name:ja": "\u85ac\u5712\u53f0", "name:ja_kana": "\u3084\u304f\u3048\u3093\u3060\u3044", "name:ja_rm": "Yakuendai", "name:ko": "\uc57c\ucfe0\uc5d4\ub2e4\uc774", "operator": "\u65b0\u4eac\u6210\u96fb\u9244", "platforms": "2", "public_transport": "station", "railway": "station", "ref": "SL21", "source": "bing;GSI/KIBAN 2500;NARO", "wheelchair": "yes", "wikidata": "Q8047226", "wikipedia": "ja:\u85ac\u5712\u53f0\u99c5"}}, {"type": "node", "id": 7962936929, "lat": 35.7151548, "lon": 140.0427119, "tags": {"name": "\u7fd2\u5fd7\u91ce", "name:en": "Narashino", "name:ja": "\u7fd2\u5fd7\u91ce", "name:ja_kana": "\u306a\u3089\u3057\u306e", "name:ja_rm": "Narashino", "name:ko": "\ub098\ub77c\uc2dc\ub178", "operator": "\u65b0\u4eac\u6210\u96fb\u9244", "platforms": "2", "public_transport": "station", "railway": "station", "ref": "SL20", "source": "bing; GSI/KIBAN 2500; NARO", "wheelchair": "yes", "wikidata": "Q6965411", "wikipedia": "ja:\u7fd2\u5fd7\u91ce\u99c5"}}, {"type": "node", "id": 7962936930, "lat": 35.7302213, "lon": 140.0296623, "tags": {"name": "\u9ad8\u6839\u516c\u56e3", "name:en": "Takanekodan", "name:ja": "\u9ad8\u6839\u516c\u56e3", "name:ja_kana": "\u305f\u304b\u306d\u3053\u3046\u3060\u3093", "name:ja_rm": "Takanek\u014ddan", "name:ko": "\ub2e4\uce74\ub124\ucf54\ub2e8", "operator": "\u65b0\u4eac\u6210\u96fb\u9244", "platforms": "2", "public_transport": "station", "railway": "station", "ref": "SL17", "source": "bing; GSI/KIBAN 2500; NARO", "wheelchair": "yes", "wikidata": "Q7677176", "wikipedia": "ja:\u9ad8\u6839\u516c\u56e3\u99c5"}}, {"type": "node", "id": 7962936932, "lat": 35.7377176, "lon": 140.0259856, "tags": {"name": "\u6edd\u4e0d\u52d5", "name:en": "Takifudo", "name:ja": "\u6edd\u4e0d\u52d5", "name:ja_kana": "\u305f\u304d\u3075\u3069\u3046", "name:ja_rm": "Takifud\u014d", "name:ko": "\ub2e4\ud0a4\ud6c4\ub3c4", "operator": "\u65b0\u4eac\u6210\u96fb\u9244", "public_transport": "station", "railway": "station", "ref": "SL16", "source": "bing; GSI/KIBAN 2500; NARO", "wheelchair": "yes", "wikidata": "Q11565062", "wikipedia": "ja:\u6edd\u4e0d\u52d5\u99c5"}}, {"type": "node", "id": 7962936933, "lat": 35.749075, "lon": 140.0285203, "tags": {"name": "\u4e09\u54b2", "name:en": "Misaki", "name:ja": "\u4e09\u54b2", "name:ja_kana": "\u307f\u3055\u304d", "name:ja_rm": "Misaki", "name:ko": "\ubbf8\uc0ac\ud0a4", "operator": "\u65b0\u4eac\u6210\u96fb\u9244", "platforms": "2", "public_transport": "station", "railway": "station", "ref": "SL15", "source": "bing; GSI/KIBAN 2500; NARO", "wheelchair": "yes", "wikidata": "Q6875087", "wikipedia": "ja:\u4e09\u54b2\u99c5"}}, {"type": "node", "id": 7962936935, "lat": 35.7539866, "lon": 140.0234806, "tags": {"name": "\u4e8c\u548c\u5411\u53f0", "name:en": "Futawamukodai", "name:ja": "\u4e8c\u548c\u5411\u53f0", "name:ja_kana": "\u3075\u305f\u308f\u3080\u3053\u3046\u3060\u3044", "name:ja_rm": "Futawamuk\u014ddai", "name:ko": "\ud6c4\ud0c0\uc640\ubb34\ucf54\ub2e4\uc774", "operator": "\u65b0\u4eac\u6210\u96fb\u9244", "platforms": "2", "public_transport": "station", "railway": "station", "ref": "SL14", "source": "bing; GSI/KIBAN 2500; NARO", "wheelchair": "yes", "wikidata": "Q5510499", "wikipedia": "ja:\u4e8c\u548c\u5411\u53f0\u99c5"}}, {"type": "node", "id": 7962936937, "lat": 35.7579124, "lon": 140.0138359, "tags": {"name": "\u938c\u30f6\u8c37\u5927\u4ecf", "name:en": "Kamagayadaibutsu", "name:ja": "\u938c\u30f6\u8c37\u5927\u4ecf", "name:ja_kana": "\u304b\u307e\u304c\u3084\u3060\u3044\u3076\u3064", "name:ja_rm": "Kamagayadaibutsu", "name:ko": "\uac00\ub9c8\uac00\uc57c\ub2e4\uc774\ubd80\uc4f0", "operator": "\u65b0\u4eac\u6210\u96fb\u9244", "platforms": "2", "public_transport": "station", "railway": "station", "ref": "SL13", "source": "bing; GSI/KIBAN 2500; NARO", "wheelchair": "yes", "wikidata": "Q12060945", "wikipedia": "ja:\u938c\u30f6\u8c37\u5927\u4ecf\u99c5"}}, {"type": "node", "id": 7962936961, "lat": 35.7267329, "lon": 140.0347504, "tags": {"name": "\u9ad8\u6839\u6728\u6238", "name:en": "Takanekido", "name:ja": "\u9ad8\u6839\u6728\u6238", "name:ja_kana": "\u305f\u304b\u306d\u304d\u3069", "name:ja_rm": "Takanekido", "name:ko": "\ub2e4\uce74\ub124\ud0a4\ub3c4", "operator": "\u65b0\u4eac\u6210\u96fb\u9244", "platforms": "2", "public_transport": "station", "railway": "station", "ref": "SL18", "source": "bing; GSI/KIBAN 2500; NARO", "wheelchair": "yes", "wikidata": "Q7677174", "wikipedia": "ja:\u9ad8\u6839\u6728\u6238\u99c5"}}, {"type": "node", "id": 7966050102, "lat": 35.7843686, "lon": 140.0316518, "tags": {"name": "\u897f\u767d\u4e95", "name:en": "Nishi-Shiroi", "name:ja": "\u897f\u767d\u4e95", "name:ja_kana": "\u306b\u3057\u3057\u308d\u3044", "name:ja_rm": "Nishi Shiroi", "name:ko": "\ub2c8\uc2dc\uc2dc\ub85c\uc774", "name:ru": "\u041d\u0438\u0441\u0438 \u0421\u0438\u0440\u043e\u0439", "operator": "\u5317\u7dcf\u9244\u9053", "operator:en": "Hokuso Railway", "operator:ja": "\u5317\u7dcf\u9244\u9053", "platforms": "2", "public_transport": "station", "railway": "station", "ref": "HS09", "wikidata": "Q5367967", "wikipedia": "ja:\u897f\u767d\u4e95\u99c5"}}, {"type": "node", "id": 7966050104, "lat": 35.7847387, "lon": 140.0540933, "tags": {"name": "\u767d\u4e95", "name:en": "Shiroi", "name:ja": "\u767d\u4e95", "name:ja_kana": "\u3057\u308d\u3044", "name:ja_rm": "Shiroi", "name:ko": "\uc2dc\ub85c\uc774", "name:ru": "\u0421\u0438\u0440\u043e\u0439", "operator": "\u5317\u7dcf\u9244\u9053", "operator:en": "Hokuso Railway", "operator:ja": "\u5317\u7dcf\u9244\u9053", "platforms": "2", "public_transport": "station", "railway": "station", "ref": "HS10", "wikidata": "Q7498913", "wikipedia": "ja:\u767d\u4e95\u99c5"}}, {"type": "node", "id": 8068316719, "lat": 35.5902969, "lon": 140.1321843, "tags": {"name": "\u5343\u8449\u5bfa", "name:en": "Chibadera", "name:ja": "\u5343\u8449\u5bfa", "name:ja_kana": "\u3061\u3070\u3067\u3089", "name:ja_rm": "Chibadera", "name:ko": "\uc9c0\ubc14\ub370\ub77c", "network": "\u4eac\u6210\u96fb\u9244", "network:en": "Keisei Electric Railway", "network:ja": "\u4eac\u6210\u96fb\u9244", "network:wikidata": "Q83538", "operator": "\u4eac\u6210\u96fb\u9244", "public_transport": "station", "railway": "station", "ref": "KS61", "train": "yes", "wikidata": "Q11405986", "wikipedia": "ja:\u5343\u8449\u5bfa\u99c5"}}, {"type": "node", "id": 8068316725, "lat": 35.5500759, "lon": 140.1661277, "tags": {"name": "\u304a\u3086\u307f\u91ce", "name:en": "Oyumino", "name:ja": "\u304a\u3086\u307f\u91ce", "name:ja_kana": "\u304a\u3086\u307f\u306e", "name:ja_rm": "Oyumino", "name:ko": "\uc624\uc720\ubbf8\ub178", "operator": "\u4eac\u6210\u96fb\u9244", "platforms": "2", "public_transport": "station", "railway": "station", "ref": "KS64", "wikidata": "Q7116390", "wikipedia": "ja:\u304a\u3086\u307f\u91ce\u99c5"}}, {"type": "node", "id": 9635208928, "lat": 35.8724063, "lon": 140.0106172}, {"type": "node", "id": 9635208929, "lat": 35.8724101, "lon": 140.0107111}, {"type": "node", "id": 9635208934, "lat": 35.8730273, "lon": 140.0108554}, {"type": "node", "id": 9635208935, "lat": 35.8730292, "lon": 140.0108913}, {"type": "node", "id": 9635208936, "lat": 35.8731216, "lon": 140.0108887}, {"type": "node", "id": 9635208942, "lat": 35.8729692, "lon": 140.0107977}, {"type": "node", "id": 9635208943, "lat": 35.8729581, "lon": 140.0106398}, {"type": "node", "id": 9635208944, "lat": 35.8728039, "lon": 140.0106532}, {"type": "node", "id": 9635208945, "lat": 35.8727511, "lon": 140.0106481}, {"type": "node", "id": 9635208946, "lat": 35.8727532, "lon": 140.0106106}, {"type": "node", "id": 9635208947, "lat": 35.8726284, "lon": 140.0106126}, {"type": "node", "id": 9635208948, "lat": 35.8726608, "lon": 140.0106105}, {"type": "node", "id": 9635208949, "lat": 35.8726301, "lon": 140.0106581}, {"type": "node", "id": 9635208950, "lat": 35.8725945, "lon": 140.0106774}, {"type": "node", "id": 9635208951, "lat": 35.8725971, "lon": 140.0106613}, {"type": "node", "id": 9635208952, "lat": 35.8724932, "lon": 140.0106795}, {"type": "node", "id": 9635208953, "lat": 35.8724928, "lon": 140.0106159}, {"type": "node", "id": 9635208954, "lat": 35.8727836, "lon": 140.0106522}, {"type": "node", "id": 9635208955, "lat": 35.8727595, "lon": 140.0106492}, {"type": "node", "id": 9635208958, "lat": 35.8726177, "lon": 140.0108986}, {"type": "node", "id": 9635208959, "lat": 35.8726189, "lon": 140.0109592}, {"type": "node", "id": 9635208960, "lat": 35.8728064, "lon": 140.0109488}, {"type": "node", "id": 9635208961, "lat": 35.8728041, "lon": 140.0108727}, {"type": "node", "id": 9635208973, "lat": 35.8724483, "lon": 140.0111073, "tags": {"entrance": "yes", "railway": "train_station_entrance"}}, {"type": "node", "id": 9635208977, "lat": 35.873156, "lon": 140.0109173}, {"type": "node", "id": 9635208978, "lat": 35.8731228, "lon": 140.010914}, {"type": "node", "id": 10742616693, "lat": 35.6580872, "lon": 140.0270552, "tags": {"name": "\u5e55\u5f35\u8c4a\u7802", "name:en": "Makuharitoyosuna", "name:ja": "\u5e55\u5f35\u8c4a\u7802", "name:ja_kana": "\u307e\u304f\u306f\u308a\u3068\u3088\u3059\u306a", "name:ja_rm": "Makuhari Toyosuna", "operator": "\u6771\u65e5\u672c\u65c5\u5ba2\u9244\u9053", "platforms": "2", "public_transport": "station", "railway": "station", "start_date": "2023-03-18", "train": "yes", "usage": "main", "wheelchair": "yes", "wikidata": "Q87064803", "wikipedia": "ja:\u5e55\u5f35\u8c4a\u7802\u99c5"}}, {"type": "node", "id": 10984857595, "lat": 35.5128424, "lon": 140.0895814, "tags": {"name": "\u4e94\u4e95", "name:en": "Goi", "name:ja": "\u4e94\u4e95", "name:ja-Kana": "\u3054\u3044", "name:ja-Latn": "Goi", "name:ko": "\uace0\uc774", "name:ru": "\u0413\u043e\u0438", "operator": "\u5c0f\u6e4a\u9244\u9053", "operator:en": "Kominato Railway", "public_transport": "station", "railway": "station", "train": "yes", "website": "https://www.kominato.co.jp/station/goi/", "wheelchair": "limited", "wikidata": "Q573427", "wikipedia": "ja:\u4e94\u4e95\u99c5"}}, {"type": "way", "id": 205715509, "nodes": [2987442641, 2156885293, 9635208942, 9635208943, 9635208944, 9635208954, 9635208955, 9635208945, 9635208946, 9635208948, 9635208947, 9635208949, 9635208951, 9635208950, 9635208952, 9635208953, 9635208928, 9635208929, 2156879263, 2156885278, 2156879264, 9635208973, 2156885281, 2156879271, 2156879268, 9635208958, 9635208959, 9635208960, 9635208961, 2156879294, 2156879293, 2156879299, 9635208934, 9635208935, 9635208936, 9635208978, 9635208977, 2156879303, 2987442641], "tags": {"building": "train_station", "layer": "2", "public_transport": "station", "railway": "station", "train": "yes"}}]}