{"version": 0.6, "generator": "Overpass API 0.7.62.4 2390de5a", "osm3s": {"timestamp_osm_base": "2024-12-30T15:15:41Z", "copyright": "The data included in this document is from www.openstreetmap.org. The data is made available under ODbL."}, "elements": [{"type": "node", "id": 263062682, "lat": 37.4635707, "lon": 139.8930093, "tags": {"KSJ2:LIN": "\u53ea\u898b\u7dda", "KSJ2:STN": "\u4f1a\u6d25\u672c\u90f7", "name": "\u4f1a\u6d25\u672c\u90f7", "name:en": "Aizu-Hongo", "name:ja": "\u4f1a\u6d25\u672c\u90f7", "name:ja_rm": "Aizu-Hong\u014d", "name:ko": "\uc544\uc774\uc988\ud63c\uace0", "note": "National-Land Numerical Information (Railway) 2007, MLIT Japan", "note:ja": "\u56fd\u571f\u6570\u5024\u60c5\u5831\uff08\u9244\u9053\u30c7\u30fc\u30bf\uff09\u5e73\u621019\u5e74\u3000\u56fd\u571f\u4ea4\u901a\u7701", "public_transport": "station", "railway": "station", "source": "KSJ2", "source_ref": "http://nlftp.mlit.go.jp/ksj/jpgis/datalist/KsjTmplt-N02-v1_1.html", "wikidata": "Q4699446", "wikipedia": "ja:\u4f1a\u6d25\u672c\u90f7\u99c5"}}, {"type": "node", "id": 263062685, "lat": 37.5355611, "lon": 139.8283535, "tags": {"KSJ2:LIN": "\u53ea\u898b\u7dda", "KSJ2:STN": "\u82e5\u5bae", "name": "\u82e5\u5bae", "name:en": "Wakamiya", "name:ja": "\u82e5\u5bae", "name:ja_rm": "Wakamiya", "name:ko": "\uc640\uce74\ubbf8\uc57c", "note": "National-Land Numerical Information (Railway) 2007, MLIT Japan", "note:ja": "\u56fd\u571f\u6570\u5024\u60c5\u5831\uff08\u9244\u9053\u30c7\u30fc\u30bf\uff09\u5e73\u621019\u5e74\u3000\u56fd\u571f\u4ea4\u901a\u7701", "public_transport": "station", "railway": "station", "source": "KSJ2", "source_ref": "http://nlftp.mlit.go.jp/ksj/jpgis/datalist/KsjTmplt-N02-v1_1.html", "wikidata": "Q7960796", "wikipedia": "ja:\u82e5\u5bae\u99c5"}}, {"type": "node", "id": 263062814, "lat": 37.4809743, "lon": 139.6619638, "tags": {"KSJ2:LIN": "\u53ea\u898b\u7dda", "KSJ2:STN": "\u4f1a\u6d25\u897f\u65b9", "name": "\u4f1a\u6d25\u897f\u65b9", "name:en": "Aizu-Nishikata", "name:ja": "\u4f1a\u6d25\u897f\u65b9", "name:ja_rm": "Aizu-Nishikata", "name:ko": "\uc544\uc774\uc988\ub2c8\uc2dc\uce74\ud0c0", "note": "National-Land Numerical Information (Railway) 2007, MLIT Japan", "note:ja": "\u56fd\u571f\u6570\u5024\u60c5\u5831\uff08\u9244\u9053\u30c7\u30fc\u30bf\uff09\u5e73\u621019\u5e74\u3000\u56fd\u571f\u4ea4\u901a\u7701", "public_transport": "station", "railway": "station", "source": "KSJ2", "source_ref": "http://nlftp.mlit.go.jp/ksj/jpgis/datalist/KsjTmplt-N02-v1_1.html", "wikidata": "Q4699453", "wikipedia": "ja:\u4f1a\u6d25\u897f\u65b9\u99c5"}}, {"type": "node", "id": 263062815, "lat": 37.491996, "lon": 139.679831, "tags": {"KSJ2:LIN": "\u53ea\u898b\u7dda", "KSJ2:STN": "\u4f1a\u6d25\u6867\u539f", "name": "\u4f1a\u6d25\u6867\u539f", "name:en": "Aizu-Hinohara", "name:ja": "\u4f1a\u6d25\u6867\u539f", "name:ja_rm": "Aizu-Hinohara", "name:ko": "\uc544\uc774\uc988\ud788\ub178\ud558\ub77c", "note": "National-Land Numerical Information (Railway) 2007, MLIT Japan", "note:ja": "\u56fd\u571f\u6570\u5024\u60c5\u5831\uff08\u9244\u9053\u30c7\u30fc\u30bf\uff09\u5e73\u621019\u5e74\u3000\u56fd\u571f\u4ea4\u901a\u7701", "public_transport": "station", "railway": "station", "source": "KSJ2", "source_ref": "http://nlftp.mlit.go.jp/ksj/jpgis/datalist/KsjTmplt-N02-v1_1.html", "wikidata": "Q4699444", "wikipedia": "ja:\u4f1a\u6d25\u6867\u539f\u99c5"}}, {"type": "node", "id": 263062831, "lat": 37.517126, "lon": 139.8285141, "tags": {"KSJ2:LIN": "\u53ea\u898b\u7dda", "KSJ2:STN": "\u65b0\u9db4", "name": "\u65b0\u9db4", "name:en": "Niitsuru", "name:ja": "\u65b0\u9db4", "name:ja_rm": "Niitsuru", "name:ko": "\ub2c8\uc4f0\ub8e8", "note": "National-Land Numerical Information (Railway) 2007, MLIT Japan", "note:ja": "\u56fd\u571f\u6570\u5024\u60c5\u5831\uff08\u9244\u9053\u30c7\u30fc\u30bf\uff09\u5e73\u621019\u5e74\u3000\u56fd\u571f\u4ea4\u901a\u7701", "public_transport": "station", "railway": "station", "source": "KSJ2", "source_ref": "http://nlftp.mlit.go.jp/ksj/jpgis/datalist/KsjTmplt-N02-v1_1.html", "wikidata": "Q7034494", "wikipedia": "ja:\u65b0\u9db4\u99c5"}}, {"type": "node", "id": 263062929, "lat": 37.470659, "lon": 139.841939, "tags": {"KSJ2:LIN": "\u53ea\u898b\u7dda", "KSJ2:STN": "\u4f1a\u6d25\u9ad8\u7530", "name": "\u4f1a\u6d25\u9ad8\u7530", "name:en": "Aizu-Takada", "name:ja": "\u4f1a\u6d25\u9ad8\u7530", "name:ja_rm": "Aizu-Takada", "name:ko": "\uc544\uc774\uc988\ud0c0\uce74\ub2e4", "note": "National-Land Numerical Information (Railway) 2007, MLIT Japan", "note:ja": "\u56fd\u571f\u6570\u5024\u60c5\u5831\uff08\u9244\u9053\u30c7\u30fc\u30bf\uff09\u5e73\u621019\u5e74\u3000\u56fd\u571f\u4ea4\u901a\u7701", "public_transport": "station", "railway": "station", "source": "KSJ2", "source_ref": "http://nlftp.mlit.go.jp/ksj/jpgis/datalist/KsjTmplt-N02-v1_1.html", "wikidata": "Q4699459", "wikipedia": "ja:\u4f1a\u6d25\u9ad8\u7530\u99c5"}}, {"type": "node", "id": 263062951, "lat": 37.4551669, "lon": 139.5239282, "tags": {"KSJ2:LIN": "\u53ea\u898b\u7dda", "KSJ2:STN": "\u4f1a\u6d25\u5ddd\u53e3", "name": "\u4f1a\u6d25\u5ddd\u53e3", "name:en": "Aizu-Kawaguchi", "name:ja": "\u4f1a\u6d25\u5ddd\u53e3", "name:ja_rm": "Aizu-Kawaguchi", "name:ko": "\uc544\uc774\uc988\uce74\uc640\uad6c\uce58", "note": "National-Land Numerical Information (Railway) 2007, MLIT Japan", "note:ja": "\u56fd\u571f\u6570\u5024\u60c5\u5831\uff08\u9244\u9053\u30c7\u30fc\u30bf\uff09\u5e73\u621019\u5e74\u3000\u56fd\u571f\u4ea4\u901a\u7701", "public_transport": "station", "railway": "station", "source": "KSJ2", "source_ref": "http://nlftp.mlit.go.jp/ksj/jpgis/datalist/KsjTmplt-N02-v1_1.html", "wikidata": "Q4699447", "wikipedia": "ja:\u4f1a\u6d25\u5ddd\u53e3\u99c5"}}, {"type": "node", "id": 263063079, "lat": 37.3985423, "lon": 139.4690323, "tags": {"KSJ2:LIN": "\u53ea\u898b\u7dda", "KSJ2:STN": "\u4f1a\u6d25\u8d8a\u5ddd", "name": "\u4f1a\u6d25\u8d8a\u5ddd", "name:en": "Aizu-Kosugawa", "name:ja": "\u4f1a\u6d25\u8d8a\u5ddd", "name:ja_rm": "Aizu-Kosugawa", "name:ko": "\uc544\uc774\uc988\ucf54\uc2a4\uac00\uc640", "note": "National-Land Numerical Information (Railway) 2007, MLIT Japan", "note:ja": "\u56fd\u571f\u6570\u5024\u60c5\u5831\uff08\u9244\u9053\u30c7\u30fc\u30bf\uff09\u5e73\u621019\u5e74\u3000\u56fd\u571f\u4ea4\u901a\u7701", "public_transport": "station", "railway": "station", "source": "KSJ2", "source_ref": "http://nlftp.mlit.go.jp/ksj/jpgis/datalist/KsjTmplt-N02-v1_1.html", "wikidata": "Q4699448", "wikipedia": "ja:\u4f1a\u6d25\u8d8a\u5ddd\u99c5"}}, {"type": "node", "id": 263063318, "lat": 37.392224, "lon": 139.4357281, "tags": {"KSJ2:LIN": "\u53ea\u898b\u7dda", "KSJ2:STN": "\u4f1a\u6d25\u6a2a\u7530", "name": "\u4f1a\u6d25\u6a2a\u7530", "name:en": "Aizu-Yokota", "name:ja": "\u4f1a\u6d25\u6a2a\u7530", "name:ja_rm": "Aizu-Yokota", "name:ko": "\uc544\uc774\uc988\uc694\ucf54\ud0c0", "note": "National-Land Numerical Information (Railway) 2007, MLIT Japan", "note:ja": "\u56fd\u571f\u6570\u5024\u60c5\u5831\uff08\u9244\u9053\u30c7\u30fc\u30bf\uff09\u5e73\u621019\u5e74\u3000\u56fd\u571f\u4ea4\u901a\u7701", "public_transport": "station", "railway": "station", "source": "KSJ2", "source_ref": "http://nlftp.mlit.go.jp/ksj/jpgis/datalist/KsjTmplt-N02-v1_1.html", "wikidata": "Q4699466", "wikipedia": "ja:\u4f1a\u6d25\u6a2a\u7530\u99c5"}}, {"type": "node", "id": 263063319, "lat": 37.5014696, "lon": 139.9191494, "tags": {"name": "\u4e03\u65e5\u753a", "name:en": "Nanukamachi", "name:ja": "\u4e03\u65e5\u753a", "name:ja_rm": "Nanukamachi", "name:ko": "\ub098\ub204\uce74\ub9c8\uce58", "public_transport": "station", "railway": "station", "wikidata": "Q6964422", "wikipedia": "ja:\u4e03\u65e5\u753a\u99c5"}}, {"type": "node", "id": 263063388, "lat": 37.5018238, "lon": 139.8286901, "tags": {"KSJ2:LIN": "\u53ea\u898b\u7dda", "KSJ2:STN": "\u6839\u5cb8", "name": "\u6839\u5cb8", "name:en": "Negishi", "name:ja": "\u6839\u5cb8", "name:ja_rm": "Negishi", "name:ko": "\ub124\uae30\uc2dc", "note": "National-Land Numerical Information (Railway) 2007, MLIT Japan", "note:ja": "\u56fd\u571f\u6570\u5024\u60c5\u5831\uff08\u9244\u9053\u30c7\u30fc\u30bf\uff09\u5e73\u621019\u5e74\u3000\u56fd\u571f\u4ea4\u901a\u7701", "public_transport": "station", "railway": "station", "source": "KSJ2", "source_ref": "http://nlftp.mlit.go.jp/ksj/jpgis/datalist/KsjTmplt-N02-v1_1.html", "wikidata": "Q6987363", "wikipedia": "ja:\u6839\u5cb8\u99c5 (\u798f\u5cf6\u770c)"}}, {"type": "node", "id": 263063544, "lat": 37.5164289, "lon": 139.7099208, "tags": {"KSJ2:LIN": "\u53ea\u898b\u7dda", "KSJ2:STN": "\u90f7\u6238", "name": "\u90f7\u6238", "name:en": "Godo", "name:ja": "\u90f7\u6238", "name:ja_rm": "G\u014ddo", "name:ko": "\uace0\ub3c4", "note": "National-Land Numerical Information (Railway) 2007, MLIT Japan", "note:ja": "\u56fd\u571f\u6570\u5024\u60c5\u5831\uff08\u9244\u9053\u30c7\u30fc\u30bf\uff09\u5e73\u621019\u5e74\u3000\u56fd\u571f\u4ea4\u901a\u7701", "public_transport": "station", "railway": "station", "source": "KSJ2", "source_ref": "http://nlftp.mlit.go.jp/ksj/jpgis/datalist/KsjTmplt-N02-v1_1.html", "wikidata": "Q5627751", "wikipedia": "ja:\u90f7\u6238\u99c5"}}, {"type": "node", "id": 263063594, "lat": 37.4702287, "lon": 139.5935867, "tags": {"KSJ2:LIN": "\u53ea\u898b\u7dda", "KSJ2:STN": "\u65e9\u6238", "name": "\u65e9\u6238", "name:en": "Hayato", "name:ja": "\u65e9\u6238", "name:ja_rm": "Hayato", "name:ko": "\ud558\uc57c\ud1a0", "note": "National-Land Numerical Information (Railway) 2007, MLIT Japan", "note:ja": "\u56fd\u571f\u6570\u5024\u60c5\u5831\uff08\u9244\u9053\u30c7\u30fc\u30bf\uff09\u5e73\u621019\u5e74\u3000\u56fd\u571f\u4ea4\u901a\u7701", "public_transport": "station", "railway": "station", "source": "KSJ2", "source_ref": "http://nlftp.mlit.go.jp/ksj/jpgis/datalist/KsjTmplt-N02-v1_1.html", "wikidata": "Q5686168", "wikipedia": "ja:\u65e9\u6238\u99c5"}}, {"type": "node", "id": 263063605, "lat": 37.5569104, "lon": 139.8210081, "tags": {"KSJ2:LIN": "\u53ea\u898b\u7dda", "KSJ2:STN": "\u4f1a\u6d25\u5742\u4e0b", "name": "\u4f1a\u6d25\u5742\u4e0b", "name:en": "Aizu-Bange", "name:ja": "\u4f1a\u6d25\u5742\u4e0b", "name:ja_rm": "Aizu-Bange", "name:ko": "\uc544\uc774\uc988\ubc18\uac8c", "note": "National-Land Numerical Information (Railway) 2007, MLIT Japan", "note:ja": "\u56fd\u571f\u6570\u5024\u60c5\u5831\uff08\u9244\u9053\u30c7\u30fc\u30bf\uff09\u5e73\u621019\u5e74\u3000\u56fd\u571f\u4ea4\u901a\u7701", "public_transport": "station", "railway": "station", "source": "KSJ2", "source_ref": "http://nlftp.mlit.go.jp/ksj/jpgis/datalist/KsjTmplt-N02-v1_1.html", "wikidata": "Q4699441", "wikipedia": "ja:\u4f1a\u6d25\u5742\u4e0b\u99c5"}}, {"type": "node", "id": 263063734, "lat": 37.5697253, "lon": 139.7854902, "tags": {"KSJ2:LIN": "\u53ea\u898b\u7dda", "KSJ2:STN": "\u5854\u5bfa", "name": "\u5854\u5bfa", "name:en": "Todera", "name:ja": "\u5854\u5bfa", "name:ja_kana": "\u3068\u3046\u3067\u3089", "name:ja_rm": "T\u014ddera", "name:ko": "\ub3c4\ub370\ub77c", "note": "National-Land Numerical Information (Railway) 2007, MLIT Japan", "note:ja": "\u56fd\u571f\u6570\u5024\u60c5\u5831\uff08\u9244\u9053\u30c7\u30fc\u30bf\uff09\u5e73\u621019\u5e74\u3000\u56fd\u571f\u4ea4\u901a\u7701", "public_transport": "station", "railway": "station", "source": "KSJ2", "source_ref": "http://nlftp.mlit.go.jp/ksj/jpgis/datalist/KsjTmplt-N02-v1_1.html", "wikidata": "Q7862646", "wikipedia": "ja:\u5854\u5bfa\u99c5"}}, {"type": "node", "id": 263063765, "lat": 37.4831489, "lon": 139.5605062, "tags": {"KSJ2:LIN": "\u53ea\u898b\u7dda", "KSJ2:STN": "\u4f1a\u6d25\u6c34\u6cbc", "name": "\u4f1a\u6d25\u6c34\u6cbc", "name:en": "Aizu-Mizunuma", "name:ja": "\u4f1a\u6d25\u6c34\u6cbc", "name:ja_rm": "Aizu-Mizunuma", "name:ko": "\uc544\uc774\uc988\ubbf8\uc988\ub204\ub9c8", "note": "National-Land Numerical Information (Railway) 2007, MLIT Japan", "note:ja": "\u56fd\u571f\u6570\u5024\u60c5\u5831\uff08\u9244\u9053\u30c7\u30fc\u30bf\uff09\u5e73\u621019\u5e74\u3000\u56fd\u571f\u4ea4\u901a\u7701", "public_transport": "station", "railway": "station", "source": "KSJ2", "source_ref": "http://nlftp.mlit.go.jp/ksj/jpgis/datalist/KsjTmplt-N02-v1_1.html", "wikidata": "Q4699450", "wikipedia": "ja:\u4f1a\u6d25\u6c34\u6cbc\u99c5"}}, {"type": "node", "id": 263063841, "lat": 37.4449849, "lon": 139.4990402, "tags": {"KSJ2:LIN": "\u53ea\u898b\u7dda", "KSJ2:STN": "\u672c\u540d", "name": "\u672c\u540d", "name:en": "Honna", "name:ja": "\u672c\u540d", "name:ja_rm": "Honna", "name:ko": "\ud63c\ub098", "note": "National-Land Numerical Information (Railway) 2007, MLIT Japan", "note:ja": "\u56fd\u571f\u6570\u5024\u60c5\u5831\uff08\u9244\u9053\u30c7\u30fc\u30bf\uff09\u5e73\u621019\u5e74\u3000\u56fd\u571f\u4ea4\u901a\u7701", "public_transport": "station", "railway": "station", "source": "KSJ2", "source_ref": "http://nlftp.mlit.go.jp/ksj/jpgis/datalist/KsjTmplt-N02-v1_1.html", "wikidata": "Q5896571", "wikipedia": "ja:\u672c\u540d\u99c5"}}, {"type": "node", "id": 263063882, "lat": 37.4734442, "lon": 139.5319984, "tags": {"KSJ2:LIN": "\u53ea\u898b\u7dda", "KSJ2:STN": "\u4f1a\u6d25\u4e2d\u5ddd", "name": "\u4f1a\u6d25\u4e2d\u5ddd", "name:en": "Aizu-Nakagawa", "name:ja": "\u4f1a\u6d25\u4e2d\u5ddd", "name:ja_rm": "Aizu-Nakagawa", "name:ko": "\uc544\uc774\uc988\ub098\uce74\uac00\uc640", "note": "National-Land Numerical Information (Railway) 2007, MLIT Japan", "note:ja": "\u56fd\u571f\u6570\u5024\u60c5\u5831\uff08\u9244\u9053\u30c7\u30fc\u30bf\uff09\u5e73\u621019\u5e74\u3000\u56fd\u571f\u4ea4\u901a\u7701", "public_transport": "station", "railway": "station", "source": "KSJ2", "source_ref": "http://nlftp.mlit.go.jp/ksj/jpgis/datalist/KsjTmplt-N02-v1_1.html", "wikidata": "Q4699452", "wikipedia": "ja:\u4f1a\u6d25\u4e2d\u5ddd\u99c5"}}, {"type": "node", "id": 263063972, "lat": 37.4712145, "lon": 139.6475532, "tags": {"KSJ2:LIN": "\u53ea\u898b\u7dda", "KSJ2:STN": "\u4f1a\u6d25\u5bae\u4e0b", "name": "\u4f1a\u6d25\u5bae\u4e0b", "name:en": "Aizu-Miyashita", "name:ja": "\u4f1a\u6d25\u5bae\u4e0b", "name:ja_rm": "Aizu-Miyashita", "name:ko": "\uc544\uc774\uc988\ubbf8\uc57c\uc2dc\ud0c0", "note": "National-Land Numerical Information (Railway) 2007, MLIT Japan", "note:ja": "\u56fd\u571f\u6570\u5024\u60c5\u5831\uff08\u9244\u9053\u30c7\u30fc\u30bf\uff09\u5e73\u621019\u5e74\u3000\u56fd\u571f\u4ea4\u901a\u7701", "public_transport": "station", "railway": "station", "source": "KSJ2", "source_ref": "http://nlftp.mlit.go.jp/ksj/jpgis/datalist/KsjTmplt-N02-v1_1.html", "wikidata": "Q4699449", "wikipedia": "ja:\u4f1a\u6d25\u5bae\u4e0b\u99c5"}}, {"type": "node", "id": 263064129, "lat": 37.4948894, "lon": 139.698615, "tags": {"KSJ2:LIN": "\u53ea\u898b\u7dda", "KSJ2:STN": "\u6edd\u8c37", "name": "\u6edd\u8c37", "name:en": "Takiya", "name:ja": "\u6edd\u8c37", "name:ja_rm": "Takiya", "name:ko": "\ub2e4\ud0a4\uc57c", "note": "National-Land Numerical Information (Railway) 2007, MLIT Japan", "note:ja": "\u56fd\u571f\u6570\u5024\u60c5\u5831\uff08\u9244\u9053\u30c7\u30fc\u30bf\uff09\u5e73\u621019\u5e74\u3000\u56fd\u571f\u4ea4\u901a\u7701", "public_transport": "station", "railway": "station", "source": "KSJ2", "source_ref": "http://nlftp.mlit.go.jp/ksj/jpgis/datalist/KsjTmplt-N02-v1_1.html", "wikidata": "Q7678413", "wikipedia": "ja:\u6edd\u8c37\u99c5 (\u798f\u5cf6\u770c)"}}, {"type": "node", "id": 263064336, "lat": 37.5390794, "lon": 139.7238157, "tags": {"KSJ2:LIN": "\u53ea\u898b\u7dda", "KSJ2:STN": "\u4f1a\u6d25\u67f3\u6d25", "name": "\u4f1a\u6d25\u67f3\u6d25", "name:en": "Aizu-Yanaizu", "name:ja": "\u4f1a\u6d25\u67f3\u6d25", "name:ja_rm": "Aizu-Yanaizu", "name:ko": "\uc544\uc774\uc988\uc57c\ub098\uc774\uc988", "note": "National-Land Numerical Information (Railway) 2007, MLIT Japan", "note:ja": "\u56fd\u571f\u6570\u5024\u60c5\u5831\uff08\u9244\u9053\u30c7\u30fc\u30bf\uff09\u5e73\u621019\u5e74\u3000\u56fd\u571f\u4ea4\u901a\u7701", "public_transport": "station", "railway": "station", "source": "KSJ2", "source_ref": "http://nlftp.mlit.go.jp/ksj/jpgis/datalist/KsjTmplt-N02-v1_1.html", "wikidata": "Q4699465", "wikipedia": "ja:\u4f1a\u6d25\u67f3\u6d25\u99c5"}}, {"type": "node", "id": 263064820, "lat": 37.5533464, "lon": 139.75652, "tags": {"KSJ2:LIN": "\u53ea\u898b\u7dda", "KSJ2:STN": "\u4f1a\u6d25\u5742\u672c", "name": "\u4f1a\u6d25\u5742\u672c", "name:en": "Aizu-Sakamoto", "name:ja": "\u4f1a\u6d25\u5742\u672c", "name:ja_rm": "Aizu-Sakamoto", "name:ko": "\uc544\uc774\uc988\uc0ac\uce74\ubaa8\ud1a0", "note": "National-Land Numerical Information (Railway) 2007, MLIT Japan", "note:ja": "\u56fd\u571f\u6570\u5024\u60c5\u5831\uff08\u9244\u9053\u30c7\u30fc\u30bf\uff09\u5e73\u621019\u5e74\u3000\u56fd\u571f\u4ea4\u901a\u7701", "public_transport": "station", "railway": "station", "source": "KSJ2", "source_ref": "http://nlftp.mlit.go.jp/ksj/jpgis/datalist/KsjTmplt-N02-v1_1.html", "wikidata": "Q4699455", "wikipedia": "ja:\u4f1a\u6d25\u5742\u672c\u99c5"}}, {"type": "node", "id": 263069586, "lat": 37.6806479, "lon": 139.5763931, "tags": {"KSJ2:LIN": "\u78d0\u8d8a\u897f\u7dda", "KSJ2:STN": "\u8c4a\u5b9f", "name": "\u8c4a\u5b9f", "name:en": "Toyomi", "name:ja": "\u8c4a\u5b9f", "name:ja_rm": "Toyomi", "name:ko": "\ub3c4\uc694\ubbf8", "note": "National-Land Numerical Information (Railway) 2007, MLIT Japan", "note:ja": "\u56fd\u571f\u6570\u5024\u60c5\u5831\uff08\u9244\u9053\u30c7\u30fc\u30bf\uff09\u5e73\u621019\u5e74\u3000\u56fd\u571f\u4ea4\u901a\u7701", "railway": "station", "source": "KSJ2", "source_ref": "http://nlftp.mlit.go.jp/ksj/jpgis/datalist/KsjTmplt-N02-v1_1.html", "wikidata": "Q7830688", "wikipedia": "ja:\u8c4a\u5b9f\u99c5"}}, {"type": "node", "id": 263070857, "lat": 37.5665056, "lon": 139.9482932, "tags": {"KSJ2:LIN": "\u78d0\u8d8a\u897f\u7dda", "KSJ2:STN": "\u6771\u9577\u539f", "name": "\u6771\u9577\u539f", "name:en": "Higashi-Nagahara", "name:ja": "\u6771\u9577\u539f", "name:ja_rm": "Higashi-Nagahara", "name:ko": "\ud788\uac00\uc2dc\ub098\uac00\ud558\ub77c", "note": "National-Land Numerical Information (Railway) 2007, MLIT Japan", "note:ja": "\u56fd\u571f\u6570\u5024\u60c5\u5831\uff08\u9244\u9053\u30c7\u30fc\u30bf\uff09\u5e73\u621019\u5e74\u3000\u56fd\u571f\u4ea4\u901a\u7701", "railway": "station", "source": "KSJ2", "source_ref": "http://nlftp.mlit.go.jp/ksj/jpgis/datalist/KsjTmplt-N02-v1_1.html", "wikidata": "Q5753738", "wikipedia": "ja:\u6771\u9577\u539f\u99c5"}}, {"type": "node", "id": 263071312, "lat": 37.6173933, "lon": 139.7228911, "tags": {"KSJ2:LIN": "\u78d0\u8d8a\u897f\u7dda", "KSJ2:STN": "\u837b\u91ce", "name": "\u837b\u91ce", "name:en": "Ogino", "name:ja": "\u837b\u91ce", "name:ja_rm": "Ogino", "name:ko": "\uc624\uae30\ub178", "note": "National-Land Numerical Information (Railway) 2007, MLIT Japan", "note:ja": "\u56fd\u571f\u6570\u5024\u60c5\u5831\uff08\u9244\u9053\u30c7\u30fc\u30bf\uff09\u5e73\u621019\u5e74\u3000\u56fd\u571f\u4ea4\u901a\u7701", "public_transport": "station", "railway": "station", "source": "KSJ2", "source_ref": "http://nlftp.mlit.go.jp/ksj/jpgis/datalist/KsjTmplt-N02-v1_1.html", "wikidata": "Q7080068", "wikipedia": "ja:\u837b\u91ce\u99c5"}}, {"type": "node", "id": 263071441, "lat": 37.6333782, "lon": 139.8768542, "tags": {"KSJ2:LIN": "\u78d0\u8d8a\u897f\u7dda", "KSJ2:STN": "\u4f1a\u6d25\u8c4a\u5ddd", "name": "\u4f1a\u6d25\u8c4a\u5ddd", "name:en": "Aizu-Toyokawa", "name:ja": "\u4f1a\u6d25\u8c4a\u5ddd", "name:ja_rm": "Aizu-Toyokawa", "name:ko": "\uc544\uc774\uc988\ud1a0\uc694\uce74\uc640", "note": "National-Land Numerical Information (Railway) 2007, MLIT Japan", "note:ja": "\u56fd\u571f\u6570\u5024\u60c5\u5831\uff08\u9244\u9053\u30c7\u30fc\u30bf\uff09\u5e73\u621019\u5e74\u3000\u56fd\u571f\u4ea4\u901a\u7701", "railway": "station", "source": "KSJ2", "source_ref": "http://nlftp.mlit.go.jp/ksj/jpgis/datalist/KsjTmplt-N02-v1_1.html", "wikidata": "Q4699460", "wikipedia": "ja:\u4f1a\u6d25\u8c4a\u5ddd\u99c5"}}, {"type": "node", "id": 263071444, "lat": 37.6439547, "lon": 139.8678239, "tags": {"KSJ2:LIN": "\u78d0\u8d8a\u897f\u7dda", "KSJ2:STN": "\u559c\u591a\u65b9", "name": "\u559c\u591a\u65b9", "name:en": "Kitakata", "name:ja": "\u559c\u591a\u65b9", "name:ja_rm": "Kitakata", "name:ko": "\uae30\ud0c0\uce74\ud0c0", "note": "National-Land Numerical Information (Railway) 2007, MLIT Japan", "note:ja": "\u56fd\u571f\u6570\u5024\u60c5\u5831\uff08\u9244\u9053\u30c7\u30fc\u30bf\uff09\u5e73\u621019\u5e74\u3000\u56fd\u571f\u4ea4\u901a\u7701", "public_transport": "station", "railway": "station", "source": "KSJ2", "source_ref": "http://nlftp.mlit.go.jp/ksj/jpgis/datalist/KsjTmplt-N02-v1_1.html", "wikidata": "Q6417758", "wikipedia": "ja:\u559c\u591a\u65b9\u99c5"}}, {"type": "node", "id": 263071561, "lat": 37.6392341, "lon": 139.7665818, "tags": {"KSJ2:LIN": "\u78d0\u8d8a\u897f\u7dda", "KSJ2:STN": "\u5c71\u90fd", "name": "\u5c71\u90fd", "name:en": "Yamato", "name:ja": "\u5c71\u90fd", "name:ja-Hira": "\u3084\u307e\u3068", "name:ja_rm": "Yamato", "name:ko": "\uc57c\ub9c8\ud1a0", "note": "National-Land Numerical Information (Railway) 2007, MLIT Japan", "note:ja": "\u56fd\u571f\u6570\u5024\u60c5\u5831\uff08\u9244\u9053\u30c7\u30fc\u30bf\uff09\u5e73\u621019\u5e74\u3000\u56fd\u571f\u4ea4\u901a\u7701", "public_transport": "station", "railway": "station", "source": "KSJ2", "source_ref": "http://nlftp.mlit.go.jp/ksj/jpgis/datalist/KsjTmplt-N02-v1_1.html", "wikidata": "Q13579106", "wikipedia": "ja:\u5c71\u90fd\u99c5"}}, {"type": "node", "id": 263072140, "lat": 37.5545985, "lon": 139.9119261, "tags": {"KSJ2:LIN": "\u78d0\u8d8a\u897f\u7dda", "KSJ2:STN": "\u5802\u5cf6", "name": "\u5802\u5cf6", "name:en": "Dojima", "name:ja": "\u5802\u5cf6", "name:ja_rm": "D\u014djima", "name:ko": "\ub3c4\uc9c0\ub9c8", "note": "National-Land Numerical Information (Railway) 2007, MLIT Japan", "note:ja": "\u56fd\u571f\u6570\u5024\u60c5\u5831\uff08\u9244\u9053\u30c7\u30fc\u30bf\uff09\u5e73\u621019\u5e74\u3000\u56fd\u571f\u4ea4\u901a\u7701", "railway": "station", "source": "KSJ2", "source_ref": "http://nlftp.mlit.go.jp/ksj/jpgis/datalist/KsjTmplt-N02-v1_1.html", "wikidata": "Q5321255", "wikipedia": "ja:\u5802\u5cf6\u99c5"}}, {"type": "node", "id": 263072424, "lat": 37.6160875, "lon": 139.8810081, "tags": {"KSJ2:LIN": "\u78d0\u8d8a\u897f\u7dda", "KSJ2:STN": "\u59e5\u5802", "name": "\u59e5\u5802", "name:en": "Ubado", "name:ja": "\u59e5\u5802", "name:ja_rm": "Ubad\u014d", "name:ko": "\uc6b0\ubc14\ub3c4", "note": "National-Land Numerical Information (Railway) 2007, MLIT Japan", "note:ja": "\u56fd\u571f\u6570\u5024\u60c5\u5831\uff08\u9244\u9053\u30c7\u30fc\u30bf\uff09\u5e73\u621019\u5e74\u3000\u56fd\u571f\u4ea4\u901a\u7701", "railway": "station", "source": "KSJ2", "source_ref": "http://nlftp.mlit.go.jp/ksj/jpgis/datalist/KsjTmplt-N02-v1_1.html", "wikidata": "Q7876380", "wikipedia": "ja:\u59e5\u5802\u99c5"}}, {"type": "node", "id": 263072427, "lat": 37.5493904, "lon": 139.933468, "tags": {"KSJ2:LIN": "\u78d0\u8d8a\u897f\u7dda", "KSJ2:STN": "\u5e83\u7530", "name": "\u5e83\u7530", "name:en": "Hirota", "name:ja": "\u5e83\u7530", "name:ja_rm": "Hirota", "name:ko": "\ud788\ub85c\ud0c0", "note": "National-Land Numerical Information (Railway) 2007, MLIT Japan", "note:ja": "\u56fd\u571f\u6570\u5024\u60c5\u5831\uff08\u9244\u9053\u30c7\u30fc\u30bf\uff09\u5e73\u621019\u5e74\u3000\u56fd\u571f\u4ea4\u901a\u7701", "railway": "station", "source": "KSJ2", "source_ref": "http://nlftp.mlit.go.jp/ksj/jpgis/datalist/KsjTmplt-N02-v1_1.html", "wikidata": "Q5771333", "wikipedia": "ja:\u5e83\u7530\u99c5"}}, {"type": "node", "id": 263072479, "lat": 37.5940511, "lon": 139.8872138, "tags": {"KSJ2:LIN": "\u78d0\u8d8a\u897f\u7dda", "KSJ2:STN": "\u5869\u5ddd", "name": "\u5869\u5ddd", "name:en": "Shiokawa", "name:ja": "\u5869\u5ddd", "name:ja_rm": "Shiokawa", "name:ko": "\uc2dc\uc624\uce74\uc640", "note": "National-Land Numerical Information (Railway) 2007, MLIT Japan", "note:ja": "\u56fd\u571f\u6570\u5024\u60c5\u5831\uff08\u9244\u9053\u30c7\u30fc\u30bf\uff09\u5e73\u621019\u5e74\u3000\u56fd\u571f\u4ea4\u901a\u7701", "railway": "station", "source": "KSJ2", "source_ref": "http://nlftp.mlit.go.jp/ksj/jpgis/datalist/KsjTmplt-N02-v1_1.html", "wikidata": "Q7497875", "wikipedia": "ja:\u5869\u5ddd\u99c5"}}, {"type": "node", "id": 263073117, "lat": 37.6248328, "lon": 139.63409, "tags": {"KSJ2:LIN": "\u78d0\u8d8a\u897f\u7dda", "KSJ2:STN": "\u4e0a\u91ce\u5c3b", "name": "\u4e0a\u91ce\u5c3b", "name:en": "Kami-Nojiri", "name:ja": "\u4e0a\u91ce\u5c3b", "name:ja_rm": "Kami-Nojiri", "name:ko": "\uac00\ubbf8\ub178\uc9c0\ub9ac", "note": "National-Land Numerical Information (Railway) 2007, MLIT Japan", "note:ja": "\u56fd\u571f\u6570\u5024\u60c5\u5831\uff08\u9244\u9053\u30c7\u30fc\u30bf\uff09\u5e73\u621019\u5e74\u3000\u56fd\u571f\u4ea4\u901a\u7701", "public_transport": "station", "railway": "station", "source": "KSJ2", "source_ref": "http://nlftp.mlit.go.jp/ksj/jpgis/datalist/KsjTmplt-N02-v1_1.html", "wikidata": "Q6357180", "wikipedia": "ja:\u4e0a\u91ce\u5c3b\u99c5"}}, {"type": "node", "id": 263074656, "lat": 37.6670088, "lon": 139.6030075, "tags": {"KSJ2:LIN": "\u78d0\u8d8a\u897f\u7dda", "KSJ2:STN": "\u5fb3\u6ca2", "name": "\u5fb3\u6ca2", "name:en": "Tokusawa", "name:ja": "\u5fb3\u6ca2", "name:ja_rm": "Tokusawa", "name:ko": "\ub3c4\ucfe0\uc0ac\uc640", "note": "National-Land Numerical Information (Railway) 2007, MLIT Japan", "note:ja": "\u56fd\u571f\u6570\u5024\u60c5\u5831\uff08\u9244\u9053\u30c7\u30fc\u30bf\uff09\u5e73\u621019\u5e74\u3000\u56fd\u571f\u4ea4\u901a\u7701", "public_transport": "station", "railway": "station", "source": "KSJ2", "source_ref": "http://nlftp.mlit.go.jp/ksj/jpgis/datalist/KsjTmplt-N02-v1_1.html", "wikidata": "Q7813757", "wikipedia": "ja:\u5fb3\u6ca2\u99c5"}}, {"type": "node", "id": 263081540, "lat": 37.5788054, "lon": 139.8957431, "tags": {"KSJ2:LIN": "\u78d0\u8d8a\u897f\u7dda", "KSJ2:STN": "\u7b08\u5ddd", "name": "\u7b08\u5ddd", "name:en": "Oikawa", "name:ja": "\u7b08\u5ddd", "name:ja_rm": "Oikawa", "name:ko": "\uc624\uc774\uce74\uc640", "note": "National-Land Numerical Information (Railway) 2007, MLIT Japan", "note:ja": "\u56fd\u571f\u6570\u5024\u60c5\u5831\uff08\u9244\u9053\u30c7\u30fc\u30bf\uff09\u5e73\u621019\u5e74\u3000\u56fd\u571f\u4ea4\u901a\u7701", "public_transport": "station", "railway": "station", "source": "KSJ2", "source_ref": "http://nlftp.mlit.go.jp/ksj/jpgis/datalist/KsjTmplt-N02-v1_1.html", "wikidata": "Q7081260", "wikipedia": "ja:\u7b08\u5ddd\u99c5"}}, {"type": "node", "id": 263081994, "lat": 37.6088517, "lon": 139.6913211, "tags": {"KSJ2:LIN": "\u78d0\u8d8a\u897f\u7dda", "KSJ2:STN": "\u5c3e\u767b", "name": "\u5c3e\u767b", "name:en": "Onobori", "name:ja": "\u5c3e\u767b", "name:ja_rm": "Onobori", "name:ko": "\uc624\ub178\ubcf4\ub9ac", "note": "National-Land Numerical Information (Railway) 2007, MLIT Japan", "note:ja": "\u56fd\u571f\u6570\u5024\u60c5\u5831\uff08\u9244\u9053\u30c7\u30fc\u30bf\uff09\u5e73\u621019\u5e74\u3000\u56fd\u571f\u4ea4\u901a\u7701", "railway": "station", "source": "KSJ2", "source_ref": "http://nlftp.mlit.go.jp/ksj/jpgis/datalist/KsjTmplt-N02-v1_1.html", "wikidata": "Q7094439", "wikipedia": "ja:\u5c3e\u767b\u99c5"}}, {"type": "node", "id": 263081995, "lat": 37.5085622, "lon": 139.9301344, "tags": {"KSJ2:LIN": "\u53ea\u898b\u7dda;\u78d0\u8d8a\u897f\u7dda", "KSJ2:STN": "\u4f1a\u6d25\u82e5\u677e", "name": "\u4f1a\u6d25\u82e5\u677e", "name:en": "Aizu-Wakamatsu", "name:ja": "\u4f1a\u6d25\u82e5\u677e", "name:ja_kana": "\u3042\u3044\u3065\u308f\u304b\u307e\u3064", "name:ja_rm": "Aizu-Wakamatsu", "name:ko": "\uc544\uc774\uc988\uc640\uce74\ub9c8\uc4f0", "note": "National-Land Numerical Information (Railway) 2007, MLIT Japan", "note:ja": "\u56fd\u571f\u6570\u5024\u60c5\u5831\uff08\u9244\u9053\u30c7\u30fc\u30bf\uff09\u5e73\u621019\u5e74\u3000\u56fd\u571f\u4ea4\u901a\u7701", "public_transport": "station", "railway": "station", "source": "KSJ2", "source_ref": "http://nlftp.mlit.go.jp/ksj/jpgis/datalist/KsjTmplt-N02-v1_1.html", "wheelchair": "yes", "wikidata": "Q4699462", "wikipedia": "ja:\u4f1a\u6d25\u82e5\u677e\u99c5"}}, {"type": "node", "id": 263083953, "lat": 37.5910368, "lon": 139.6442042, "tags": {"KSJ2:LIN": "\u78d0\u8d8a\u897f\u7dda", "KSJ2:STN": "\u91ce\u6ca2", "name": "\u91ce\u6ca2", "name:en": "Nozawa", "name:ja": "\u91ce\u6ca2", "name:ja_rm": "Nozawa", "name:ko": "\ub178\uc790\uc640", "note": "National-Land Numerical Information (Railway) 2007, MLIT Japan", "note:ja": "\u56fd\u571f\u6570\u5024\u60c5\u5831\uff08\u9244\u9053\u30c7\u30fc\u30bf\uff09\u5e73\u621019\u5e74\u3000\u56fd\u571f\u4ea4\u901a\u7701", "railway": "station", "source": "KSJ2", "source_ref": "http://nlftp.mlit.go.jp/ksj/jpgis/datalist/KsjTmplt-N02-v1_1.html", "wikidata": "Q11645780", "wikipedia": "ja:\u91ce\u6ca2\u99c5"}}, {"type": "node", "id": 263250750, "lat": 37.347152, "lon": 139.920871, "tags": {"KSJ2:LIN": "\u4f1a\u6d25\u7dda", "KSJ2:STN": "\u5927\u5ddd\u30c0\u30e0\u516c\u5712", "alt_name:ko": "\uc624\uce74\uc640\ub2e4\ubb34\ucf54\uc5d4", "mapillary": "771303100423568", "name": "\u5927\u5ddd\u30c0\u30e0\u516c\u5712", "name:en": "Okawadamukoen", "name:ja": "\u5927\u5ddd\u30c0\u30e0\u516c\u5712", "name:ja_rm": "\u014ckawadamuk\u014den", "name:ko": "\uc624\uce74\uc640\ub310\uacf5\uc6d0", "note": "National-Land Numerical Information (Railway) 2007, MLIT Japan", "note:ja": "\u56fd\u571f\u6570\u5024\u60c5\u5831\uff08\u9244\u9053\u30c7\u30fc\u30bf\uff09\u5e73\u621019\u5e74\u3000\u56fd\u571f\u4ea4\u901a\u7701", "public_transport": "station", "railway": "station", "source": "KSJ2", "source_ref": "http://nlftp.mlit.go.jp/ksj/jpgis/datalist/KsjTmplt-N02-v1_1.html", "website": "http://www.aizutetsudo.jp/station/ookawadamkouen/", "wikidata": "Q8081549", "wikipedia": "ja:\u5927\u5ddd\u30c0\u30e0\u516c\u5712\u99c5"}}, {"type": "node", "id": 263250954, "lat": 37.3346097, "lon": 139.9187333, "tags": {"KSJ2:LIN": "\u4f1a\u6d25\u7dda", "KSJ2:STN": "\u82a6\u30ce\u7267\u6e29\u6cc9\u5357", "alt_name:ko": "\uc544\uc2dc\ub178\ub9c8\ud0a4\uc628\uc13c\ubbf8\ub098\ubbf8", "mapillary": "483694472845158", "name": "\u82a6\u30ce\u7267\u6e29\u6cc9\u5357", "name:en": "Ashinomaki-Onsen-Minami", "name:ja": "\u82a6\u30ce\u7267\u6e29\u6cc9\u5357", "name:ja_rm": "Ashinomaki-Onsen-Minami", "name:ko": "\uc544\uc2dc\ub178\ub9c8\ud0a4\uc628\ucc9c \ubbf8\ub098\ubbf8", "note": "National-Land Numerical Information (Railway) 2007, MLIT Japan", "note:ja": "\u56fd\u571f\u6570\u5024\u60c5\u5831\uff08\u9244\u9053\u30c7\u30fc\u30bf\uff09\u5e73\u621019\u5e74\u3000\u56fd\u571f\u4ea4\u901a\u7701", "public_transport": "station", "railway": "station", "source": "KSJ2", "source_ref": "http://nlftp.mlit.go.jp/ksj/jpgis/datalist/KsjTmplt-N02-v1_1.html", "website": "http://www.aizutetsudo.jp/station/ashinomakionsenminami/", "wikidata": "Q4805113", "wikipedia": "ja:\u82a6\u30ce\u7267\u6e29\u6cc9\u5357\u99c5"}}, {"type": "node", "id": 263251250, "lat": 37.417247, "lon": 139.917589, "tags": {"KSJ2:LIN": "\u4f1a\u6d25\u7dda", "KSJ2:STN": "\u3042\u307e\u3084", "mapillary": "925894424811274", "name": "\u3042\u307e\u3084", "name:en": "Amaya", "name:ja": "\u3042\u307e\u3084", "name:ja_rm": "Amaya", "name:ko": "\uc544\ub9c8\uc57c", "note": "National-Land Numerical Information (Railway) 2007, MLIT Japan", "note:ja": "\u56fd\u571f\u6570\u5024\u60c5\u5831\uff08\u9244\u9053\u30c7\u30fc\u30bf\uff09\u5e73\u621019\u5e74\u3000\u56fd\u571f\u4ea4\u901a\u7701", "public_transport": "station", "railway": "station", "source": "KSJ2", "source_ref": "http://nlftp.mlit.go.jp/ksj/jpgis/datalist/KsjTmplt-N02-v1_1.html", "website": "http://www.aizutetsudo.jp/station/amaya/", "wikidata": "Q4740753", "wikipedia": "ja:\u3042\u307e\u3084\u99c5"}}, {"type": "node", "id": 263251253, "lat": 37.2748186, "lon": 139.9016816, "tags": {"KSJ2:LIN": "\u4f1a\u6d25\u7dda", "KSJ2:STN": "\u5854\u306e\u3078\u3064\u308a", "mapillary": "187337749784865", "name": "\u5854\u306e\u3078\u3064\u308a", "name:en": "Tonohetsuri", "name:ja": "\u5854\u306e\u3078\u3064\u308a", "name:ja_rm": "T\u014d-no-Hetsuri", "name:ko": "\ub3c4\ub178\ud5e4\uc4f0\ub9ac", "note": "National-Land Numerical Information (Railway) 2007, MLIT Japan", "note:ja": "\u56fd\u571f\u6570\u5024\u60c5\u5831\uff08\u9244\u9053\u30c7\u30fc\u30bf\uff09\u5e73\u621019\u5e74\u3000\u56fd\u571f\u4ea4\u901a\u7701", "public_transport": "station", "railway": "station", "source": "KSJ2", "source_ref": "http://nlftp.mlit.go.jp/ksj/jpgis/datalist/KsjTmplt-N02-v1_1.html", "train": "yes", "website": "http://www.aizutetsudo.jp/station/tounohetsuri/", "wikidata": "Q7862627", "wikipedia": "ja:\u5854\u306e\u3078\u3064\u308a\u99c5"}}, {"type": "node", "id": 263251755, "lat": 37.4424716, "lon": 139.9137133, "tags": {"KSJ2:LIN": "\u4f1a\u6d25\u7dda", "KSJ2:STN": "\u9580\u7530", "mapillary": "321014282739203", "name": "\u9580\u7530", "name:en": "Monden", "name:ja": "\u9580\u7530", "name:ja_rm": "Monden", "name:ko": "\ubaac\ub374", "note": "National-Land Numerical Information (Railway) 2007, MLIT Japan", "note:ja": "\u56fd\u571f\u6570\u5024\u60c5\u5831\uff08\u9244\u9053\u30c7\u30fc\u30bf\uff09\u5e73\u621019\u5e74\u3000\u56fd\u571f\u4ea4\u901a\u7701", "public_transport": "station", "railway": "station", "source": "KSJ2", "source_ref": "http://nlftp.mlit.go.jp/ksj/jpgis/datalist/KsjTmplt-N02-v1_1.html", "website": "http://www.aizutetsudo.jp/station/monden/", "wikidata": "Q11655048", "wikipedia": "ja:\u9580\u7530\u99c5"}}, {"type": "node", "id": 263251760, "lat": 37.2551385, "lon": 139.864949, "tags": {"KSJ2:LIN": "\u4f1a\u6d25\u7dda", "KSJ2:STN": "\u4f1a\u6d25\u4e0b\u90f7", "internet_access": "wlan", "internet_access:fee": "no", "internet_access:ssid": "Aizu_tetsudo_Free_Wi-Fi", "mapillary": "974928563277442", "name": "\u4f1a\u6d25\u4e0b\u90f7", "name:en": "Aizu-Shimogo", "name:ja": "\u4f1a\u6d25\u4e0b\u90f7", "name:ja_rm": "Aizu-Shimog\u014d", "name:ko": "\uc544\uc774\uc988\uc2dc\ubaa8\uace0", "note": "National-Land Numerical Information (Railway) 2007, MLIT Japan", "note:ja": "\u56fd\u571f\u6570\u5024\u60c5\u5831\uff08\u9244\u9053\u30c7\u30fc\u30bf\uff09\u5e73\u621019\u5e74\u3000\u56fd\u571f\u4ea4\u901a\u7701", "public_transport": "station", "railway": "station", "source": "KSJ2", "source_ref": "http://nlftp.mlit.go.jp/ksj/jpgis/datalist/KsjTmplt-N02-v1_1.html", "website": "http://www.aizutetsudo.jp/station/aizushimogou/", "wikidata": "Q4699456", "wikipedia": "ja:\u4f1a\u6d25\u4e0b\u90f7\u99c5"}}, {"type": "node", "id": 263251955, "lat": 37.2429516, "lon": 139.8588084, "tags": {"KSJ2:LIN": "\u4f1a\u6d25\u7dda", "KSJ2:STN": "\u3075\u308b\u3055\u3068\u516c\u5712", "alt_name:ko": "\ud6c4\ub8e8\uc0ac\ud1a0\ucf54\uc5d4", "mapillary": "497437648280606", "name": "\u3075\u308b\u3055\u3068\u516c\u5712", "name:en": "Furusato-Koen", "name:ja": "\u3075\u308b\u3055\u3068\u516c\u5712", "name:ja_kana": "\u3075\u308b\u3055\u3068\u3053\u3046\u3048\u3093", "name:ja_rm": "Furusato-K\u014den", "name:ko": "\ud6c4\ub8e8\uc0ac\ud1a0\uacf5\uc6d0", "note": "National-Land Numerical Information (Railway) 2007, MLIT Japan", "note:ja": "\u56fd\u571f\u6570\u5024\u60c5\u5831\uff08\u9244\u9053\u30c7\u30fc\u30bf\uff09\u5e73\u621019\u5e74\u3000\u56fd\u571f\u4ea4\u901a\u7701", "public_transport": "station", "railway": "station", "source": "KSJ2", "source_ref": "http://nlftp.mlit.go.jp/ksj/jpgis/datalist/KsjTmplt-N02-v1_1.html", "website": "http://www.aizutetsudo.jp/station/furusatokouen/", "wikidata": "Q5509813", "wikipedia": "ja:\u3075\u308b\u3055\u3068\u516c\u5712\u99c5"}}, {"type": "node", "id": 263252162, "lat": 37.3955469, "lon": 139.9322392, "tags": {"KSJ2:LIN": "\u4f1a\u6d25\u7dda", "KSJ2:STN": "\u82a6\u30ce\u7267\u6e29\u6cc9", "alt_name:ko": "\uc544\uc2dc\ub178\ub9c8\ud0a4\uc628\uc13c", "mapillary": "204472854850526", "name": "\u82a6\u30ce\u7267\u6e29\u6cc9", "name:en": "Ashinomaki-Onsen", "name:ja": "\u82a6\u30ce\u7267\u6e29\u6cc9", "name:ja_rm": "Ashinomaki-Onsen", "name:ko": "\uc544\uc2dc\ub178\ub9c8\ud0a4\uc628\ucc9c", "note": "National-Land Numerical Information (Railway) 2007, MLIT Japan", "note:ja": "\u56fd\u571f\u6570\u5024\u60c5\u5831\uff08\u9244\u9053\u30c7\u30fc\u30bf\uff09\u5e73\u621019\u5e74\u3000\u56fd\u571f\u4ea4\u901a\u7701", "public_transport": "station", "railway": "station", "source": "KSJ2", "source_ref": "http://nlftp.mlit.go.jp/ksj/jpgis/datalist/KsjTmplt-N02-v1_1.html", "website": "https://www.ashinomakionseneki.com/", "wikidata": "Q4805114", "wikipedia": "ja:\u82a6\u30ce\u7267\u6e29\u6cc9\u99c5"}}, {"type": "node", "id": 263252735, "lat": 37.4591041, "lon": 139.9144772, "tags": {"KSJ2:LIN": "\u4f1a\u6d25\u7dda", "KSJ2:STN": "\u5357\u82e5\u677e", "mapillary": "787607161944026", "name": "\u5357\u82e5\u677e", "name:en": "Minami-Wakamatsu", "name:ja": "\u5357\u82e5\u677e", "name:ja_rm": "Minami-Wakamatsu", "name:ko": "\ubbf8\ub098\ubbf8\uc640\uce74\ub9c8\uc4f0", "note": "National-Land Numerical Information (Railway) 2007, MLIT Japan", "note:ja": "\u56fd\u571f\u6570\u5024\u60c5\u5831\uff08\u9244\u9053\u30c7\u30fc\u30bf\uff09\u5e73\u621019\u5e74\u3000\u56fd\u571f\u4ea4\u901a\u7701", "public_transport": "station", "railway": "station", "source": "KSJ2", "source_ref": "http://nlftp.mlit.go.jp/ksj/jpgis/datalist/KsjTmplt-N02-v1_1.html", "website": "http://www.aizutetsudo.jp/station/minamiwakamatsu/", "wikidata": "Q6862983", "wikipedia": "ja:\u5357\u82e5\u677e\u99c5"}}, {"type": "node", "id": 263252928, "lat": 37.3035478, "lon": 139.8954093, "tags": {"KSJ2:LIN": "\u4f1a\u6d25\u7dda", "KSJ2:STN": "\u6e6f\u91ce\u4e0a\u6e29\u6cc9", "alt_name:ko": "\uc720\ub178\uce74\ubbf8\uc628\uc13c", "internet_access": "wlan", "internet_access:fee": "no", "internet_access:ssid": "Aizu_tetsudo_Free_Wi-Fi", "mapillary": "1134629087048600", "name": "\u6e6f\u91ce\u4e0a\u6e29\u6cc9", "name:en": "Yunokami-Onsen", "name:ja": "\u6e6f\u91ce\u4e0a\u6e29\u6cc9", "name:ja_rm": "Yunokami-Onsen", "name:ko": "\uc720\ub178\uce74\ubbf8\uc628\ucc9c", "note": "National-Land Numerical Information (Railway) 2007, MLIT Japan", "note:ja": "\u56fd\u571f\u6570\u5024\u60c5\u5831\uff08\u9244\u9053\u30c7\u30fc\u30bf\uff09\u5e73\u621019\u5e74\u3000\u56fd\u571f\u4ea4\u901a\u7701", "public_transport": "station", "railway": "station", "source": "KSJ2", "source_ref": "http://nlftp.mlit.go.jp/ksj/jpgis/datalist/KsjTmplt-N02-v1_1.html", "website": "http://www.aizutetsudo.jp/station/yunokamionsen/", "wikidata": "Q8061357", "wikipedia": "ja:\u6e6f\u91ce\u4e0a\u6e29\u6cc9\u99c5"}}, {"type": "node", "id": 263253108, "lat": 37.266454, "lon": 139.8900844, "tags": {"KSJ2:LIN": "\u4f1a\u6d25\u7dda", "KSJ2:STN": "\u5f25\u4e94\u5cf6", "mapillary": "215621950013419", "name": "\u5f25\u4e94\u5cf6", "name:en": "Yagoshima", "name:ja": "\u5f25\u4e94\u5cf6", "name:ja_rm": "Yagoshima", "name:ko": "\uc57c\uace0\uc2dc\ub9c8", "note": "National-Land Numerical Information (Railway) 2007, MLIT Japan", "note:ja": "\u56fd\u571f\u6570\u5024\u60c5\u5831\uff08\u9244\u9053\u30c7\u30fc\u30bf\uff09\u5e73\u621019\u5e74\u3000\u56fd\u571f\u4ea4\u901a\u7701", "public_transport": "station", "railway": "station", "source": "KSJ2", "source_ref": "http://nlftp.mlit.go.jp/ksj/jpgis/datalist/KsjTmplt-N02-v1_1.html", "website": "http://www.aizutetsudo.jp/station/yagoshima/", "wikidata": "Q8046743", "wikipedia": "ja:\u5f25\u4e94\u5cf6\u99c5"}}, {"type": "node", "id": 3736313344, "lat": 37.4859472, "lon": 139.9142245, "tags": {"KSJ2:LIN": "\u4f1a\u6d25\u7dda", "KSJ2:STN": "\u897f\u82e5\u677e", "mapillary": "1618869164991022", "name": "\u897f\u82e5\u677e", "name:en": "Nishi-Wakamatsu", "name:ja": "\u897f\u82e5\u677e", "name:ja_rm": "Nishi-Wakamatsu", "name:ko": "\ub2c8\uc2dc\uc640\uce74\ub9c8\uc4f0", "note": "National-Land Numerical Information (Railway) 2007, MLIT Japan", "note:ja": "\u56fd\u571f\u6570\u5024\u60c5\u5831\uff08\u9244\u9053\u30c7\u30fc\u30bf\uff09\u5e73\u621019\u5e74\u3000\u56fd\u571f\u4ea4\u901a\u7701", "opening_hours": "Mo-Fr 06:45-18:00; Sa,Su,PH 06:45-08:00,08:20-10:00,10:10-10:50,11:10-11:50,12:50-13:20,13:30-14:35,14:50-15:25,16:10-16:35 \"\u4f1a\u6d25\u9244\u9053\u7a93\u53e3\u3067\u30ce\u30c3\u30af knock at window of Aizu Line\"", "opening_hours:url": "http://www.aizutetsudo.jp/station/nishiwakamatsu/", "public_transport": "station", "railway": "station", "source": "KSJ2", "source_ref": "http://nlftp.mlit.go.jp/ksj/jpgis/datalist/KsjTmplt-N02-v1_1.html", "website": "https://www.jreast.co.jp/estation/station/info.aspx?StationCd=1178", "wheelchair": "yes", "wikidata": "Q7040449", "wikipedia": "ja:\u897f\u82e5\u677e\u99c5"}}]}