{"version": 0.6, "generator": "Overpass API 0.7.62.4 2390de5a", "osm3s": {"timestamp_osm_base": "2024-12-30T14:57:07Z", "copyright": "The data included in this document is from www.openstreetmap.org. The data is made available under ODbL."}, "elements": [{"type": "node", "id": 243818949, "lat": 35.4835487, "lon": 138.7958212, "tags": {"name": "\u5bcc\u58eb\u5c71", "name:en": "Mt Fuji", "name:ja": "\u5bcc\u58eb\u5c71", "name:ja-Hira": "\u3075\u3058\u3055\u3093", "name:ja-Latn": "Fuji-san", "name:ko": "\ud6c4\uc9c0\uc0b0", "name:start_date": "2011", "old_name": "\u5bcc\u58eb\u5409\u7530", "old_name:ja": "\u5bcc\u58eb\u5409\u7530", "old_name:ja-Hira": "\u3075\u3058\u3088\u3057\u3060", "old_name:ja-Latn": "Fujiyoshida", "public_transport": "station", "railway": "station", "train": "yes", "was:end_date": "2011", "was:name": "\u5bcc\u58eb\u5409\u7530", "was:name:ja": "\u5bcc\u58eb\u5409\u7530", "was:name:ja-Hira": "\u3075\u3058\u3088\u3057\u3060\u3057", "was:name:ja-Jpan": "\u5bcc\u58eb\u5409\u7530", "was:name:ja-Latn": "Fujiyoshida", "wikidata": "Q5507478", "wikipedia": "ja:\u5bcc\u58eb\u5c71\u99c5"}}, {"type": "node", "id": 264818386, "lat": 35.6688016, "lon": 138.5195034, "tags": {"name": "\u7adc\u738b", "name:en": "Ryuo", "name:ja-Latn": "Ry\u016b\u014d", "public_transport": "station", "railway": "station", "source": "KSJ2", "train": "yes", "wikidata": "Q7385664", "wikipedia": "ja:\u7adc\u738b\u99c5"}}, {"type": "node", "id": 264818395, "lat": 35.6878479, "lon": 138.4874941, "tags": {"name": "\u5869\u5d0e", "name:en": "Shiozaki", "name:ja_rm": "Shiozaki", "public_transport": "station", "railway": "station", "source": "KSJ2", "train": "yes", "wikidata": "Q7497906", "wikipedia": "ja:\u5869\u5d0e\u99c5"}}, {"type": "node", "id": 264818413, "lat": 35.7371514, "lon": 138.4332556, "tags": {"name": "\u65b0\u5e9c", "name:en": "Shimpu", "name:ja": "\u65b0\u5e9c", "public_transport": "station", "railway": "station", "source": "KSJ2", "train": "yes", "wikidata": "Q7497041", "wikipedia": "ja:\u65b0\u5e9c\u99c5"}}, {"type": "node", "id": 264818853, "lat": 35.8275272, "lon": 138.3667944, "tags": {"name": "\u9577\u5742", "name:en": "Nagasaka", "public_transport": "station", "railway": "station", "source": "KSJ2", "train": "yes", "wikidata": "Q6958595", "wikipedia": "ja:\u9577\u5742\u99c5"}}, {"type": "node", "id": 264820798, "lat": 35.6039397, "lon": 138.8253537, "tags": {"name": "\u7b39\u5b50", "name:en": "Sasago", "name:ja": "\u7b39\u5b50", "name:ja-Hira": "\u3055\u3055\u3054", "name:ja-Latn": "Sasago", "operator": "\u6771\u65e5\u672c\u65c5\u5ba2\u9244\u9053", "operator:en": "East Japan Railway Company", "operator:ja": "\u6771\u65e5\u672c\u65c5\u5ba2\u9244\u9053", "public_transport": "station", "railway": "station", "source": "KSJ2", "wikidata": "Q7424971", "wikipedia": "ja:\u7b39\u5b50\u99c5"}}, {"type": "node", "id": 265832025, "lat": 35.5697368, "lon": 138.5202408, "tags": {"name": "\u7532\u6590\u4e0a\u91ce", "name:en": "Kai-Ueno", "public_transport": "station", "railway": "station", "source": "KSJ2", "train": "yes", "wikidata": "Q6347335", "wikipedia": "ja:\u7532\u6590\u4e0a\u91ce\u99c5"}}, {"type": "node", "id": 3064377903, "lat": 35.657604, "lon": 138.6353509, "tags": {"name": "\u77f3\u548c\u6e29\u6cc9", "name:en": "Isawa-Onsen", "public_transport": "station", "railway": "station", "source": "KSJ2", "train": "yes", "wikidata": "Q8013159", "wikipedia": "ja:\u77f3\u548c\u6e29\u6cc9\u99c5"}}, {"type": "node", "id": 3730397976, "lat": 35.6849477, "lon": 138.6833573, "tags": {"name": "\u5c71\u68a8\u5e02", "name:en": "Yamanashishi", "public_transport": "station", "railway": "station", "source": "KSJ2", "train": "yes", "wikidata": "Q8013369", "wikipedia": "ja:\u5c71\u68a8\u5e02\u99c5"}}, {"type": "node", "id": 5589913332, "lat": 35.6597419, "lon": 138.5989109, "tags": {"name": "\u9152\u6298", "name:en": "Sakaori", "name:ja": "\u9152\u6298", "name:ja_rm": "Sakaori", "name:ko": "\uc0ac\uce74\uc624\ub9ac", "public_transport": "station", "railway": "station", "source": "KSJ2", "train": "yes", "wikidata": "Q7402824", "wikipedia": "ja:\u9152\u6298\u99c5"}}, {"type": "node", "id": 5589913354, "lat": 35.6598766, "lon": 138.5893576, "tags": {"name": "\u5584\u5149\u5bfa", "name:en": "Zenkoji", "public_transport": "station", "railway": "station", "source": "KSJ2", "train": "yes", "wikidata": "Q8069148", "wikipedia": "ja:\u5584\u5149\u5bfa\u99c5"}}, {"type": "node", "id": 5589913392, "lat": 35.6621751, "lon": 138.5791437, "tags": {"name": "\u91d1\u624b", "name:en": "Kanente", "public_transport": "station", "railway": "station", "source": "KSJ2", "train": "yes", "wikidata": "Q6362011", "wikipedia": "ja:\u91d1\u624b\u99c5"}}, {"type": "node", "id": 5589913394, "lat": 35.6670815, "lon": 138.5693937, "tags": {"name": "\u7532\u5e9c", "name:en": "Kofu", "name:ja-Hira": "\u3053\u3046\u3075", "name:ja-Latn": "K\u014dfu", "operator": "\u6771\u65e5\u672c\u65c5\u5ba2\u9244\u9053", "operator:en": "East Japan Railway Company", "public_transport": "station", "railway": "station", "ref": "CO43", "source": "KSJ2", "train": "yes", "website": "https://www.jreast.co.jp/estation/station/info.aspx?StationCd=671", "wikidata": "Q1066072", "wikipedia": "ja:\u7532\u5e9c\u99c5"}}, {"type": "node", "id": 5969088998, "lat": 35.790032, "lon": 138.39477, "tags": {"name": "\u65e5\u91ce\u6625", "name:en": "Hinoharu", "public_transport": "station", "railway": "station", "source": "KSJ2", "wikidata": "Q5767422", "wikipedia": "ja:\u65e5\u91ce\u6625\u99c5"}}, {"type": "node", "id": 5972592424, "lat": 35.7104219, "lon": 138.4508872, "tags": {"name": "\u97ee\u5d0e", "name:en": "Nirasaki", "name:fr": "Nirasaki", "name:ja-Hira": "\u306b\u3089\u3055\u304d", "name:ja-Latn": "Nirasaki", "public_transport": "station", "railway": "station", "source": "KSJ2", "train": "yes", "wikidata": "Q8014441", "wikipedia": "ja:\u97ee\u5d0e\u99c5"}}, {"type": "node", "id": 5980724948, "lat": 35.4921431, "lon": 138.4627326, "tags": {"name": "\u7532\u6590\u5ca9\u9593", "name:en": "Kai-Iwama", "public_transport": "station", "railway": "station", "source": "KSJ2", "train": "yes", "wikidata": "Q6347326", "wikipedia": "ja:\u7532\u6590\u5ca9\u9593\u99c5"}}, {"type": "node", "id": 5980724949, "lat": 35.5038625, "lon": 138.4714429, "tags": {"name": "\u843d\u5c45", "name:en": "Ochii", "public_transport": "station", "railway": "station", "train": "yes", "wikidata": "Q7076320", "wikipedia": "ja:\u843d\u5c45\u99c5"}}, {"type": "node", "id": 5980724958, "lat": 35.5604639, "lon": 138.4932312, "tags": {"name": "\u5e02\u5ddd\u5927\u9580", "name:en": "Ichikawa-Daimon", "public_transport": "station", "railway": "station", "source": "KSJ2", "train": "yes", "wikidata": "Q5986151", "wikipedia": "ja:\u5e02\u5ddd\u5927\u9580\u99c5"}}, {"type": "node", "id": 5980724959, "lat": 35.5607312, "lon": 138.5022368, "tags": {"name": "\u5e02\u5ddd\u672c\u753a", "public_transport": "station", "railway": "station", "source": "KSJ2", "train": "yes", "wikidata": "Q11480328", "wikipedia": "ja:\u5e02\u5ddd\u672c\u753a\u99c5"}}, {"type": "node", "id": 5980724960, "lat": 35.5628946, "lon": 138.5109365, "tags": {"name": "\u82a6\u5ddd", "name:en": "Ashigawa", "public_transport": "station", "railway": "station", "source": "KSJ2", "wikidata": "Q4805063", "wikipedia": "ja:\u82a6\u5ddd\u99c5 (\u5c71\u68a8\u770c)"}}, {"type": "node", "id": 5980724967, "lat": 35.5945354, "lon": 138.5269006, "tags": {"name": "\u6771\u82b1\u8f2a", "name:en": "Higashi-Hanawa", "name:ja": "\u6771\u82b1\u8f2a", "name:ko": "\ud788\uac00\uc2dc\ud558\ub098\uc640", "public_transport": "station", "railway": "station", "source": "KSJ2", "train": "yes", "wikidata": "Q5753547", "wikipedia": "ja:\u6771\u82b1\u8f2a\u99c5"}}, {"type": "node", "id": 5980724969, "lat": 35.6048909, "lon": 138.5285653, "tags": {"name": "\u5c0f\u4e95\u5ddd", "name:en": "Koikawa", "public_transport": "station", "railway": "station", "source": "KSJ2", "train": "yes", "wikidata": "Q6426275", "wikipedia": "ja:\u5c0f\u4e95\u5ddd\u99c5"}}, {"type": "node", "id": 5980724983, "lat": 35.5413802, "lon": 138.4708053, "tags": {"name": "\u9c0d\u6ca2\u53e3", "public_transport": "station", "railway": "station", "source": "KSJ2", "train": "yes", "wikidata": "Q6348996", "wikipedia": "ja:\u9c0d\u6ca2\u53e3\u99c5"}}, {"type": "node", "id": 5980725186, "lat": 35.6167698, "lon": 138.5327643, "tags": {"name": "\u5e38\u6c38", "name:en": "Joei", "network": "JR\u6771\u6d77 \u8eab\u5ef6\u7dda", "railway": "station", "source": "KSJ2", "wikidata": "Q6322172", "wikipedia": "ja:\u5e38\u6c38\u99c5"}}, {"type": "node", "id": 5980725195, "lat": 35.6303991, "lon": 138.5513882, "tags": {"name": "\u56fd\u6bcd", "name:en": "Kokubo", "public_transport": "station", "railway": "station", "source": "KSJ2", "train": "yes", "wikidata": "Q6426880", "wikipedia": "ja:\u56fd\u6bcd\u99c5"}}, {"type": "node", "id": 5980725199, "lat": 35.6369342, "lon": 138.5702482, "tags": {"name": "\u7532\u6590\u4f4f\u5409", "name:en": "Kai-Sumiyoshi", "public_transport": "station", "railway": "station", "source": "KSJ2", "train": "yes", "wikidata": "Q11577858", "wikipedia": "ja:\u7532\u6590\u4f4f\u5409\u99c5"}}, {"type": "node", "id": 5980725226, "lat": 35.6435739, "lon": 138.5778952, "tags": {"name": "\u5357\u7532\u5e9c", "name:en": "Minami-Kofu", "public_transport": "station", "railway": "station", "source": "KSJ2", "train": "yes", "wikidata": "Q6862942", "wikipedia": "ja:\u5357\u7532\u5e9c\u99c5"}}, {"type": "node", "id": 5980951958, "lat": 35.6723289, "lon": 138.7429609, "tags": {"name": "\u52dd\u6cbc\u3076\u3069\u3046\u90f7", "name:en": "Katsunumabudokyo", "name:ja": "\u52dd\u6cbc\u3076\u3069\u3046\u90f7", "name:ko": "\uac00\uc4f0\ub204\ub9c8\ubd80\ub3c4\ucfc4", "public_transport": "station", "railway": "station", "source": "KSJ2", "train": "yes", "wikidata": "Q6378166", "wikipedia": "ja:\u52dd\u6cbc\u3076\u3069\u3046\u90f7\u99c5"}}, {"type": "node", "id": 5980952096, "lat": 35.7054703, "lon": 138.7341835, "tags": {"name": "\u5869\u5c71", "name:en": "Enzan", "name:ja-Hira": "\u3048\u3093\u3056\u3093", "name:ja-Latn": "Enzan", "public_transport": "station", "railway": "station", "source": "KSJ2", "train": "yes", "wheelchair": "yes", "wikidata": "Q5381477", "wikipedia": "ja:\u5869\u5c71\u99c5"}}, {"type": "node", "id": 5980952103, "lat": 35.694184, "lon": 138.7026487, "tags": {"name": "\u6771\u5c71\u68a8", "name:en": "Higashi-Yamanashi", "public_transport": "station", "railway": "station", "source": "KSJ2", "train": "yes", "wikidata": "Q5753900", "wikipedia": "ja:\u6771\u5c71\u68a8\u99c5"}}, {"type": "node", "id": 5980952160, "lat": 35.673473, "lon": 138.6590816, "tags": {"name": "\u6625\u65e5\u5c45\u753a", "name:en": "Kasugaicho", "public_transport": "station", "railway": "station", "source": "KSJ2", "train": "yes", "wikidata": "Q6374879", "wikipedia": "ja:\u6625\u65e5\u5c45\u753a\u99c5"}}, {"type": "node", "id": 5982846425, "lat": 35.6395719, "lon": 138.7810054, "tags": {"name": "\u7532\u6590\u5927\u548c", "name:en": "Kai-Yamato", "name:ja": "\u7532\u6590\u5927\u548c", "name:ja_rm": "Kai-Yamato", "name:ko": "\uac00\uc774\uc57c\ub9c8\ud1a0", "public_transport": "station", "railway": "station", "source": "KSJ2", "train": "yes", "wikidata": "Q6347338", "wikipedia": "ja:\u7532\u6590\u5927\u548c\u99c5"}}, {"type": "node", "id": 5991086524, "lat": 35.5942257, "lon": 138.8843295, "tags": {"name": "\u521d\u72e9", "name:en": "Hatsukari", "name:ja": "\u521d\u72e9", "name:ja-Hira": "\u306f\u3064\u304b\u308a", "name:ja-Latn": "Hatsukari", "public_transport": "station", "railway": "station", "train": "yes", "wikidata": "Q5681866", "wikipedia": "ja:\u521d\u72e9\u99c5"}}, {"type": "node", "id": 6036084477, "lat": 35.4621992, "lon": 138.4821403, "tags": {"name": "\u5e02\u30ce\u702c", "name:en": "Ichinose", "public_transport": "station", "railway": "station", "source": "GSImaps/std", "train": "yes", "wikidata": "Q11479975", "wikipedia": "ja:\u5e02\u30ce\u702c\u99c5"}}, {"type": "node", "id": 6036084478, "lat": 35.4813913, "lon": 138.4677637, "tags": {"name": "\u4e45\u90a3\u571f", "name:en": "Kunado", "public_transport": "station", "railway": "station", "source": "KSJ2", "train": "yes", "wikidata": "Q6444138", "wikipedia": "ja:\u4e45\u90a3\u571f\u99c5"}}, {"type": "node", "id": 6070965450, "lat": 35.4449702, "lon": 138.4769006, "tags": {"name": "\u7532\u6590\u5e38\u8449", "name:en": "Kai-Tokiwa", "public_transport": "station", "railway": "station", "source": "KSJ2", "train": "yes", "wikidata": "Q6347331", "wikipedia": "ja:\u7532\u6590\u5e38\u8449\u99c5"}}, {"type": "node", "id": 8228791734, "lat": 35.5364296, "lon": 138.8708959, "tags": {"name": "\u6771\u6842", "name:en": "Higashikatsura", "name:ja": "\u6771\u6842", "name:ja_kana": "\u3072\u304c\u3057\u304b\u3064\u3089", "name:ja_rm": "Higashikatsura", "name:ko": "\ud788\uac00\uc2dc\uce74\uc4f0\ub77c", "public_transport": "station", "railway": "station", "wikidata": "Q5753640", "wikipedia": "ja:\u6771\u6842\u99c5"}}, {"type": "node", "id": 8237778233, "lat": 35.5505912, "lon": 138.9046798, "tags": {"name": "\u8c37\u6751\u753a", "name:en": "Yamuramachi", "name:ja": "\u8c37\u6751\u753a", "name:ko": "\uc57c\ubb34\ub77c\ub9c8\uce58", "public_transport": "station", "railway": "station", "wikidata": "Q8013193", "wikipedia": "ja:\u8c37\u6751\u753a\u99c5"}}, {"type": "node", "id": 8239606540, "lat": 35.5662116, "lon": 138.9161237, "tags": {"name": "\u8d64\u5742", "name:en": "Akasaka", "name:ja": "\u8d64\u5742", "name:ko": "\uc544\uce74\uc0ac\uce74", "public_transport": "station", "railway": "station", "train": "yes", "wikidata": "Q4700316", "wikipedia": "ja:\u8d64\u5742\u99c5 (\u5c71\u68a8\u770c)"}}, {"type": "node", "id": 8241759516, "lat": 35.5570571, "lon": 138.9075261, "tags": {"name": "\u90fd\u7559\u5e02", "name:en": "Tsurushi", "name:ja": "\u90fd\u7559\u5e02", "name:ko": "\uc4f0\ub8e8\uc2dc", "public_transport": "station", "railway": "station", "train": "yes", "wikidata": "Q7850306", "wikipedia": "ja:\u90fd\u7559\u5e02\u99c5"}}, {"type": "node", "id": 8241789860, "lat": 35.502056, "lon": 138.812054, "tags": {"alt_name:ko": "\uc694\uc2dc\uc774\ucf00\uc628\uc13c\ub9c8\uc5d0", "name": "\u846d\u6c60\u6e29\u6cc9\u524d", "name:en": "Yoshiikeonsenmae", "name:ja": "\u846d\u6c60\u6e29\u6cc9\u524d", "name:ja_rm": "Yoshiikeonsenmae", "name:ko": "\uc694\uc2dc\uc774\ucf00\uc628\ucc9c\uc55e", "public_transport": "station", "railway": "station", "wikidata": "Q8013211", "wikipedia": "ja:\u846d\u6c60\u6e29\u6cc9\u524d\u99c5"}}, {"type": "node", "id": 8241789861, "lat": 35.4979775, "lon": 138.8036172, "tags": {"name": "\u4e0b\u5409\u7530", "name:en": "Shimoyoshida", "name:ja": "\u4e0b\u5409\u7530", "name:ja_rm": "Shimoyoshida", "name:ko": "\uc2dc\ubaa8\uc694\uc2dc\ub2e4", "public_transport": "station", "railway": "station", "train": "yes", "wikidata": "Q7497026", "wikipedia": "ja:\u4e0b\u5409\u7530\u99c5"}}, {"type": "node", "id": 8241789864, "lat": 35.4931826, "lon": 138.7980923, "tags": {"name": "\u6708\u6c5f\u5bfa", "name:en": "Gekkoji", "name:ja": "\u6708\u6c5f\u5bfa", "name:ko": "\uac9f\ucf54\uc9c0", "public_transport": "station", "railway": "station", "wikidata": "Q5530322", "wikipedia": "ja:\u6708\u6c5f\u5bfa\u99c5"}}, {"type": "node", "id": 8241789865, "lat": 35.4895033, "lon": 138.7818557, "tags": {"name": "\u5bcc\u58eb\u6025\u30cf\u30a4\u30e9\u30f3\u30c9", "name:en": "Fujikyu Highland", "name:ja": "\u5bcc\u58eb\u6025\u30cf\u30a4\u30e9\u30f3\u30c9", "name:ko": "\ud6c4\uc9c0\ud050\ud558\uc774\ub79c\ub4dc", "operator": "\u5bcc\u58eb\u6025", "public_transport": "station", "railway": "station", "train": "yes", "wheelchair": "yes", "wikidata": "Q843037", "wikipedia": "ja:\u5bcc\u58eb\u6025\u30cf\u30a4\u30e9\u30f3\u30c9\u99c5"}}, {"type": "node", "id": 8241789866, "lat": 35.4980327, "lon": 138.7689798, "tags": {"name": "\u6cb3\u53e3\u6e56", "name:en": "Kawaguchiko", "name:ja": "\u6cb3\u53e3\u6e56", "name:ko": "\uac00\uc640\uad6c\uce58\ucf54", "public_transport": "station", "railway": "station", "ref": "FJ18", "wikidata": "Q6379504", "wikipedia": "ja:\u6cb3\u53e3\u6e56\u99c5"}}, {"type": "node", "id": 8241802218, "lat": 35.5425045, "lon": 138.8965302, "tags": {"alt_name:ko": "\uc4f0\ub8e8\ubd84\uce74\ub2e4\uc774\uac00\ucfe0\ub9c8\uc5d0", "name": "\u90fd\u7559\u6587\u79d1\u5927\u5b66\u524d", "name:en": "Tsurubunkadaigakumae", "name:ja": "\u90fd\u7559\u6587\u79d1\u5927\u5b66\u524d", "name:ja-Hira": "\u3064\u308b\u3076\u3093\u304b\u3060\u3044\u304c\u304f\u307e\u3048", "name:ko": "\uc4f0\ub8e8\ubb38\uacfc\ub300\ud559\uc55e", "public_transport": "station", "railway": "station", "source": "GSImaps/seamlessphoto;survey", "wikidata": "Q7850252", "wikipedia": "ja:\u90fd\u7559\u6587\u79d1\u5927\u5b66\u524d\u99c5"}}, {"type": "node", "id": 8241802219, "lat": 35.5388986, "lon": 138.8875113, "tags": {"name": "\u5341\u65e5\u5e02\u5834", "name:en": "Tokaichiba", "name:ja": "\u5341\u65e5\u5e02\u5834", "name:ja-Hira": "\u3068\u304a\u304b\u3044\u3061\u3070", "name:ja-Latn": "Tokaichiba", "name:ja_kana": "\u3068\u304a\u304b\u3044\u3061\u3070", "name:ja_rm": "Tokaichiba", "name:ko": "\ub3c4\uce74\uc774\uce58\ubc14", "public_transport": "station", "railway": "station", "wikidata": "Q7862683", "wikipedia": "ja:\u5341\u65e5\u5e02\u5834\u99c5 (\u5c71\u68a8\u770c)"}}, {"type": "node", "id": 8241802220, "lat": 35.5241802, "lon": 138.8453597, "tags": {"name": "\u4e09\u3064\u5ce0", "name:en": "Mitsutouge", "name:ja": "\u4e09\u3064\u5ce0", "name:ja-Hira": "\u307f\u3064\u3068\u3046\u3052", "name:ko": "\ubbf8\uc4f0\ud1a0\uac8c", "public_transport": "station", "railway": "station", "wikidata": "Q6883395", "wikipedia": "ja:\u4e09\u3064\u5ce0\u99c5"}}, {"type": "node", "id": 8241802222, "lat": 35.5083581, "lon": 138.8253169, "tags": {"name": "\u5bff", "name:en": "Kotobuki", "name:ja": "\u5bff", "name:ja_kana": "\u3053\u3068\u3076\u304d", "name:ja_rm": "Kotobuki", "name:ko": "\uace0\ud1a0\ubd80\ud0a4", "public_transport": "station", "railway": "station", "wikidata": "Q6434150", "wikipedia": "ja:\u5bff\u99c5"}}, {"type": "node", "id": 9198462043, "lat": 35.6055264, "lon": 138.5624302, "tags": {"name": "\u5c71\u68a8\u770c\u99c5\u3001\u4eee\u79f0", "name:en": "Yamanashi Prefecture station (TBD)", "name:ja": "\u5c71\u68a8\u770c\u99c5\u3001\u4eee\u79f0", "public_transport": "station", "railway": "station", "wikidata": "Q106837471", "wikipedia": "ja:\u5c71\u68a8\u770c\u99c5"}}, {"type": "node", "id": 9938276625, "lat": 35.7511531, "lon": 138.414278, "tags": {"name": "\u7a74\u5c71", "name:en": "Anayama", "public_transport": "station", "railway": "station", "source": "KSJ2", "train": "yes", "wikidata": "Q4752462", "wikipedia": "ja:\u7a74\u5c71\u99c5"}}]}