{"version": 0.6, "generator": "Overpass API 0.7.62.4 2390de5a", "osm3s": {"timestamp_osm_base": "2024-12-30T14:59:15Z", "copyright": "The data included in this document is from www.openstreetmap.org. The data is made available under ODbL."}, "elements": [{"type": "node", "id": 264227011, "lat": 40.2308177, "lon": 140.7880208, "tags": {"name": "\u67f4\u5e73", "name:en": "Shibahira", "name:ja-Hira": "\u3057\u3070\u3072\u3089", "name:ja-Latn": "Shibahira", "public_transport": "station", "railway": "station", "source": "KSJ2", "train": "yes", "wikidata": "Q7496012", "wikipedia": "ja:\u67f4\u5e73\u99c5"}}, {"type": "node", "id": 264227062, "lat": 40.2298371, "lon": 140.7373831, "tags": {"name": "\u672b\u5e83", "name:en": "Suehiro", "name:ja-Hira": "\u3059\u3048\u3072\u308d", "name:ja-Latn": "Suehiro", "public_transport": "station", "railway": "station", "source": "KSJ2", "train": "yes", "wikidata": "Q7634367", "wikipedia": "ja:\u672b\u5e83\u99c5"}}, {"type": "node", "id": 264227583, "lat": 39.950774, "lon": 141.0855698, "tags": {"name": "\u5e73\u9928", "name:en": "Tairadate", "name:ja-Hira": "\u305f\u3044\u3089\u3060\u3066", "name:ja-Latn": "Tairadate", "public_transport": "station", "railway": "station", "source": "KSJ2", "train": "yes", "wikidata": "Q7676369", "wikipedia": "ja:\u5e73\u9928\u99c5"}}, {"type": "node", "id": 264227768, "lat": 40.048762, "lon": 141.004289, "tags": {"name": "\u8d64\u5742\u7530", "name:en": "Akasakata", "name:ja-Hira": "\u3042\u304b\u3055\u304b\u305f", "name:ja-Latn": "Akasakata", "public_transport": "station", "railway": "station", "source": "KSJ2", "train": "yes", "wikidata": "Q4700320", "wikipedia": "ja:\u8d64\u5742\u7530\u99c5"}}, {"type": "node", "id": 264227772, "lat": 40.1223045, "lon": 140.8403769, "tags": {"name": "\u6e6f\u702c\u6e29\u6cc9", "name:en": "Yuze-Onsen", "name:ja-Hira": "\u3086\u305c\u304a\u3093\u305b\u3093", "name:ja-Latn": "Yuzeonsen", "public_transport": "station", "railway": "station", "source": "KSJ2", "train": "yes", "wikidata": "Q8062247", "wikipedia": "ja:\u6e6f\u702c\u6e29\u6cc9\u99c5"}}, {"type": "node", "id": 264227824, "lat": 40.0766715, "lon": 141.02066, "tags": {"name": "\u5c0f\u5c4b\u306e\u7551", "name:en": "Koyanohata", "name:ja-Hira": "\u3053\u3084\u306e\u306f\u305f", "name:ja-Latn": "Koyanohata", "public_transport": "station", "railway": "station", "source": "KSJ2", "train": "yes", "wikidata": "Q6435143", "wikipedia": "ja:\u5c0f\u5c4b\u306e\u7551\u99c5"}}, {"type": "node", "id": 264227862, "lat": 40.1893784, "lon": 140.785481, "tags": {"name": "\u9e7f\u89d2\u82b1\u8f2a", "name:en": "Kazuno-Hanawa", "name:ja-Hira": "\u304b\u3065\u306e\u306f\u306a\u308f", "name:ja-Latn": "Kazunohanawa", "public_transport": "station", "railway": "station", "source": "KSJ2", "train": "yes", "wikidata": "Q6381606", "wikipedia": "ja:\u9e7f\u89d2\u82b1\u8f2a\u99c5"}}, {"type": "node", "id": 264227870, "lat": 40.158901, "lon": 140.793291, "tags": {"name": "\u9678\u4e2d\u5927\u91cc", "name:en": "Rikuchu-Osato", "name:ja-Hira": "\u308a\u304f\u3061\u3085\u3046\u304a\u304a\u3055\u3068", "name:ja-Latn": "Rikuch\u016b\u014dsato", "public_transport": "station", "railway": "station", "source": "KSJ2", "train": "yes", "wikidata": "Q7334122", "wikipedia": "ja:\u9678\u4e2d\u5927\u91cc\u99c5"}}, {"type": "node", "id": 264228020, "lat": 40.0973548, "lon": 141.0491912, "tags": {"name": "\u8352\u5c4b\u65b0\u753a", "name:en": "Araya-Shinmachi", "name:ja-Hira": "\u3042\u3089\u3084\u3057\u3093\u307e\u3061", "name:ja-Latn": "Arayashinmachi", "public_transport": "station", "railway": "station", "source": "KSJ2", "train": "yes", "wikidata": "Q4784558", "wikipedia": "ja:\u8352\u5c4b\u65b0\u753a\u99c5"}}, {"type": "node", "id": 264228915, "lat": 40.1396379, "lon": 140.9442521, "tags": {"name": "\u7530\u5c71", "name:en": "Tayama", "name:ja-Hira": "\u305f\u3084\u307e", "name:ja-Latn": "Tayama", "public_transport": "station", "railway": "station", "source": "KSJ2", "train": "yes", "wikidata": "Q7689750", "wikipedia": "ja:\u7530\u5c71\u99c5"}}, {"type": "node", "id": 264230256, "lat": 40.1074805, "lon": 141.0275678, "tags": {"name": "\u6a2a\u9593", "name:en": "Yokoma", "name:ja-Hira": "\u3088\u3053\u307e", "name:ja-Latn": "Yokoma", "public_transport": "station", "railway": "station", "source": "KSJ2", "train": "yes", "wikidata": "Q8054663", "wikipedia": "ja:\u6a2a\u9593\u99c5"}}, {"type": "node", "id": 264230264, "lat": 40.1162368, "lon": 140.8822362, "tags": {"name": "\u5144\u7551", "name:en": "Anihata", "name:ja-Hira": "\u3042\u306b\u306f\u305f", "name:ja-Latn": "Anihata", "public_transport": "station", "railway": "station", "source": "KSJ2", "train": "yes", "wikidata": "Q4764591", "wikipedia": "ja:\u5144\u7551\u99c5"}}, {"type": "node", "id": 1852318030, "lat": 40.0123954, "lon": 140.9976755, "tags": {"name": "\u5b89\u6bd4\u9ad8\u539f", "name:en": "Appi-K\u014dgen", "name:ja-Hira": "\u3042\u3063\u3074\u3053\u3046\u3052\u3093", "name:ja-Latn": "Appi-K\u014dgen", "public_transport": "station", "railway": "station", "source": "KSJ2", "train": "yes", "wikidata": "Q4781066", "wikipedia": "ja:\u5b89\u6bd4\u9ad8\u539f\u99c5"}}, {"type": "node", "id": 5793711143, "lat": 39.9693431, "lon": 141.0435064, "tags": {"name": "\u677e\u5c3e\u516b\u5e61\u5e73", "name:en": "Matsuo-Hachimantai", "name:ja-Hira": "\u307e\u3064\u304a\u306f\u3061\u307e\u3093\u305f\u3044", "name:ja-Latn": "Matsuo-Hachimantai", "public_transport": "station", "railway": "station", "source": "KSJ2", "train": "yes", "wikidata": "Q6788180", "wikipedia": "ja:\u677e\u5c3e\u516b\u5e61\u5e73\u99c5"}}, {"type": "node", "id": 5793768675, "lat": 40.2098885, "lon": 140.6397897, "tags": {"name": "\u5927\u6edd\u6e29\u6cc9", "name:en": "Otaki-Onsen", "name:ja-Hira": "\u304a\u304a\u305f\u304d\u304a\u3093\u305b\u3093", "name:ja-Latn": "\u014ctakionsen", "public_transport": "station", "railway": "station", "source": "KSJ2", "train": "yes", "wikidata": "Q8081751", "wikipedia": "ja:\u5927\u6edd\u6e29\u6cc9\u99c5"}}, {"type": "node", "id": 5793768685, "lat": 40.2144009, "lon": 140.6678939, "tags": {"name": "\u5341\u4e8c\u6240", "name:en": "Junisho", "name:ja-Hira": "\u3058\u3085\u3046\u306b\u3057\u3087", "name:ja-Latn": "J\u016bnisho", "public_transport": "station", "railway": "station", "source": "KSJ2", "train": "yes", "wikidata": "Q11404801", "wikipedia": "ja:\u5341\u4e8c\u6240\u99c5"}}, {"type": "node", "id": 5793768704, "lat": 40.2302933, "lon": 140.6933118, "tags": {"name": "\u6ca2\u5c3b", "name:en": "Sawajiri", "name:ja-Hira": "\u3055\u308f\u3058\u308a", "name:ja-Latn": "Sawajiri", "public_transport": "station", "railway": "station", "source": "KSJ2", "train": "yes", "wikidata": "Q7428554", "wikipedia": "ja:\u6ca2\u5c3b\u99c5"}}, {"type": "node", "id": 5793768711, "lat": 40.2224499, "lon": 140.7127981, "tags": {"name": "\u571f\u6df1\u4e95", "name:en": "Dobukai", "name:ja-Hira": "\u3069\u3076\u304b\u3044", "name:ja-Latn": "Dobukai", "public_transport": "station", "railway": "station", "source": "KSJ2", "train": "yes", "wikidata": "Q5286980", "wikipedia": "ja:\u571f\u6df1\u4e95\u99c5"}}, {"type": "node", "id": 5799300241, "lat": 40.2293308, "lon": 140.5725065, "tags": {"name": "\u6247\u7530", "name:en": "Ogita", "name:ja-Hira": "\u304a\u3046\u304e\u305f", "name:ja-Latn": "\u014cgita", "public_transport": "station", "railway": "station", "source": "KSJ2", "train": "yes", "wikidata": "Q8081473", "wikipedia": "ja:\u6247\u7530\u99c5"}}, {"type": "node", "id": 5799301079, "lat": 40.266195, "lon": 140.5546859, "tags": {"name": "\u6771\u5927\u9928", "name:en": "Higashi-Odate", "name:ja-Hira": "\u3072\u304c\u3057\u304a\u304a\u3060\u3066", "name:ja-Latn": "Higashi\u014ddate", "public_transport": "station", "railway": "station", "source": "KSJ2", "train": "yes", "wikidata": "Q5753940", "wikipedia": "ja:\u6771\u5927\u9928\u99c5"}}, {"type": "node", "id": 5801702890, "lat": 40.2558668, "lon": 140.7706533, "tags": {"name": "\u5341\u548c\u7530\u5357", "name:en": "Towada-Minami", "name:ja-Hira": "\u3068\u308f\u3060\u307f\u306a\u307f", "name:ja-Latn": "Towadaminami", "public_transport": "station", "railway": "station", "source": "KSJ2", "train": "yes", "wikidata": "Q7829526", "wikipedia": "ja:\u5341\u548c\u7530\u5357\u99c5"}}, {"type": "node", "id": 6102975918, "lat": 40.1433289, "lon": 140.8044196, "tags": {"name": "\u516b\u5e61\u5e73", "name:en": "Hachimantai", "name:ja-Hira": "\u306f\u3061\u307e\u3093\u305f\u3044", "name:ja-Latn": "Hachimantai", "public_transport": "station", "railway": "station", "source": "KSJ2", "train": "yes", "wikidata": "Q5637061", "wikipedia": "ja:\u516b\u5e61\u5e73\u99c5"}}, {"type": "node", "id": 6111096462, "lat": 40.3384424, "lon": 140.5919123, "tags": {"name": "\u767d\u6ca2", "name:en": "Shirasawa", "name:ja-Hira": "\u3057\u3089\u3055\u308f", "name:ja-Latn": "Shirasawa", "public_transport": "station", "railway": "station", "source": "KSJ2", "train": "yes", "wikidata": "Q7498298", "wikipedia": "ja:\u767d\u6ca2\u99c5 (\u79cb\u7530\u770c)"}}, {"type": "node", "id": 7164913253, "lat": 39.9566198, "lon": 141.0718748, "tags": {"name": "\u5317\u68ee", "name:en": "Kitamori", "name:ja-Hira": "\u304d\u305f\u3082\u308a", "name:ja-Latn": "Kitamori", "public_transport": "station", "railway": "station", "source": "KSJ2", "train": "yes", "wikidata": "Q11402267", "wikipedia": "ja:\u5317\u68ee\u99c5"}}, {"type": "node", "id": 8418556352, "lat": 40.2879085, "lon": 140.5562022, "tags": {"name": "\u5927\u9928", "name:de": "Odate", "name:en": "Odate", "name:ja": "\u5927\u9928", "name:ja-Hira": "\u304a\u304a\u3060\u3066", "name:ja-Latn": "\u014cdate", "public_transport": "station", "railway": "station", "train": "yes", "wikidata": "Q8081437", "wikipedia": "ja:\u5927\u9928\u99c5"}}]}