{"version": 0.6, "generator": "Overpass API 0.7.62.4 2390de5a", "osm3s": {"timestamp_osm_base": "2024-12-30T15:07:30Z", "copyright": "The data included in this document is from www.openstreetmap.org. The data is made available under ODbL."}, "elements": [{"type": "node", "id": 267303636, "lat": 34.9013453, "lon": 136.2126848, "tags": {"KSJ2:LIN": "\u8349\u6d25\u7dda", "KSJ2:STN": "\u7532\u8cc0", "name": "\u7532\u8cc0", "name:en": "Koka", "name:ja": "\u7532\u8cc0", "name:ko": "\uace0\uce74", "note": "National-Land Numerical Information (Railway) 2007, MLIT Japan", "note:ja": "\u56fd\u571f\u6570\u5024\u60c5\u5831\uff08\u9244\u9053\u30c7\u30fc\u30bf\uff09\u5e73\u621019\u5e74\u3000\u56fd\u571f\u4ea4\u901a\u7701", "public_transport": "station", "railway": "station", "source": "KSJ2", "source_ref": "http://nlftp.mlit.go.jp/ksj/jpgis/datalist/KsjTmplt-N02-v1_1.html", "train": "yes", "wikidata": "Q5362404", "wikipedia": "ja:\u7532\u8cc0\u99c5"}}, {"type": "node", "id": 267316775, "lat": 34.7358877, "lon": 135.8249246, "tags": {"name": "\u6728\u6d25", "name:en": "Kizu", "name:ja": "\u6728\u6d25", "name:ko": "\uae30\uc988", "note": "National-Land Numerical Information (Railway) 2007, MLIT Japan", "note:ja": "\u56fd\u571f\u6570\u5024\u60c5\u5831\uff08\u9244\u9053\u30c7\u30fc\u30bf\uff09\u5e73\u621019\u5e74\u3000\u56fd\u571f\u4ea4\u901a\u7701", "public_transport": "station", "railway": "station", "ref": "D19;H18;Q38", "source": "KSJ2", "source_ref": "http://nlftp.mlit.go.jp/ksj/jpgis/datalist/KsjTmplt-N02-v1_1.html", "wikidata": "Q1131666", "wikipedia": "ja:\u6728\u6d25\u99c5 (\u4eac\u90fd\u5e9c)"}}, {"type": "node", "id": 267336809, "lat": 34.6807963, "lon": 135.8189494, "tags": {"KSJ2:STN": "\u5948\u826f", "contact:website": "http://www.jr-odekake.net/eki/top.php?id=0620816", "name": "\u5948\u826f", "name:en": "Nara", "name:it": "Nara", "name:ja": "\u5948\u826f", "name:ja-Latn": "Nara", "name:ko": "\ub098\ub77c", "operator": "\u897f\u65e5\u672c\u65c5\u5ba2\u9244\u9053", "operator:en": "West Japan Railway Company", "public_transport": "station", "railway": "station", "ref": "JR-D21;JR-Q36", "wikidata": "Q1150978", "wikipedia": "ja:\u5948\u826f\u99c5"}}, {"type": "node", "id": 267442901, "lat": 34.5973557, "lon": 135.7039962, "tags": {"KSJ2:LIN": "\u95a2\u897f\u7dda", "KSJ2:STN": "\u738b\u5bfa", "name": "\u738b\u5bfa", "name:en": "Oji", "name:ja": "\u738b\u5bfa", "name:ko": "\uc624\uc9c0", "network": "JR\u95a2\u897f\u7dda", "note": "National-Land Numerical Information (Railway) 2007, MLIT Japan", "note:ja": "\u56fd\u571f\u6570\u5024\u60c5\u5831\uff08\u9244\u9053\u30c7\u30fc\u30bf\uff09\u5e73\u621019\u5e74\u3000\u56fd\u571f\u4ea4\u901a\u7701", "operator": "JR\u897f\u65e5\u672c", "public_transport": "station", "railway": "station", "source": "KSJ2", "source_ref": "http://nlftp.mlit.go.jp/ksj/jpgis/datalist/KsjTmplt-N02-v1_1.html", "wikidata": "Q856582", "wikipedia": "ja:\u738b\u5bfa\u99c5"}}, {"type": "node", "id": 267442986, "lat": 34.7590881, "lon": 135.9342931, "tags": {"KSJ2:LIN": "\u95a2\u897f\u7dda", "KSJ2:STN": "\u7b20\u7f6e", "name": "\u7b20\u7f6e", "name:en": "Kasagi", "name:ja": "\u7b20\u7f6e", "name:ko": "\uac00\uc0ac\uae30", "note": "National-Land Numerical Information (Railway) 2007, MLIT Japan", "note:ja": "\u56fd\u571f\u6570\u5024\u60c5\u5831\uff08\u9244\u9053\u30c7\u30fc\u30bf\uff09\u5e73\u621019\u5e74\u3000\u56fd\u571f\u4ea4\u901a\u7701", "railway": "station", "source": "KSJ2", "source_ref": "http://nlftp.mlit.go.jp/ksj/jpgis/datalist/KsjTmplt-N02-v1_1.html", "wikidata": "Q5362591", "wikipedia": "ja:\u7b20\u7f6e\u99c5"}}, {"type": "node", "id": 267442992, "lat": 34.7107152, "lon": 135.8104826, "tags": {"KSJ2:STN": "\u5e73\u57ce\u5c71", "contact:website": "http://www.jr-odekake.net/eki/top.php?id=0620836", "name": "\u5e73\u57ce\u5c71", "name:en": "Narayama", "name:ja": "\u5e73\u57ce\u5c71", "name:ko": "\ub098\ub77c\uc57c\ub9c8", "operator": "\u897f\u65e5\u672c\u65c5\u5ba2\u9244\u9053", "operator:en": "West Japan Railway Company", "public_transport": "station", "railway": "station", "ref": "JR-D20;JR-Q37", "wikidata": "Q1043313", "wikipedia": "ja:\u5e73\u57ce\u5c71\u99c5"}}, {"type": "node", "id": 267443390, "lat": 34.8210883, "lon": 136.2066992, "tags": {"KSJ2:LIN": "\u95a2\u897f\u7dda", "KSJ2:STN": "\u65b0\u5802", "name": "\u65b0\u5802", "name:en": "Shind\u014d", "name:ja": "\u65b0\u5802", "name:ja_rm": "Shind\u014d", "name:ko": "\uc2e0\ub3c4", "network": "JR\u95a2\u897f\u672c\u7dda", "note": "National-Land Numerical Information (Railway) 2007, MLIT Japan", "note:ja": "\u56fd\u571f\u6570\u5024\u60c5\u5831\uff08\u9244\u9053\u30c7\u30fc\u30bf\uff09\u5e73\u621019\u5e74\u3000\u56fd\u571f\u4ea4\u901a\u7701", "operator": "\u897f\u65e5\u672c\u65c5\u5ba2\u9244\u9053", "public_transport": "station", "railway": "station", "source": "KSJ2", "source_ref": "http://nlftp.mlit.go.jp/ksj/jpgis/datalist/KsjTmplt-N02-v1_1.html", "train": "yes", "wikidata": "Q7497321", "wikipedia": "ja:\u65b0\u5802\u99c5"}}, {"type": "node", "id": 267443743, "lat": 34.6017116, "lon": 135.7390272, "tags": {"KSJ2:LIN": "\u95a2\u897f\u7dda", "KSJ2:STN": "\u6cd5\u9686\u5bfa", "name": "\u6cd5\u9686\u5bfa", "name:en": "Horyuji", "name:ja": "\u6cd5\u9686\u5bfa", "name:ko": "\ud638\ub958\uc9c0", "note": "National-Land Numerical Information (Railway) 2007, MLIT Japan", "note:ja": "\u56fd\u571f\u6570\u5024\u60c5\u5831\uff08\u9244\u9053\u30c7\u30fc\u30bf\uff09\u5e73\u621019\u5e74\u3000\u56fd\u571f\u4ea4\u901a\u7701", "public_transport": "station", "railway": "station", "source": "KSJ2", "source_ref": "http://nlftp.mlit.go.jp/ksj/jpgis/datalist/KsjTmplt-N02-v1_1.html", "wikidata": "Q856458", "wikipedia": "ja:\u6cd5\u9686\u5bfa\u99c5"}}, {"type": "node", "id": 267445366, "lat": 34.7627771, "lon": 136.0236925, "tags": {"KSJ2:LIN": "\u95a2\u897f\u7dda", "KSJ2:STN": "\u6708\u30f6\u702c\u53e3", "name": "\u6708\u30b1\u702c\u53e3", "name:en": "Tsukigase guchi", "name:ja": "\u6708\u30b1\u702c\u53e3", "name:ja-Hira": "\u3064\u304d\u304c\u305b\u3050\u3061", "name:ja-Latn": "Tsukigase guchi", "name:ko": "\uc4f0\ud0a4\uac00\uc138\uad6c\uce58", "note": "National-Land Numerical Information (Railway) 2007, MLIT Japan", "note:ja": "\u56fd\u571f\u6570\u5024\u60c5\u5831\uff08\u9244\u9053\u30c7\u30fc\u30bf\uff09\u5e73\u621019\u5e74\u3000\u56fd\u571f\u4ea4\u901a\u7701", "public_transport": "station", "railway": "station", "source": "KSJ2", "source_ref": "http://nlftp.mlit.go.jp/ksj/jpgis/datalist/KsjTmplt-N02-v1_1.html", "train": "yes", "wikidata": "Q7850061", "wikipedia": "ja:\u6708\u30b1\u702c\u53e3\u99c5"}}, {"type": "node", "id": 267445370, "lat": 34.7889966, "lon": 136.1235104, "tags": {"name": "\u4f0a\u8cc0\u4e0a\u91ce", "name:en": "Iga-Ueno", "name:ja": "\u4f0a\u8cc0\u4e0a\u91ce", "name:ja-Hira": "\u3044\u304c\u3046\u3048\u306e", "name:ja-Latn": "Iga Ueno", "name:ko": "\uc774\uac00\uc6b0\uc5d0\ub178", "network": "JR\u95a2\u897f\u672c\u7dda;\u4f0a\u8cc0\u9244\u9053\u4f0a\u8cc0\u7dda", "note": "National-Land Numerical Information (Railway) 2007, MLIT Japan", "note:ja": "\u56fd\u571f\u6570\u5024\u60c5\u5831\uff08\u9244\u9053\u30c7\u30fc\u30bf\uff09\u5e73\u621019\u5e74\u3000\u56fd\u571f\u4ea4\u901a\u7701", "operator": "\u897f\u65e5\u672c\u65c5\u5ba2\u9244\u9053", "public_transport": "station", "railway": "station", "source": "KSJ2", "source_ref": "http://nlftp.mlit.go.jp/ksj/jpgis/datalist/KsjTmplt-N02-v1_1.html", "train": "yes", "wikidata": "Q3701508", "wikipedia": "ja:\u4f0a\u8cc0\u4e0a\u91ce\u99c5"}}, {"type": "node", "id": 267445399, "lat": 34.8044207, "lon": 136.1639374, "tags": {"KSJ2:LIN": "\u95a2\u897f\u7dda", "KSJ2:STN": "\u4f50\u90a3\u5177", "name": "\u4f50\u90a3\u5177", "name:en": "Sanagu", "name:ja": "\u4f50\u90a3\u5177", "name:ja_rm": "Sanagu", "name:ko": "\uc0ac\ub098\uad6c", "network": "JR\u95a2\u897f\u672c\u7dda", "note": "National-Land Numerical Information (Railway) 2007, MLIT Japan", "note:ja": "\u56fd\u571f\u6570\u5024\u60c5\u5831\uff08\u9244\u9053\u30c7\u30fc\u30bf\uff09\u5e73\u621019\u5e74\u3000\u56fd\u571f\u4ea4\u901a\u7701", "operator": "\u897f\u65e5\u672c\u65c5\u5ba2\u9244\u9053", "public_transport": "station", "railway": "station", "source": "KSJ2", "source_ref": "http://nlftp.mlit.go.jp/ksj/jpgis/datalist/KsjTmplt-N02-v1_1.html", "train": "yes", "wikidata": "Q7415467", "wikipedia": "ja:\u4f50\u90a3\u5177\u99c5"}}, {"type": "node", "id": 267445771, "lat": 34.7676752, "lon": 136.0541825, "tags": {"KSJ2:LIN": "\u95a2\u897f\u7dda", "KSJ2:STN": "\u5cf6\u30f6\u539f", "name": "\u5cf6\u30f6\u539f", "name:en": "Shimagahara", "name:ja": "\u5cf6\u30f6\u539f", "name:ja-Hira": "\u3057\u307e\u304c\u306f\u3089", "name:ko": "\uc2dc\ub9c8\uac00\ud558\ub77c", "network": "JR\u95a2\u897f\u672c\u7dda", "note": "National-Land Numerical Information (Railway) 2007, MLIT Japan", "note:ja": "\u56fd\u571f\u6570\u5024\u60c5\u5831\uff08\u9244\u9053\u30c7\u30fc\u30bf\uff09\u5e73\u621019\u5e74\u3000\u56fd\u571f\u4ea4\u901a\u7701", "operator": "\u897f\u65e5\u672c\u65c5\u5ba2\u9244\u9053", "public_transport": "station", "railway": "station", "source": "KSJ2", "source_ref": "http://nlftp.mlit.go.jp/ksj/jpgis/datalist/KsjTmplt-N02-v1_1.html", "train": "yes", "wikidata": "Q7496813", "wikipedia": "ja:\u5cf6\u30b1\u539f\u99c5"}}, {"type": "node", "id": 267446150, "lat": 34.771677, "lon": 135.9876573, "tags": {"KSJ2:LIN": "\u95a2\u897f\u7dda", "KSJ2:STN": "\u5927\u6cb3\u539f", "name": "\u5927\u6cb3\u539f", "name:en": "Okawara", "name:ja": "\u5927\u6cb3\u539f", "name:ja_rm": "\u014ckawara", "name:ko": "\uc624\uce74\uc640\ub77c", "note": "National-Land Numerical Information (Railway) 2007, MLIT Japan", "note:ja": "\u56fd\u571f\u6570\u5024\u60c5\u5831\uff08\u9244\u9053\u30c7\u30fc\u30bf\uff09\u5e73\u621019\u5e74\u3000\u56fd\u571f\u4ea4\u901a\u7701", "public_transport": "station", "railway": "station", "source": "KSJ2", "source_ref": "http://nlftp.mlit.go.jp/ksj/jpgis/datalist/KsjTmplt-N02-v1_1.html", "train": "yes", "wikidata": "Q11437092", "wikipedia": "ja:\u5927\u6cb3\u539f\u99c5 (\u4eac\u90fd\u5e9c)"}}, {"type": "node", "id": 335827589, "lat": 34.8846298, "lon": 135.7000757, "tags": {"KSJ2:STN": "\u516b\u5e61\u5e02", "name": "\u77f3\u6e05\u6c34\u516b\u5e61\u5bae", "name:en": "Iwashimizu-Hachimangu", "name:ja": "\u77f3\u6e05\u6c34\u516b\u5e61\u5bae", "name:ja-Hira": "\u3044\u308f\u3057\u307f\u305a\u306f\u3061\u307e\u3093\u3050\u3046", "name:ja-Latn": "Iwashimizu-Hachimang\u016b", "old_name": "\u516b\u5e61\u5e02", "old_name:en": "Yawatashi", "old_name:ja": "\u516b\u5e61\u5e02", "old_name:ja-Latn": "Yawata-shi", "old_name:ko": "\uc57c\uc640\ud0c0\uc2dc", "operator": "\u4eac\u962a\u96fb\u6c17\u9244\u9053", "public_transport": "station", "railway": "station", "ref": "KH26", "wikidata": "Q1977185", "wikipedia": "ja:\u77f3\u6e05\u6c34\u516b\u5e61\u5bae\u99c5"}}, {"type": "node", "id": 335828939, "lat": 34.8818711, "lon": 135.7788976, "tags": {"KSJ2:LIN": "\u4eac\u90fd\u7dda", "KSJ2:STN": "\u4f0a\u52e2\u7530", "name": "\u4f0a\u52e2\u7530", "name:en": "Iseda", "name:ja": "\u4f0a\u52e2\u7530", "name:ko": "\uc774\uc138\ub2e4", "note": "National-Land Numerical Information (Railway) 2007, MLIT Japan", "note:ja": "\u56fd\u571f\u6570\u5024\u60c5\u5831\uff08\u9244\u9053\u30c7\u30fc\u30bf\uff09\u5e73\u621019\u5e74\u3000\u56fd\u571f\u4ea4\u901a\u7701", "public_transport": "station", "railway": "station", "ref": "B11", "source": "KSJ2", "source_ref": "http://nlftp.mlit.go.jp/ksj/jpgis/datalist/KsjTmplt-N02-v1_1.html", "website": "https://www.kintetsu.co.jp/station/station_info/station05015.html", "wikidata": "Q6079617", "wikipedia": "ja:\u4f0a\u52e2\u7530\u99c5"}}, {"type": "node", "id": 335828959, "lat": 34.874657, "lon": 135.7770294, "tags": {"KSJ2:LIN": "\u4eac\u90fd\u7dda", "KSJ2:STN": "\u5927\u4e45\u4fdd", "name": "\u5927\u4e45\u4fdd", "name:en": "\u014ckubo", "name:ja": "\u5927\u4e45\u4fdd", "name:ko": "\uc624\ucfe0\ubcf4", "network": "\u8fd1\u757f\u65e5\u672c\u9244\u9053\u4eac\u90fd\u7dda", "note": "National-Land Numerical Information (Railway) 2007, MLIT Japan", "note:ja": "\u56fd\u571f\u6570\u5024\u60c5\u5831\uff08\u9244\u9053\u30c7\u30fc\u30bf\uff09\u5e73\u621019\u5e74\u3000\u56fd\u571f\u4ea4\u901a\u7701", "operator": "\u8fd1\u757f\u65e5\u672c\u9244\u9053", "public_transport": "station", "railway": "station", "ref": "B12", "source": "KSJ2", "source_ref": "http://nlftp.mlit.go.jp/ksj/jpgis/datalist/KsjTmplt-N02-v1_1.html", "train": "yes", "website": "https://www.kintetsu.co.jp/station/station_info/station05016.html", "wikidata": "Q8081568", "wikipedia": "ja:\u5927\u4e45\u4fdd\u99c5 (\u4eac\u90fd\u5e9c)"}}, {"type": "node", "id": 335828968, "lat": 34.8402006, "lon": 135.7729154, "tags": {"KSJ2:LIN": "\u4eac\u90fd\u7dda", "KSJ2:STN": "\u5bcc\u91ce\u8358", "name": "\u5bcc\u91ce\u8358", "name:en": "Tonosh\u014d", "name:ja": "\u5bcc\u91ce\u8358", "name:ko": "\ub3c4\ub178\uc1fc", "note": "National-Land Numerical Information (Railway) 2007, MLIT Japan", "note:ja": "\u56fd\u571f\u6570\u5024\u60c5\u5831\uff08\u9244\u9053\u30c7\u30fc\u30bf\uff09\u5e73\u621019\u5e74\u3000\u56fd\u571f\u4ea4\u901a\u7701", "public_transport": "station", "railway": "station", "ref": "B15", "source": "KSJ2", "source_ref": "http://nlftp.mlit.go.jp/ksj/jpgis/datalist/KsjTmplt-N02-v1_1.html", "website": "https://www.kintetsu.co.jp/station/station_info/station05019.html", "wikidata": "Q7821630", "wikipedia": "ja:\u5bcc\u91ce\u8358\u99c5"}}, {"type": "node", "id": 335829029, "lat": 34.8532549, "lon": 135.7720501, "tags": {"KSJ2:LIN": "\u4eac\u90fd\u7dda", "KSJ2:STN": "\u5bfa\u7530", "name": "\u5bfa\u7530", "name:en": "Terada", "name:ja": "\u5bfa\u7530", "name:ko": "\ub370\ub77c\ub2e4", "note": "National-Land Numerical Information (Railway) 2007, MLIT Japan", "note:ja": "\u56fd\u571f\u6570\u5024\u60c5\u5831\uff08\u9244\u9053\u30c7\u30fc\u30bf\uff09\u5e73\u621019\u5e74\u3000\u56fd\u571f\u4ea4\u901a\u7701", "public_transport": "station", "railway": "station", "ref": "B14", "source": "KSJ2", "source_ref": "http://nlftp.mlit.go.jp/ksj/jpgis/datalist/KsjTmplt-N02-v1_1.html", "website": "https://www.kintetsu.co.jp/station/station_info/station05018.html", "wikidata": "Q7701503", "wikipedia": "ja:\u5bfa\u7530\u99c5 (\u4eac\u90fd\u5e9c)"}}, {"type": "node", "id": 335829088, "lat": 34.8928046, "lon": 135.7818183, "tags": {"KSJ2:LIN": "\u4eac\u90fd\u7dda", "KSJ2:STN": "\u5c0f\u5009", "name": "\u5c0f\u5009", "name:en": "Ogura", "name:ja": "\u5c0f\u5009", "name:ja_rm": "Ogura", "name:ko": "\uc624\uad6c\ub77c", "note": "National-Land Numerical Information (Railway) 2007, MLIT Japan", "note:ja": "\u56fd\u571f\u6570\u5024\u60c5\u5831\uff08\u9244\u9053\u30c7\u30fc\u30bf\uff09\u5e73\u621019\u5e74\u3000\u56fd\u571f\u4ea4\u901a\u7701", "public_transport": "station", "railway": "station", "ref": "B10", "source": "KSJ2", "source_ref": "http://nlftp.mlit.go.jp/ksj/jpgis/datalist/KsjTmplt-N02-v1_1.html", "website": "https://www.kintetsu.co.jp/station/station_info/station05014.html", "wikidata": "Q7080297", "wikipedia": "ja:\u5c0f\u5009\u99c5 (\u4eac\u90fd\u5e9c)"}}, {"type": "node", "id": 335829091, "lat": 34.8209001, "lon": 135.7729191, "tags": {"KSJ2:LIN": "\u4eac\u90fd\u7dda", "KSJ2:STN": "\u65b0\u7530\u8fba", "name": "\u65b0\u7530\u8fba", "name:en": "Shin-Tanabe", "name:ja": "\u65b0\u7530\u8fba", "name:ko": "\uc2e0\ud0c0\ub098\ubca0", "note": "National-Land Numerical Information (Railway) 2007, MLIT Japan", "note:ja": "\u56fd\u571f\u6570\u5024\u60c5\u5831\uff08\u9244\u9053\u30c7\u30fc\u30bf\uff09\u5e73\u621019\u5e74\u3000\u56fd\u571f\u4ea4\u901a\u7701", "public_transport": "station", "railway": "station", "ref": "B16", "source": "KSJ2", "source_ref": "http://nlftp.mlit.go.jp/ksj/jpgis/datalist/KsjTmplt-N02-v1_1.html", "website": "https://www.kintetsu.co.jp/station/station_info/station05020.html", "wikidata": "Q7497135", "wikipedia": "ja:\u65b0\u7530\u8fba\u99c5"}}, {"type": "node", "id": 335829127, "lat": 34.808558, "lon": 135.7784624, "tags": {"KSJ2:LIN": "\u4eac\u90fd\u7dda", "KSJ2:STN": "\u8208\u6238", "name": "\u8208\u6238", "name:en": "K\u014ddo", "name:ja": "\u8208\u6238", "name:ko": "\uace0\ub3c4", "note": "National-Land Numerical Information (Railway) 2007, MLIT Japan", "note:ja": "\u56fd\u571f\u6570\u5024\u60c5\u5831\uff08\u9244\u9053\u30c7\u30fc\u30bf\uff09\u5e73\u621019\u5e74\u3000\u56fd\u571f\u4ea4\u901a\u7701", "public_transport": "station", "railway": "station", "ref": "B17", "source": "KSJ2", "source_ref": "http://nlftp.mlit.go.jp/ksj/jpgis/datalist/KsjTmplt-N02-v1_1.html", "website": "https://www.kintetsu.co.jp/station/station_info/station05021.html", "wheelchair": "yes", "wikidata": "Q6455096", "wikipedia": "ja:\u8208\u6238\u99c5"}}, {"type": "node", "id": 335829200, "lat": 34.8648954, "lon": 135.7747985, "tags": {"KSJ2:LIN": "\u4eac\u90fd\u7dda", "KSJ2:STN": "\u4e45\u6d25\u5ddd", "name": "\u4e45\u6d25\u5ddd", "name:en": "Kutsukawa", "name:ja": "\u4e45\u6d25\u5ddd", "name:ko": "\uad6c\uc4f0\uce74\uc640", "note": "National-Land Numerical Information (Railway) 2007, MLIT Japan", "note:ja": "\u56fd\u571f\u6570\u5024\u60c5\u5831\uff08\u9244\u9053\u30c7\u30fc\u30bf\uff09\u5e73\u621019\u5e74\u3000\u56fd\u571f\u4ea4\u901a\u7701", "public_transport": "station", "railway": "station", "ref": "B13", "source": "KSJ2", "source_ref": "http://nlftp.mlit.go.jp/ksj/jpgis/datalist/KsjTmplt-N02-v1_1.html", "website": "https://www.kintetsu.co.jp/station/station_info/station05017.html", "wikidata": "Q6448547", "wikipedia": "ja:\u4e45\u6d25\u5ddd\u99c5"}}, {"type": "node", "id": 335847703, "lat": 34.692305, "lon": 135.696183, "tags": {"KSJ2:LIN": "\u751f\u99d2\u92fc\u7d22\u7dda", "KSJ2:STN": "\u9ce5\u5c45\u524d", "name": "\u9ce5\u5c45\u524d", "name:en": "Toriimae", "name:ja": "\u9ce5\u5c45\u524d", "name:ja-Hira": "\u3068\u308a\u3044\u307e\u3048", "name:ko": "\ub3c4\ub9ac\uc774\ub9c8\uc5d0", "note": "National-Land Numerical Information (Railway) 2007, MLIT Japan", "note:ja": "\u56fd\u571f\u6570\u5024\u60c5\u5831\uff08\u9244\u9053\u30c7\u30fc\u30bf\uff09\u5e73\u621019\u5e74\u3000\u56fd\u571f\u4ea4\u901a\u7701", "public_transport": "station", "railway": "station", "source": "KSJ2", "source_ref": "http://nlftp.mlit.go.jp/ksj/jpgis/datalist/KsjTmplt-N02-v1_1.html", "wikidata": "Q11674884", "wikipedia": "ja:\u9ce5\u5c45\u524d\u99c5"}}, {"type": "node", "id": 339090275, "lat": 34.881081, "lon": 135.6998088, "tags": {"KSJ2:LIN": "\u92fc\u7d22\u7dda", "KSJ2:STN": "\u7537\u5c71\u5c71\u4e0a", "name": "\u30b1\u30fc\u30d6\u30eb\u516b\u5e61\u5bae\u5c71\u4e0a", "name:en": "Cable-hachimangu-sanjo Station", "name:ja": "\u30b1\u30fc\u30d6\u30eb\u516b\u5e61\u5bae\u5c71\u4e0a", "name:ja-Hira": "\u3051\u30fc\u3076\u308b\u306f\u3061\u307e\u3093\u3050\u3046\u3055\u3093\u3058\u3087\u3046", "name:ja-Latn": "K\u0113buru-Hachimang\u016b-Sanj\u014d", "network": "\u77f3\u6e05\u6c34\u516b\u5e61\u5bae\u53c2\u9053\u30b1\u30fc\u30d6\u30eb", "note": "National-Land Numerical Information (Railway) 2007, MLIT Japan", "note:ja": "\u56fd\u571f\u6570\u5024\u60c5\u5831\uff08\u9244\u9053\u30c7\u30fc\u30bf\uff09\u5e73\u621019\u5e74\u3000\u56fd\u571f\u4ea4\u901a\u7701", "old_name": "\u7537\u5c71\u5c71\u4e0a", "old_name:en": "Otokoyama-Sanjo", "old_name:ja": "\u7537\u5c71\u5c71\u4e0a", "old_name:ja_rm": "Otokoyama Sanj\u014d", "old_name:ko": "\uc624\ud1a0\ucf54\uc57c\ub9c8\uc0b0\uc870", "operator": "\u4eac\u962a\u96fb\u6c17\u9244\u9053", "railway": "station", "ref": "KH81", "source": "KSJ2", "source_ref": "http://nlftp.mlit.go.jp/ksj/jpgis/datalist/KsjTmplt-N02-v1_1.html", "wikidata": "Q7108964", "wikipedia": "ja:\u30b1\u30fc\u30d6\u30eb\u516b\u5e61\u5bae\u5c71\u4e0a\u99c5"}}, {"type": "node", "id": 413334481, "lat": 34.7264773, "lon": 136.1485129, "tags": {"KSJ2:LIN": "\u4f0a\u8cc0\u7dda", "KSJ2:RAS": "eb03_999", "KSJ2:STN": "\u5e02\u90e8", "KSJ2:segment": "eb02_1940", "name": "\u5e02\u90e8", "name:en": "Ichibe", "name:ja": "\u5e02\u90e8", "name:ko": "\uc774\uce58\ubca0", "note": "National-Land Numerical Information (Railway) 2007, MLIT Japan", "note:ja": "\u56fd\u571f\u6570\u5024\u60c5\u5831\uff08\u9244\u9053\u30c7\u30fc\u30bf\uff09\u5e73\u621019\u5e74\u3000\u56fd\u571f\u4ea4\u901a\u7701", "public_transport": "station", "railway": "station", "source": "KSJ2", "source_ref": "http://nlftp.mlit.go.jp/ksj/jpgis/datalist/KsjTmplt-N02-v1_1.html", "wikidata": "Q5986103", "wikipedia": "ja:\u5e02\u90e8\u99c5"}}, {"type": "node", "id": 413334491, "lat": 34.7155312, "lon": 136.1530783, "tags": {"KSJ2:LIN": "\u4f0a\u8cc0\u7dda", "KSJ2:RAS": "eb03_1003", "KSJ2:STN": "\u4f9d\u90a3\u53e4", "KSJ2:segment": "eb02_1927", "name": "\u4f9d\u90a3\u53e4", "name:en": "Inako", "name:ja": "\u4f9d\u90a3\u53e4", "name:ko": "\uc774\ub098\ucf54", "note": "National-Land Numerical Information (Railway) 2007, MLIT Japan", "note:ja": "\u56fd\u571f\u6570\u5024\u60c5\u5831\uff08\u9244\u9053\u30c7\u30fc\u30bf\uff09\u5e73\u621019\u5e74\u3000\u56fd\u571f\u4ea4\u901a\u7701", "public_transport": "station", "railway": "station", "source": "KSJ2", "source_ref": "http://nlftp.mlit.go.jp/ksj/jpgis/datalist/KsjTmplt-N02-v1_1.html", "train": "yes", "wikidata": "Q6013429", "wikipedia": "ja:\u4f9d\u90a3\u53e4\u99c5"}}, {"type": "node", "id": 413334493, "lat": 34.7544045, "lon": 136.136526, "tags": {"KSJ2:LIN": "\u4f0a\u8cc0\u7dda", "KSJ2:RAS": "eb03_997", "KSJ2:STN": "\u6851\u753a", "KSJ2:segment": "eb02_1942", "name": "\u6851\u753a", "name:en": "Kuwamachi", "name:ja": "\u6851\u753a", "name:ko": "\uad6c\uc640\ub9c8\uce58", "note": "National-Land Numerical Information (Railway) 2007, MLIT Japan", "note:ja": "\u56fd\u571f\u6570\u5024\u60c5\u5831\uff08\u9244\u9053\u30c7\u30fc\u30bf\uff09\u5e73\u621019\u5e74\u3000\u56fd\u571f\u4ea4\u901a\u7701", "public_transport": "station", "railway": "station", "source": "KSJ2", "source_ref": "http://nlftp.mlit.go.jp/ksj/jpgis/datalist/KsjTmplt-N02-v1_1.html", "wikidata": "Q6449044", "wikipedia": "ja:\u6851\u753a\u99c5"}}, {"type": "node", "id": 413334534, "lat": 34.7046527, "lon": 136.1574129, "tags": {"KSJ2:LIN": "\u4f0a\u8cc0\u7dda", "KSJ2:RAS": "eb03_1002", "KSJ2:STN": "\u4e38\u5c71", "KSJ2:segment": "eb02_1929", "name": "\u4e38\u5c71", "name:en": "Maruyama", "name:ja": "\u4e38\u5c71", "name:ko": "\ub9c8\ub8e8\uc57c\ub9c8", "note": "National-Land Numerical Information (Railway) 2007, MLIT Japan", "note:ja": "\u56fd\u571f\u6570\u5024\u60c5\u5831\uff08\u9244\u9053\u30c7\u30fc\u30bf\uff09\u5e73\u621019\u5e74\u3000\u56fd\u571f\u4ea4\u901a\u7701", "public_transport": "station", "railway": "station", "source": "KSJ2", "source_ref": "http://nlftp.mlit.go.jp/ksj/jpgis/datalist/KsjTmplt-N02-v1_1.html", "wikidata": "Q11368292", "wikipedia": "ja:\u4e38\u5c71\u99c5 (\u4e09\u91cd\u770c)"}}, {"type": "node", "id": 413334540, "lat": 34.766844, "lon": 136.1237329, "tags": {"KSJ2:LIN": "\u4f0a\u8cc0\u7dda", "KSJ2:RAS": "eb03_1006", "KSJ2:STN": "\u897f\u5927\u624b (Nishi\u014dte)", "KSJ2:segment": "eb02_1934", "name": "\u897f\u5927\u624b", "name:en": "Nishi-\u014cte", "name:ja": "\u897f\u5927\u624b", "name:ko": "\ub2c8\uc2dc\uc624\ud14c", "note": "National-Land Numerical Information (Railway) 2007, MLIT Japan", "note:ja": "\u56fd\u571f\u6570\u5024\u60c5\u5831\uff08\u9244\u9053\u30c7\u30fc\u30bf\uff09\u5e73\u621019\u5e74\u3000\u56fd\u571f\u4ea4\u901a\u7701", "public_transport": "station", "railway": "station", "source": "KSJ2", "source_ref": "http://nlftp.mlit.go.jp/ksj/jpgis/datalist/KsjTmplt-N02-v1_1.html", "wikidata": "Q11627570", "wikipedia": "ja:\u897f\u5927\u624b\u99c5"}}, {"type": "node", "id": 413334646, "lat": 34.6763944, "lon": 136.1607372, "tags": {"KSJ2:LIN": "\u4f0a\u8cc0\u7dda", "KSJ2:RAS": "eb03_1007", "KSJ2:STN": "\u6bd4\u571f", "KSJ2:segment": "eb02_1920", "name": "\u6bd4\u571f", "name:en": "Hido", "name:ja": "\u6bd4\u571f", "name:ja_rm": "Hido", "name:ko": "\ud788\ub3c4", "note": "National-Land Numerical Information (Railway) 2007, MLIT Japan", "note:ja": "\u56fd\u571f\u6570\u5024\u60c5\u5831\uff08\u9244\u9053\u30c7\u30fc\u30bf\uff09\u5e73\u621019\u5e74\u3000\u56fd\u571f\u4ea4\u901a\u7701", "public_transport": "station", "railway": "station", "source": "KSJ2", "source_ref": "http://nlftp.mlit.go.jp/ksj/jpgis/datalist/KsjTmplt-N02-v1_1.html", "wikidata": "Q5752887", "wikipedia": "ja:\u6bd4\u571f\u99c5"}}, {"type": "node", "id": 413334652, "lat": 34.7669585, "lon": 136.1343985, "tags": {"KSJ2:LIN": "\u4f0a\u8cc0\u7dda", "KSJ2:RAS": "eb03_998", "KSJ2:STN": "\u5e83\u5c0f\u8def", "KSJ2:segment": "eb02_1938", "name": "\u5e83\u5c0f\u8def", "name:en": "Hirok\u014dji", "name:ja": "\u5e83\u5c0f\u8def", "name:ko": "\ud788\ub85c\ucf54\uc9c0", "note": "National-Land Numerical Information (Railway) 2007, MLIT Japan", "note:ja": "\u56fd\u571f\u6570\u5024\u60c5\u5831\uff08\u9244\u9053\u30c7\u30fc\u30bf\uff09\u5e73\u621019\u5e74\u3000\u56fd\u571f\u4ea4\u901a\u7701", "public_transport": "station", "railway": "station", "source": "KSJ2", "source_ref": "http://nlftp.mlit.go.jp/ksj/jpgis/datalist/KsjTmplt-N02-v1_1.html", "wikidata": "Q5770462", "wikipedia": "ja:\u5e83\u5c0f\u8def\u99c5 (\u4e09\u91cd\u770c)"}}, {"type": "node", "id": 413334705, "lat": 34.6955285, "lon": 136.1608853, "tags": {"KSJ2:LIN": "\u4f0a\u8cc0\u7dda", "KSJ2:RAS": "eb03_1009", "KSJ2:STN": "\u4e0a\u6797", "KSJ2:segment": "eb02_1936", "name": "\u4e0a\u6797", "name:en": "Uebayashi", "name:ja": "\u4e0a\u6797", "name:ja_rm": "Uebayashi", "name:ko": "\uc6b0\uc5d0\ubc14\uc57c\uc2dc", "note": "National-Land Numerical Information (Railway) 2007, MLIT Japan", "note:ja": "\u56fd\u571f\u6570\u5024\u60c5\u5831\uff08\u9244\u9053\u30c7\u30fc\u30bf\uff09\u5e73\u621019\u5e74\u3000\u56fd\u571f\u4ea4\u901a\u7701", "public_transport": "station", "railway": "station", "source": "KSJ2", "source_ref": "http://nlftp.mlit.go.jp/ksj/jpgis/datalist/KsjTmplt-N02-v1_1.html", "wikidata": "Q7877407", "wikipedia": "ja:\u4e0a\u6797\u99c5"}}, {"type": "node", "id": 413334737, "lat": 34.7354885, "lon": 136.140285, "tags": {"KSJ2:LIN": "\u4f0a\u8cc0\u7dda", "KSJ2:RAS": "eb03_1005", "KSJ2:STN": "\u732a\u7530\u9053", "KSJ2:segment": "eb02_1939", "name": "\u732a\u7530\u9053", "name:en": "Idamichi", "name:ja": "\u732a\u7530\u9053", "name:ko": "\uc774\ub2e4\ubbf8\uce58", "note": "National-Land Numerical Information (Railway) 2007, MLIT Japan", "note:ja": "\u56fd\u571f\u6570\u5024\u60c5\u5831\uff08\u9244\u9053\u30c7\u30fc\u30bf\uff09\u5e73\u621019\u5e74\u3000\u56fd\u571f\u4ea4\u901a\u7701", "public_transport": "station", "railway": "station", "source": "KSJ2", "source_ref": "http://nlftp.mlit.go.jp/ksj/jpgis/datalist/KsjTmplt-N02-v1_1.html", "wikidata": "Q5987640", "wikipedia": "ja:\u732a\u7530\u9053\u99c5"}}, {"type": "node", "id": 413334743, "lat": 34.7615678, "lon": 136.1357438, "tags": {"KSJ2:LIN": "\u4f0a\u8cc0\u7dda", "KSJ2:RAS": "eb03_1000", "KSJ2:STN": "\u8305\u753a", "KSJ2:segment": "eb02_1930", "name": "\u8305\u753a", "name:en": "Kayamachi", "name:ja": "\u8305\u753a", "name:ko": "\uac00\uc57c\ub9c8\uce58", "note": "National-Land Numerical Information (Railway) 2007, MLIT Japan", "note:ja": "\u56fd\u571f\u6570\u5024\u60c5\u5831\uff08\u9244\u9053\u30c7\u30fc\u30bf\uff09\u5e73\u621019\u5e74\u3000\u56fd\u571f\u4ea4\u901a\u7701", "public_transport": "station", "railway": "station", "source": "KSJ2", "source_ref": "http://nlftp.mlit.go.jp/ksj/jpgis/datalist/KsjTmplt-N02-v1_1.html", "train": "yes", "wikidata": "Q6380432", "wikipedia": "ja:\u8305\u753a\u99c5"}}, {"type": "node", "id": 413334787, "lat": 34.7677008, "lon": 136.1297647, "tags": {"KSJ2:LIN": "\u4f0a\u8cc0\u7dda", "KSJ2:RAS": "eb03_1001", "KSJ2:STN": "\u4e0a\u91ce\u5e02", "KSJ2:segment": "eb02_1933", "name": "\u4e0a\u91ce\u5e02", "name:en": "Uenoshi", "name:ja": "\u4e0a\u91ce\u5e02", "name:ko": "\uc6b0\uc5d0\ub178\uc2dc", "note": "National-Land Numerical Information (Railway) 2007, MLIT Japan", "note:ja": "\u56fd\u571f\u6570\u5024\u60c5\u5831\uff08\u9244\u9053\u30c7\u30fc\u30bf\uff09\u5e73\u621019\u5e74\u3000\u56fd\u571f\u4ea4\u901a\u7701", "public_transport": "station", "railway": "station", "source": "KSJ2", "source_ref": "http://nlftp.mlit.go.jp/ksj/jpgis/datalist/KsjTmplt-N02-v1_1.html", "wheelchair": "no", "wikidata": "Q195404", "wikipedia": "ja:\u4e0a\u91ce\u5e02\u99c5"}}, {"type": "node", "id": 413334799, "lat": 34.7867197, "lon": 136.1160458, "tags": {"KSJ2:LIN": "\u4f0a\u8cc0\u7dda", "KSJ2:RAS": "eb03_1004", "KSJ2:STN": "\u65b0\u5c45", "KSJ2:segment": "eb02_1931", "name": "\u65b0\u5c45", "name:en": "Nii", "name:ja": "\u65b0\u5c45", "name:ko": "\ub2c8\uc774", "note": "National-Land Numerical Information (Railway) 2007, MLIT Japan", "note:ja": "\u56fd\u571f\u6570\u5024\u60c5\u5831\uff08\u9244\u9053\u30c7\u30fc\u30bf\uff09\u5e73\u621019\u5e74\u3000\u56fd\u571f\u4ea4\u901a\u7701", "public_transport": "station", "railway": "station", "source": "KSJ2", "source_ref": "http://nlftp.mlit.go.jp/ksj/jpgis/datalist/KsjTmplt-N02-v1_1.html", "wikidata": "Q7034359", "wikipedia": "ja:\u65b0\u5c45\u99c5"}}, {"type": "node", "id": 413336976, "lat": 34.4982014, "lon": 135.7545588, "tags": {"KSJ2:LIN": "\u5357\u5927\u962a\u7dda", "KSJ2:RAS": "eb03_1254", "KSJ2:STN": "\u6d6e\u5b54", "KSJ2:segment": "eb02_2427", "name": "\u6d6e\u5b54", "name:en": "Ukiana", "name:ja": "\u6d6e\u5b54", "name:ja_rm": "Ukiana", "name:ko": "\uc6b0\ud0a4\uc544\ub098", "note": "National-Land Numerical Information (Railway) 2007, MLIT Japan", "note:ja": "\u56fd\u571f\u6570\u5024\u60c5\u5831\uff08\u9244\u9053\u30c7\u30fc\u30bf\uff09\u5e73\u621019\u5e74\u3000\u56fd\u571f\u4ea4\u901a\u7701", "public_transport": "station", "railway": "station", "source": "KSJ2", "source_ref": "http://nlftp.mlit.go.jp/ksj/jpgis/datalist/KsjTmplt-N02-v1_1.html", "wikidata": "Q7878310", "wikipedia": "ja:\u6d6e\u5b54\u99c5"}}, {"type": "node", "id": 413337108, "lat": 34.5067389, "lon": 135.7432036, "tags": {"KSJ2:LIN": "\u5357\u5927\u962a\u7dda", "KSJ2:RAS": "eb03_1266", "KSJ2:STN": "\u9ad8\u7530\u5e02", "KSJ2:segment": "eb02_2441", "name": "\u9ad8\u7530\u5e02", "name:en": "Takadashi", "name:ja": "\u9ad8\u7530\u5e02", "name:ja_rm": "Takadashi", "name:ko": "\ub2e4\uce74\ub2e4\uc2dc", "note": "National-Land Numerical Information (Railway) 2007, MLIT Japan", "note:ja": "\u56fd\u571f\u6570\u5024\u60c5\u5831\uff08\u9244\u9053\u30c7\u30fc\u30bf\uff09\u5e73\u621019\u5e74\u3000\u56fd\u571f\u4ea4\u901a\u7701", "public_transport": "station", "railway": "station", "source": "KSJ2", "source_ref": "http://nlftp.mlit.go.jp/ksj/jpgis/datalist/KsjTmplt-N02-v1_1.html", "url": "http://www.kintetsu.co.jp/station/station_info/station07028.html", "wikidata": "Q7677000", "wikipedia": "ja:\u9ad8\u7530\u5e02\u99c5"}}, {"type": "node", "id": 413337199, "lat": 34.4934927, "lon": 135.7651134, "tags": {"KSJ2:LIN": "\u5357\u5927\u962a\u7dda", "KSJ2:RAS": "eb03_1258", "KSJ2:STN": "\u574a\u57ce", "KSJ2:segment": "eb02_2431", "name": "\u574a\u57ce", "name:en": "B\u014dj\u014d", "name:ja": "\u574a\u57ce", "name:ja_rm": "B\u014dj\u014d", "name:ko": "\ubcf4\uc870", "note": "National-Land Numerical Information (Railway) 2007, MLIT Japan", "note:ja": "\u56fd\u571f\u6570\u5024\u60c5\u5831\uff08\u9244\u9053\u30c7\u30fc\u30bf\uff09\u5e73\u621019\u5e74\u3000\u56fd\u571f\u4ea4\u901a\u7701", "public_transport": "station", "railway": "station", "source": "KSJ2", "source_ref": "http://nlftp.mlit.go.jp/ksj/jpgis/datalist/KsjTmplt-N02-v1_1.html", "wikidata": "Q5005692", "wikipedia": "ja:\u574a\u57ce\u99c5"}}, {"type": "node", "id": 413348192, "lat": 34.4741936, "lon": 135.7959829, "tags": {"KSJ2:LIN": "\u5409\u91ce\u7dda", "KSJ2:RAS": "eb03_1037", "KSJ2:STN": "\u5ca1\u5bfa", "KSJ2:segment": "eb02_2000", "name": "\u5ca1\u5bfa", "name:en": "Okadera", "name:ja": "\u5ca1\u5bfa", "name:ja_kana": "\u304a\u304b\u3067\u3089", "name:ja_rm": "Okadera", "name:ko": "\uc624\uce74\ub370\ub77c", "note": "National-Land Numerical Information (Railway) 2007, MLIT Japan", "note:ja": "\u56fd\u571f\u6570\u5024\u60c5\u5831\uff08\u9244\u9053\u30c7\u30fc\u30bf\uff09\u5e73\u621019\u5e74\u3000\u56fd\u571f\u4ea4\u901a\u7701", "public_transport": "station", "railway": "station", "source": "KSJ2", "source_ref": "http://nlftp.mlit.go.jp/ksj/jpgis/datalist/KsjTmplt-N02-v1_1.html", "wikidata": "Q7081721", "wikipedia": "ja:\u5ca1\u5bfa\u99c5"}}, {"type": "node", "id": 413348804, "lat": 34.4649307, "lon": 135.7981738, "tags": {"KSJ2:LIN": "\u5409\u91ce\u7dda", "KSJ2:RAS": "eb03_1039", "KSJ2:STN": "\u98db\u9ce5", "KSJ2:segment": "eb02_2001", "name": "\u98db\u9ce5", "name:en": "Asuka", "name:ja": "\u98db\u9ce5", "name:ja_kana": "\u3042\u3059\u304b", "name:ja_rm": "Asuka", "name:ko": "\uc544\uc2a4\uce74", "note": "National-Land Numerical Information (Railway) 2007, MLIT Japan", "note:ja": "\u56fd\u571f\u6570\u5024\u60c5\u5831\uff08\u9244\u9053\u30c7\u30fc\u30bf\uff09\u5e73\u621019\u5e74\u3000\u56fd\u571f\u4ea4\u901a\u7701", "public_transport": "station", "railway": "station", "source": "KSJ2", "source_ref": "http://nlftp.mlit.go.jp/ksj/jpgis/datalist/KsjTmplt-N02-v1_1.html", "wheelchair": "limited", "wikidata": "Q4811860", "wikipedia": "ja:\u98db\u9ce5\u99c5"}}, {"type": "node", "id": 2591253777, "lat": 34.5132193, "lon": 135.8466795, "tags": {"KSJ2:LIN": "\u685c\u4e95\u7dda", "KSJ2:STN": "\u685c\u4e95", "name": "\u685c\u4e95", "name:en": "Sakurai", "name:ja": "\u685c\u4e95", "name:ja-Hira": "\u3055\u304f\u3089\u3044", "name:ja_rm": "Sakurai", "name:ko": "\uc0ac\ucfe0\ub77c\uc774", "public_transport": "station", "railway": "station", "url": "http://www.jr-odekake.net/eki/top.php?id=0621709", "wikidata": "Q5361714", "wikipedia": "ja:\u685c\u4e95\u99c5 (\u5948\u826f\u770c)"}}, {"type": "node", "id": 2591253796, "lat": 34.5134646, "lon": 135.8466164, "tags": {"KSJ2:LIN": "\u5927\u962a\u7dda", "KSJ2:STN": "\u685c\u4e95", "name": "\u685c\u4e95", "name:en": "Sakurai", "name:ja": "\u685c\u4e95", "name:ja-Hira": "\u3055\u304f\u3089\u3044", "name:ja-Latn": "Sakurai", "name:ko": "\uc0ac\ucfe0\ub77c\uc774", "operator": "\u8fd1\u757f\u65e5\u672c\u9244\u9053", "operator:ja": "\u8fd1\u757f\u65e5\u672c\u9244\u9053", "public_transport": "station", "railway": "station", "ref": "D42", "url": "http://www.kintetsu.co.jp/station/station_info/station02033.html", "wikidata": "Q5361714", "wikipedia": "ja:\u685c\u4e95\u99c5 (\u5948\u826f\u770c)"}}, {"type": "node", "id": 2708811881, "lat": 34.8843682, "lon": 135.699463}, {"type": "node", "id": 2708811897, "lat": 34.8843892, "lon": 135.6993764}, {"type": "node", "id": 2708811905, "lat": 34.8844078, "lon": 135.6996003}, {"type": "node", "id": 2708811915, "lat": 34.8844235, "lon": 135.6995355}, {"type": "node", "id": 2708811929, "lat": 34.884448, "lon": 135.6995443}, {"type": "node", "id": 2708811933, "lat": 34.8844514, "lon": 135.6995305}, {"type": "node", "id": 2708811941, "lat": 34.8844642, "lon": 135.6995352}, {"type": "node", "id": 2708811945, "lat": 34.8844726, "lon": 135.6995005}, {"type": "node", "id": 2708811957, "lat": 34.8844952, "lon": 135.6996318}, {"type": "node", "id": 2708811961, "lat": 34.8844978, "lon": 135.6996212}, {"type": "node", "id": 2708811977, "lat": 34.8845855, "lon": 135.6996527}, {"type": "node", "id": 2708811983, "lat": 34.8846103, "lon": 135.69955}, {"type": "node", "id": 2708811987, "lat": 34.8846184, "lon": 135.6995529}, {"type": "node", "id": 2708811995, "lat": 34.8846394, "lon": 135.6994663}, {"type": "node", "id": 3622747777, "lat": 34.8808954, "lon": 135.6997865}, {"type": "node", "id": 3622747778, "lat": 34.8809038, "lon": 135.6998405}, {"type": "node", "id": 3622747779, "lat": 34.8809297, "lon": 135.6998345}, {"type": "node", "id": 3622747780, "lat": 34.8809392, "lon": 135.6998956}, {"type": "node", "id": 3622747789, "lat": 34.8810181, "lon": 135.6997581}, {"type": "node", "id": 3622747790, "lat": 34.8810215, "lon": 135.6997798}, {"type": "node", "id": 3622747791, "lat": 34.8810343, "lon": 135.6998621}, {"type": "node", "id": 3622747792, "lat": 34.881036, "lon": 135.6998731}, {"type": "node", "id": 3622748996, "lat": 34.8811453, "lon": 135.699751}, {"type": "node", "id": 3622748998, "lat": 34.8811582, "lon": 135.6998333}, {"type": "node", "id": 3646582027, "lat": 34.8904111, "lon": 135.8007079, "tags": {"KSJ2:LIN": "\u5948\u826f\u7dda", "KSJ2:STN": "\u5b87\u6cbb", "contact:website": "https://www.jr-odekake.net/eki/top?id=0621609", "name": "\u5b87\u6cbb", "name:en": "Uji", "name:ja": "\u5b87\u6cbb", "name:ja-Latn": "Uji", "name:ko": "\uc6b0\uc9c0", "note": "National-Land Numerical Information (Railway) 2007, MLIT Japan", "note:ja": "\u56fd\u571f\u6570\u5024\u60c5\u5831\uff08\u9244\u9053\u30c7\u30fc\u30bf\uff09\u5e73\u621019\u5e74\u3000\u56fd\u571f\u4ea4\u901a\u7701", "operator": "\u897f\u65e5\u672c\u65c5\u5ba2\u9244\u9053", "operator:en": "West Japan Railway Company", "public_transport": "station", "railway": "station", "ref": "JR-D09", "source": "KSJ2", "source_ref": "http://nlftp.mlit.go.jp/ksj/jpgis/datalist/KsjTmplt-N02-v1_1.html", "wikidata": "Q1049000", "wikipedia": "ja:\u5b87\u6cbb\u99c5 (JR\u897f\u65e5\u672c)"}}, {"type": "node", "id": 3889014811, "lat": 34.8945835, "lon": 135.8063336, "tags": {"KSJ2:LIN": "\u5b87\u6cbb\u7dda", "KSJ2:STN": "\u5b87\u6cbb", "alt_name:en": "Keihan Uji", "alt_name:ja": "\u4eac\u962a\u5b87\u6cbb", "alt_name:ja-Hira": "\u3051\u3044\u306f\u3093\u3046\u3058", "alt_name:ja-Latn": "Keihan Uji", "name": "\u4eac\u962a\u5b87\u6cbb\u99c5", "name:en": "keihan-uji", "name:ja": "\u4eac\u962a\u5b87\u6cbb", "name:ja-Latn": "Uji", "network": "\u4eac\u962a\u96fb\u6c17\u9244\u9053\u5b87\u6cbb\u7dda", "note:ja": "\u56fd\u571f\u6570\u5024\u60c5\u5831\uff08\u9244\u9053\u30c7\u30fc\u30bf\uff09\u5e73\u621019\u5e74\u3000\u56fd\u571f\u4ea4\u901a\u7701", "operator": "\u4eac\u962a\u96fb\u6c17\u9244\u9053", "public_transport": "station", "railway": "station", "ref": "KH77", "source": "survey", "source_ref": "http://nlftp.mlit.go.jp/ksj/jpgis/datalist/KsjTmplt-N02-v1_1.html", "website": "https://www.keihan.co.jp/traffic/station/stationinfo/310.html", "wheelchair": "yes", "wikipedia:en": "Uji_Station_(Keihan)"}}, {"type": "node", "id": 3889014813, "lat": 34.8988619, "lon": 135.8063415, "tags": {"KSJ2:LIN": "\u5b87\u6cbb\u7dda", "KSJ2:STN": "\u4e09\u5ba4\u6238", "name": "\u4e09\u5ba4\u6238", "name:en": "Mimurodo", "name:ja": "\u4e09\u5ba4\u6238", "name:ja_rm": "Mimurodo", "name:ru": "\u041c\u0438\u043c\u0443\u0440\u043e\u0434\u043e", "network": "\u4eac\u962a\u96fb\u6c17\u9244\u9053\u5b87\u6cbb\u7dda", "note": "National-Land Numerical Information (Railway) 2007, MLIT Japan", "note:ja": "\u56fd\u571f\u6570\u5024\u60c5\u5831\uff08\u9244\u9053\u30c7\u30fc\u30bf\uff09\u5e73\u621019\u5e74\u3000\u56fd\u571f\u4ea4\u901a\u7701", "operator": "\u4eac\u962a\u96fb\u6c17\u9244\u9053", "public_transport": "station", "railway": "station", "ref": "KH76", "source": "KSJ2", "source_ref": "http://nlftp.mlit.go.jp/ksj/jpgis/datalist/KsjTmplt-N02-v1_1.html", "website": "https://www.keihan.co.jp/traffic/station/stationinfo/311.html", "wheelchair": "yes", "wikidata": "Q2339465", "wikipedia": "ja:\u4e09\u5ba4\u6238\u99c5", "wikipedia:en": "Mimurodo_Station"}}, {"type": "node", "id": 4053369440, "lat": 34.6001921, "lon": 135.8305562, "tags": {"name": "\u5929\u7406", "name:en": "Tenri", "name:ja": "\u5929\u7406", "name:ja-Hira": "\u3066\u3093\u308a", "name:ko": "\ub374\ub9ac", "public_transport": "station", "railway": "station", "wikidata": "Q4188394", "wikipedia": "ja:\u5929\u7406\u99c5"}}, {"type": "node", "id": 4053979277, "lat": 34.5085608, "lon": 135.7209208, "tags": {"KSJ2:LIN": "\u5357\u5927\u962a\u7dda", "KSJ2:RAS": "eb03_1248", "KSJ2:STN": "\u5c3a\u571f", "KSJ2:segment": "eb02_2420", "name": "\u5c3a\u571f", "name:en": "Shakudo", "name:ja": "\u5c3a\u571f", "name:ja_rm": "Shakudo", "name:ko": "\uc0e4\ucfe0\ub3c4", "note": "National-Land Numerical Information (Railway) 2007, MLIT Japan", "note:ja": "\u56fd\u571f\u6570\u5024\u60c5\u5831\uff08\u9244\u9053\u30c7\u30fc\u30bf\uff09\u5e73\u621019\u5e74\u3000\u56fd\u571f\u4ea4\u901a\u7701", "public_transport": "station", "railway": "station", "source": "KSJ2", "source_ref": "http://nlftp.mlit.go.jp/ksj/jpgis/datalist/KsjTmplt-N02-v1_1.html", "url": "http://www.kintetsu.co.jp/station/station_info/station07027.html", "wikidata": "Q7487088", "wikipedia": "ja:\u5c3a\u571f\u99c5"}}, {"type": "node", "id": 4053979279, "lat": 34.483448, "lon": 135.7937113, "tags": {"KSJ2:LIN": "\u5409\u91ce\u7dda", "KSJ2:RAS": "eb03_1042", "KSJ2:STN": "\u6a7f\u539f\u795e\u5bae\u524d", "KSJ2:segment": "eb02_2009", "alt_name:ko": "\uac00\uc2dc\ud558\ub77c\uc9c4\uad6c\ub9c8\uc5d0", "name": "\u6a7f\u539f\u795e\u5bae\u524d", "name:en": "Kashiharajing\u016b-Mae", "name:ja": "\u6a7f\u539f\u795e\u5bae\u524d", "name:ja_rm": "Kashiharajing\u016b-Mae", "name:ko": "\uac00\uc2dc\ud558\ub77c\uc2e0\uad81\uc55e", "note": "National-Land Numerical Information (Railway) 2007, MLIT Japan", "note:ja": "\u56fd\u571f\u6570\u5024\u60c5\u5831\uff08\u9244\u9053\u30c7\u30fc\u30bf\uff09\u5e73\u621019\u5e74\u3000\u56fd\u571f\u4ea4\u901a\u7701", "public_transport": "station", "railway": "station", "ref": "B42;F42", "source": "KSJ2", "source_ref": "http://nlftp.mlit.go.jp/ksj/jpgis/datalist/KsjTmplt-N02-v1_1.html", "website": "https://www.kintetsu.co.jp/station/station_info/station07032.html", "wikidata": "Q6374283", "wikipedia": "ja:\u6a7f\u539f\u795e\u5bae\u524d\u99c5"}}, {"type": "node", "id": 4053979280, "lat": 34.4861041, "lon": 135.7816302, "tags": {"KSJ2:LIN": "\u5357\u5927\u962a\u7dda", "KSJ2:RAS": "eb03_1263", "KSJ2:STN": "\u6a7f\u539f\u795e\u5bae\u897f\u53e3", "KSJ2:segment": "eb02_2421", "name": "\u6a7f\u539f\u795e\u5bae\u897f\u53e3", "name:en": "Kashiharajing\u016b-Nishiguchi", "name:ja": "\u6a7f\u539f\u795e\u5bae\u897f\u53e3", "name:ja_rm": "Kashiharajing\u016b-Nishiguchi", "name:ko": "\uac00\uc2dc\ud558\ub77c\uc9c4\uad6c\ub2c8\uc2dc\uad6c\uce58", "note": "National-Land Numerical Information (Railway) 2007, MLIT Japan", "note:ja": "\u56fd\u571f\u6570\u5024\u60c5\u5831\uff08\u9244\u9053\u30c7\u30fc\u30bf\uff09\u5e73\u621019\u5e74\u3000\u56fd\u571f\u4ea4\u901a\u7701", "public_transport": "station", "railway": "station", "source": "KSJ2", "source_ref": "http://nlftp.mlit.go.jp/ksj/jpgis/datalist/KsjTmplt-N02-v1_1.html", "wikidata": "Q6374284", "wikipedia": "ja:\u6a7f\u539f\u795e\u5bae\u897f\u53e3\u99c5"}}, {"type": "node", "id": 4053979282, "lat": 34.5113689, "lon": 135.7108183, "tags": {"KSJ2:LIN": "\u5357\u5927\u962a\u7dda", "KSJ2:RAS": "eb03_1253", "KSJ2:STN": "\u78d0\u57ce", "KSJ2:segment": "eb02_2426", "name": "\u78d0\u57ce", "name:en": "Iwaki", "name:ja": "\u78d0\u57ce", "name:ja_rm": "Iwaki", "name:ko": "\uc774\uc640\ud0a4", "note": "National-Land Numerical Information (Railway) 2007, MLIT Japan", "note:ja": "\u56fd\u571f\u6570\u5024\u60c5\u5831\uff08\u9244\u9053\u30c7\u30fc\u30bf\uff09\u5e73\u621019\u5e74\u3000\u56fd\u571f\u4ea4\u901a\u7701", "public_transport": "station", "railway": "station", "source": "KSJ2", "source_ref": "http://nlftp.mlit.go.jp/ksj/jpgis/datalist/KsjTmplt-N02-v1_1.html", "url": "http://www.kintetsu.co.jp/station/station_info/station07026.html", "wikidata": "Q6100410", "wikipedia": "ja:\u78d0\u57ce\u99c5"}}, {"type": "node", "id": 4451876475, "lat": 34.6919607, "lon": 135.7097208, "tags": {"KSJ2:LIN": "\u5948\u826f\u7dda", "KSJ2:STN": "\u6771\u751f\u99d2", "name": "\u6771\u751f\u99d2", "name:en": "Higashi-Ikoma", "name:ja": "\u6771\u751f\u99d2", "name:ko": "\ud788\uac00\uc2dc\uc774\ucf54\ub9c8", "note": "National-Land Numerical Information (Railway) 2007, MLIT Japan", "note:ja": "\u56fd\u571f\u6570\u5024\u60c5\u5831\uff08\u9244\u9053\u30c7\u30fc\u30bf\uff09\u5e73\u621019\u5e74\u3000\u56fd\u571f\u4ea4\u901a\u7701", "public_transport": "station", "railway": "station", "ref": "A18", "source": "KSJ2", "source_ref": "http://nlftp.mlit.go.jp/ksj/jpgis/datalist/KsjTmplt-N02-v1_1.html", "website": "https://www.kintetsu.co.jp/station/station_info/station03017.html", "wikidata": "Q5753564", "wikipedia": "ja:\u6771\u751f\u99d2\u99c5"}}, {"type": "node", "id": 4451876476, "lat": 34.6932355, "lon": 135.6979211, "tags": {"KSJ2:LIN": "\u3051\u3044\u306f\u3093\u306a\u7dda", "KSJ2:RAS": "eb03_23", "KSJ2:STN": "\u751f\u99d2", "KSJ2:segment": "eb02_21910", "name": "\u751f\u99d2", "name:en": "Ikoma", "name:ja": "\u751f\u99d2", "name:ja_kana": "\u3044\u3053\u307e", "name:ja_rm": "Ikoma", "name:ko": "\uc774\ucf54\ub9c8", "note": "National-Land Numerical Information (Railway) 2007, MLIT Japan", "note:ja": "\u56fd\u571f\u6570\u5024\u60c5\u5831\uff08\u9244\u9053\u30c7\u30fc\u30bf\uff09\u5e73\u621019\u5e74\u3000\u56fd\u571f\u4ea4\u901a\u7701", "public_transport": "station", "railway": "station", "ref": "C27", "source": "KSJ2", "source_ref": "http://nlftp.mlit.go.jp/ksj/jpgis/datalist/KsjTmplt-N02-v1_1.html", "train": "yes", "website": "https://www.kintetsu.co.jp/station/station_info/station03016.html", "wheelchair": "yes", "wikidata": "Q5996117", "wikipedia": "ja:\u751f\u99d2\u99c5"}}, {"type": "node", "id": 4451970053, "lat": 34.7248476, "lon": 135.7232042, "tags": {"KSJ2:LIN": "\u3051\u3044\u306f\u3093\u306a\u7dda", "KSJ2:RAS": "eb03_26", "KSJ2:STN": "\u5b66\u7814\u5317\u751f\u99d2", "KSJ2:segment": "eb02_21916", "name": "\u5b66\u7814\u5317\u751f\u99d2", "name:en": "Gakken-Kita-Ikoma", "name:ja": "\u5b66\u7814\u5317\u751f\u99d2", "name:ko": "\uac13\ucf04\ud0a4\ud0c0\uc774\ucf54\ub9c8", "note": "National-Land Numerical Information (Railway) 2007, MLIT Japan", "note:ja": "\u56fd\u571f\u6570\u5024\u60c5\u5831\uff08\u9244\u9053\u30c7\u30fc\u30bf\uff09\u5e73\u621019\u5e74\u3000\u56fd\u571f\u4ea4\u901a\u7701", "operator": "\u8fd1\u757f\u65e5\u672c\u9244\u9053", "public_transport": "station", "railway": "station", "ref": "C29", "source": "KSJ2", "source_ref": "http://nlftp.mlit.go.jp/ksj/jpgis/datalist/KsjTmplt-N02-v1_1.html", "train": "yes", "wikidata": "Q8055973", "wikipedia": "ja:\u5b66\u7814\u5317\u751f\u99d2\u99c5"}}, {"type": "node", "id": 4451970054, "lat": 34.7265585, "lon": 135.752194, "tags": {"KSJ2:LIN": "\u3051\u3044\u306f\u3093\u306a\u7dda", "KSJ2:RAS": "eb03_24", "KSJ2:STN": "\u5b66\u7814\u5948\u826f\u767b\u7f8e\u30f6\u4e18", "KSJ2:segment": "eb02_21917", "name": "\u5b66\u7814\u5948\u826f\u767b\u7f8e\u30f6\u4e18", "name:en": "Gakken-Nara-Tomigaoka", "name:ja": "\u5b66\u7814\u5948\u826f\u767b\u7f8e\u30f6\u4e18", "name:ko": "\uac13\ucf04\ub098\ub77c\ud1a0\ubbf8\uac00\uc624\uce74", "network": "\u8fd1\u757f\u65e5\u672c\u9244\u9053\u3051\u3044\u306f\u3093\u306a\u7dda", "note": "National-Land Numerical Information (Railway) 2007, MLIT Japan", "note:ja": "\u56fd\u571f\u6570\u5024\u60c5\u5831\uff08\u9244\u9053\u30c7\u30fc\u30bf\uff09\u5e73\u621019\u5e74\u3000\u56fd\u571f\u4ea4\u901a\u7701", "operator": "\u8fd1\u757f\u65e5\u672c\u9244\u9053", "public_transport": "station", "railway": "station", "ref": "C30", "source": "KSJ2", "source_ref": "http://nlftp.mlit.go.jp/ksj/jpgis/datalist/KsjTmplt-N02-v1_1.html", "train": "yes", "wikidata": "Q5517679", "wikipedia": "ja:\u5b66\u7814\u5948\u826f\u767b\u7f8e\u30f6\u4e18\u99c5"}}, {"type": "node", "id": 4452228928, "lat": 34.6937801, "lon": 135.7827229, "tags": {"KSJ2:LIN": "\u4eac\u90fd\u7dda", "KSJ2:STN": "\u5927\u548c\u897f\u5927\u5bfa", "name": "\u5927\u548c\u897f\u5927\u5bfa", "name:de": "Yamato-Saidaiji", "name:en": "Yamatosaidaiji", "name:ja": "\u5927\u548c\u897f\u5927\u5bfa", "name:ko": "\uc57c\ub9c8\ud1a0\uc0ac\uc774\ub2e4\uc774\uc9c0", "note": "National-Land Numerical Information (Railway) 2007, MLIT Japan", "note:ja": "\u56fd\u571f\u6570\u5024\u60c5\u5831\uff08\u9244\u9053\u30c7\u30fc\u30bf\uff09\u5e73\u621019\u5e74\u3000\u56fd\u571f\u4ea4\u901a\u7701", "public_transport": "station", "railway": "station", "source": "KSJ2", "source_ref": "http://nlftp.mlit.go.jp/ksj/jpgis/datalist/KsjTmplt-N02-v1_1.html", "toilets:wheelchair": "yes", "website": "https://www.kintetsu.co.jp/station/station_info/station03021.html", "wheelchair": "yes", "wikidata": "Q489786", "wikipedia": "ja:\u5927\u548c\u897f\u5927\u5bfa\u99c5"}}, {"type": "node", "id": 4452228929, "lat": 34.6811878, "lon": 135.7835812, "tags": {"KSJ2:LIN": "\u6a7f\u539f\u7dda", "KSJ2:STN": "\u5c3c\u30f6\u8fbb", "name": "\u5c3c\u30f6\u8fbb", "name:en": "Amagatsuji", "name:ja": "\u5c3c\u30f6\u8fbb", "name:ko": "\uc544\ub9c8\uac00\uc4f0\uc9c0", "note": "National-Land Numerical Information (Railway) 2007, MLIT Japan", "note:ja": "\u56fd\u571f\u6570\u5024\u60c5\u5831\uff08\u9244\u9053\u30c7\u30fc\u30bf\uff09\u5e73\u621019\u5e74\u3000\u56fd\u571f\u4ea4\u901a\u7701", "public_transport": "station", "railway": "station", "ref": "B27", "source": "KSJ2", "source_ref": "http://nlftp.mlit.go.jp/ksj/jpgis/datalist/KsjTmplt-N02-v1_1.html", "train": "yes", "website": "https://www.kintetsu.co.jp/station/station_info/station06006.html", "wikidata": "Q4739124", "wikipedia": "ja:\u5c3c\u30f6\u8fbb\u99c5"}}, {"type": "node", "id": 4452353500, "lat": 34.6853702, "lon": 135.8116431, "tags": {"KSJ2:LIN": "\u5948\u826f\u7dda", "KSJ2:STN": "\u65b0\u5927\u5bae", "name": "\u65b0\u5927\u5bae", "name:en": "Shinomiya", "name:ja": "\u65b0\u5927\u5bae", "name:ja_rm": "Shin-\u014cmiya", "name:ko": "\uc2e0\uc624\ubbf8\uc57c", "note": "National-Land Numerical Information (Railway) 2007, MLIT Japan", "note:ja": "\u56fd\u571f\u6570\u5024\u60c5\u5831\uff08\u9244\u9053\u30c7\u30fc\u30bf\uff09\u5e73\u621019\u5e74\u3000\u56fd\u571f\u4ea4\u901a\u7701", "public_transport": "station", "railway": "station", "ref": "A27", "source": "KSJ2", "source_ref": "http://nlftp.mlit.go.jp/ksj/jpgis/datalist/KsjTmplt-N02-v1_1.html", "website": "https://www.kintetsu.co.jp/station/station_info/station03022.html", "wikidata": "Q7497154", "wikipedia": "ja:\u65b0\u5927\u5bae\u99c5"}}, {"type": "node", "id": 4452353501, "lat": 34.6841376, "lon": 135.8285414, "tags": {"level": "-1;-2", "name": "\u8fd1\u9244\u5948\u826f", "name:en": "Kintetsu Nara", "name:ja": "\u8fd1\u9244\u5948\u826f", "name:ja-Latn": "Kintetsu Nara", "name:ko": "\uae34\ud14c\uc4f0\ub098\ub77c", "name:zh": "\u8fd1\u9435\u5948\u826f", "network": "\u8fd1\u9244\u5948\u826f\u7dda;\u8fd1\u9244\u4eac\u90fd\u7dda", "operator": "\u8fd1\u757f\u65e5\u672c\u9244\u9053", "public_transport": "station", "railway": "station", "ref": "A28", "source": "KSJ2", "source_ref": "http://nlftp.mlit.go.jp/ksj/jpgis/datalist/KsjTmplt-N02-v1_1.html", "start_date": "1914", "toilets:wheelchair": "yes", "train": "yes", "website": "https://www.kintetsu.co.jp/station/station_info/station03023.html", "wheelchair": "limited", "wikidata": "Q6414371", "wikipedia": "ja:\u8fd1\u9244\u5948\u826f\u99c5"}}, {"type": "node", "id": 4761608825, "lat": 34.6066623, "lon": 135.7830124, "tags": {"name": "\u5e73\u7aef", "name:en": "Hirahata", "name:ja": "\u5e73\u7aef", "operator": "\u8fd1\u757f\u65e5\u672c\u9244\u9053", "operator:ja": "\u8fd1\u757f\u65e5\u672c\u9244\u9053", "public_transport": "station", "railway": "station", "ref": "B32;H32", "website": "https://www.kintetsu.co.jp/station/station_info/station06011.html"}}, {"type": "node", "id": 4819524736, "lat": 34.8844931, "lon": 135.6994705, "tags": {"KSJ2:LIN": "\u92fc\u7d22\u7dda", "KSJ2:STN": "\u516b\u5e61\u5e02", "name": "\u30b1\u30fc\u30d6\u30eb\u516b\u5e61\u5bae\u53e3", "name:en": "Cable-Hachimangu-guchi", "name:ja": "\u30b1\u30fc\u30d6\u30eb\u516b\u5e61\u5bae\u53e3", "name:ja-Hira": "\u3051\u30fc\u3076\u308b\u306f\u3061\u307e\u3093\u3050\u3046\u3050\u3061", "name:ja-Latn": "K\u0113buru-Hachimang\u016b-guchi", "network": "\u77f3\u6e05\u6c34\u516b\u5e61\u5bae\u53c2\u9053\u30b1\u30fc\u30d6\u30eb", "old_name": "\u516b\u5e61\u5e02", "old_name:en": "Yawatashi", "old_name:ja": "\u516b\u5e61\u5e02", "old_name:ja-Latn": "Yawata-shi", "old_name:ko": "\uc57c\uc640\ud0c0\uc2dc", "operator": "\u4eac\u962a\u96fb\u6c17\u9244\u9053", "public_transport": "station", "railway": "station", "train": "yes", "wikidata": "Q1977185", "wikipedia": "ja:\u77f3\u6e05\u6c34\u516b\u5e61\u5bae\u99c5"}}, {"type": "node", "id": 4829926246, "lat": 34.5128832, "lon": 135.8299055, "tags": {"KSJ2:LIN": "\u5927\u962a\u7dda", "KSJ2:STN": "\u5927\u798f", "name": "\u5927\u798f", "name:en": "Daifuku", "name:ja": "\u5927\u798f", "name:ja-Latn": "Daifuku", "name:ko": "\ub2e4\uc774\ud6c4\ucfe0", "note": "National-Land Numerical Information (Railway) 2007, MLIT Japan", "note:ja": "\u56fd\u571f\u6570\u5024\u60c5\u5831\uff08\u9244\u9053\u30c7\u30fc\u30bf\uff09\u5e73\u621019\u5e74\u3000\u56fd\u571f\u4ea4\u901a\u7701", "operator": "\u8fd1\u757f\u65e5\u672c\u9244\u9053", "operator:ja": "\u8fd1\u757f\u65e5\u672c\u9244\u9053", "public_transport": "station", "railway": "station", "ref": "D41", "source": "KSJ2", "source_ref": "http://nlftp.mlit.go.jp/ksj/jpgis/datalist/KsjTmplt-N02-v1_1.html", "url": "http://www.kintetsu.co.jp/station/station_info/station02032.html", "wikidata": "Q5209097", "wikipedia": "ja:\u5927\u798f\u99c5"}}, {"type": "node", "id": 4957721422, "lat": 34.8261585, "lon": 135.7133771, "tags": {"KSJ2:LIN": "\u7247\u753a\u7dda", "KSJ2:STN": "\u9577\u5c3e", "name": "\u9577\u5c3e", "name:en": "Nagao", "name:ja": "\u9577\u5c3e", "name:ko": "\ub098\uac00\uc624", "platforms": "2", "public_transport": "station", "railway": "station", "ref": "JR-H27", "wheelchair": "yes", "wikidata": "Q855920", "wikipedia": "ja:\u9577\u5c3e\u99c5 (\u5927\u962a\u5e9c)"}}, {"type": "node", "id": 4957723348, "lat": 34.8330942, "lon": 135.7275639, "tags": {"KSJ2:LIN": "\u7247\u753a\u7dda", "KSJ2:STN": "\u677e\u4e95\u5c71\u624b", "name": "\u677e\u4e95\u5c71\u624b", "name:en": "Matsuiyamate", "name:ja": "\u677e\u4e95\u5c71\u624b", "name:ko": "\ub9c8\uc4f0\uc774\uc57c\ub9c8\ud14c", "public_transport": "station", "railway": "station", "ref": "JR-H26", "toilets:wheelchair": "yes", "wheelchair": "yes", "wikidata": "Q856041", "wikipedia": "ja:\u677e\u4e95\u5c71\u624b\u99c5"}}, {"type": "node", "id": 4959056233, "lat": 34.8011919, "lon": 135.6979209, "tags": {"KSJ2:LIN": "\u7247\u753a\u7dda", "KSJ2:STN": "\u6d25\u7530", "name": "\u6d25\u7530", "name:en": "Tsuda", "name:ja": "\u6d25\u7530", "name:ja-Hira": "\u3064\u3060", "name:ko": "\uc4f0\ub2e4", "network": "\u7247\u753a\u7dda", "operator": "\u897f\u65e5\u672c\u65c5\u5ba2\u9244\u9053", "public_transport": "station", "railway": "station", "ref": "JR-H29", "train": "yes", "wikidata": "Q855925", "wikipedia": "ja:\u6d25\u7530\u99c5"}}, {"type": "node", "id": 4999665154, "lat": 34.8768864, "lon": 136.0610175, "tags": {"addr:block_number": "192", "addr:city": "\u7532\u8cc0\u5e02", "addr:neighbourhood": "\u9577\u91ce", "addr:postcode": "529-1851", "addr:province": "\u6ecb\u8cc0\u770c", "addr:quarter": "\u4fe1\u697d\u753a", "name": "\u4fe1\u697d", "name:en": "Shigaraki", "name:ja": "\u4fe1\u697d", "name:ja-Hira": "\u3057\u304c\u3089\u304d", "name:ja-Latn": "Shigaraki", "network": "\u4fe1\u697d\u9ad8\u539f\u9435\u9053\u4fe1\u697d\u7dda", "operator": "\u4fe1\u697d\u9ad8\u539f\u9435\u9053", "public_transport": "station", "railway": "station", "wikidata": "Q17211442"}}, {"type": "node", "id": 5450840149, "lat": 34.9190254, "lon": 136.1858704, "tags": {"name": "\u5bfa\u5e84", "name:en": "Terasho", "name:ja": "\u5bfa\u5e84", "name:ja-Hira": "\u3066\u3089\u3057\u3087\u3046", "name:ja-Latn": "Terash\u014d", "network": "JR\u8349\u6d25\u7dda", "operator": "JR\u897f\u65e5\u672c", "public_transport": "station", "railway": "station", "train": "yes", "wikidata": "Q5362939", "wikipedia": "ja:\u5bfa\u5e84\u99c5"}}, {"type": "node", "id": 5480560399, "lat": 34.7483611, "lon": 136.1369823, "tags": {"name": "\u56db\u5341\u4e5d", "name:en": "Shijuku", "public_transport": "station", "railway": "station", "wikidata": "Q11419628"}}, {"type": "node", "id": 6440298160, "lat": 34.8143825, "lon": 135.7027696, "tags": {"KSJ2:LIN": "\u7247\u753a\u7dda", "KSJ2:STN": "\u85e4\u962a", "name": "\u85e4\u962a", "name:en": "Fujisaka", "name:ja": "\u85e4\u962a", "name:ko": "\ud6c4\uc9c0\uc0ac\uce74", "note": "National-Land Numerical Information (Railway) 2007, MLIT Japan", "note:ja": "\u56fd\u571f\u6570\u5024\u60c5\u5831\uff08\u9244\u9053\u30c7\u30fc\u30bf\uff09\u5e73\u621019\u5e74\u3000\u56fd\u571f\u4ea4\u901a\u7701", "public_transport": "station", "railway": "station", "ref": "JR-H28", "source": "KSJ2", "source_ref": "http://nlftp.mlit.go.jp/ksj/jpgis/datalist/KsjTmplt-N02-v1_1.html", "wikidata": "Q855872", "wikipedia": "ja:\u85e4\u962a\u99c5"}}, {"type": "node", "id": 6631028988, "lat": 34.5132315, "lon": 135.7915373, "tags": {"KSJ2:LIN": "\u5927\u962a\u7dda", "KSJ2:STN": "\u5927\u548c\u516b\u6728", "name": "\u5927\u548c\u516b\u6728", "name:de": "Yamato-Yagi", "name:en": "Yamato-Yagi", "name:ja": "\u5927\u548c\u516b\u6728", "name:ja-Latn": "Yamato-Yagi", "name:ko": "\uc57c\ub9c8\ud1a0\uc57c\uae30", "note": "National-Land Numerical Information (Railway) 2007, MLIT Japan", "note:ja": "\u56fd\u571f\u6570\u5024\u60c5\u5831\uff08\u9244\u9053\u30c7\u30fc\u30bf\uff09\u5e73\u621019\u5e74\u3000\u56fd\u571f\u4ea4\u901a\u7701", "operator": "\u8fd1\u757f\u65e5\u672c\u9244\u9053", "operator:ja": "\u8fd1\u757f\u65e5\u672c\u9244\u9053", "public_transport": "station", "railway": "station", "ref": "B39;D39", "source": "KSJ2", "source_ref": "http://nlftp.mlit.go.jp/ksj/jpgis/datalist/KsjTmplt-N02-v1_1.html", "website": "https://www.kintetsu.co.jp/station/station_info/station02030.html", "wikidata": "Q8047973", "wikipedia": "ja:\u5927\u548c\u516b\u6728\u99c5"}}, {"type": "node", "id": 6878790227, "lat": 34.7916106, "lon": 135.7874443, "tags": {"KSJ2:LIN": "\u4eac\u90fd\u7dda", "KSJ2:STN": "\u8fd1\u9244\u5bae\u6d25", "name": "\u8fd1\u9244\u5bae\u6d25", "name:de": "Kintetsu Miyazu", "name:en": "Kintetsu Miyazu", "name:ja": "\u8fd1\u9244\u5bae\u6d25", "name:ko": "\uae34\ud14c\uc4f0\ubbf8\uc57c\uc988", "note": "National-Land Numerical Information (Railway) 2007, MLIT Japan", "note:ja": "\u56fd\u571f\u6570\u5024\u60c5\u5831\uff08\u9244\u9053\u30c7\u30fc\u30bf\uff09\u5e73\u621019\u5e74\u3000\u56fd\u571f\u4ea4\u901a\u7701", "public_transport": "station", "railway": "station", "ref": "B19", "source": "KSJ2", "source_ref": "http://nlftp.mlit.go.jp/ksj/jpgis/datalist/KsjTmplt-N02-v1_1.html", "website": "https://www.kintetsu.co.jp/station/station_info/station05023.html", "wikidata": "Q257964", "wikipedia": "ja:\u8fd1\u9244\u5bae\u6d25\u99c5"}}, {"type": "node", "id": 6878796459, "lat": 34.7237986, "lon": 135.7918538, "tags": {"KSJ2:LIN": "\u4eac\u90fd\u7dda", "KSJ2:STN": "\u9ad8\u306e\u539f", "name": "\u9ad8\u306e\u539f", "name:de": "Takanohara", "name:en": "Takanohara", "name:ja": "\u9ad8\u306e\u539f", "name:ko": "\ub2e4\uce74\ub178\ud558\ub77c", "note": "National-Land Numerical Information (Railway) 2007, MLIT Japan", "note:ja": "\u56fd\u571f\u6570\u5024\u60c5\u5831\uff08\u9244\u9053\u30c7\u30fc\u30bf\uff09\u5e73\u621019\u5e74\u3000\u56fd\u571f\u4ea4\u901a\u7701", "public_transport": "station", "railway": "station", "ref": "B24", "source": "KSJ2", "source_ref": "http://nlftp.mlit.go.jp/ksj/jpgis/datalist/KsjTmplt-N02-v1_1.html", "website": "https://www.kintetsu.co.jp/station/station_info/station05028.html", "wikidata": "Q7677191", "wikipedia": "ja:\u9ad8\u306e\u539f\u99c5"}}, {"type": "node", "id": 6878903313, "lat": 34.7467417, "lon": 135.7960367, "tags": {"KSJ2:LIN": "\u4eac\u90fd\u7dda", "KSJ2:STN": "\u6728\u6d25\u5ddd\u53f0", "name": "\u6728\u6d25\u5ddd\u53f0", "name:en": "Kizugawadai", "name:ja": "\u6728\u6d25\u5ddd\u53f0", "name:ko": "\uae30\uc988\uac00\uc640\ub2e4\uc774", "note": "National-Land Numerical Information (Railway) 2007, MLIT Japan", "note:ja": "\u56fd\u571f\u6570\u5024\u60c5\u5831\uff08\u9244\u9053\u30c7\u30fc\u30bf\uff09\u5e73\u621019\u5e74\u3000\u56fd\u571f\u4ea4\u901a\u7701", "public_transport": "station", "railway": "station", "ref": "B22", "source": "KSJ2", "source_ref": "http://nlftp.mlit.go.jp/ksj/jpgis/datalist/KsjTmplt-N02-v1_1.html", "website": "https://www.kintetsu.co.jp/station/station_info/station05026.html", "wikidata": "Q6419254", "wikipedia": "ja:\u6728\u6d25\u5ddd\u53f0\u99c5"}}, {"type": "node", "id": 6878903314, "lat": 34.7373971, "lon": 135.7936516, "tags": {"KSJ2:LIN": "\u4eac\u90fd\u7dda", "KSJ2:STN": "\u5c71\u7530\u5ddd", "name": "\u5c71\u7530\u5ddd", "name:en": "Yamadagawa", "name:ja": "\u5c71\u7530\u5ddd", "name:ko": "\uc57c\ub9c8\ub2e4\uac00\uc640", "note": "National-Land Numerical Information (Railway) 2007, MLIT Japan", "note:ja": "\u56fd\u571f\u6570\u5024\u60c5\u5831\uff08\u9244\u9053\u30c7\u30fc\u30bf\uff09\u5e73\u621019\u5e74\u3000\u56fd\u571f\u4ea4\u901a\u7701", "public_transport": "station", "railway": "station", "ref": "B23", "source": "KSJ2", "source_ref": "http://nlftp.mlit.go.jp/ksj/jpgis/datalist/KsjTmplt-N02-v1_1.html", "website": "https://www.kintetsu.co.jp/station/station_info/station05027.html", "wikidata": "Q8047603", "wikipedia": "ja:\u5c71\u7530\u5ddd\u99c5"}}, {"type": "node", "id": 6878903315, "lat": 34.7603052, "lon": 135.7927061, "tags": {"KSJ2:LIN": "\u4eac\u90fd\u7dda", "KSJ2:STN": "\u65b0\u795d\u5712", "name": "\u65b0\u795d\u5712", "name:en": "Shin-H\u014dsono", "name:ja": "\u65b0\u795d\u5712", "name:ko": "\uc2e0\ud638\uc18c\ub178", "note": "National-Land Numerical Information (Railway) 2007, MLIT Japan", "note:ja": "\u56fd\u571f\u6570\u5024\u60c5\u5831\uff08\u9244\u9053\u30c7\u30fc\u30bf\uff09\u5e73\u621019\u5e74\u3000\u56fd\u571f\u4ea4\u901a\u7701", "public_transport": "station", "railway": "station", "ref": "B21", "source": "KSJ2", "source_ref": "http://nlftp.mlit.go.jp/ksj/jpgis/datalist/KsjTmplt-N02-v1_1.html", "website": "https://www.kintetsu.co.jp/station/station_info/station05025.html", "wikidata": "Q7497094", "wikipedia": "ja:\u65b0\u795d\u5712\u99c5"}}, {"type": "node", "id": 6878903316, "lat": 34.7803022, "lon": 135.7894995, "tags": {"KSJ2:LIN": "\u4eac\u90fd\u7dda", "KSJ2:STN": "\u72db\u7530", "name": "\u72db\u7530", "name:en": "Komada", "name:ja": "\u72db\u7530", "name:ko": "\uace0\ub9c8\ub2e4", "note": "National-Land Numerical Information (Railway) 2007, MLIT Japan", "note:ja": "\u56fd\u571f\u6570\u5024\u60c5\u5831\uff08\u9244\u9053\u30c7\u30fc\u30bf\uff09\u5e73\u621019\u5e74\u3000\u56fd\u571f\u4ea4\u901a\u7701", "public_transport": "station", "railway": "station", "ref": "B20", "source": "KSJ2", "source_ref": "http://nlftp.mlit.go.jp/ksj/jpgis/datalist/KsjTmplt-N02-v1_1.html", "website": "https://www.kintetsu.co.jp/station/station_info/station05024.html", "wikidata": "Q6428039", "wikipedia": "ja:\u72db\u7530\u99c5"}}, {"type": "node", "id": 6878903317, "lat": 34.7981778, "lon": 135.7860502, "tags": {"KSJ2:LIN": "\u4eac\u90fd\u7dda", "KSJ2:STN": "\u4e09\u5c71\u6728", "name": "\u4e09\u5c71\u6728", "name:en": "Miyamaki", "name:ja": "\u4e09\u5c71\u6728", "name:ko": "\ubbf8\uc57c\ub9c8\ud0a4", "note": "National-Land Numerical Information (Railway) 2007, MLIT Japan", "note:ja": "\u56fd\u571f\u6570\u5024\u60c5\u5831\uff08\u9244\u9053\u30c7\u30fc\u30bf\uff09\u5e73\u621019\u5e74\u3000\u56fd\u571f\u4ea4\u901a\u7701", "public_transport": "station", "railway": "station", "ref": "B18", "source": "KSJ2", "source_ref": "http://nlftp.mlit.go.jp/ksj/jpgis/datalist/KsjTmplt-N02-v1_1.html", "website": "https://www.kintetsu.co.jp/station/station_info/station05022.html", "wikidata": "Q6884315", "wikipedia": "ja:\u4e09\u5c71\u6728\u99c5"}}, {"type": "node", "id": 6878903339, "lat": 34.7016687, "lon": 135.7850015, "tags": {"KSJ2:LIN": "\u4eac\u90fd\u7dda", "KSJ2:STN": "\u5e73\u57ce", "name": "\u5e73\u57ce", "name:de": "Heijo", "name:en": "Heijo", "name:ja": "\u5e73\u57ce", "name:ko": "\ud5e4\uc774\uc870", "note": "National-Land Numerical Information (Railway) 2007, MLIT Japan", "note:ja": "\u56fd\u571f\u6570\u5024\u60c5\u5831\uff08\u9244\u9053\u30c7\u30fc\u30bf\uff09\u5e73\u621019\u5e74\u3000\u56fd\u571f\u4ea4\u901a\u7701", "public_transport": "station", "railway": "station", "ref": "B25", "source": "KSJ2", "source_ref": "http://nlftp.mlit.go.jp/ksj/jpgis/datalist/KsjTmplt-N02-v1_1.html", "website": "https://www.kintetsu.co.jp/station/station_info/station05029.html", "wheelchair": "yes", "wikidata": "Q5699170", "wikipedia": "ja:\u5e73\u57ce\u99c5"}}, {"type": "node", "id": 6908743891, "lat": 34.7527151, "lon": 135.8698504, "tags": {"KSJ2:LIN": "\u95a2\u897f\u7dda", "KSJ2:STN": "\u52a0\u8302", "name": "\u52a0\u8302", "name:en": "Kamo", "name:ja": "\u52a0\u8302", "name:ko": "\uac00\ubaa8", "network": "JR\u95a2\u897f\u672c\u7dda", "note": "National-Land Numerical Information (Railway) 2007, MLIT Japan", "note:ja": "\u56fd\u571f\u6570\u5024\u60c5\u5831\uff08\u9244\u9053\u30c7\u30fc\u30bf\uff09\u5e73\u621019\u5e74\u3000\u56fd\u571f\u4ea4\u901a\u7701", "operator": "\u897f\u65e5\u672c\u65c5\u5ba2\u9244\u9053", "public_transport": "station", "railway": "station", "ref": "JR-Q39", "short_ref": "Q39", "source": "KSJ2", "source_ref": "http://nlftp.mlit.go.jp/ksj/jpgis/datalist/KsjTmplt-N02-v1_1.html", "train": "yes", "wikidata": "Q847866", "wikipedia": "ja:\u52a0\u8302\u99c5 (\u4eac\u90fd\u5e9c)"}}, {"type": "node", "id": 6946372935, "lat": 34.720896, "lon": 135.7165542, "tags": {"KSJ2:LIN": "\u3051\u3044\u306f\u3093\u306a\u7dda", "KSJ2:RAS": "eb03_25", "KSJ2:STN": "\u767d\u5ead\u53f0", "KSJ2:segment": "eb02_21918", "name": "\u767d\u5ead\u53f0", "name:en": "Shiraniwadai", "name:ja": "\u767d\u5ead\u53f0", "name:ko": "\uc2dc\ub77c\ub2c8\uc640\ub2e4\uc774", "note": "National-Land Numerical Information (Railway) 2007, MLIT Japan", "note:ja": "\u56fd\u571f\u6570\u5024\u60c5\u5831\uff08\u9244\u9053\u30c7\u30fc\u30bf\uff09\u5e73\u621019\u5e74\u3000\u56fd\u571f\u4ea4\u901a\u7701", "operator": "\u8fd1\u757f\u65e5\u672c\u9244\u9053", "public_transport": "station", "railway": "station", "ref": "C28", "source": "KSJ2", "source_ref": "http://nlftp.mlit.go.jp/ksj/jpgis/datalist/KsjTmplt-N02-v1_1.html", "train": "yes", "wikidata": "Q7498268", "wikipedia": "ja:\u767d\u5ead\u53f0\u99c5"}}, {"type": "node", "id": 7532743746, "lat": 34.8843793, "lon": 135.6994172}, {"type": "node", "id": 7532743747, "lat": 34.8811517, "lon": 135.6997921}, {"type": "node", "id": 7731538422, "lat": 34.8280228, "lon": 135.800231, "tags": {"KSJ2:STN": "\u5c71\u57ce\u9752\u8c37", "contact:website": "http://www.jr-odekake.net/eki/top.php?id=0621605", "name": "\u5c71\u57ce\u9752\u8c37", "name:en": "Yamashiro-Aodani", "name:ja": "\u5c71\u57ce\u9752\u8c37", "name:ko": "\uc57c\ub9c8\uc2dc\ub85c\uc544\uc624\ub2e4\ub2c8", "operator": "\u897f\u65e5\u672c\u65c5\u5ba2\u9244\u9053", "operator:en": "West Japan Railway Company", "public_transport": "station", "railway": "station", "ref": "JR-D14", "train": "yes", "wikidata": "Q1048994", "wikipedia": "ja:\u5c71\u57ce\u9752\u8c37\u99c5"}}, {"type": "node", "id": 7774767272, "lat": 34.8560656, "lon": 135.7808145, "tags": {"KSJ2:STN": "\u57ce\u967d", "contact:website": "http://www.jr-odekake.net/eki/top.php?id=0621607", "name": "\u57ce\u967d", "name:en": "J\u014dy\u014d", "name:ja": "\u57ce\u967d", "name:ko": "\uc870\uc694", "operator": "\u897f\u65e5\u672c\u65c5\u5ba2\u9244\u9053", "operator:en": "West Japan Railway Company", "public_transport": "station", "railway": "station", "ref": "JR-D12", "train": "yes", "wikidata": "Q1049427", "wikipedia": "ja:\u57ce\u967d\u99c5"}}, {"type": "node", "id": 7774989562, "lat": 34.8173811, "lon": 135.8063048, "tags": {"KSJ2:STN": "\u5c71\u57ce\u591a\u8cc0", "contact:website": "http://www.jr-odekake.net/eki/top.php?id=0621604", "name": "\u5c71\u57ce\u591a\u8cc0", "name:en": "Yamashiro-Taga", "name:ja": "\u5c71\u57ce\u591a\u8cc0", "name:ko": "\uc57c\ub9c8\uc2dc\ub85c\ud0c0\uac00", "operator": "\u897f\u65e5\u672c\u65c5\u5ba2\u9244\u9053", "operator:en": "West Japan Railway Company", "public_transport": "station", "railway": "station", "ref": "JR-D15", "train": "yes", "wikidata": "Q591754", "wikipedia": "ja:\u5c71\u57ce\u591a\u8cc0\u99c5"}}, {"type": "node", "id": 7774989563, "lat": 34.8891475, "lon": 135.786292, "tags": {"KSJ2:STN": "JR\u5c0f\u5009", "contact:website": "http://www.jr-odekake.net/eki/top.php?id=0621617", "name": "JR\u5c0f\u5009", "name:en": "JR-Ogura", "name:ja": "JR\u5c0f\u5009", "name:ja-Latn": "JR-Ogura", "name:ko": "JR\uc624\uad6c\ub77c", "operator": "\u897f\u65e5\u672c\u65c5\u5ba2\u9244\u9053", "operator:en": "West Japan Railway Company", "public_transport": "station", "railway": "station", "ref": "JR-D10", "train": "yes", "wikidata": "Q1049411", "wikipedia": "ja:JR\u5c0f\u5009\u99c5"}}, {"type": "node", "id": 7774989564, "lat": 34.8740737, "lon": 135.780661, "tags": {"KSJ2:STN": "\u65b0\u7530", "contact:website": "http://www.jr-odekake.net/eki/top.php?id=0621608", "name": "\u65b0\u7530", "name:en": "Shinden", "name:ja": "\u65b0\u7530", "name:ko": "\uc2e0\ub374", "operator": "\u897f\u65e5\u672c\u65c5\u5ba2\u9244\u9053", "operator:en": "West Japan Railway Company", "public_transport": "station", "railway": "station", "ref": "JR-D11", "train": "yes", "wikidata": "Q974100", "wikipedia": "ja:\u65b0\u7530\u99c5 (\u4eac\u90fd\u5e9c)"}}, {"type": "node", "id": 7774989565, "lat": 34.8424155, "lon": 135.7898509, "tags": {"KSJ2:STN": "\u9577\u6c60", "name": "\u9577\u6c60", "name:en": "Nagaike", "name:ja": "\u9577\u6c60", "name:ko": "\ub098\uac00\uc774\ucf00", "operator": "\u897f\u65e5\u672c\u65c5\u5ba2\u9244\u9053", "operator:en": "West Japan Railway Company", "public_transport": "station", "railway": "station", "ref": "JR-D13", "train": "yes", "wikidata": "Q1049403", "wikipedia": "ja:\u9577\u6c60\u99c5"}}, {"type": "node", "id": 7775105756, "lat": 34.7504339, "lon": 135.8212435, "tags": {"KSJ2:STN": "\u4e0a\u72db", "contact:website": "http://www.jr-odekake.net/eki/top.php?id=0621601", "name": "\u4e0a\u72db", "name:en": "Kamikoma", "name:ja": "\u4e0a\u72db", "name:ko": "\uac00\ubbf8\ucf54\ub9c8", "operator": "\u897f\u65e5\u672c\u65c5\u5ba2\u9244\u9053", "operator:en": "West Japan Railway Company", "public_transport": "station", "railway": "station", "ref": "JR-D18", "train": "yes", "wikidata": "Q1049010", "wikipedia": "ja:\u4e0a\u72db\u99c5"}}, {"type": "node", "id": 7775105757, "lat": 34.7747251, "lon": 135.816107, "tags": {"KSJ2:STN": "\u68da\u5009", "contact:website": "http://www.jr-odekake.net/eki/top.php?id=0621602", "name": "\u68da\u5009", "name:en": "Tanakura", "name:ja": "\u68da\u5009", "name:ko": "\ub2e4\ub098\ucfe0\ub77c", "operator": "\u897f\u65e5\u672c\u65c5\u5ba2\u9244\u9053", "operator:en": "West Japan Railway Company", "public_transport": "station", "railway": "station", "ref": "JR-D17", "train": "yes", "wikidata": "Q1049005", "wikipedia": "ja:\u68da\u5009\u99c5"}}, {"type": "node", "id": 7775111680, "lat": 34.800257, "lon": 135.8070307, "tags": {"KSJ2:STN": "\u7389\u6c34", "contact:website": "https://www.jr-odekake.net/eki/top?id=0621603", "name": "\u7389\u6c34", "name:en": "Tamamizu", "name:ja": "\u7389\u6c34", "name:ko": "\ub2e4\ub9c8\ubbf8\uc988", "operator": "\u897f\u65e5\u672c\u65c5\u5ba2\u9244\u9053", "operator:en": "West Japan Railway Company", "public_transport": "station", "railway": "station", "ref": "JR-D16", "train": "yes", "wikidata": "Q1049014", "wikipedia": "ja:\u7389\u6c34\u99c5"}}, {"type": "node", "id": 7829098369, "lat": 34.8208212, "lon": 135.7687043, "tags": {"KSJ2:LIN": "\u7247\u753a\u7dda", "KSJ2:STN": "\u4eac\u7530\u8fba", "name": "\u4eac\u7530\u8fba", "name:en": "Ky\u014dtanabe", "name:ja": "\u4eac\u7530\u8fba", "name:ko": "\uad50\ud0c0\ub098\ubca0", "note": "National-Land Numerical Information (Railway) 2007, MLIT Japan", "note:ja": "\u56fd\u571f\u6570\u5024\u60c5\u5831\uff08\u9244\u9053\u30c7\u30fc\u30bf\uff09\u5e73\u621019\u5e74\u3000\u56fd\u571f\u4ea4\u901a\u7701", "public_transport": "station", "railway": "station", "ref": "JR-H24", "source": "KSJ2", "source_ref": "http://nlftp.mlit.go.jp/ksj/jpgis/datalist/KsjTmplt-N02-v1_1.html", "train": "yes", "wheelchair": "yes", "wikidata": "Q855813", "wikipedia": "ja:\u4eac\u7530\u8fba\u99c5"}}, {"type": "node", "id": 7829098372, "lat": 34.8307899, "lon": 135.7495514, "tags": {"KSJ2:LIN": "\u7247\u753a\u7dda", "KSJ2:STN": "\u5927\u4f4f", "name": "\u5927\u4f4f", "name:en": "\u014csumi", "name:ja": "\u5927\u4f4f", "name:ko": "\uc624\uc2a4\ubbf8", "note": "National-Land Numerical Information (Railway) 2007, MLIT Japan", "note:ja": "\u56fd\u571f\u6570\u5024\u60c5\u5831\uff08\u9244\u9053\u30c7\u30fc\u30bf\uff09\u5e73\u621019\u5e74\u3000\u56fd\u571f\u4ea4\u901a\u7701", "public_transport": "station", "railway": "station", "ref": "JR-H25", "source": "KSJ2", "source_ref": "http://nlftp.mlit.go.jp/ksj/jpgis/datalist/KsjTmplt-N02-v1_1.html", "wikidata": "Q589844", "wikipedia": "ja:\u5927\u4f4f\u99c5"}}, {"type": "node", "id": 7836351937, "lat": 34.6699233, "lon": 135.8286658, "tags": {"KSJ2:LIN": "\u685c\u4e95\u7dda", "KSJ2:STN": "\u4eac\u7d42", "name": "\u4eac\u7d42", "name:en": "Ky\u014dbate", "name:ja": "\u4eac\u7d42", "name:ko": "\uad50\ubc14\ud14c", "note": "National-Land Numerical Information (Railway) 2007, MLIT Japan", "note:ja": "\u56fd\u571f\u6570\u5024\u60c5\u5831\uff08\u9244\u9053\u30c7\u30fc\u30bf\uff09\u5e73\u621019\u5e74\u3000\u56fd\u571f\u4ea4\u901a\u7701", "public_transport": "station", "railway": "station", "source": "KSJ2", "source_ref": "http://nlftp.mlit.go.jp/ksj/jpgis/datalist/KsjTmplt-N02-v1_1.html", "wikidata": "Q3655910", "wikipedia": "ja:\u4eac\u7d42\u99c5"}}, {"type": "node", "id": 7836351938, "lat": 34.6434293, "lon": 135.8262867, "tags": {"KSJ2:LIN": "\u685c\u4e95\u7dda", "KSJ2:STN": "\u5e2f\u89e3", "name": "\u5e2f\u89e3", "name:en": "Obitoke", "name:ja": "\u5e2f\u89e3", "name:ko": "\uc624\ube44\ud1a0\ucf00", "note": "National-Land Numerical Information (Railway) 2007, MLIT Japan", "note:ja": "\u56fd\u571f\u6570\u5024\u60c5\u5831\uff08\u9244\u9053\u30c7\u30fc\u30bf\uff09\u5e73\u621019\u5e74\u3000\u56fd\u571f\u4ea4\u901a\u7701", "public_transport": "station", "railway": "station", "source": "KSJ2", "source_ref": "http://nlftp.mlit.go.jp/ksj/jpgis/datalist/KsjTmplt-N02-v1_1.html", "wikidata": "Q3702696", "wikipedia": "ja:\u5e2f\u89e3\u99c5"}}, {"type": "node", "id": 7836351940, "lat": 34.6210435, "lon": 135.8262344, "tags": {"KSJ2:LIN": "\u685c\u4e95\u7dda", "KSJ2:STN": "\u6adf\u672c", "name": "\u6adf\u672c", "name:en": "Ichinomoto", "name:ja": "\u6adf\u672c", "name:ja_rm": "Ichinomoto", "name:ko": "\uc774\uce58\ub178\ubaa8\ud1a0", "note": "National-Land Numerical Information (Railway) 2007, MLIT Japan", "note:ja": "\u56fd\u571f\u6570\u5024\u60c5\u5831\uff08\u9244\u9053\u30c7\u30fc\u30bf\uff09\u5e73\u621019\u5e74\u3000\u56fd\u571f\u4ea4\u901a\u7701", "public_transport": "station", "railway": "station", "source": "KSJ2", "source_ref": "http://nlftp.mlit.go.jp/ksj/jpgis/datalist/KsjTmplt-N02-v1_1.html", "url": "http://www.jr-odekake.net/eki/top.php?id=0621703", "wikidata": "Q3936059", "wikipedia": "ja:\u6adf\u672c\u99c5"}}, {"type": "node", "id": 7836351942, "lat": 34.6012718, "lon": 135.8298138, "tags": {"KSJ2:LIN": "\u5929\u7406\u7dda", "KSJ2:STN": "\u5929\u7406", "name": "\u5929\u7406", "name:en": "Tenri", "name:ja": "\u5929\u7406", "name:ja_rm": "Tenri", "network": "\u8fd1\u757f\u65e5\u672c\u9244\u9053\u5929\u7406\u7dda", "note": "National-Land Numerical Information (Railway) 2007, MLIT Japan", "note:ja": "\u56fd\u571f\u6570\u5024\u60c5\u5831\uff08\u9244\u9053\u30c7\u30fc\u30bf\uff09\u5e73\u621019\u5e74\u3000\u56fd\u571f\u4ea4\u901a\u7701", "operator": "\u8fd1\u757f\u65e5\u672c\u9244\u9053", "operator:en": "Kintetsu Railway", "public_transport": "station", "railway": "station", "ref": "H35", "source": "KSJ2", "source_ref": "http://nlftp.mlit.go.jp/ksj/jpgis/datalist/KsjTmplt-N02-v1_1.html", "url": "http://www.jr-odekake.net/eki/top.php?id=0621704", "website": "https://www.kintetsu.co.jp/station/station_info/station10008.html", "wikidata": "Q4188394", "wikipedia": "ja:\u5929\u7406\u99c5"}}, {"type": "node", "id": 7836351948, "lat": 34.5737245, "lon": 135.835083, "tags": {"KSJ2:LIN": "\u685c\u4e95\u7dda", "KSJ2:STN": "\u9577\u67c4", "name": "\u9577\u67c4", "name:en": "Nagara", "name:ja": "\u9577\u67c4", "name:ja_rm": "Nagara", "name:ko": "\ub098\uac00\ub77c", "note": "National-Land Numerical Information (Railway) 2007, MLIT Japan", "note:ja": "\u56fd\u571f\u6570\u5024\u60c5\u5831\uff08\u9244\u9053\u30c7\u30fc\u30bf\uff09\u5e73\u621019\u5e74\u3000\u56fd\u571f\u4ea4\u901a\u7701", "public_transport": "station", "railway": "station", "source": "KSJ2", "source_ref": "http://nlftp.mlit.go.jp/ksj/jpgis/datalist/KsjTmplt-N02-v1_1.html", "url": "http://www.jr-odekake.net/eki/top.php?id=0621705", "wikidata": "Q4188736", "wikipedia": "ja:\u9577\u67c4\u99c5"}}, {"type": "node", "id": 7836351949, "lat": 34.5593143, "lon": 135.8385987, "tags": {"KSJ2:LIN": "\u685c\u4e95\u7dda", "KSJ2:STN": "\u67f3\u672c", "name": "\u67f3\u672c", "name:en": "Yanagimoto", "name:ja": "\u67f3\u672c", "name:ja_rm": "Yanagimoto", "name:ko": "\uc57c\ub098\uae30\ubaa8\ud1a0", "note": "National-Land Numerical Information (Railway) 2007, MLIT Japan", "note:ja": "\u56fd\u571f\u6570\u5024\u60c5\u5831\uff08\u9244\u9053\u30c7\u30fc\u30bf\uff09\u5e73\u621019\u5e74\u3000\u56fd\u571f\u4ea4\u901a\u7701", "public_transport": "station", "railway": "station", "source": "KSJ2", "source_ref": "http://nlftp.mlit.go.jp/ksj/jpgis/datalist/KsjTmplt-N02-v1_1.html", "url": "http://www.jr-odekake.net/eki/top.php?id=0621706", "wikidata": "Q4188827", "wikipedia": "ja:\u67f3\u672c\u99c5"}}, {"type": "node", "id": 7836351951, "lat": 34.5452882, "lon": 135.8408846, "tags": {"KSJ2:LIN": "\u685c\u4e95\u7dda", "KSJ2:STN": "\u5dfb\u5411", "name": "\u5dfb\u5411", "name:en": "Makimuku", "name:ja": "\u5dfb\u5411", "name:ja_rm": "Makimuku", "name:ko": "\ub9c8\ud0a4\ubb34\ucfe0", "note": "National-Land Numerical Information (Railway) 2007, MLIT Japan", "note:ja": "\u56fd\u571f\u6570\u5024\u60c5\u5831\uff08\u9244\u9053\u30c7\u30fc\u30bf\uff09\u5e73\u621019\u5e74\u3000\u56fd\u571f\u4ea4\u901a\u7701", "public_transport": "station", "railway": "station", "source": "KSJ2", "source_ref": "http://nlftp.mlit.go.jp/ksj/jpgis/datalist/KsjTmplt-N02-v1_1.html", "url": "http://www.jr-odekake.net/eki/top.php?id=0621707", "wikidata": "Q4980794", "wikipedia": "ja:\u5dfb\u5411\u99c5"}}, {"type": "node", "id": 7836351952, "lat": 34.5268994, "lon": 135.8486442, "tags": {"KSJ2:LIN": "\u685c\u4e95\u7dda", "KSJ2:STN": "\u4e09\u8f2a", "name": "\u4e09\u8f2a", "name:en": "Miwa", "name:ja": "\u4e09\u8f2a", "name:ja_rm": "Miwa", "name:ko": "\ubbf8\uc640", "note": "National-Land Numerical Information (Railway) 2007, MLIT Japan", "note:ja": "\u56fd\u571f\u6570\u5024\u60c5\u5831\uff08\u9244\u9053\u30c7\u30fc\u30bf\uff09\u5e73\u621019\u5e74\u3000\u56fd\u571f\u4ea4\u901a\u7701", "public_transport": "station", "railway": "station", "source": "KSJ2", "source_ref": "http://nlftp.mlit.go.jp/ksj/jpgis/datalist/KsjTmplt-N02-v1_1.html", "url": "http://www.jr-odekake.net/eki/top.php?id=0621708", "wikidata": "Q5362082", "wikipedia": "ja:\u4e09\u8f2a\u99c5"}}, {"type": "node", "id": 7836351954, "lat": 34.5104682, "lon": 135.8243226, "tags": {"KSJ2:LIN": "\u685c\u4e95\u7dda", "KSJ2:STN": "\u9999\u4e45\u5c71", "name": "\u9999\u4e45\u5c71", "name:en": "Kaguyama", "name:ja": "\u9999\u4e45\u5c71", "name:ja_rm": "Kaguyama", "name:ko": "\uac00\uad6c\uc57c\ub9c8", "note": "National-Land Numerical Information (Railway) 2007, MLIT Japan", "note:ja": "\u56fd\u571f\u6570\u5024\u60c5\u5831\uff08\u9244\u9053\u30c7\u30fc\u30bf\uff09\u5e73\u621019\u5e74\u3000\u56fd\u571f\u4ea4\u901a\u7701", "public_transport": "station", "railway": "station", "source": "KSJ2", "source_ref": "http://nlftp.mlit.go.jp/ksj/jpgis/datalist/KsjTmplt-N02-v1_1.html", "wikidata": "Q5361884", "wikipedia": "ja:\u9999\u4e45\u5c71\u99c5"}}, {"type": "node", "id": 7836351955, "lat": 34.5082165, "lon": 135.7936737, "tags": {"KSJ2:LIN": "\u685c\u4e95\u7dda", "KSJ2:STN": "\u755d\u508d", "name": "\u755d\u508d", "name:en": "Unebi", "name:ja": "\u755d\u508d", "name:ja_rm": "Unebi", "name:ko": "\uc6b0\ub124\ube44", "note": "National-Land Numerical Information (Railway) 2007, MLIT Japan", "note:ja": "\u56fd\u571f\u6570\u5024\u60c5\u5831\uff08\u9244\u9053\u30c7\u30fc\u30bf\uff09\u5e73\u621019\u5e74\u3000\u56fd\u571f\u4ea4\u901a\u7701", "public_transport": "station", "railway": "station", "source": "KSJ2", "source_ref": "http://nlftp.mlit.go.jp/ksj/jpgis/datalist/KsjTmplt-N02-v1_1.html", "wikidata": "Q5362428", "wikipedia": "ja:\u755d\u508d\u99c5"}}, {"type": "node", "id": 7836351957, "lat": 34.5096123, "lon": 135.765302, "tags": {"KSJ2:LIN": "\u685c\u4e95\u7dda", "KSJ2:STN": "\u91d1\u6a4b", "name": "\u91d1\u6a4b", "name:en": "Kanahashi", "name:ja": "\u91d1\u6a4b", "name:ja_rm": "Kanahashi", "name:ko": "\uac00\ub098\ud558\uc2dc", "note": "National-Land Numerical Information (Railway) 2007, MLIT Japan", "note:ja": "\u56fd\u571f\u6570\u5024\u60c5\u5831\uff08\u9244\u9053\u30c7\u30fc\u30bf\uff09\u5e73\u621019\u5e74\u3000\u56fd\u571f\u4ea4\u901a\u7701", "public_transport": "station", "railway": "station", "source": "KSJ2", "source_ref": "http://nlftp.mlit.go.jp/ksj/jpgis/datalist/KsjTmplt-N02-v1_1.html", "url": "http://www.jr-odekake.net/eki/top.php?id=0621712", "wikidata": "Q5362037", "wikipedia": "ja:\u91d1\u6a4b\u99c5"}}, {"type": "node", "id": 7836351958, "lat": 34.516288, "lon": 135.7448226, "tags": {"KSJ2:LIN": "\u548c\u6b4c\u5c71\u7dda", "KSJ2:STN": "\u9ad8\u7530", "name": "\u9ad8\u7530", "name:en": "Takada", "name:ja": "\u9ad8\u7530", "name:ko": "\ub2e4\uce74\ub2e4", "note": "National-Land Numerical Information (Railway) 2007, MLIT Japan", "note:ja": "\u56fd\u571f\u6570\u5024\u60c5\u5831\uff08\u9244\u9053\u30c7\u30fc\u30bf\uff09\u5e73\u621019\u5e74\u3000\u56fd\u571f\u4ea4\u901a\u7701", "public_transport": "station", "railway": "station", "source": "KSJ2", "source_ref": "http://nlftp.mlit.go.jp/ksj/jpgis/datalist/KsjTmplt-N02-v1_1.html", "wikidata": "Q3615865", "wikipedia": "ja:\u9ad8\u7530\u99c5 (\u5948\u826f\u770c)"}}, {"type": "node", "id": 7855766995, "lat": 34.6486385, "lon": 135.7085257, "tags": {"KSJ2:LIN": "\u751f\u99d2\u7dda", "KSJ2:STN": "\u6771\u5c71", "name": "\u6771\u5c71", "name:en": "Higashiyama", "name:ja": "\u6771\u5c71", "name:ja_rm": "Higashiyama", "name:ko": "\ud788\uac00\uc2dc\uc57c\ub9c8", "public_transport": "station", "railway": "station", "url": "http://www.kintetsu.co.jp/station/station_info/station11011.html", "wikidata": "Q5754159", "wikipedia": "ja:\u6771\u5c71\u99c5 (\u5948\u826f\u770c)"}}, {"type": "node", "id": 7858449448, "lat": 34.6655416, "lon": 135.7087214, "tags": {"KSJ2:LIN": "\u751f\u99d2\u7dda", "KSJ2:STN": "\u5357\u751f\u99d2", "name": "\u5357\u751f\u99d2", "name:en": "Minami-Ikoma", "name:ja": "\u5357\u751f\u99d2", "name:ja_rm": "Minami-Ikoma", "name:ko": "\ubbf8\ub098\ubbf8\uc774\ucf54\ub9c8", "note": "National-Land Numerical Information (Railway) 2007, MLIT Japan", "note:ja": "\u56fd\u571f\u6570\u5024\u60c5\u5831\uff08\u9244\u9053\u30c7\u30fc\u30bf\uff09\u5e73\u621019\u5e74\u3000\u56fd\u571f\u4ea4\u901a\u7701", "public_transport": "station", "railway": "station", "source": "KSJ2", "source_ref": "http://nlftp.mlit.go.jp/ksj/jpgis/datalist/KsjTmplt-N02-v1_1.html", "url": "http://www.kintetsu.co.jp/station/station_info/station11013.html", "wikidata": "Q6862892", "wikipedia": "ja:\u5357\u751f\u99d2\u99c5"}}, {"type": "node", "id": 7858458618, "lat": 34.675907, "lon": 135.7079104, "tags": {"KSJ2:LIN": "\u751f\u99d2\u7dda", "KSJ2:STN": "\u4e00\u5206", "name": "\u4e00\u5206", "name:en": "Ichibu", "name:ja": "\u4e00\u5206", "name:ko": "\uc774\uce58\ubd80", "note": "National-Land Numerical Information (Railway) 2007, MLIT Japan", "note:ja": "\u56fd\u571f\u6570\u5024\u60c5\u5831\uff08\u9244\u9053\u30c7\u30fc\u30bf\uff09\u5e73\u621019\u5e74\u3000\u56fd\u571f\u4ea4\u901a\u7701", "public_transport": "station", "railway": "station", "source": "KSJ2", "source_ref": "http://nlftp.mlit.go.jp/ksj/jpgis/datalist/KsjTmplt-N02-v1_1.html", "wikidata": "Q5986106", "wikipedia": "ja:\u4e00\u5206\u99c5"}}, {"type": "node", "id": 7859453682, "lat": 34.6856167, "lon": 135.7067695, "tags": {"KSJ2:LIN": "\u751f\u99d2\u7dda", "KSJ2:STN": "\u83dc\u7551", "name": "\u83dc\u7551", "name:en": "Nabata", "name:ja": "\u83dc\u7551", "name:ko": "\ub098\ubc14\ud0c0", "note": "National-Land Numerical Information (Railway) 2007, MLIT Japan", "note:ja": "\u56fd\u571f\u6570\u5024\u60c5\u5831\uff08\u9244\u9053\u30c7\u30fc\u30bf\uff09\u5e73\u621019\u5e74\u3000\u56fd\u571f\u4ea4\u901a\u7701", "public_transport": "station", "railway": "station", "source": "KSJ2", "source_ref": "http://nlftp.mlit.go.jp/ksj/jpgis/datalist/KsjTmplt-N02-v1_1.html", "wikidata": "Q11619979", "wikipedia": "ja:\u83dc\u7551\u99c5"}}, {"type": "node", "id": 7890328232, "lat": 34.5161062, "lon": 135.8690786, "tags": {"KSJ2:LIN": "\u5927\u962a\u7dda", "KSJ2:STN": "\u5927\u548c\u671d\u5009", "name": "\u5927\u548c\u671d\u5009", "name:en": "Yamato-Asakura", "name:ja": "\u5927\u548c\u671d\u5009", "name:ja_rm": "Yamato-Asakura", "name:ko": "\uc57c\ub9c8\ud1a0\uc544\uc0ac\ucfe0\ub77c", "note": "National-Land Numerical Information (Railway) 2007, MLIT Japan", "note:ja": "\u56fd\u571f\u6570\u5024\u60c5\u5831\uff08\u9244\u9053\u30c7\u30fc\u30bf\uff09\u5e73\u621019\u5e74\u3000\u56fd\u571f\u4ea4\u901a\u7701", "operator": "\u8fd1\u757f\u65e5\u672c\u9244\u9053", "operator:ja": "\u8fd1\u757f\u65e5\u672c\u9244\u9053", "public_transport": "station", "railway": "station", "ref": "D30", "source": "KSJ2", "source_ref": "http://nlftp.mlit.go.jp/ksj/jpgis/datalist/KsjTmplt-N02-v1_1.html", "url": "http://www.kintetsu.co.jp/station/station_info/station02034.html", "wikidata": "Q8047967", "wikipedia": "ja:\u5927\u548c\u671d\u5009\u99c5"}}, {"type": "node", "id": 7890642611, "lat": 34.6826783, "lon": 136.2047571, "tags": {"KSJ2:LIN": "\u5927\u962a\u7dda", "KSJ2:STN": "\u4f0a\u8cc0\u4e0a\u6d25", "name": "\u4f0a\u8cc0\u4e0a\u6d25", "name:en": "Igakouzu", "name:ja": "\u4f0a\u8cc0\u4e0a\u6d25", "name:ko": "\uc774\uac00\ucf54\uc988", "note": "National-Land Numerical Information (Railway) 2007, MLIT Japan", "note:ja": "\u56fd\u571f\u6570\u5024\u60c5\u5831\uff08\u9244\u9053\u30c7\u30fc\u30bf\uff09\u5e73\u621019\u5e74\u3000\u56fd\u571f\u4ea4\u901a\u7701", "operator": "\u8fd1\u757f\u65e5\u672c\u9244\u9053", "operator:ja": "\u8fd1\u757f\u65e5\u672c\u9244\u9053", "public_transport": "station", "railway": "station", "source": "KSJ2", "source_ref": "http://nlftp.mlit.go.jp/ksj/jpgis/datalist/KsjTmplt-N02-v1_1.html", "wikidata": "Q5991391", "wikipedia": "ja:\u4f0a\u8cc0\u4e0a\u6d25\u99c5"}}, {"type": "node", "id": 7890642613, "lat": 34.5267033, "lon": 135.9060857, "tags": {"KSJ2:LIN": "\u5927\u962a\u7dda", "KSJ2:STN": "\u9577\u8c37\u5bfa", "name": "\u9577\u8c37\u5bfa", "name:en": "Hasedera", "name:ja": "\u9577\u8c37\u5bfa", "name:ja_rm": "Hasedera", "name:ko": "\ud558\uc138\ub370\ub77c", "note": "National-Land Numerical Information (Railway) 2007, MLIT Japan", "note:ja": "\u56fd\u571f\u6570\u5024\u60c5\u5831\uff08\u9244\u9053\u30c7\u30fc\u30bf\uff09\u5e73\u621019\u5e74\u3000\u56fd\u571f\u4ea4\u901a\u7701", "operator": "\u8fd1\u757f\u65e5\u672c\u9244\u9053", "operator:ja": "\u8fd1\u757f\u65e5\u672c\u9244\u9053", "public_transport": "station", "railway": "station", "ref": "D31", "source": "KSJ2", "source_ref": "http://nlftp.mlit.go.jp/ksj/jpgis/datalist/KsjTmplt-N02-v1_1.html", "url": "http://www.kintetsu.co.jp/station/station_info/station02035.html", "wikidata": "Q5678737", "wikipedia": "ja:\u9577\u8c37\u5bfa\u99c5"}}, {"type": "node", "id": 7890642615, "lat": 34.6730629, "lon": 136.1777614, "tags": {"KSJ2:LIN": "\u5927\u962a\u7dda", "KSJ2:STN": "\u9752\u5c71\u753a", "name": "\u9752\u5c71\u753a", "name:en": "Aoyamachou", "name:ja": "\u9752\u5c71\u753a", "name:ko": "\uc544\uc624\uc57c\ub9c8\ucd08", "note": "National-Land Numerical Information (Railway) 2007, MLIT Japan", "note:ja": "\u56fd\u571f\u6570\u5024\u60c5\u5831\uff08\u9244\u9053\u30c7\u30fc\u30bf\uff09\u5e73\u621019\u5e74\u3000\u56fd\u571f\u4ea4\u901a\u7701", "operator": "\u8fd1\u757f\u65e5\u672c\u9244\u9053", "operator:ja": "\u8fd1\u757f\u65e5\u672c\u9244\u9053", "public_transport": "station", "railway": "station", "source": "KSJ2", "source_ref": "http://nlftp.mlit.go.jp/ksj/jpgis/datalist/KsjTmplt-N02-v1_1.html", "wikidata": "Q4778841", "wikipedia": "ja:\u9752\u5c71\u753a\u99c5"}}, {"type": "node", "id": 7890642618, "lat": 34.5348056, "lon": 135.7180662, "tags": {"KSJ2:LIN": "\u5927\u962a\u7dda", "KSJ2:STN": "\u4e94\u4f4d\u5802", "name": "\u4e94\u4f4d\u5802", "name:en": "Goid\u014d", "name:ja": "\u4e94\u4f4d\u5802", "name:ja_rm": "Goid\u014d", "name:ko": "\uace0\uc774\ub3c4", "note": "National-Land Numerical Information (Railway) 2007, MLIT Japan", "note:ja": "\u56fd\u571f\u6570\u5024\u60c5\u5831\uff08\u9244\u9053\u30c7\u30fc\u30bf\uff09\u5e73\u621019\u5e74\u3000\u56fd\u571f\u4ea4\u901a\u7701", "operator": "\u8fd1\u757f\u65e5\u672c\u9244\u9053", "operator:ja": "\u8fd1\u757f\u65e5\u672c\u9244\u9053", "public_transport": "station", "railway": "station", "ref": "D23", "source": "KSJ2", "source_ref": "http://nlftp.mlit.go.jp/ksj/jpgis/datalist/KsjTmplt-N02-v1_1.html", "url": "http://www.kintetsu.co.jp/station/station_info/station02025.html", "wikidata": "Q5577645", "wikipedia": "ja:\u4e94\u4f4d\u5802\u99c5"}}, {"type": "node", "id": 7890758858, "lat": 34.6736981, "lon": 136.1525546, "tags": {"KSJ2:LIN": "\u5927\u962a\u7dda", "KSJ2:STN": "\u4f0a\u8cc0\u795e\u6238", "name": "\u4f0a\u8cc0\u795e\u6238", "name:en": "Iga-Kambe", "name:ja": "\u4f0a\u8cc0\u795e\u6238", "name:ko": "\uc774\uac00\uce78\ubca0", "note": "National-Land Numerical Information (Railway) 2007, MLIT Japan", "note:ja": "\u56fd\u571f\u6570\u5024\u60c5\u5831\uff08\u9244\u9053\u30c7\u30fc\u30bf\uff09\u5e73\u621019\u5e74\u3000\u56fd\u571f\u4ea4\u901a\u7701", "operator": "\u8fd1\u757f\u65e5\u672c\u9244\u9053", "operator:ja": "\u8fd1\u757f\u65e5\u672c\u9244\u9053", "public_transport": "station", "railway": "station", "source": "KSJ2", "source_ref": "http://nlftp.mlit.go.jp/ksj/jpgis/datalist/KsjTmplt-N02-v1_1.html", "wheelchair": "no", "wikidata": "Q8192384", "wikipedia": "ja:\u4f0a\u8cc0\u795e\u6238\u99c5"}}, {"type": "node", "id": 7890758859, "lat": 34.5205776, "lon": 135.7615455, "tags": {"KSJ2:LIN": "\u5927\u962a\u7dda", "KSJ2:STN": "\u677e\u585a", "name": "\u677e\u585a", "name:en": "Matsuzuka", "name:ja": "\u677e\u585a", "name:ko": "\ub9c8\uc4f0\uc988\uce74", "note": "National-Land Numerical Information (Railway) 2007, MLIT Japan", "note:ja": "\u56fd\u571f\u6570\u5024\u60c5\u5831\uff08\u9244\u9053\u30c7\u30fc\u30bf\uff09\u5e73\u621019\u5e74\u3000\u56fd\u571f\u4ea4\u901a\u7701", "operator": "\u8fd1\u757f\u65e5\u672c\u9244\u9053", "operator:ja": "\u8fd1\u757f\u65e5\u672c\u9244\u9053", "public_transport": "station", "railway": "station", "ref": "D26", "source": "KSJ2", "source_ref": "http://nlftp.mlit.go.jp/ksj/jpgis/datalist/KsjTmplt-N02-v1_1.html", "wikidata": "Q6788248", "wikipedia": "ja:\u677e\u585a\u99c5"}}, {"type": "node", "id": 7890798808, "lat": 34.5123994, "lon": 135.8147478, "tags": {"KSJ2:LIN": "\u5927\u962a\u7dda", "KSJ2:STN": "\u8033\u6210", "name": "\u8033\u6210", "name:en": "Miminashi", "name:ja": "\u8033\u6210", "name:ja-Latn": "Miminashi", "name:ko": "\ubbf8\ubbf8\ub098\uc2dc", "note": "National-Land Numerical Information (Railway) 2007, MLIT Japan", "note:ja": "\u56fd\u571f\u6570\u5024\u60c5\u5831\uff08\u9244\u9053\u30c7\u30fc\u30bf\uff09\u5e73\u621019\u5e74\u3000\u56fd\u571f\u4ea4\u901a\u7701", "operator": "\u8fd1\u757f\u65e5\u672c\u9244\u9053", "operator:ja": "\u8fd1\u757f\u65e5\u672c\u9244\u9053", "public_transport": "station", "railway": "station", "ref": "D40", "source": "KSJ2", "source_ref": "http://nlftp.mlit.go.jp/ksj/jpgis/datalist/KsjTmplt-N02-v1_1.html", "url": "http://www.kintetsu.co.jp/station/station_info/station02031.html", "wikidata": "Q6862256", "wikipedia": "ja:\u8033\u6210\u99c5"}}, {"type": "node", "id": 7891813585, "lat": 34.5195865, "lon": 135.7729442, "tags": {"KSJ2:LIN": "\u5927\u962a\u7dda", "KSJ2:STN": "\u771f\u83c5", "name": "\u771f\u83c5", "name:en": "Masuga", "name:ja": "\u771f\u83c5", "name:ko": "\ub9c8\uc2a4\uac00", "note": "National-Land Numerical Information (Railway) 2007, MLIT Japan", "note:ja": "\u56fd\u571f\u6570\u5024\u60c5\u5831\uff08\u9244\u9053\u30c7\u30fc\u30bf\uff09\u5e73\u621019\u5e74\u3000\u56fd\u571f\u4ea4\u901a\u7701", "operator": "\u8fd1\u757f\u65e5\u672c\u9244\u9053", "operator:ja": "\u8fd1\u757f\u65e5\u672c\u9244\u9053", "public_transport": "station", "railway": "station", "ref": "D27", "source": "KSJ2", "source_ref": "http://nlftp.mlit.go.jp/ksj/jpgis/datalist/KsjTmplt-N02-v1_1.html", "wikidata": "Q6785665", "wikipedia": "ja:\u771f\u83c5\u99c5"}}, {"type": "node", "id": 7891898725, "lat": 34.5999217, "lon": 136.0744286, "tags": {"KSJ2:LIN": "\u5927\u962a\u7dda", "KSJ2:STN": "\u8d64\u76ee\u53e3", "name": "\u8d64\u76ee\u53e3", "name:en": "Akameguchi", "name:ja": "\u8d64\u76ee\u53e3", "name:ko": "\uc544\uce74\uba54\uad6c\uce58", "note": "National-Land Numerical Information (Railway) 2007, MLIT Japan", "note:ja": "\u56fd\u571f\u6570\u5024\u60c5\u5831\uff08\u9244\u9053\u30c7\u30fc\u30bf\uff09\u5e73\u621019\u5e74\u3000\u56fd\u571f\u4ea4\u901a\u7701", "operator": "\u8fd1\u757f\u65e5\u672c\u9244\u9053", "operator:ja": "\u8fd1\u757f\u65e5\u672c\u9244\u9053", "public_transport": "station", "railway": "station", "source": "KSJ2", "source_ref": "http://nlftp.mlit.go.jp/ksj/jpgis/datalist/KsjTmplt-N02-v1_1.html", "wikidata": "Q4700236", "wikipedia": "ja:\u8d64\u76ee\u53e3\u99c5"}}, {"type": "node", "id": 7891898727, "lat": 34.5197997, "lon": 135.7424254, "tags": {"KSJ2:LIN": "\u5927\u962a\u7dda", "KSJ2:STN": "\u5927\u548c\u9ad8\u7530", "name": "\u5927\u548c\u9ad8\u7530", "name:en": "Yamato-Takada", "name:ja": "\u5927\u548c\u9ad8\u7530", "name:ja_rm": "Yamato-Takada", "name:ko": "\uc57c\ub9c8\ud1a0\ud0c0\uce74\ub2e4", "note": "National-Land Numerical Information (Railway) 2007, MLIT Japan", "note:ja": "\u56fd\u571f\u6570\u5024\u60c5\u5831\uff08\u9244\u9053\u30c7\u30fc\u30bf\uff09\u5e73\u621019\u5e74\u3000\u56fd\u571f\u4ea4\u901a\u7701", "operator": "\u8fd1\u757f\u65e5\u672c\u9244\u9053", "operator:ja": "\u8fd1\u757f\u65e5\u672c\u9244\u9053", "public_transport": "station", "railway": "station", "ref": "D25", "source": "KSJ2", "source_ref": "http://nlftp.mlit.go.jp/ksj/jpgis/datalist/KsjTmplt-N02-v1_1.html", "url": "http://www.kintetsu.co.jp/station/station_info/station02027.html", "wikidata": "Q8047971", "wikipedia": "ja:\u5927\u548c\u9ad8\u7530\u99c5"}}, {"type": "node", "id": 7891898728, "lat": 34.5787051, "lon": 136.0363137, "tags": {"KSJ2:LIN": "\u5927\u962a\u7dda", "KSJ2:STN": "\u4e09\u672c\u677e", "name": "\u4e09\u672c\u677e", "name:en": "Sambommatsu", "name:ja": "\u4e09\u672c\u677e", "name:ko": "\uc0b0\ubcf8\ub9c8\uc4f0", "note": "National-Land Numerical Information (Railway) 2007, MLIT Japan", "note:ja": "\u56fd\u571f\u6570\u5024\u60c5\u5831\uff08\u9244\u9053\u30c7\u30fc\u30bf\uff09\u5e73\u621019\u5e74\u3000\u56fd\u571f\u4ea4\u901a\u7701", "operator": "\u8fd1\u757f\u65e5\u672c\u9244\u9053", "operator:ja": "\u8fd1\u757f\u65e5\u672c\u9244\u9053", "public_transport": "station", "railway": "station", "source": "KSJ2", "source_ref": "http://nlftp.mlit.go.jp/ksj/jpgis/datalist/KsjTmplt-N02-v1_1.html", "wikidata": "Q7409073", "wikipedia": "ja:\u4e09\u672c\u677e\u99c5 (\u5948\u826f\u770c)"}}, {"type": "node", "id": 7891898729, "lat": 34.5261907, "lon": 135.7330799, "tags": {"KSJ2:LIN": "\u5927\u962a\u7dda", "KSJ2:STN": "\u7bc9\u5c71", "name": "\u7bc9\u5c71", "name:en": "Tsukiyama", "name:ja": "\u7bc9\u5c71", "name:ja_rm": "Tsukiyama", "name:ko": "\uc4f0\ud0a4\uc57c\ub9c8", "note": "National-Land Numerical Information (Railway) 2007, MLIT Japan", "note:ja": "\u56fd\u571f\u6570\u5024\u60c5\u5831\uff08\u9244\u9053\u30c7\u30fc\u30bf\uff09\u5e73\u621019\u5e74\u3000\u56fd\u571f\u4ea4\u901a\u7701", "operator": "\u8fd1\u757f\u65e5\u672c\u9244\u9053", "operator:ja": "\u8fd1\u757f\u65e5\u672c\u9244\u9053", "public_transport": "station", "railway": "station", "ref": "D24", "source": "KSJ2", "source_ref": "http://nlftp.mlit.go.jp/ksj/jpgis/datalist/KsjTmplt-N02-v1_1.html", "url": "http://www.kintetsu.co.jp/station/station_info/station02026.html", "wikidata": "Q7850085", "wikipedia": "ja:\u7bc9\u5c71\u99c5"}}, {"type": "node", "id": 7891898730, "lat": 34.6634231, "lon": 136.1333439, "tags": {"KSJ2:LIN": "\u5927\u962a\u7dda", "KSJ2:STN": "\u7f8e\u65d7", "name": "\u7f8e\u65d7", "name:en": "Mihata", "name:ja": "\u7f8e\u65d7", "name:ko": "\ubbf8\ud558\ud0c0", "note": "National-Land Numerical Information (Railway) 2007, MLIT Japan", "note:ja": "\u56fd\u571f\u6570\u5024\u60c5\u5831\uff08\u9244\u9053\u30c7\u30fc\u30bf\uff09\u5e73\u621019\u5e74\u3000\u56fd\u571f\u4ea4\u901a\u7701", "operator": "\u8fd1\u757f\u65e5\u672c\u9244\u9053", "operator:ja": "\u8fd1\u757f\u65e5\u672c\u9244\u9053", "public_transport": "station", "railway": "station", "source": "KSJ2", "source_ref": "http://nlftp.mlit.go.jp/ksj/jpgis/datalist/KsjTmplt-N02-v1_1.html", "wheelchair": "no", "wikidata": "Q11609096", "wikipedia": "ja:\u7f8e\u65d7\u99c5"}}, {"type": "node", "id": 7891898731, "lat": 34.6217895, "lon": 136.0956898, "tags": {"KSJ2:LIN": "\u5927\u962a\u7dda", "KSJ2:STN": "\u540d\u5f35", "name": "\u540d\u5f35", "name:en": "Nabari", "name:ja": "\u540d\u5f35", "name:ja_rm": "Nabari", "name:ko": "\ub098\ubc14\ub9ac", "note": "National-Land Numerical Information (Railway) 2007, MLIT Japan", "note:ja": "\u56fd\u571f\u6570\u5024\u60c5\u5831\uff08\u9244\u9053\u30c7\u30fc\u30bf\uff09\u5e73\u621019\u5e74\u3000\u56fd\u571f\u4ea4\u901a\u7701", "operator": "\u8fd1\u757f\u65e5\u672c\u9244\u9053", "operator:ja": "\u8fd1\u757f\u65e5\u672c\u9244\u9053", "public_transport": "station", "railway": "station", "source": "KSJ2", "source_ref": "http://nlftp.mlit.go.jp/ksj/jpgis/datalist/KsjTmplt-N02-v1_1.html", "wheelchair": "yes", "wikidata": "Q6956756", "wikipedia": "ja:\u540d\u5f35\u99c5"}}, {"type": "node", "id": 7891898735, "lat": 34.5661527, "lon": 136.0153502, "tags": {"KSJ2:LIN": "\u5927\u962a\u7dda", "KSJ2:STN": "\u5ba4\u751f\u53e3\u5927\u91ce", "name": "\u5ba4\u751f\u53e3\u5927\u91ce", "name:en": "Mur\u014dguchi-\u014cno", "name:ja": "\u5ba4\u751f\u53e3\u5927\u91ce", "name:ko": "\ubb34\ub85c\uad6c\uce58\uc624\ub178", "note": "National-Land Numerical Information (Railway) 2007, MLIT Japan", "note:ja": "\u56fd\u571f\u6570\u5024\u60c5\u5831\uff08\u9244\u9053\u30c7\u30fc\u30bf\uff09\u5e73\u621019\u5e74\u3000\u56fd\u571f\u4ea4\u901a\u7701", "operator": "\u8fd1\u757f\u65e5\u672c\u9244\u9053", "operator:ja": "\u8fd1\u757f\u65e5\u672c\u9244\u9053", "public_transport": "station", "railway": "station", "source": "KSJ2", "source_ref": "http://nlftp.mlit.go.jp/ksj/jpgis/datalist/KsjTmplt-N02-v1_1.html", "wikidata": "Q6939872", "wikipedia": "ja:\u5ba4\u751f\u53e3\u5927\u91ce\u99c5"}}, {"type": "node", "id": 7891898736, "lat": 34.5297903, "lon": 135.954319, "tags": {"KSJ2:LIN": "\u5927\u962a\u7dda", "KSJ2:STN": "\u699b\u539f", "name": "\u699b\u539f", "name:en": "Haibara", "name:ja": "\u699b\u539f", "name:ja_rm": "Haibara", "name:ko": "\ud558\uc774\ubc14\ub77c", "note": "National-Land Numerical Information (Railway) 2007, MLIT Japan", "note:ja": "\u56fd\u571f\u6570\u5024\u60c5\u5831\uff08\u9244\u9053\u30c7\u30fc\u30bf\uff09\u5e73\u621019\u5e74\u3000\u56fd\u571f\u4ea4\u901a\u7701", "operator": "\u8fd1\u757f\u65e5\u672c\u9244\u9053", "operator:ja": "\u8fd1\u757f\u65e5\u672c\u9244\u9053", "public_transport": "station", "railway": "station", "source": "KSJ2", "source_ref": "http://nlftp.mlit.go.jp/ksj/jpgis/datalist/KsjTmplt-N02-v1_1.html", "url": "http://www.kintetsu.co.jp/station/station_info/station02036.html", "wikidata": "Q5638969", "wikipedia": "ja:\u699b\u539f\u99c5"}}, {"type": "node", "id": 7891898737, "lat": 34.6412918, "lon": 136.1126784, "tags": {"KSJ2:LIN": "\u5927\u962a\u7dda", "KSJ2:STN": "\u6854\u6897\u304c\u4e18", "name": "\u6854\u6897\u304c\u4e18", "name:en": "Kiky\u014dgaoka", "name:ja": "\u6854\u6897\u304c\u4e18", "name:ko": "\uae30\ucfc4\uac00\uc624\uce74", "note": "National-Land Numerical Information (Railway) 2007, MLIT Japan", "note:ja": "\u56fd\u571f\u6570\u5024\u60c5\u5831\uff08\u9244\u9053\u30c7\u30fc\u30bf\uff09\u5e73\u621019\u5e74\u3000\u56fd\u571f\u4ea4\u901a\u7701", "operator": "\u8fd1\u757f\u65e5\u672c\u9244\u9053", "operator:ja": "\u8fd1\u757f\u65e5\u672c\u9244\u9053", "public_transport": "station", "railway": "station", "source": "KSJ2", "source_ref": "http://nlftp.mlit.go.jp/ksj/jpgis/datalist/KsjTmplt-N02-v1_1.html", "wheelchair": "yes", "wikidata": "Q6406467", "wikipedia": "ja:\u6854\u6897\u304c\u4e18\u99c5"}}, {"type": "node", "id": 7946386296, "lat": 34.8817714, "lon": 135.6840572, "tags": {"KSJ2:STN": "\u6a4b\u672c", "name": "\u6a4b\u672c", "name:en": "Hashimoto", "name:ja": "\u6a4b\u672c", "name:ja_rm": "Hashimoto", "name:ko": "\ud558\uc2dc\ubaa8\ud1a0", "public_transport": "station", "railway": "station", "ref": "KH25", "wikidata": "Q1954974", "wikipedia": "ja:\u6a4b\u672c\u99c5 (\u4eac\u90fd\u5e9c)"}}, {"type": "node", "id": 8021696818, "lat": 34.4651956, "lon": 135.7338458, "tags": {"KSJ2:LIN": "\u548c\u6b4c\u5c71\u7dda", "KSJ2:STN": "\u5fa1\u6240", "name": "\u5fa1\u6240", "name:en": "Gose", "name:ja": "\u5fa1\u6240", "name:ja_rm": "Gose", "name:ko": "\uace0\uc138", "note": "National-Land Numerical Information (Railway) 2007, MLIT Japan", "note:ja": "\u56fd\u571f\u6570\u5024\u60c5\u5831\uff08\u9244\u9053\u30c7\u30fc\u30bf\uff09\u5e73\u621019\u5e74\u3000\u56fd\u571f\u4ea4\u901a\u7701", "public_transport": "station", "railway": "station", "source": "KSJ2", "source_ref": "http://nlftp.mlit.go.jp/ksj/jpgis/datalist/KsjTmplt-N02-v1_1.html", "wikidata": "Q3615334", "wikipedia": "ja:\u5fa1\u6240\u99c5"}}, {"type": "node", "id": 8021696826, "lat": 34.489184, "lon": 135.7361269, "tags": {"KSJ2:LIN": "\u548c\u6b4c\u5c71\u7dda", "KSJ2:STN": "\u5927\u548c\u65b0\u5e84", "name": "\u5927\u548c\u65b0\u5e84", "name:en": "Yamato-Shinjo", "name:ja": "\u5927\u548c\u65b0\u5e84", "name:ja_rm": "Yamato Shinj\u014d", "name:ko": "\uc57c\ub9c8\ud1a0\uc2e0\uc870", "note": "National-Land Numerical Information (Railway) 2007, MLIT Japan", "note:ja": "\u56fd\u571f\u6570\u5024\u60c5\u5831\uff08\u9244\u9053\u30c7\u30fc\u30bf\uff09\u5e73\u621019\u5e74\u3000\u56fd\u571f\u4ea4\u901a\u7701", "public_transport": "station", "railway": "station", "source": "KSJ2", "source_ref": "http://nlftp.mlit.go.jp/ksj/jpgis/datalist/KsjTmplt-N02-v1_1.html", "url": "http://www.jr-odekake.net/eki/top.php?id=0621806", "wikidata": "Q3615450", "wikipedia": "ja:\u5927\u548c\u65b0\u5e84\u99c5"}}, {"type": "node", "id": 8021696835, "lat": 34.5277508, "lon": 135.7183935, "tags": {"KSJ2:LIN": "\u548c\u6b4c\u5c71\u7dda", "KSJ2:STN": "JR\u4e94\u4f4d\u5802", "name": "JR\u4e94\u4f4d\u5802", "name:en": "JR Goid\u014d", "name:ja": "JR\u4e94\u4f4d\u5802", "name:ko": "JR\uace0\uc774\ub3c4", "note": "National-Land Numerical Information (Railway) 2007, MLIT Japan", "note:ja": "\u56fd\u571f\u6570\u5024\u60c5\u5831\uff08\u9244\u9053\u30c7\u30fc\u30bf\uff09\u5e73\u621019\u5e74\u3000\u56fd\u571f\u4ea4\u901a\u7701", "public_transport": "station", "railway": "station", "source": "KSJ2", "source_ref": "http://nlftp.mlit.go.jp/ksj/jpgis/datalist/KsjTmplt-N02-v1_1.html", "wikidata": "Q3655990", "wikipedia": "ja:JR\u4e94\u4f4d\u5802\u99c5"}}, {"type": "node", "id": 8021696839, "lat": 34.5436075, "lon": 135.7055886, "tags": {"KSJ2:LIN": "\u548c\u6b4c\u5c71\u7dda", "KSJ2:STN": "\u9999\u829d", "name": "\u9999\u829d", "name:en": "Kashiba", "name:ja": "\u9999\u829d", "name:ko": "\uac00\uc2dc\ubc14", "note": "National-Land Numerical Information (Railway) 2007, MLIT Japan", "note:ja": "\u56fd\u571f\u6570\u5024\u60c5\u5831\uff08\u9244\u9053\u30c7\u30fc\u30bf\uff09\u5e73\u621019\u5e74\u3000\u56fd\u571f\u4ea4\u901a\u7701", "old_name": "Shimoda", "public_transport": "station", "railway": "station", "source": "KSJ2", "source_ref": "http://nlftp.mlit.go.jp/ksj/jpgis/datalist/KsjTmplt-N02-v1_1.html", "wikidata": "Q3655907", "wikipedia": "ja:\u9999\u829d\u99c5"}}, {"type": "node", "id": 8021696853, "lat": 34.5784301, "lon": 135.7038646, "tags": {"KSJ2:LIN": "\u548c\u6b4c\u5c71\u7dda", "KSJ2:STN": "\u7560\u7530", "name": "\u7560\u7530", "name:en": "Hatakeda", "name:ja": "\u7560\u7530", "name:ko": "\ud558\ud0c0\ucf00\ub2e4", "note": "National-Land Numerical Information (Railway) 2007, MLIT Japan", "note:ja": "\u56fd\u571f\u6570\u5024\u60c5\u5831\uff08\u9244\u9053\u30c7\u30fc\u30bf\uff09\u5e73\u621019\u5e74\u3000\u56fd\u571f\u4ea4\u901a\u7701", "public_transport": "station", "railway": "station", "source": "KSJ2", "source_ref": "http://nlftp.mlit.go.jp/ksj/jpgis/datalist/KsjTmplt-N02-v1_1.html", "wikidata": "Q3655902", "wikipedia": "ja:\u7560\u7530\u99c5"}}, {"type": "node", "id": 8022421619, "lat": 34.4583028, "lon": 135.7483926, "tags": {"KSJ2:LIN": "\u548c\u6b4c\u5c71\u7dda", "KSJ2:STN": "\u7389\u624b", "name": "\u7389\u624b", "name:en": "Tamade", "name:ja": "\u7389\u624b", "name:ja_rm": "Tamade", "name:ko": "\ub2e4\ub9c8\ub370", "note": "National-Land Numerical Information (Railway) 2007, MLIT Japan", "note:ja": "\u56fd\u571f\u6570\u5024\u60c5\u5831\uff08\u9244\u9053\u30c7\u30fc\u30bf\uff09\u5e73\u621019\u5e74\u3000\u56fd\u571f\u4ea4\u901a\u7701", "public_transport": "station", "railway": "station", "source": "KSJ2", "source_ref": "http://nlftp.mlit.go.jp/ksj/jpgis/datalist/KsjTmplt-N02-v1_1.html", "url": "http://www.jr-odekake.net/eki/top.php?id=0621833", "wikidata": "Q3611507", "wikipedia": "ja:\u7389\u624b\u99c5"}}, {"type": "node", "id": 8069839147, "lat": 34.622445, "lon": 135.7635873, "tags": {"KSJ2:LIN": "\u95a2\u897f\u7dda", "KSJ2:STN": "\u5927\u548c\u5c0f\u6cc9", "name": "\u5927\u548c\u5c0f\u6cc9", "name:en": "Yamatokoizumi", "name:ja": "\u5927\u548c\u5c0f\u6cc9", "name:ko": "\uc57c\ub9c8\ud1a0\ucf54\uc774\uc988\ubbf8", "note": "National-Land Numerical Information (Railway) 2007, MLIT Japan", "note:ja": "\u56fd\u571f\u6570\u5024\u60c5\u5831\uff08\u9244\u9053\u30c7\u30fc\u30bf\uff09\u5e73\u621019\u5e74\u3000\u56fd\u571f\u4ea4\u901a\u7701", "public_transport": "station", "railway": "station", "source": "KSJ2", "source_ref": "http://nlftp.mlit.go.jp/ksj/jpgis/datalist/KsjTmplt-N02-v1_1.html", "wikidata": "Q856532", "wikipedia": "ja:\u5927\u548c\u5c0f\u6cc9\u99c5"}}, {"type": "node", "id": 8069917763, "lat": 34.6480583, "lon": 135.7903452, "tags": {"KSJ2:LIN": "\u95a2\u897f\u7dda", "KSJ2:STN": "\u90e1\u5c71", "name": "\u90e1\u5c71", "name:en": "Koriyama", "name:ja": "\u90e1\u5c71", "name:ko": "\uace0\ub9ac\uc57c\ub9c8", "note": "National-Land Numerical Information (Railway) 2007, MLIT Japan", "note:ja": "\u56fd\u571f\u6570\u5024\u60c5\u5831\uff08\u9244\u9053\u30c7\u30fc\u30bf\uff09\u5e73\u621019\u5e74\u3000\u56fd\u571f\u4ea4\u901a\u7701", "operator": "\u897f\u65e5\u672c\u65c5\u5ba2\u9244\u9053", "public_transport": "station", "railway": "station", "source": "KSJ2", "source_ref": "http://nlftp.mlit.go.jp/ksj/jpgis/datalist/KsjTmplt-N02-v1_1.html", "toilets:wheelchair": "yes", "wheelchair": "yes", "wikidata": "Q856526", "wikipedia": "ja:\u90e1\u5c71\u99c5 (\u5948\u826f\u770c)"}}, {"type": "node", "id": 8164014210, "lat": 34.4934606, "lon": 135.7650938, "tags": {"KSJ2:LIN": "\u5357\u5927\u962a\u7dda", "KSJ2:RAS": "eb03_1258", "KSJ2:STN": "\u574a\u57ce", "KSJ2:segment": "eb02_2431", "name": "\u574a\u57ce", "name:en": "B\u014dj\u014d", "name:ja": "\u574a\u57ce", "name:ja_rm": "B\u014dj\u014d", "name:ko": "\ubcf4\uc870", "note": "National-Land Numerical Information (Railway) 2007, MLIT Japan", "note:ja": "\u56fd\u571f\u6570\u5024\u60c5\u5831\uff08\u9244\u9053\u30c7\u30fc\u30bf\uff09\u5e73\u621019\u5e74\u3000\u56fd\u571f\u4ea4\u901a\u7701", "public_transport": "station", "railway": "station", "source": "KSJ2", "source_ref": "http://nlftp.mlit.go.jp/ksj/jpgis/datalist/KsjTmplt-N02-v1_1.html", "wikidata": "Q5005692", "wikipedia": "ja:\u574a\u57ce\u99c5"}}, {"type": "node", "id": 8164014215, "lat": 34.4981701, "lon": 135.7545375, "tags": {"KSJ2:LIN": "\u5357\u5927\u962a\u7dda", "KSJ2:RAS": "eb03_1254", "KSJ2:STN": "\u6d6e\u5b54", "KSJ2:segment": "eb02_2427", "name": "\u6d6e\u5b54", "name:en": "Ukiana", "name:ja": "\u6d6e\u5b54", "name:ja_rm": "Ukiana", "name:ko": "\uc6b0\ud0a4\uc544\ub098", "note": "National-Land Numerical Information (Railway) 2007, MLIT Japan", "note:ja": "\u56fd\u571f\u6570\u5024\u60c5\u5831\uff08\u9244\u9053\u30c7\u30fc\u30bf\uff09\u5e73\u621019\u5e74\u3000\u56fd\u571f\u4ea4\u901a\u7701", "public_transport": "station", "railway": "station", "source": "KSJ2", "source_ref": "http://nlftp.mlit.go.jp/ksj/jpgis/datalist/KsjTmplt-N02-v1_1.html", "wikidata": "Q7878310", "wikipedia": "ja:\u6d6e\u5b54\u99c5"}}, {"type": "node", "id": 8164048837, "lat": 34.5067004, "lon": 135.7431885, "tags": {"KSJ2:LIN": "\u5357\u5927\u962a\u7dda", "KSJ2:RAS": "eb03_1266", "KSJ2:STN": "\u9ad8\u7530\u5e02", "KSJ2:segment": "eb02_2441", "name": "\u9ad8\u7530\u5e02", "name:en": "Takadashi", "name:ja": "\u9ad8\u7530\u5e02", "name:ja_rm": "Takadashi", "name:ko": "\ub2e4\uce74\ub2e4\uc2dc", "note": "National-Land Numerical Information (Railway) 2007, MLIT Japan", "note:ja": "\u56fd\u571f\u6570\u5024\u60c5\u5831\uff08\u9244\u9053\u30c7\u30fc\u30bf\uff09\u5e73\u621019\u5e74\u3000\u56fd\u571f\u4ea4\u901a\u7701", "public_transport": "station", "railway": "station", "source": "KSJ2", "source_ref": "http://nlftp.mlit.go.jp/ksj/jpgis/datalist/KsjTmplt-N02-v1_1.html", "url": "http://www.kintetsu.co.jp/station/station_info/station07028.html", "wikidata": "Q7677000", "wikipedia": "ja:\u9ad8\u7530\u5e02\u99c5"}}, {"type": "node", "id": 8167624573, "lat": 34.4762921, "lon": 135.7320084, "tags": {"KSJ2:LIN": "\u5fa1\u6240\u7dda", "KSJ2:RAS": "eb03_1073", "KSJ2:STN": "\u5fcd\u6d77", "KSJ2:segment": "eb02_2074", "name": "\u5fcd\u6d77", "name:en": "Oshimi", "name:ja": "\u5fcd\u6d77", "name:ja_rm": "Oshimi", "name:ko": "\uc624\uc2dc\ubbf8", "note": "National-Land Numerical Information (Railway) 2007, MLIT Japan", "note:ja": "\u56fd\u571f\u6570\u5024\u60c5\u5831\uff08\u9244\u9053\u30c7\u30fc\u30bf\uff09\u5e73\u621019\u5e74\u3000\u56fd\u571f\u4ea4\u901a\u7701", "public_transport": "station", "railway": "station", "source": "KSJ2", "source_ref": "http://nlftp.mlit.go.jp/ksj/jpgis/datalist/KsjTmplt-N02-v1_1.html", "url": "http://www.kintetsu.co.jp/station/station_info/station15007.html", "wikidata": "Q7106624", "wikipedia": "ja:\u5fcd\u6d77\u99c5"}}, {"type": "node", "id": 8167624574, "lat": 34.4891395, "lon": 135.7273532, "tags": {"KSJ2:LIN": "\u5fa1\u6240\u7dda", "KSJ2:RAS": "eb03_1071", "KSJ2:STN": "\u8fd1\u9244\u65b0\u5e84", "KSJ2:segment": "eb02_2073", "name": "\u8fd1\u9244\u65b0\u5e84", "name:en": "Kintetsu-Shinj\u014d", "name:ja": "\u8fd1\u9244\u65b0\u5e84", "name:ja_rm": "Kintetsu-Shinj\u014d", "name:ko": "\uae34\ud14c\uc4f0\uc2e0\uc870", "note": "National-Land Numerical Information (Railway) 2007, MLIT Japan", "note:ja": "\u56fd\u571f\u6570\u5024\u60c5\u5831\uff08\u9244\u9053\u30c7\u30fc\u30bf\uff09\u5e73\u621019\u5e74\u3000\u56fd\u571f\u4ea4\u901a\u7701", "public_transport": "station", "railway": "station", "source": "KSJ2", "source_ref": "http://nlftp.mlit.go.jp/ksj/jpgis/datalist/KsjTmplt-N02-v1_1.html", "url": "http://www.kintetsu.co.jp/station/station_info/station15006.html", "wikidata": "Q6414374", "wikipedia": "ja:\u8fd1\u9244\u65b0\u5e84\u99c5"}}, {"type": "node", "id": 8167624580, "lat": 34.4646121, "lon": 135.7324374, "tags": {"KSJ2:LIN": "\u5fa1\u6240\u7dda", "KSJ2:RAS": "eb03_1072", "KSJ2:STN": "\u8fd1\u9244\u5fa1\u6240", "KSJ2:segment": "eb02_2072", "name": "\u8fd1\u9244\u5fa1\u6240", "name:en": "Kintetsu Gose", "name:ja": "\u8fd1\u9244\u5fa1\u6240", "name:ja_rm": "Kintetsu-Gose", "name:ko": "\uae34\ud14c\uc4f0\uace0\uc138", "note": "National-Land Numerical Information (Railway) 2007, MLIT Japan", "note:ja": "\u56fd\u571f\u6570\u5024\u60c5\u5831\uff08\u9244\u9053\u30c7\u30fc\u30bf\uff09\u5e73\u621019\u5e74\u3000\u56fd\u571f\u4ea4\u901a\u7701", "public_transport": "station", "railway": "station", "source": "KSJ2", "source_ref": "http://nlftp.mlit.go.jp/ksj/jpgis/datalist/KsjTmplt-N02-v1_1.html", "url": "http://www.kintetsu.co.jp/station/station_info/station15008.html", "wheelchair": "limited", "wikidata": "Q11639107", "wikipedia": "ja:\u8fd1\u9244\u5fa1\u6240\u99c5"}}, {"type": "node", "id": 8175421797, "lat": 34.6979701, "lon": 135.7612216, "tags": {"KSJ2:LIN": "\u5948\u826f\u7dda", "KSJ2:STN": "\u83d6\u84b2\u6c60", "name": "\u83d6\u84b2\u6c60", "name:en": "Ayameike", "name:ja": "\u83d6\u84b2\u6c60", "name:ko": "\uc544\uc57c\uba54\uc774\ucf00", "note": "National-Land Numerical Information (Railway) 2007, MLIT Japan", "note:ja": "\u56fd\u571f\u6570\u5024\u60c5\u5831\uff08\u9244\u9053\u30c7\u30fc\u30bf\uff09\u5e73\u621019\u5e74\u3000\u56fd\u571f\u4ea4\u901a\u7701", "public_transport": "station", "railway": "station", "ref": "A21", "source": "KSJ2", "source_ref": "http://nlftp.mlit.go.jp/ksj/jpgis/datalist/KsjTmplt-N02-v1_1.html", "website": "https://www.kintetsu.co.jp/station/station_info/station03020.html", "wheelchair": "yes", "wikidata": "Q4830902", "wikipedia": "ja:\u83d6\u84b2\u6c60\u99c5"}}, {"type": "node", "id": 8175421799, "lat": 34.6971288, "lon": 135.7508663, "tags": {"KSJ2:LIN": "\u5948\u826f\u7dda", "KSJ2:STN": "\u5b66\u5712\u524d", "alt_name:ko": "\uac00\ucfe0\uc5d4\ub9c8\uc5d0", "name": "\u5b66\u5712\u524d", "name:en": "Gakuemmae", "name:ja": "\u5b66\u5712\u524d", "name:ko": "\ud559\uc6d0\uc55e", "note": "National-Land Numerical Information (Railway) 2007, MLIT Japan", "note:ja": "\u56fd\u571f\u6570\u5024\u60c5\u5831\uff08\u9244\u9053\u30c7\u30fc\u30bf\uff09\u5e73\u621019\u5e74\u3000\u56fd\u571f\u4ea4\u901a\u7701", "public_transport": "station", "railway": "station", "ref": "A20", "source": "KSJ2", "source_ref": "http://nlftp.mlit.go.jp/ksj/jpgis/datalist/KsjTmplt-N02-v1_1.html", "toilets:wheelchair": "yes", "website": "https://www.kintetsu.co.jp/station/station_info/station03019.html", "wheelchair": "limited", "wikidata": "Q5517704", "wikipedia": "ja:\u5b66\u5712\u524d\u99c5 (\u5948\u826f\u770c)"}}, {"type": "node", "id": 8175421800, "lat": 34.6942349, "lon": 135.7347281, "tags": {"KSJ2:LIN": "\u5948\u826f\u7dda", "KSJ2:STN": "\u5bcc\u96c4", "name": "\u5bcc\u96c4", "name:en": "Tomio", "name:ja": "\u5bcc\u96c4", "name:ko": "\ub3c4\ubbf8\uc624", "note": "National-Land Numerical Information (Railway) 2007, MLIT Japan", "note:ja": "\u56fd\u571f\u6570\u5024\u60c5\u5831\uff08\u9244\u9053\u30c7\u30fc\u30bf\uff09\u5e73\u621019\u5e74\u3000\u56fd\u571f\u4ea4\u901a\u7701", "public_transport": "station", "railway": "station", "ref": "A19", "source": "KSJ2", "source_ref": "http://nlftp.mlit.go.jp/ksj/jpgis/datalist/KsjTmplt-N02-v1_1.html", "website": "https://www.kintetsu.co.jp/station/station_info/station03018.html", "wikidata": "Q7818922", "wikipedia": "ja:\u5bcc\u96c4\u99c5"}}, {"type": "node", "id": 8176399930, "lat": 34.6202477, "lon": 135.7806376, "tags": {"KSJ2:LIN": "\u6a7f\u539f\u7dda", "KSJ2:STN": "\u7b52\u4e95", "addr:block_number": "640", "addr:city": "\u5927\u548c\u90e1\u5c71\u5e02", "addr:neighbourhood": "\u516b\u738b\u5bfa", "addr:postcode": "639-1123", "addr:province": "\u5948\u826f\u770c", "addr:quarter": "\u7b52\u4e95\u753a", "name": "\u7b52\u4e95", "name:en": "Tsutsui", "name:ja": "\u7b52\u4e95", "name:ko": "\uc4f0\uc4f0\uc774", "note": "National-Land Numerical Information (Railway) 2007, MLIT Japan", "note:ja": "\u56fd\u571f\u6570\u5024\u60c5\u5831\uff08\u9244\u9053\u30c7\u30fc\u30bf\uff09\u5e73\u621019\u5e74\u3000\u56fd\u571f\u4ea4\u901a\u7701", "public_transport": "station", "railway": "station", "ref": "B31", "source": "GSImaps/ort", "source_ref": "http://nlftp.mlit.go.jp/ksj/jpgis/datalist/KsjTmplt-N02-v1_1.html", "train": "yes", "website": "https://www.kintetsu.co.jp/station/station_info/station06010.html", "wikidata": "Q15950437", "wikipedia": "ja:\u7b52\u4e95\u99c5"}}, {"type": "node", "id": 8178545304, "lat": 34.6175123, "lon": 135.7046076, "tags": {"name": "\u7adc\u7530\u5ddd", "name:en": "Tatsutagawa", "name:ja": "\u7adc\u7530\u5ddd", "name:ko": "\ub2e4\uc4f0\ud0c0\uac00\uc640", "note": "National-Land Numerical Information (Railway) 2007, MLIT Japan", "note:ja": "\u56fd\u571f\u6570\u5024\u60c5\u5831\uff08\u9244\u9053\u30c7\u30fc\u30bf\uff09\u5e73\u621019\u5e74\u3000\u56fd\u571f\u4ea4\u901a\u7701", "public_transport": "station", "railway": "station", "source": "KSJ2", "source_ref": "http://nlftp.mlit.go.jp/ksj/jpgis/datalist/KsjTmplt-N02-v1_1.html", "wikidata": "Q7688343", "wikipedia": "ja:\u7adc\u7530\u5ddd\u99c5"}}, {"type": "node", "id": 8178545306, "lat": 34.6403355, "lon": 135.7007962, "tags": {"name": "\u5143\u5c71\u4e0a\u53e3", "name:en": "Motosanj\u014dguchi", "name:ja": "\u5143\u5c71\u4e0a\u53e3", "name:ja_rm": "Motosanj\u014dguchi", "name:ko": "\ubaa8\ud1a0\uc0b0\uc870\uad6c\uce58", "note": "National-Land Numerical Information (Railway) 2007, MLIT Japan", "note:ja": "\u56fd\u571f\u6570\u5024\u60c5\u5831\uff08\u9244\u9053\u30c7\u30fc\u30bf\uff09\u5e73\u621019\u5e74\u3000\u56fd\u571f\u4ea4\u901a\u7701", "public_transport": "station", "railway": "station", "source": "KSJ2", "source_ref": "http://nlftp.mlit.go.jp/ksj/jpgis/datalist/KsjTmplt-N02-v1_1.html", "url": "http://www.kintetsu.co.jp/station/station_info/station11010.html", "wikidata": "Q6918516", "wikipedia": "ja:\u5143\u5c71\u4e0a\u53e3\u99c5"}}, {"type": "node", "id": 8178545308, "lat": 34.6293733, "lon": 135.704387, "tags": {"name": "\u5e73\u7fa4", "name:en": "Heguri", "name:ja": "\u5e73\u7fa4", "name:ko": "\ud5e4\uad6c\ub9ac", "note": "National-Land Numerical Information (Railway) 2007, MLIT Japan", "note:ja": "\u56fd\u571f\u6570\u5024\u60c5\u5831\uff08\u9244\u9053\u30c7\u30fc\u30bf\uff09\u5e73\u621019\u5e74\u3000\u56fd\u571f\u4ea4\u901a\u7701", "public_transport": "station", "railway": "station", "source": "KSJ2", "source_ref": "http://nlftp.mlit.go.jp/ksj/jpgis/datalist/KsjTmplt-N02-v1_1.html", "url": "http://www.kintetsu.co.jp/station/station_info/station11009.html", "wikidata": "Q11483503", "wikipedia": "ja:\u5e73\u7fa4\u99c5"}}, {"type": "node", "id": 8178545313, "lat": 34.6569953, "lon": 135.7090507, "tags": {"internet_access": "no", "name": "\u8429\u306e\u53f0", "name:en": "Haginodai", "name:ja": "\u8429\u306e\u53f0", "name:ja_rm": "Haginodai", "name:ko": "\ud558\uae30\ub178\ub2e4\uc774", "note": "National-Land Numerical Information (Railway) 2007, MLIT Japan", "note:ja": "\u56fd\u571f\u6570\u5024\u60c5\u5831\uff08\u9244\u9053\u30c7\u30fc\u30bf\uff09\u5e73\u621019\u5e74\u3000\u56fd\u571f\u4ea4\u901a\u7701", "public_transport": "station", "railway": "station", "source": "KSJ2", "source_ref": "http://nlftp.mlit.go.jp/ksj/jpgis/datalist/KsjTmplt-N02-v1_1.html", "url": "http://www.kintetsu.co.jp/station/station_info/station11012.html", "wikidata": "Q5638742", "wikipedia": "ja:\u8429\u306e\u53f0\u99c5"}}, {"type": "node", "id": 8178545315, "lat": 34.5977271, "lon": 135.701922, "tags": {"name": "\u738b\u5bfa", "name:en": "Oji", "name:ja": "\u738b\u5bfa", "network": "\u8fd1\u9244\u751f\u99d2\u7dda", "operator": "\u8fd1\u757f\u65e5\u672c\u9244\u9053", "public_transport": "station", "railway": "station", "wikidata": "Q856582", "wikipedia": "ja:\u738b\u5bfa\u99c5"}}, {"type": "node", "id": 8182433138, "lat": 34.6011078, "lon": 135.8164537, "tags": {"name": "\u524d\u683d", "name:en": "Senzai", "name:ja": "\u524d\u683d", "name:ja_rm": "Senzai", "name:ko": "\uc13c\uc790\uc774", "note": "National-Land Numerical Information (Railway) 2007, MLIT Japan", "note:ja": "\u56fd\u571f\u6570\u5024\u60c5\u5831\uff08\u9244\u9053\u30c7\u30fc\u30bf\uff09\u5e73\u621019\u5e74\u3000\u56fd\u571f\u4ea4\u901a\u7701", "public_transport": "station", "railway": "station", "ref": "H34", "source": "KSJ2", "source_ref": "http://nlftp.mlit.go.jp/ksj/jpgis/datalist/KsjTmplt-N02-v1_1.html", "url": "http://www.kintetsu.co.jp/station/station_info/station10007.html", "website": "https://www.kintetsu.co.jp/station/station_info/station10007.html", "wikidata": "Q7451432", "wikipedia": "ja:\u524d\u683d\u99c5"}}, {"type": "node", "id": 8182433139, "lat": 34.6021124, "lon": 135.7958677, "tags": {"name": "\u4e8c\u968e\u5802", "name:en": "Nikaid\u014d", "name:ja": "\u4e8c\u968e\u5802", "name:ja-Hira": "\u306b\u304b\u3044\u3069\u3046", "note": "National-Land Numerical Information (Railway) 2007, MLIT Japan", "note:ja": "\u56fd\u571f\u6570\u5024\u60c5\u5831\uff08\u9244\u9053\u30c7\u30fc\u30bf\uff09\u5e73\u621019\u5e74\u3000\u56fd\u571f\u4ea4\u901a\u7701", "public_transport": "station", "railway": "station", "ref": "H33", "source": "KSJ2", "source_ref": "http://nlftp.mlit.go.jp/ksj/jpgis/datalist/KsjTmplt-N02-v1_1.html", "website": "https://www.kintetsu.co.jp/station/station_info/station10006.html", "wikidata": "Q7034721", "wikipedia": "ja:\u4e8c\u968e\u5802\u99c5"}}, {"type": "node", "id": 8182542871, "lat": 34.5976741, "lon": 135.7047377, "tags": {"name": "\u65b0\u738b\u5bfa", "name:en": "Shin-Oji", "name:ja": "\u65b0\u738b\u5bfa", "network": "\u8fd1\u9244\u7530\u539f\u672c\u7dda", "operator": "\u8fd1\u757f\u65e5\u672c\u9244\u9053", "public_transport": "station", "railway": "station", "wikidata": "Q47543425", "wikipedia": "ja:\u65b0\u738b\u5bfa\u99c5"}}, {"type": "node", "id": 8182542872, "lat": 34.5852461, "lon": 135.7310387, "tags": {"name": "\u4f50\u5473\u7530\u5ddd", "name:en": "Samitagawa", "name:ja": "\u4f50\u5473\u7530\u5ddd", "name:ko": "\uc0ac\ubbf8\ud0c0\uac00\uc640", "note": "National-Land Numerical Information (Railway) 2007, MLIT Japan", "note:ja": "\u56fd\u571f\u6570\u5024\u60c5\u5831\uff08\u9244\u9053\u30c7\u30fc\u30bf\uff09\u5e73\u621019\u5e74\u3000\u56fd\u571f\u4ea4\u901a\u7701", "public_transport": "station", "railway": "station", "source": "KSJ2", "source_ref": "http://nlftp.mlit.go.jp/ksj/jpgis/datalist/KsjTmplt-N02-v1_1.html", "wikidata": "Q7409577", "wikipedia": "ja:\u4f50\u5473\u7530\u5ddd\u99c5"}}, {"type": "node", "id": 8182542873, "lat": 34.5786344, "lon": 135.7375297, "tags": {"name": "\u6c60\u90e8", "name:en": "Ikebe", "name:ja": "\u6c60\u90e8", "name:ko": "\uc774\ucf00\ubca0", "note": "National-Land Numerical Information (Railway) 2007, MLIT Japan", "note:ja": "\u56fd\u571f\u6570\u5024\u60c5\u5831\uff08\u9244\u9053\u30c7\u30fc\u30bf\uff09\u5e73\u621019\u5e74\u3000\u56fd\u571f\u4ea4\u901a\u7701", "public_transport": "station", "railway": "station", "source": "KSJ2", "source_ref": "http://nlftp.mlit.go.jp/ksj/jpgis/datalist/KsjTmplt-N02-v1_1.html", "wikidata": "Q11552292", "wikipedia": "ja:\u6c60\u90e8\u99c5"}}, {"type": "node", "id": 8182542875, "lat": 34.5693802, "lon": 135.7680847, "tags": {"name": "\u4f46\u99ac", "name:en": "Tajima", "name:ja": "\u4f46\u99ac", "name:ko": "\ub2e4\uc9c0\ub9c8", "note": "National-Land Numerical Information (Railway) 2007, MLIT Japan", "note:ja": "\u56fd\u571f\u6570\u5024\u60c5\u5831\uff08\u9244\u9053\u30c7\u30fc\u30bf\uff09\u5e73\u621019\u5e74\u3000\u56fd\u571f\u4ea4\u901a\u7701", "public_transport": "station", "railway": "station", "source": "KSJ2", "source_ref": "http://nlftp.mlit.go.jp/ksj/jpgis/datalist/KsjTmplt-N02-v1_1.html", "wikidata": "Q11381640", "wikipedia": "ja:\u4f46\u99ac\u99c5"}}, {"type": "node", "id": 8182542876, "lat": 34.5685056, "lon": 135.7774819, "tags": {"name": "\u9ed2\u7530", "name:en": "Kuroda", "name:ja": "\u9ed2\u7530", "name:ko": "\uad6c\ub85c\ub2e4", "note": "National-Land Numerical Information (Railway) 2007, MLIT Japan", "note:ja": "\u56fd\u571f\u6570\u5024\u60c5\u5831\uff08\u9244\u9053\u30c7\u30fc\u30bf\uff09\u5e73\u621019\u5e74\u3000\u56fd\u571f\u4ea4\u901a\u7701", "public_transport": "station", "railway": "station", "source": "KSJ2", "source_ref": "http://nlftp.mlit.go.jp/ksj/jpgis/datalist/KsjTmplt-N02-v1_1.html", "wikidata": "Q11678723", "wikipedia": "ja:\u9ed2\u7530\u99c5 (\u5948\u826f\u770c)"}}, {"type": "node", "id": 8182542878, "lat": 34.5702355, "lon": 135.751441, "tags": {"name": "\u7bb8\u5c3e", "name:en": "Hashio", "name:ja": "\u7bb8\u5c3e", "name:ko": "\ud558\uc2dc\uc624", "note": "National-Land Numerical Information (Railway) 2007, MLIT Japan", "note:ja": "\u56fd\u571f\u6570\u5024\u60c5\u5831\uff08\u9244\u9053\u30c7\u30fc\u30bf\uff09\u5e73\u621019\u5e74\u3000\u56fd\u571f\u4ea4\u901a\u7701", "public_transport": "station", "railway": "station", "source": "KSJ2", "source_ref": "http://nlftp.mlit.go.jp/ksj/jpgis/datalist/KsjTmplt-N02-v1_1.html", "wikidata": "Q5679039", "wikipedia": "ja:\u7bb8\u5c3e\u99c5"}}, {"type": "node", "id": 8182542881, "lat": 34.5892042, "lon": 135.7201275, "tags": {"name": "\u5927\u8f2a\u7530", "name:en": "Owada", "name:ja": "\u5927\u8f2a\u7530", "name:ko": "\uc624\uc640\ub2e4", "note": "National-Land Numerical Information (Railway) 2007, MLIT Japan", "note:ja": "\u56fd\u571f\u6570\u5024\u60c5\u5831\uff08\u9244\u9053\u30c7\u30fc\u30bf\uff09\u5e73\u621019\u5e74\u3000\u56fd\u571f\u4ea4\u901a\u7701", "public_transport": "station", "railway": "station", "source": "KSJ2", "source_ref": "http://nlftp.mlit.go.jp/ksj/jpgis/datalist/KsjTmplt-N02-v1_1.html", "wikidata": "Q11439290", "wikipedia": "ja:\u5927\u8f2a\u7530\u99c5"}}, {"type": "node", "id": 8182542884, "lat": 34.5538901, "lon": 135.7895927, "tags": {"name": "\u897f\u7530\u539f\u672c", "name:en": "Nishi-Tawaramoto", "name:ja": "\u897f\u7530\u539f\u672c", "name:ko": "\ub2c8\uc2dc\ud0c0\uc640\ub77c\ubaa8\ud1a0", "note": "National-Land Numerical Information (Railway) 2007, MLIT Japan", "note:ja": "\u56fd\u571f\u6570\u5024\u60c5\u5831\uff08\u9244\u9053\u30c7\u30fc\u30bf\uff09\u5e73\u621019\u5e74\u3000\u56fd\u571f\u4ea4\u901a\u7701", "public_transport": "station", "railway": "station", "source": "KSJ2", "source_ref": "http://nlftp.mlit.go.jp/ksj/jpgis/datalist/KsjTmplt-N02-v1_1.html", "wikidata": "Q7040425", "wikipedia": "ja:\u897f\u7530\u539f\u672c\u99c5"}}, {"type": "node", "id": 10048234245, "lat": 34.6702547, "lon": 135.7832158, "tags": {"KSJ2:LIN": "\u6a7f\u539f\u7dda", "KSJ2:STN": "\u897f\u30ce\u4eac", "name": "\u897f\u30ce\u4eac", "name:en": "Nishinoky\u014d", "name:ja": "\u897f\u30ce\u4eac", "name:ko": "\ub2c8\uc2dc\ub178\ucfc4", "note": "National-Land Numerical Information (Railway) 2007, MLIT Japan", "note:ja": "\u56fd\u571f\u6570\u5024\u60c5\u5831\uff08\u9244\u9053\u30c7\u30fc\u30bf\uff09\u5e73\u621019\u5e74\u3000\u56fd\u571f\u4ea4\u901a\u7701", "public_transport": "station", "railway": "station", "ref": "B28", "source": "KSJ2", "source_ref": "http://nlftp.mlit.go.jp/ksj/jpgis/datalist/KsjTmplt-N02-v1_1.html", "toilets:wheelchair": "yes", "train": "yes", "website": "https://www.kintetsu.co.jp/station/station_info/station06007.html", "wheelchair": "yes", "wikidata": "Q11627071", "wikipedia": "ja:\u897f\u30ce\u4eac\u99c5"}}, {"type": "node", "id": 10048234246, "lat": 34.6598447, "lon": 135.7830243, "tags": {"KSJ2:LIN": "\u6a7f\u539f\u7dda", "KSJ2:STN": "\u4e5d\u6761", "name": "\u4e5d\u6761", "name:en": "Kuj\u014d", "name:ja": "\u4e5d\u6761", "name:ko": "\uad6c\uc870", "note": "National-Land Numerical Information (Railway) 2007, MLIT Japan", "note:ja": "\u56fd\u571f\u6570\u5024\u60c5\u5831\uff08\u9244\u9053\u30c7\u30fc\u30bf\uff09\u5e73\u621019\u5e74\u3000\u56fd\u571f\u4ea4\u901a\u7701", "public_transport": "station", "railway": "station", "ref": "B29", "source": "KSJ2", "source_ref": "http://nlftp.mlit.go.jp/ksj/jpgis/datalist/KsjTmplt-N02-v1_1.html", "toilets:wheelchair": "yes", "train": "yes", "website": "https://www.kintetsu.co.jp/station/station_info/station06008.html", "wheelchair": "yes", "wikidata": "Q6442373", "wikipedia": "ja:\u4e5d\u6761\u99c5 (\u5948\u826f\u770c)"}}, {"type": "node", "id": 10048234248, "lat": 34.6466987, "lon": 135.7808678, "tags": {"KSJ2:LIN": "\u6a7f\u539f\u7dda", "KSJ2:STN": "\u8fd1\u9244\u90e1\u5c71", "name": "\u8fd1\u9244\u90e1\u5c71", "name:en": "Kintetsu-Koriyama", "name:ja": "\u8fd1\u9244\u90e1\u5c71", "name:ko": "\uae34\ud14c\uc4f0\ucf54\ub9ac\uc57c\ub9c8", "note": "National-Land Numerical Information (Railway) 2007, MLIT Japan", "note:ja": "\u56fd\u571f\u6570\u5024\u60c5\u5831\uff08\u9244\u9053\u30c7\u30fc\u30bf\uff09\u5e73\u621019\u5e74\u3000\u56fd\u571f\u4ea4\u901a\u7701", "public_transport": "station", "railway": "station", "ref": "B30", "source": "KSJ2", "source_ref": "http://nlftp.mlit.go.jp/ksj/jpgis/datalist/KsjTmplt-N02-v1_1.html", "train": "yes", "website": "https://www.kintetsu.co.jp/station/station_info/station06009.html", "wikidata": "Q6414349", "wikipedia": "ja:\u8fd1\u9244\u90e1\u5c71\u99c5"}}, {"type": "node", "id": 10048234250, "lat": 34.598406, "lon": 135.785037, "tags": {"KSJ2:LIN": "\u6a7f\u539f\u7dda", "KSJ2:STN": "\u30d5\u30a1\u30df\u30ea\u30fc\u516c\u5712\u524d", "alt_name:ko": "\ud328\ubc00\ub9ac\ucf54\uc5d4\ub9c8\uc5d0", "name": "\u30d5\u30a1\u30df\u30ea\u30fc\u516c\u5712\u524d", "name:en": "Family-K\u014denmae", "name:ja": "\u30d5\u30a1\u30df\u30ea\u30fc\u516c\u5712\u524d", "name:ko": "\ud328\ubc00\ub9ac\uacf5\uc6d0\uc55e", "note": "National-Land Numerical Information (Railway) 2007, MLIT Japan", "note:ja": "\u56fd\u571f\u6570\u5024\u60c5\u5831\uff08\u9244\u9053\u30c7\u30fc\u30bf\uff09\u5e73\u621019\u5e74\u3000\u56fd\u571f\u4ea4\u901a\u7701", "public_transport": "station", "railway": "station", "ref": "B33", "source": "KSJ2", "source_ref": "http://nlftp.mlit.go.jp/ksj/jpgis/datalist/KsjTmplt-N02-v1_1.html", "train": "yes", "website": "https://www.kintetsu.co.jp/station/station_info/station06012.html", "wikidata": "Q5433008", "wikipedia": "ja:\u30d5\u30a1\u30df\u30ea\u30fc\u516c\u5712\u524d\u99c5"}}, {"type": "node", "id": 10048234254, "lat": 34.5843661, "lon": 135.7847922, "tags": {"KSJ2:LIN": "\u6a7f\u539f\u7dda", "KSJ2:STN": "\u7d50\u5d0e", "name": "\u7d50\u5d0e", "name:en": "Y\u016bzaki", "name:ja": "\u7d50\u5d0e", "name:ko": "\uc720\uc790\ud0a4", "note": "National-Land Numerical Information (Railway) 2007, MLIT Japan", "note:ja": "\u56fd\u571f\u6570\u5024\u60c5\u5831\uff08\u9244\u9053\u30c7\u30fc\u30bf\uff09\u5e73\u621019\u5e74\u3000\u56fd\u571f\u4ea4\u901a\u7701", "public_transport": "station", "railway": "station", "ref": "B34", "source": "KSJ2", "source_ref": "http://nlftp.mlit.go.jp/ksj/jpgis/datalist/KsjTmplt-N02-v1_1.html", "website": "https://www.kintetsu.co.jp/station/station_info/station06013.html", "wikidata": "Q8062793", "wikipedia": "ja:\u7d50\u5d0e\u99c5"}}, {"type": "node", "id": 10048234256, "lat": 34.5715396, "lon": 135.7858115, "tags": {"KSJ2:LIN": "\u6a7f\u539f\u7dda", "KSJ2:STN": "\u77f3\u898b", "name": "\u77f3\u898b", "name:en": "Iwami", "name:ja": "\u77f3\u898b", "name:ko": "\uc774\uc640\ubbf8", "note": "National-Land Numerical Information (Railway) 2007, MLIT Japan", "note:ja": "\u56fd\u571f\u6570\u5024\u60c5\u5831\uff08\u9244\u9053\u30c7\u30fc\u30bf\uff09\u5e73\u621019\u5e74\u3000\u56fd\u571f\u4ea4\u901a\u7701", "public_transport": "station", "railway": "station", "ref": "B35", "source": "KSJ2", "source_ref": "http://nlftp.mlit.go.jp/ksj/jpgis/datalist/KsjTmplt-N02-v1_1.html", "website": "https://www.kintetsu.co.jp/station/station_info/station06014.html", "wikidata": "Q6100492", "wikipedia": "ja:\u77f3\u898b\u99c5"}}, {"type": "node", "id": 10048234258, "lat": 34.5528287, "lon": 135.7909298, "tags": {"KSJ2:LIN": "\u6a7f\u539f\u7dda", "KSJ2:STN": "\u7530\u539f\u672c", "name": "\u7530\u539f\u672c", "name:en": "Tawaramoto", "name:ja": "\u7530\u539f\u672c", "name:ko": "\ub2e4\uc640\ub77c\ubaa8\ud1a0", "note": "National-Land Numerical Information (Railway) 2007, MLIT Japan", "note:ja": "\u56fd\u571f\u6570\u5024\u60c5\u5831\uff08\u9244\u9053\u30c7\u30fc\u30bf\uff09\u5e73\u621019\u5e74\u3000\u56fd\u571f\u4ea4\u901a\u7701", "public_transport": "station", "railway": "station", "ref": "B36", "source": "KSJ2", "source_ref": "http://nlftp.mlit.go.jp/ksj/jpgis/datalist/KsjTmplt-N02-v1_1.html", "website": "https://www.kintetsu.co.jp/station/station_info/station06015.html", "wikidata": "Q7689224", "wikipedia": "ja:\u7530\u539f\u672c\u99c5"}}, {"type": "node", "id": 10048234260, "lat": 34.5414716, "lon": 135.7941122, "tags": {"KSJ2:LIN": "\u6a7f\u539f\u7dda", "KSJ2:STN": "\u7b20\u7e2b", "name": "\u7b20\u7e2b", "name:en": "Kasanui", "name:ja": "\u7b20\u7e2b", "name:ko": "\uac00\uc0ac\ub204\uc774", "note": "National-Land Numerical Information (Railway) 2007, MLIT Japan", "note:ja": "\u56fd\u571f\u6570\u5024\u60c5\u5831\uff08\u9244\u9053\u30c7\u30fc\u30bf\uff09\u5e73\u621019\u5e74\u3000\u56fd\u571f\u4ea4\u901a\u7701", "public_transport": "station", "railway": "station", "ref": "B37", "source": "KSJ2", "source_ref": "http://nlftp.mlit.go.jp/ksj/jpgis/datalist/KsjTmplt-N02-v1_1.html", "website": "https://www.kintetsu.co.jp/station/station_info/station06016.html", "wikidata": "Q6374013", "wikipedia": "ja:\u7b20\u7e2b\u99c5"}}, {"type": "node", "id": 10048234261, "lat": 34.5253852, "lon": 135.7947278, "tags": {"KSJ2:LIN": "\u6a7f\u539f\u7dda", "KSJ2:STN": "\u65b0\u30ce\u53e3", "name": "\u65b0\u30ce\u53e3", "name:en": "Ninokuchi", "name:ja": "\u65b0\u30ce\u53e3", "name:ko": "\ub2c8\ub178\ucfe0\uce58", "note": "National-Land Numerical Information (Railway) 2007, MLIT Japan", "note:ja": "\u56fd\u571f\u6570\u5024\u60c5\u5831\uff08\u9244\u9053\u30c7\u30fc\u30bf\uff09\u5e73\u621019\u5e74\u3000\u56fd\u571f\u4ea4\u901a\u7701", "public_transport": "station", "railway": "station", "ref": "B38", "source": "KSJ2", "source_ref": "http://nlftp.mlit.go.jp/ksj/jpgis/datalist/KsjTmplt-N02-v1_1.html", "website": "https://www.kintetsu.co.jp/station/station_info/station06017.html", "wikidata": "Q7039072", "wikipedia": "ja:\u65b0\u30ce\u53e3\u99c5"}}, {"type": "node", "id": 10048234262, "lat": 34.5096256, "lon": 135.7907447, "tags": {"KSJ2:LIN": "\u6a7f\u539f\u7dda", "KSJ2:STN": "\u516b\u6728\u897f\u53e3", "name": "\u516b\u6728\u897f\u53e3", "name:en": "Yagi-Nishiguchi", "name:ja": "\u516b\u6728\u897f\u53e3", "name:ko": "\uc57c\uae30\ub2c8\uc2dc\uad6c\uce58", "note": "National-Land Numerical Information (Railway) 2007, MLIT Japan", "note:ja": "\u56fd\u571f\u6570\u5024\u60c5\u5831\uff08\u9244\u9053\u30c7\u30fc\u30bf\uff09\u5e73\u621019\u5e74\u3000\u56fd\u571f\u4ea4\u901a\u7701", "public_transport": "station", "railway": "station", "ref": "B40", "source": "KSJ2", "source_ref": "http://nlftp.mlit.go.jp/ksj/jpgis/datalist/KsjTmplt-N02-v1_1.html", "toilets:wheelchair": "no", "website": "https://www.kintetsu.co.jp/station/station_info/station06019.html", "wheelchair": "no", "wikidata": "Q8046713", "wikipedia": "ja:\u516b\u6728\u897f\u53e3\u99c5"}}, {"type": "node", "id": 10048234264, "lat": 34.4930351, "lon": 135.7942725, "tags": {"KSJ2:LIN": "\u6a7f\u539f\u7dda", "KSJ2:STN": "\u755d\u508d\u5fa1\u9675\u524d", "name": "\u755d\u508d\u5fa1\u9675\u524d", "name:en": "Unebigory\u014dmae", "name:ja": "\u755d\u508d\u5fa1\u9675\u524d", "name:ko": "\uc6b0\ub124\ube44\uace0\ub8cc\ub9c8\uc5d0", "note": "National-Land Numerical Information (Railway) 2007, MLIT Japan", "note:ja": "\u56fd\u571f\u6570\u5024\u60c5\u5831\uff08\u9244\u9053\u30c7\u30fc\u30bf\uff09\u5e73\u621019\u5e74\u3000\u56fd\u571f\u4ea4\u901a\u7701", "public_transport": "station", "railway": "station", "ref": "B41", "source": "KSJ2", "source_ref": "http://nlftp.mlit.go.jp/ksj/jpgis/datalist/KsjTmplt-N02-v1_1.html", "website": "https://www.kintetsu.co.jp/station/station_info/station06020.html", "wikidata": "Q7884163", "wikipedia": "ja:\u755d\u508d\u5fa1\u9675\u524d\u99c5"}}, {"type": "node", "id": 11377440579, "lat": 34.7377823, "lon": 135.8034812, "tags": {"name": "\u897f\u6728\u6d25", "name:en": "Nishi-Kizu", "name:ja": "\u897f\u6728\u6d25", "name:ko": "\ub2c8\uc2dc\ud0a4\uc988", "public_transport": "station", "railway": "station", "ref": "JR-H19", "wikidata": "Q855603", "wikipedia": "ja:\u897f\u6728\u6d25\u99c5"}}, {"type": "node", "id": 11377440591, "lat": 34.7600749, "lon": 135.7920496, "tags": {"name": "\u795d\u5712", "name:en": "H\u014dsono", "name:ja": "\u795d\u5712", "name:ko": "\ud638\uc18c\ub178", "public_transport": "station", "railway": "station", "ref": "JR-H20", "wikidata": "Q855574", "wikipedia": "ja:\u795d\u5712\u99c5"}}, {"type": "node", "id": 11377440602, "lat": 34.7805919, "lon": 135.7884561, "tags": {"name": "\u4e0b\u72db", "name:en": "Shimokoma", "name:ja": "\u4e0b\u72db", "name:ko": "\uc2dc\ubaa8\ucf54\ub9c8", "public_transport": "station", "railway": "station", "ref": "JR-H21", "wikidata": "Q855564", "wikipedia": "ja:\u4e0b\u72db\u99c5"}}, {"type": "node", "id": 11377440605, "lat": 34.7981288, "lon": 135.7846615, "tags": {"name": "JR\u4e09\u5c71\u6728", "name:en": "JR Miyamaki", "name:ja": "JR\u4e09\u5c71\u6728", "name:ko": "JR\ubbf8\uc57c\ub9c8\ud0a4", "public_transport": "station", "railway": "station", "ref": "JR-H22", "wikidata": "Q855528", "wikipedia": "ja:JR\u4e09\u5c71\u6728\u99c5"}}, {"type": "node", "id": 11377440610, "lat": 34.8056672, "lon": 135.7781564, "tags": {"name": "\u540c\u5fd7\u793e\u524d", "name:en": "D\u014dshishamae", "name:ja": "\u540c\u5fd7\u793e\u524d", "name:ko": "\ub3c4\uc2dc\uc0e4\ub9c8\uc5d0", "public_transport": "station", "railway": "station", "ref": "JR-H23", "wheelchair": "yes", "wikidata": "Q856061", "wikipedia": "ja:\u540c\u5fd7\u793e\u524d\u99c5"}}, {"type": "way", "id": 265218569, "nodes": [2708811995, 2708811987, 2708811983, 2708811977, 2708811961, 2708811957, 2708811905, 2708811915, 2708811929, 2708811933, 2708811941, 2708811945, 2708811881, 7532743746, 2708811897, 2708811995], "tags": {"building": "yes", "public_transport": "station", "railway": "station", "source": "Bing", "train": "yes"}}, {"type": "way", "id": 356872678, "nodes": [3622747790, 3622747791, 3622748998, 7532743747, 3622748996, 3622747790], "tags": {"building": "yes", "public_transport": "station", "railway": "station", "train": "yes"}}, {"type": "way", "id": 356872753, "nodes": [3622747789, 3622747790, 3622747791, 3622747792, 3622747780, 3622747779, 3622747778, 3622747777, 3622747789], "tags": {"building": "yes", "public_transport": "station", "railway": "station", "train": "yes"}}]}