{"version": 0.6, "generator": "Overpass API 0.7.62.4 2390de5a", "osm3s": {"timestamp_osm_base": "2024-12-30T14:54:00Z", "copyright": "The data included in this document is from www.openstreetmap.org. The data is made available under ODbL."}, "elements": [{"type": "node", "id": 267296589, "lat": 35.3281845, "lon": 135.2943707, "tags": {"KSJ2:LIN": "\u821e\u9db4\u7dda", "KSJ2:STN": "\u6df5\u57a3", "name": "\u6df5\u57a3", "name:en": "Fuchigaki", "name:ja": "\u6df5\u57a3", "name:ja_rm": "Fuchigaki", "name:ko": "\ud6c4\uce58\uac00\ud0a4", "note": "National-Land Numerical Information (Railway) 2007, MLIT Japan", "note:ja": "\u56fd\u571f\u6570\u5024\u60c5\u5831\uff08\u9244\u9053\u30c7\u30fc\u30bf\uff09\u5e73\u621019\u5e74\u3000\u56fd\u571f\u4ea4\u901a\u7701", "railway": "station", "source": "KSJ2", "source_ref": "http://nlftp.mlit.go.jp/ksj/jpgis/datalist/KsjTmplt-N02-v1_1.html", "wikidata": "Q5506928", "wikipedia": "ja:\u6df5\u57a3\u99c5"}}, {"type": "node", "id": 267296993, "lat": 35.3485712, "lon": 135.3112184, "tags": {"KSJ2:LIN": "\u821e\u9db4\u7dda", "KSJ2:STN": "\u6885\u8feb", "name": "\u6885\u8feb", "name:en": "Umesako", "name:ja": "\u6885\u8feb", "name:ja_rm": "Umesako", "name:ko": "\uc6b0\uba54\uc790\ucf54", "note": "National-Land Numerical Information (Railway) 2007, MLIT Japan", "note:ja": "\u56fd\u571f\u6570\u5024\u60c5\u5831\uff08\u9244\u9053\u30c7\u30fc\u30bf\uff09\u5e73\u621019\u5e74\u3000\u56fd\u571f\u4ea4\u901a\u7701", "railway": "station", "source": "KSJ2", "source_ref": "http://nlftp.mlit.go.jp/ksj/jpgis/datalist/KsjTmplt-N02-v1_1.html", "wikidata": "Q7881519", "wikipedia": "ja:\u6885\u8feb\u99c5"}}, {"type": "node", "id": 267297803, "lat": 35.4860306, "lon": 135.4510899, "tags": {"KSJ2:LIN": "\u5c0f\u6d5c\u7dda", "KSJ2:STN": "\u677e\u5c3e\u5bfa", "name": "\u677e\u5c3e\u5bfa", "name:en": "Matsunoodera", "name:ja": "\u677e\u5c3e\u5bfa", "name:ja_rm": "Matshun\u014d-dera", "name:ko": "\ub9c8\uc4f0\ub178\uc624\ub370\ub77c", "note": "National-Land Numerical Information (Railway) 2007, MLIT Japan", "note:ja": "\u56fd\u571f\u6570\u5024\u60c5\u5831\uff08\u9244\u9053\u30c7\u30fc\u30bf\uff09\u5e73\u621019\u5e74\u3000\u56fd\u571f\u4ea4\u901a\u7701", "railway": "station", "source": "KSJ2", "source_ref": "http://nlftp.mlit.go.jp/ksj/jpgis/datalist/KsjTmplt-N02-v1_1.html", "wikidata": "Q6788173", "wikipedia": "ja:\u677e\u5c3e\u5bfa\u99c5"}}, {"type": "node", "id": 267297834, "lat": 35.4827542, "lon": 135.6193182, "tags": {"KSJ2:LIN": "\u5c0f\u6d5c\u7dda", "KSJ2:STN": "\u82e5\u72ed\u672c\u90f7", "name": "\u82e5\u72ed\u672c\u90f7", "name:en": "Wakasa-Hongo", "name:ja": "\u82e5\u72ed\u672c\u90f7", "name:ja_kana": "\u308f\u304b\u3055\u307b\u3093\u3054\u3046", "name:ja_rm": "Wakasa-Hong\u014d", "name:ko": "\uc640\uce74\uc0ac\ud63c\uace0", "note": "National-Land Numerical Information (Railway) 2007, MLIT Japan", "note:ja": "\u56fd\u571f\u6570\u5024\u60c5\u5831\uff08\u9244\u9053\u30c7\u30fc\u30bf\uff09\u5e73\u621019\u5e74\u3000\u56fd\u571f\u4ea4\u901a\u7701", "railway": "station", "source": "KSJ2", "source_ref": "http://nlftp.mlit.go.jp/ksj/jpgis/datalist/KsjTmplt-N02-v1_1.html", "wikidata": "Q7960831", "wikipedia": "ja:\u82e5\u72ed\u672c\u90f7\u99c5"}}, {"type": "node", "id": 267297954, "lat": 35.4815529, "lon": 135.4997301, "tags": {"KSJ2:LIN": "\u5c0f\u6d5c\u7dda", "KSJ2:STN": "\u9752\u90f7", "name": "\u9752\u90f7", "name:en": "Aonog\u014d", "name:ja": "\u9752\u90f7", "name:ko": "\uc544\uc624\ub178\uace0", "note": "National-Land Numerical Information (Railway) 2007, MLIT Japan", "note:ja": "\u56fd\u571f\u6570\u5024\u60c5\u5831\uff08\u9244\u9053\u30c7\u30fc\u30bf\uff09\u5e73\u621019\u5e74\u3000\u56fd\u571f\u4ea4\u901a\u7701", "public_transport": "station", "railway": "station", "source": "KSJ2", "source_ref": "http://nlftp.mlit.go.jp/ksj/jpgis/datalist/KsjTmplt-N02-v1_1.html", "wheelchair": "yes", "wikidata": "Q4778709", "wikipedia": "ja:\u9752\u90f7\u99c5"}}, {"type": "node", "id": 267298117, "lat": 35.4862612, "lon": 135.547479, "tags": {"KSJ2:LIN": "\u5c0f\u6d5c\u7dda", "KSJ2:STN": "\u82e5\u72ed\u9ad8\u6d5c", "name": "\u82e5\u72ed\u9ad8\u6d5c", "name:en": "Wakasa-Takahama", "name:ja": "\u82e5\u72ed\u9ad8\u6d5c", "name:ja_kana": "\u308f\u304b\u3055\u305f\u304b\u306f\u307e", "name:ja_rm": "Wakasa-Takahama", "name:ko": "\uc640\uce74\uc0ac\ud0c0\uce74\ud558\ub9c8", "note": "National-Land Numerical Information (Railway) 2007, MLIT Japan", "note:ja": "\u56fd\u571f\u6570\u5024\u60c5\u5831\uff08\u9244\u9053\u30c7\u30fc\u30bf\uff09\u5e73\u621019\u5e74\u3000\u56fd\u571f\u4ea4\u901a\u7701", "public_transport": "station", "railway": "station", "source": "KSJ2", "source_ref": "http://nlftp.mlit.go.jp/ksj/jpgis/datalist/KsjTmplt-N02-v1_1.html", "wikidata": "Q7960833", "wikipedia": "ja:\u82e5\u72ed\u9ad8\u6d5c\u99c5"}}, {"type": "node", "id": 267298253, "lat": 35.4888261, "lon": 135.580951, "tags": {"KSJ2:LIN": "\u5c0f\u6d5c\u7dda", "KSJ2:STN": "\u82e5\u72ed\u548c\u7530", "name": "\u82e5\u72ed\u548c\u7530", "name:en": "Wakasa-Wada", "name:ja": "\u82e5\u72ed\u548c\u7530", "name:ko": "\uc640\uce74\uc0ac\uc640\ub2e4", "note": "National-Land Numerical Information (Railway) 2007, MLIT Japan", "note:ja": "\u56fd\u571f\u6570\u5024\u60c5\u5831\uff08\u9244\u9053\u30c7\u30fc\u30bf\uff09\u5e73\u621019\u5e74\u3000\u56fd\u571f\u4ea4\u901a\u7701", "public_transport": "station", "railway": "station", "source": "KSJ2", "source_ref": "http://nlftp.mlit.go.jp/ksj/jpgis/datalist/KsjTmplt-N02-v1_1.html", "wikidata": "Q7960834", "wikipedia": "ja:\u82e5\u72ed\u548c\u7530\u99c5"}}, {"type": "node", "id": 267298424, "lat": 35.4887908, "lon": 135.5205345, "tags": {"KSJ2:LIN": "\u5c0f\u6d5c\u7dda", "KSJ2:STN": "\u4e09\u677e", "name": "\u4e09\u677e", "name:en": "Mitsumatsu", "name:ja": "\u4e09\u677e", "name:ko": "\ubbf8\uc4f0\ub9c8\uc4f0", "note": "National-Land Numerical Information (Railway) 2007, MLIT Japan", "note:ja": "\u56fd\u571f\u6570\u5024\u60c5\u5831\uff08\u9244\u9053\u30c7\u30fc\u30bf\uff09\u5e73\u621019\u5e74\u3000\u56fd\u571f\u4ea4\u901a\u7701", "public_transport": "station", "railway": "station", "source": "KSJ2", "source_ref": "http://nlftp.mlit.go.jp/ksj/jpgis/datalist/KsjTmplt-N02-v1_1.html", "wheelchair": "yes", "wikidata": "Q6883302", "wikipedia": "ja:\u4e09\u677e\u99c5"}}, {"type": "node", "id": 359805101, "lat": 35.5793342, "lon": 135.0941436, "tags": {"name": "\u4eac\u4e39\u5f8c\u5927\u5bae", "name:en": "Ky\u014dtango-\u014cmiya", "name:fr": "Ky\u014dtango-\u014cmiya", "name:ja": "\u4eac\u4e39\u5f8c\u5927\u5bae", "name:ko": "\uad50\ud0c4\uace0\uc624\ubbf8\uc57c", "operator": "\u4eac\u90fd\u4e39\u5f8c\u9244\u9053", "operator:en": "Kyoto Tango Railway", "operator:ja": "\u4eac\u90fd\u4e39\u5f8c\u9244\u9053\u5bae", "railway": "station", "wikidata": "Q7683075", "wikipedia": "ja:\u4eac\u4e39\u5f8c\u5927\u5bae\u99c5"}}, {"type": "node", "id": 359805653, "lat": 35.5433114, "lon": 135.1263011, "tags": {"KSJ2:LIN": "\u5bae\u6d25\u7dda", "KSJ2:STN": "\u4e0e\u8b1d\u91ce", "name": "\u4e0e\u8b1d\u91ce", "name:en": "Yosano", "name:fr": "Yosano", "name:ja": "\u4e0e\u8b1d\u91ce\u753a", "name:ko": "\uc694\uc0ac\ub178", "note": "National-Land Numerical Information (Railway) 2007, MLIT Japan", "note:ja": "\u56fd\u571f\u6570\u5024\u60c5\u5831\uff08\u9244\u9053\u30c7\u30fc\u30bf\uff09\u5e73\u621019\u5e74\u3000\u56fd\u571f\u4ea4\u901a\u7701", "operator": "\u4eac\u90fd\u4e39\u5f8c\u9244\u9053", "operator:en": "Kyoto Tango Railway", "operator:ja": "\u4eac\u90fd\u4e39\u5f8c\u9244\u9053\u5bae", "public_transport": "station", "railway": "station", "source": "KSJ2", "source_ref": "http://nlftp.mlit.go.jp/ksj/jpgis/datalist/KsjTmplt-N02-v1_1.html", "wikidata": "Q7046597", "wikipedia": "ja:\u4e0e\u8b1d\u91ce\u99c5"}}, {"type": "node", "id": 359807259, "lat": 35.5503584, "lon": 135.1511921, "tags": {"KSJ2:LIN": "\u5bae\u6d25\u7dda", "KSJ2:STN": "\u5ca9\u6edd\u53e3", "name": "\u5ca9\u6edd\u53e3", "name:en": "Iwatakiguchi", "name:fr": "Iwatakiguchi", "name:ja": "\u5ca9\u6edd\u53e3", "name:ko": "\uc774\uc640\ud0c0\ud0a4\uad6c\uce58", "note": "National-Land Numerical Information (Railway) 2007, MLIT Japan", "note:ja": "\u56fd\u571f\u6570\u5024\u60c5\u5831\uff08\u9244\u9053\u30c7\u30fc\u30bf\uff09\u5e73\u621019\u5e74\u3000\u56fd\u571f\u4ea4\u901a\u7701", "public_transport": "station", "railway": "station", "source": "KSJ2", "source_ref": "http://nlftp.mlit.go.jp/ksj/jpgis/datalist/KsjTmplt-N02-v1_1.html", "wikidata": "Q6100768", "wikipedia": "ja:\u5ca9\u6edd\u53e3\u99c5"}}, {"type": "node", "id": 359861080, "lat": 35.3887751, "lon": 135.147541, "tags": {"KSJ2:LIN": "\u5bae\u798f\u7dda", "KSJ2:STN": "\u5927\u6c5f", "name": "\u5927\u6c5f", "name:en": "\u014ce", "name:ja": "\u5927\u6c5f", "name:ko": "\uc624\uc5d0", "note": "National-Land Numerical Information (Railway) 2007, MLIT Japan", "note:ja": "\u56fd\u571f\u6570\u5024\u60c5\u5831\uff08\u9244\u9053\u30c7\u30fc\u30bf\uff09\u5e73\u621019\u5e74\u3000\u56fd\u571f\u4ea4\u901a\u7701", "operator": "\u4eac\u90fd\u4e39\u5f8c\u9244\u9053", "public_transport": "station", "railway": "station", "source": "KSJ2", "source_ref": "http://nlftp.mlit.go.jp/ksj/jpgis/datalist/KsjTmplt-N02-v1_1.html", "wikidata": "Q3610937", "wikipedia": "ja:\u5927\u6c5f\u99c5 (\u4eac\u90fd\u5e9c)"}}, {"type": "node", "id": 359861823, "lat": 35.5342195, "lon": 135.1997729, "tags": {"name": "\u5bae\u6d25", "name:en": "Miyazu", "name:ja": "\u5bae\u6d25", "name:ko": "\ubbf8\uc57c\uc988", "note": "National-Land Numerical Information (Railway) 2007, MLIT Japan", "note:ja": "\u56fd\u571f\u6570\u5024\u60c5\u5831\uff08\u9244\u9053\u30c7\u30fc\u30bf\uff09\u5e73\u621019\u5e74\u3000\u56fd\u571f\u4ea4\u901a\u7701", "operator": "\u4eac\u90fd\u4e39\u5f8c\u9244\u9053", "public_transport": "station", "railway": "station", "source": "KSJ2", "source_ref": "http://nlftp.mlit.go.jp/ksj/jpgis/datalist/KsjTmplt-N02-v1_1.html", "wikidata": "Q6884476", "wikipedia": "ja:\u5bae\u6d25\u99c5"}}, {"type": "node", "id": 6063546663, "lat": 35.441816, "lon": 135.3305796, "tags": {"name": "\u897f\u821e\u9db4", "name:de": "Maizuru West", "name:en": "Nishi-Maizuru", "name:ja": "\u897f\u821e\u9db4", "public_transport": "station", "railway": "station", "source": "bing, 2008-04", "wikidata": "Q8192400", "wikipedia": "ja:\u897f\u821e\u9db4\u99c5"}}, {"type": "node", "id": 6409210211, "lat": 35.4066806, "lon": 135.3257436, "tags": {"KSJ2:LIN": "\u821e\u9db4\u7dda", "KSJ2:STN": "\u771f\u5009", "name": "\u771f\u5009", "name:en": "Magura", "name:ja": "\u771f\u5009", "name:ja_rm": "Magura", "name:ko": "\ub9c8\uad6c\ub77c", "railway": "station", "wikidata": "Q6732545", "wikipedia": "ja:\u771f\u5009\u99c5"}}, {"type": "node", "id": 6875238450, "lat": 35.4686033, "lon": 135.3947689, "tags": {"KSJ2:LIN": "\u821e\u9db4\u7dda;\u5c0f\u6d5c\u7dda", "KSJ2:STN": "\u6771\u821e\u9db4", "name": "\u6771\u821e\u9db4", "name:de": "Maizuru Ost", "name:en": "Higashi-Maizuru", "name:ja": "\u6771\u821e\u9db4", "name:ja_kana": "\u3072\u304c\u3057\u307e\u3044\u3065\u308b", "name:ja_rm": "Higashi Maizuru", "name:ko": "\ud788\uac00\uc2dc\ub9c8\uc774\uc988\ub8e8", "note": "National-Land Numerical Information (Railway) 2007, MLIT Japan", "note:ja": "\u56fd\u571f\u6570\u5024\u60c5\u5831\uff08\u9244\u9053\u30c7\u30fc\u30bf\uff09\u5e73\u621019\u5e74\u3000\u56fd\u571f\u4ea4\u901a\u7701", "railway": "station", "source": "KSJ2", "source_ref": "http://nlftp.mlit.go.jp/ksj/jpgis/datalist/KsjTmplt-N02-v1_1.html", "wikidata": "Q5753681", "wikipedia": "ja:\u6771\u821e\u9db4\u99c5"}}, {"type": "node", "id": 8227779903, "lat": 35.4749419, "lon": 135.284986, "tags": {"KSJ2:LIN": "\u5bae\u6d25\u7dda", "KSJ2:STN": "\u6771\u96f2", "alt_name": "\u5b89\u5bff\u306e\u91cc\u99c5", "alt_name:ja": "\u5b89\u5bff\u306e\u91cc\u99c5", "name": "\u6771\u96f2", "name:en": "Shinonome", "name:fr": "Shinonome", "name:ja": "\u6771\u96f2", "name:ja_rm": "Shinonome", "name:ko": "\uc2dc\ub178\ub178\uba54", "note": "National-Land Numerical Information (Railway) 2007, MLIT Japan", "note:ja": "\u56fd\u571f\u6570\u5024\u60c5\u5831\uff08\u9244\u9053\u30c7\u30fc\u30bf\uff09\u5e73\u621019\u5e74\u3000\u56fd\u571f\u4ea4\u901a\u7701", "public_transport": "station", "railway": "station", "source": "KSJ2", "source_ref": "http://nlftp.mlit.go.jp/ksj/jpgis/datalist/KsjTmplt-N02-v1_1.html", "wikidata": "Q7497733", "wikipedia": "ja:\u6771\u96f2\u99c5 (\u4eac\u90fd\u5e9c)"}}, {"type": "node", "id": 8227779904, "lat": 35.4463027, "lon": 135.2902586, "tags": {"alt_name": "\u56db\u6240\u3057\u3060\u308c\u685c\u516c\u5712\u99c5", "alt_name:ja": "\u56db\u6240\u3057\u3060\u308c\u685c\u516c\u5712\u99c5", "name": "\u56db\u6240", "name:en": "Shisho", "name:fr": "Shisho", "name:ja": "\u56db\u6240", "name:ja_rm": "Shisho", "name:ko": "\uc2dc\uc1fc", "note": "National-Land Numerical Information (Railway) 2007, MLIT Japan", "note:ja": "\u56fd\u571f\u6570\u5024\u60c5\u5831\uff08\u9244\u9053\u30c7\u30fc\u30bf\uff09\u5e73\u621019\u5e74\u3000\u56fd\u571f\u4ea4\u901a\u7701", "public_transport": "station", "railway": "station", "source": "KSJ2", "source_ref": "http://nlftp.mlit.go.jp/ksj/jpgis/datalist/KsjTmplt-N02-v1_1.html", "wikidata": "Q7499097", "wikipedia": "ja:\u56db\u6240\u99c5"}}, {"type": "node", "id": 8230693321, "lat": 35.5233286, "lon": 135.1920984, "tags": {"name": "\u5bae\u6751", "name:en": "Miyamura", "name:ja": "\u5bae\u6751", "name:ko": "\ubbf8\uc57c\ubb34\ub77c", "note": "National-Land Numerical Information (Railway) 2007, MLIT Japan", "note:ja": "\u56fd\u571f\u6570\u5024\u60c5\u5831\uff08\u9244\u9053\u30c7\u30fc\u30bf\uff09\u5e73\u621019\u5e74\u3000\u56fd\u571f\u4ea4\u901a\u7701", "operator": "\u4eac\u90fd\u4e39\u5f8c\u9244\u9053", "public_transport": "station", "railway": "station", "source": "KSJ2", "source_ref": "http://nlftp.mlit.go.jp/ksj/jpgis/datalist/KsjTmplt-N02-v1_1.html", "train": "yes", "wikidata": "Q6884339", "wikipedia": "ja:\u5bae\u6751\u99c5"}}, {"type": "node", "id": 8230734437, "lat": 35.4320885, "lon": 135.1582593, "tags": {"name": "\u5927\u6c5f\u5c71\u53e3\u5185\u5bae", "name:en": "\u014ceyamaguchi-Naiku", "name:ja": "\u5927\u6c5f\u5c71\u53e3\u5185\u5bae", "name:ko": "\uc624\uc5d0\uc57c\ub9c8\uad6c\uce58\ub098\uc774\ucfe0", "note": "National-Land Numerical Information (Railway) 2007, MLIT Japan", "note:ja": "\u56fd\u571f\u6570\u5024\u60c5\u5831\uff08\u9244\u9053\u30c7\u30fc\u30bf\uff09\u5e73\u621019\u5e74\u3000\u56fd\u571f\u4ea4\u901a\u7701", "operator": "\u4eac\u90fd\u4e39\u5f8c\u9244\u9053", "public_transport": "station", "railway": "station", "source": "KSJ2", "source_ref": "http://nlftp.mlit.go.jp/ksj/jpgis/datalist/KsjTmplt-N02-v1_1.html", "train": "yes", "wikidata": "Q8081450", "wikipedia": "ja:\u5927\u6c5f\u5c71\u53e3\u5185\u5bae\u99c5"}}, {"type": "node", "id": 8230991505, "lat": 35.5437438, "lon": 135.2353102, "tags": {"name": "\u6817\u7530", "name:en": "Kunda", "name:fr": "Kunda", "name:ja": "\u6817\u7530", "name:ko": "\uad70\ub2e4", "note": "National-Land Numerical Information (Railway) 2007, MLIT Japan", "note:ja": "\u56fd\u571f\u6570\u5024\u60c5\u5831\uff08\u9244\u9053\u30c7\u30fc\u30bf\uff09\u5e73\u621019\u5e74\u3000\u56fd\u571f\u4ea4\u901a\u7701", "public_transport": "station", "railway": "station", "source": "KSJ2", "source_ref": "http://nlftp.mlit.go.jp/ksj/jpgis/datalist/KsjTmplt-N02-v1_1.html", "train": "yes", "wikidata": "Q6444245", "wikipedia": "ja:\u6817\u7530\u99c5"}}, {"type": "node", "id": 8230991510, "lat": 35.5158779, "lon": 135.2794124, "tags": {"name": "\u4e39\u5f8c\u7531\u826f", "name:en": "Tango-Yura", "name:fr": "Tango-Yura", "name:ja": "\u4e39\u5f8c\u7531\u826f", "name:ko": "\ub2e8\uace0\uc720\ub77c", "note": "National-Land Numerical Information (Railway) 2007, MLIT Japan", "note:ja": "\u56fd\u571f\u6570\u5024\u60c5\u5831\uff08\u9244\u9053\u30c7\u30fc\u30bf\uff09\u5e73\u621019\u5e74\u3000\u56fd\u571f\u4ea4\u901a\u7701", "public_transport": "station", "railway": "station", "source": "KSJ2", "source_ref": "http://nlftp.mlit.go.jp/ksj/jpgis/datalist/KsjTmplt-N02-v1_1.html", "train": "yes", "wikidata": "Q7683073", "wikipedia": "ja:\u4e39\u5f8c\u7531\u826f\u99c5"}}, {"type": "node", "id": 8233956606, "lat": 35.55754, "lon": 135.1823701, "tags": {"name": "\u5929\u6a4b\u7acb", "name:en": "Amanohashidate", "name:fr": "Amanohashidate", "name:ja": "\u5929\u6a4b\u7acb", "name:ko": "\uc544\ub9c8\ub178\ud558\uc2dc\ub2e4\ud14c", "note": "National-Land Numerical Information (Railway) 2007, MLIT Japan", "note:ja": "\u56fd\u571f\u6570\u5024\u60c5\u5831\uff08\u9244\u9053\u30c7\u30fc\u30bf\uff09\u5e73\u621019\u5e74\u3000\u56fd\u571f\u4ea4\u901a\u7701", "public_transport": "station", "railway": "station", "source": "KSJ2", "source_ref": "http://nlftp.mlit.go.jp/ksj/jpgis/datalist/KsjTmplt-N02-v1_1.html", "train": "yes", "wikidata": "Q4739922", "wikipedia": "ja:\u5929\u6a4b\u7acb\u99c5"}}, {"type": "node", "id": 9988825933, "lat": 35.5864928, "lon": 135.1959049, "tags": {"access": "permissive", "fax": "+81 772-42-0339", "name": "\u5098\u677e", "name:en": "Kasamatsu", "name:ja": "\u5098\u677e", "name:ja_kana": "\u30ab\u30b5\u30de\u30c4", "name:ja_rm": "Kasamatsu", "opening_hours": "Jan-Feb,Dec 08:00-16:30; Mar,Nov 08:00-17:00; Apr-Jun,Sep,Oct 08:00-17:30; Jul 01-19,Aug 21-31 08:00-17:30; Jul 20-Aug 20 08:00-18:00", "operator": "\u4e39\u5f8c\u6d77\u9678\u4ea4\u901a", "phone": "+81 0772-42-0321", "public_transport": "station", "railway": "station", "website": "https://www.tankai.jp/", "wikidata": "Q4739917", "wikipedia": "ja:\u5929\u6a4b\u7acb\u92fc\u7d22\u9244\u9053"}}, {"type": "node", "id": 11453821875, "lat": 35.5832471, "lon": 135.1952916, "tags": {"access": "customers", "fax": "+81 772-42-0339", "name": "\u5e9c\u4e2d", "name:en": "Fuchu", "name:ja": "\u5e9c\u4e2d", "name:ja_kana": "\u30d5\u30c1\u30e5\u30a6", "name:ja_rm": "Fuchuu", "opening_hours": "Jan-Feb,Dec 08:00-16:30; Mar,Nov 08:00-17:00; Apr-Jun,Sep,Oct 08:00-17:30; Jul 01-19,Aug 21-31 08:00-17:30; Jul 20-Aug 20 08:00-18:00", "operator": "\u4e39\u5f8c\u6d77\u9678\u4ea4\u901a", "phone": "+81 0772-42-0321", "public_transport": "station", "railway": "station", "website": "https://www.tankai.jp/", "wikidata": "Q4739917", "wikipedia": "ja:\u5929\u6a4b\u7acb\u92fc\u7d22\u9244\u9053"}}]}