{"version": 0.6, "generator": "Overpass API 0.7.62.4 2390de5a", "osm3s": {"timestamp_osm_base": "2024-12-30T15:00:11Z", "copyright": "The data included in this document is from www.openstreetmap.org. The data is made available under ODbL."}, "elements": [{"type": "node", "id": 264186812, "lat": 40.70922, "lon": 141.300964, "tags": {"KSJ2:LIN": "\u9752\u3044\u68ee\u9244\u9053\u7dda", "KSJ2:STN": "\u5c0f\u5ddd\u539f", "name": "\u5c0f\u5ddd\u539f", "name:en": "Kogawara", "name:ja": "\u5c0f\u5ddd\u539f", "name:ja_rm": "Kogawara", "name:ko": "\uace0\uac00\uc640\ub77c", "note": "National-Land Numerical Information (Railway) 2007, MLIT Japan", "note:ja": "\u56fd\u571f\u6570\u5024\u60c5\u5831\uff08\u9244\u9053\u30c7\u30fc\u30bf\uff09\u5e73\u621019\u5e74\u3000\u56fd\u571f\u4ea4\u901a\u7701", "public_transport": "station", "railway": "station", "source": "KSJ2", "source_ref": "http://nlftp.mlit.go.jp/ksj/jpgis/datalist/KsjTmplt-N02-v1_1.html", "website": "https://aoimorirailway.com/lang_jp/station_list/kogawara/", "wikidata": "Q5357185", "wikipedia": "ja:\u5c0f\u5ddd\u539f\u99c5"}}, {"type": "node", "id": 264187311, "lat": 40.6295403, "lon": 141.3708184, "tags": {"KSJ2:LIN": "\u9752\u3044\u68ee\u9244\u9053\u7dda", "KSJ2:STN": "\u5411\u5c71", "name": "\u5411\u5c71", "name:en": "Mukaiyama", "name:ja": "\u5411\u5c71", "name:ja_rm": "Mukaiyama", "name:ko": "\ubb34\uce74\uc774\uc57c\ub9c8", "note": "National-Land Numerical Information (Railway) 2007, MLIT Japan", "note:ja": "\u56fd\u571f\u6570\u5024\u60c5\u5831\uff08\u9244\u9053\u30c7\u30fc\u30bf\uff09\u5e73\u621019\u5e74\u3000\u56fd\u571f\u4ea4\u901a\u7701", "public_transport": "station", "railway": "station", "source": "KSJ2", "source_ref": "http://nlftp.mlit.go.jp/ksj/jpgis/datalist/KsjTmplt-N02-v1_1.html", "website": "https://aoimorirailway.com/lang_jp/station_list/mukaiyama/", "wikidata": "Q5357175", "wikipedia": "ja:\u5411\u5c71\u99c5"}}, {"type": "node", "id": 264187734, "lat": 40.7798846, "lon": 141.213254, "tags": {"KSJ2:LIN": "\u9752\u3044\u68ee\u9244\u9053\u7dda", "KSJ2:STN": "\u4e59\u4f9b", "name": "\u4e59\u4f9b", "name:en": "Ottomo", "name:ja": "\u4e59\u4f9b", "name:ja_rm": "Ottomo", "name:ko": "\uc637\ud1a0\ubaa8", "note": "National-Land Numerical Information (Railway) 2007, MLIT Japan", "note:ja": "\u56fd\u571f\u6570\u5024\u60c5\u5831\uff08\u9244\u9053\u30c7\u30fc\u30bf\uff09\u5e73\u621019\u5e74\u3000\u56fd\u571f\u4ea4\u901a\u7701", "public_transport": "station", "railway": "station", "source": "KSJ2", "source_ref": "http://nlftp.mlit.go.jp/ksj/jpgis/datalist/KsjTmplt-N02-v1_1.html", "website": "https://aoimorirailway.com/lang_jp/station_list/ottomo/", "wikidata": "Q5357206", "wikipedia": "ja:\u4e59\u4f9b\u99c5"}}, {"type": "node", "id": 264188105, "lat": 40.7324313, "lon": 141.2654804, "tags": {"KSJ2:LIN": "\u9752\u3044\u68ee\u9244\u9053\u7dda", "KSJ2:STN": "\u4e0a\u5317\u753a", "name": "\u4e0a\u5317\u753a", "name:en": "Kamikitacho", "name:ja": "\u4e0a\u5317\u753a", "name:ja_rm": "Kamikitach\u014d", "name:ko": "\uac00\ubbf8\ud0a4\ud0c0\ucd08", "note": "National-Land Numerical Information (Railway) 2007, MLIT Japan", "note:ja": "\u56fd\u571f\u6570\u5024\u60c5\u5831\uff08\u9244\u9053\u30c7\u30fc\u30bf\uff09\u5e73\u621019\u5e74\u3000\u56fd\u571f\u4ea4\u901a\u7701", "public_transport": "station", "railway": "station", "source": "KSJ2", "source_ref": "http://nlftp.mlit.go.jp/ksj/jpgis/datalist/KsjTmplt-N02-v1_1.html", "website": "https://aoimorirailway.com/lang_jp/station_list/kamikitachou/", "wikidata": "Q5357192", "wikipedia": "ja:\u4e0a\u5317\u753a\u99c5"}}, {"type": "node", "id": 264188264, "lat": 40.8046851, "lon": 141.1528485, "tags": {"KSJ2:LIN": "\u9752\u3044\u68ee\u9244\u9053\u7dda", "KSJ2:STN": "\u5343\u66f3", "name": "\u5343\u66f3", "name:en": "Chibiki", "name:ja": "\u5343\u66f3", "name:ja_rm": "Chibiki", "name:ko": "\uc9c0\ube44\ud0a4", "note": "National-Land Numerical Information (Railway) 2007, MLIT Japan", "note:ja": "\u56fd\u571f\u6570\u5024\u60c5\u5831\uff08\u9244\u9053\u30c7\u30fc\u30bf\uff09\u5e73\u621019\u5e74\u3000\u56fd\u571f\u4ea4\u901a\u7701", "public_transport": "station", "railway": "station", "source": "KSJ2", "source_ref": "http://nlftp.mlit.go.jp/ksj/jpgis/datalist/KsjTmplt-N02-v1_1.html", "website": "https://aoimorirailway.com/lang_jp/station_list/chibiki/", "wikidata": "Q5095344", "wikipedia": "ja:\u5343\u66f3\u99c5"}}, {"type": "node", "id": 264224311, "lat": 40.444143, "lon": 141.682057, "tags": {"KSJ2:LIN": "\u516b\u6238\u7dda", "KSJ2:STN": "\u89d2\u306e\u6d5c", "name": "\u89d2\u306e\u6d5c", "name:en": "Kadonohama", "name:ja": "\u89d2\u306e\u6d5c", "name:ja_rm": "Kadonohama", "name:ko": "\uac00\ub3c4\ub178\ud558\ub9c8", "note": "National-Land Numerical Information (Railway) 2007, MLIT Japan", "note:ja": "\u56fd\u571f\u6570\u5024\u60c5\u5831\uff08\u9244\u9053\u30c7\u30fc\u30bf\uff09\u5e73\u621019\u5e74\u3000\u56fd\u571f\u4ea4\u901a\u7701", "public_transport": "station", "railway": "station", "source": "KSJ2", "source_ref": "http://nlftp.mlit.go.jp/ksj/jpgis/datalist/KsjTmplt-N02-v1_1.html", "wikidata": "Q6543295", "wikipedia": "ja:\u89d2\u306e\u6d5c\u99c5"}}, {"type": "node", "id": 264224666, "lat": 40.5306459, "lon": 141.5553941, "tags": {"KSJ2:LIN": "\u516b\u6238\u7dda", "KSJ2:STN": "\u9bab", "name": "\u9bab", "name:en": "Same", "name:ja": "\u9bab", "name:ja_rm": "Same", "name:ko": "\uc0ac\uba54", "note": "National-Land Numerical Information (Railway) 2007, MLIT Japan", "note:ja": "\u56fd\u571f\u6570\u5024\u60c5\u5831\uff08\u9244\u9053\u30c7\u30fc\u30bf\uff09\u5e73\u621019\u5e74\u3000\u56fd\u571f\u4ea4\u901a\u7701", "public_transport": "station", "railway": "station", "source": "KSJ2", "source_ref": "http://nlftp.mlit.go.jp/ksj/jpgis/datalist/KsjTmplt-N02-v1_1.html", "wikidata": "Q6378987", "wikipedia": "ja:\u9bab\u99c5"}}, {"type": "node", "id": 264224668, "lat": 40.4947811, "lon": 141.623437, "tags": {"KSJ2:LIN": "\u516b\u6238\u7dda", "KSJ2:STN": "\u5927\u4e45\u559c", "name": "\u5927\u4e45\u559c", "name:en": "Okuki", "name:ja": "\u5927\u4e45\u559c", "name:ja_rm": "\u014ckuki", "name:ko": "\uc624\ucfe0\ud0a4", "note": "National-Land Numerical Information (Railway) 2007, MLIT Japan", "note:ja": "\u56fd\u571f\u6570\u5024\u60c5\u5831\uff08\u9244\u9053\u30c7\u30fc\u30bf\uff09\u5e73\u621019\u5e74\u3000\u56fd\u571f\u4ea4\u901a\u7701", "public_transport": "station", "railway": "station", "source": "KSJ2", "source_ref": "http://nlftp.mlit.go.jp/ksj/jpgis/datalist/KsjTmplt-N02-v1_1.html", "wikidata": "Q6543357", "wikipedia": "ja:\u5927\u4e45\u559c\u99c5"}}, {"type": "node", "id": 264224956, "lat": 40.5165172, "lon": 141.5926763, "tags": {"KSJ2:LIN": "\u516b\u6238\u7dda", "KSJ2:STN": "\u9678\u5965\u767d\u6d5c", "name": "\u9678\u5965\u767d\u6d5c", "name:en": "Mutsu-Shirahama", "name:ja": "\u9678\u5965\u767d\u6d5c", "name:ja_rm": "Mutsu-Shirahama", "name:ko": "\ubb34\uc4f0\uc2dc\ub77c\ud558\ub9c8", "note": "National-Land Numerical Information (Railway) 2007, MLIT Japan", "note:ja": "\u56fd\u571f\u6570\u5024\u60c5\u5831\uff08\u9244\u9053\u30c7\u30fc\u30bf\uff09\u5e73\u621019\u5e74\u3000\u56fd\u571f\u4ea4\u901a\u7701", "public_transport": "station", "railway": "station", "source": "KSJ2", "source_ref": "http://nlftp.mlit.go.jp/ksj/jpgis/datalist/KsjTmplt-N02-v1_1.html", "wikidata": "Q6944035", "wikipedia": "ja:\u9678\u5965\u767d\u6d5c\u99c5"}}, {"type": "node", "id": 264225049, "lat": 40.5214187, "lon": 141.4658712, "tags": {"KSJ2:LIN": "\u516b\u6238\u7dda", "KSJ2:STN": "\u9577\u82d7\u4ee3", "name": "\u9577\u82d7\u4ee3", "name:en": "Naganawashiro", "name:ja": "\u9577\u82d7\u4ee3", "name:ja_rm": "Naganawashiro", "name:ko": "\ub098\uac00\ub098\uc640\uc2dc\ub85c", "note": "National-Land Numerical Information (Railway) 2007, MLIT Japan", "note:ja": "\u56fd\u571f\u6570\u5024\u60c5\u5831\uff08\u9244\u9053\u30c7\u30fc\u30bf\uff09\u5e73\u621019\u5e74\u3000\u56fd\u571f\u4ea4\u901a\u7701", "public_transport": "station", "railway": "station", "source": "KSJ2", "source_ref": "http://nlftp.mlit.go.jp/ksj/jpgis/datalist/KsjTmplt-N02-v1_1.html", "wikidata": "Q6393619", "wikipedia": "ja:\u9577\u82d7\u4ee3\u99c5"}}, {"type": "node", "id": 264225103, "lat": 40.4564163, "lon": 141.6654833, "tags": {"KSJ2:LIN": "\u516b\u6238\u7dda", "KSJ2:STN": "\u968e\u4e0a", "name": "\u968e\u4e0a", "name:en": "Hashikami", "name:ja": "\u968e\u4e0a", "name:ja_rm": "Hashikami", "name:ko": "\ud558\uc2dc\uce74\ubbf8", "note": "National-Land Numerical Information (Railway) 2007, MLIT Japan", "note:ja": "\u56fd\u571f\u6570\u5024\u60c5\u5831\uff08\u9244\u9053\u30c7\u30fc\u30bf\uff09\u5e73\u621019\u5e74\u3000\u56fd\u571f\u4ea4\u901a\u7701", "public_transport": "station", "railway": "station", "source": "KSJ2", "source_ref": "http://nlftp.mlit.go.jp/ksj/jpgis/datalist/KsjTmplt-N02-v1_1.html", "wikidata": "Q6543378", "wikipedia": "ja:\u968e\u4e0a\u99c5"}}, {"type": "node", "id": 264225107, "lat": 40.5162548, "lon": 141.4888217, "tags": {"KSJ2:LIN": "\u516b\u6238\u7dda", "KSJ2:STN": "\u672c\u516b\u6238", "name": "\u672c\u516b\u6238", "name:en": "Hon-Hachinohe", "name:ja": "\u672c\u516b\u6238", "name:ja_rm": "Hon-Hachinohe", "name:ko": "\ud63c\ud558\uce58\ub178\ud5e4", "note": "National-Land Numerical Information (Railway) 2007, MLIT Japan", "note:ja": "\u56fd\u571f\u6570\u5024\u60c5\u5831\uff08\u9244\u9053\u30c7\u30fc\u30bf\uff09\u5e73\u621019\u5e74\u3000\u56fd\u571f\u4ea4\u901a\u7701", "public_transport": "station", "railway": "station", "source": "KSJ2", "source_ref": "http://nlftp.mlit.go.jp/ksj/jpgis/datalist/KsjTmplt-N02-v1_1.html", "wikidata": "Q5891918", "wikipedia": "ja:\u672c\u516b\u6238\u99c5"}}, {"type": "node", "id": 264225149, "lat": 40.4252835, "lon": 141.6995578, "tags": {"KSJ2:LIN": "\u516b\u6238\u7dda", "KSJ2:STN": "\u5e73\u5185", "name": "\u5e73\u5185", "name:en": "Hiranai", "name:ja": "\u5e73\u5185", "name:ja_rm": "Hiranai", "name:ko": "\ud788\ub77c\ub098\uc774", "note": "National-Land Numerical Information (Railway) 2007, MLIT Japan", "note:ja": "\u56fd\u571f\u6570\u5024\u60c5\u5831\uff08\u9244\u9053\u30c7\u30fc\u30bf\uff09\u5e73\u621019\u5e74\u3000\u56fd\u571f\u4ea4\u901a\u7701", "public_transport": "station", "railway": "station", "source": "KSJ2", "source_ref": "http://nlftp.mlit.go.jp/ksj/jpgis/datalist/KsjTmplt-N02-v1_1.html", "wikidata": "Q5769402", "wikipedia": "ja:\u5e73\u5185\u99c5"}}, {"type": "node", "id": 264225152, "lat": 40.5187266, "lon": 141.5102394, "tags": {"KSJ2:LIN": "\u516b\u6238\u7dda", "KSJ2:STN": "\u5c0f\u4e2d\u91ce", "name": "\u5c0f\u4e2d\u91ce", "name:en": "Konakano", "name:ja": "\u5c0f\u4e2d\u91ce", "name:ja_rm": "Konakano", "name:ko": "\uace0\ub098\uce74\ub178", "note": "National-Land Numerical Information (Railway) 2007, MLIT Japan", "note:ja": "\u56fd\u571f\u6570\u5024\u60c5\u5831\uff08\u9244\u9053\u30c7\u30fc\u30bf\uff09\u5e73\u621019\u5e74\u3000\u56fd\u571f\u4ea4\u901a\u7701", "public_transport": "station", "railway": "station", "source": "KSJ2", "source_ref": "http://nlftp.mlit.go.jp/ksj/jpgis/datalist/KsjTmplt-N02-v1_1.html", "wikidata": "Q6393603", "wikipedia": "ja:\u5c0f\u4e2d\u91ce\u99c5"}}, {"type": "node", "id": 264225154, "lat": 40.5220565, "lon": 141.541828, "tags": {"KSJ2:LIN": "\u516b\u6238\u7dda", "KSJ2:STN": "\u767d\u9280", "name": "\u767d\u9280", "name:en": "Shirogane", "name:ja": "\u767d\u9280", "name:ja_rm": "Shirogane", "name:ko": "\uc2dc\ub85c\uac00\ub124", "note": "National-Land Numerical Information (Railway) 2007, MLIT Japan", "note:ja": "\u56fd\u571f\u6570\u5024\u60c5\u5831\uff08\u9244\u9053\u30c7\u30fc\u30bf\uff09\u5e73\u621019\u5e74\u3000\u56fd\u571f\u4ea4\u901a\u7701", "public_transport": "station", "railway": "station", "source": "KSJ2", "source_ref": "http://nlftp.mlit.go.jp/ksj/jpgis/datalist/KsjTmplt-N02-v1_1.html", "wikidata": "Q6378968", "wikipedia": "ja:\u767d\u9280\u99c5"}}, {"type": "node", "id": 264225268, "lat": 40.476223, "lon": 141.6370382, "tags": {"KSJ2:LIN": "\u516b\u6238\u7dda", "KSJ2:STN": "\u91d1\u6d5c", "name": "\u91d1\u6d5c", "name:en": "Kanehama", "name:ja": "\u91d1\u6d5c", "name:ja_rm": "Kanehama", "name:ko": "\uac00\ub124\ud558\ub9c8", "note": "National-Land Numerical Information (Railway) 2007, MLIT Japan", "note:ja": "\u56fd\u571f\u6570\u5024\u60c5\u5831\uff08\u9244\u9053\u30c7\u30fc\u30bf\uff09\u5e73\u621019\u5e74\u3000\u56fd\u571f\u4ea4\u901a\u7701", "public_transport": "station", "railway": "station", "source": "KSJ2", "source_ref": "http://nlftp.mlit.go.jp/ksj/jpgis/datalist/KsjTmplt-N02-v1_1.html", "wikidata": "Q6543331", "wikipedia": "ja:\u91d1\u6d5c\u99c5"}}, {"type": "node", "id": 264225270, "lat": 40.5230771, "lon": 141.5273194, "tags": {"KSJ2:LIN": "\u516b\u6238\u7dda", "KSJ2:STN": "\u9678\u5965\u6e4a", "name": "\u9678\u5965\u6e4a", "name:en": "Mutsu-Minato", "name:ja": "\u9678\u5965\u6e4a", "name:ja_rm": "Mutsu-Minato", "name:ko": "\ubb34\uc4f0\ubbf8\ub098\ud1a0", "note": "National-Land Numerical Information (Railway) 2007, MLIT Japan", "note:ja": "\u56fd\u571f\u6570\u5024\u60c5\u5831\uff08\u9244\u9053\u30c7\u30fc\u30bf\uff09\u5e73\u621019\u5e74\u3000\u56fd\u571f\u4ea4\u901a\u7701", "public_transport": "station", "railway": "station", "source": "KSJ2", "source_ref": "http://nlftp.mlit.go.jp/ksj/jpgis/datalist/KsjTmplt-N02-v1_1.html", "wikidata": "Q6378996", "wikipedia": "ja:\u9678\u5965\u6e4a\u99c5"}}, {"type": "node", "id": 264226195, "lat": 40.5070498, "lon": 141.6072643, "tags": {"KSJ2:LIN": "\u516b\u6238\u7dda", "KSJ2:STN": "\u7a2e\u5dee\u6d77\u5cb8", "name": "\u7a2e\u5dee\u6d77\u5cb8", "name:en": "Tanesashi-Kaigan", "name:ja": "\u7a2e\u5dee\u6d77\u5cb8", "name:ja_rm": "Tanesashi-Kaigan", "name:ko": "\ub2e4\ub124\uc0ac\uc2dc\uce74\uc774\uac04", "note": "National-Land Numerical Information (Railway) 2007, MLIT Japan", "note:ja": "\u56fd\u571f\u6570\u5024\u60c5\u5831\uff08\u9244\u9053\u30c7\u30fc\u30bf\uff09\u5e73\u621019\u5e74\u3000\u56fd\u571f\u4ea4\u901a\u7701", "public_transport": "station", "railway": "station", "source": "KSJ2", "source_ref": "http://nlftp.mlit.go.jp/ksj/jpgis/datalist/KsjTmplt-N02-v1_1.html", "wikidata": "Q6543173", "wikipedia": "ja:\u7a2e\u5dee\u6d77\u5cb8\u99c5"}}, {"type": "node", "id": 265838037, "lat": 40.4150219, "lon": 141.3048002, "tags": {"KSJ2:LIN": "\u9752\u3044\u68ee\u9244\u9053\u7dda", "KSJ2:STN": "\u8acf\u8a2a\u30ce\u5e73", "name": "\u8acf\u8a2a\u30ce\u5e73", "name:en": "Suwanotaira", "name:ja": "\u8acf\u8a2a\u30ce\u5e73", "name:ja_rm": "Suwanotaira", "name:ko": "\uc2a4\uc640\ub178\ud0c0\uc774\ub77c", "note": "National-Land Numerical Information (Railway) 2007, MLIT Japan", "note:ja": "\u56fd\u571f\u6570\u5024\u60c5\u5831\uff08\u9244\u9053\u30c7\u30fc\u30bf\uff09\u5e73\u621019\u5e74\u3000\u56fd\u571f\u4ea4\u901a\u7701", "public_transport": "station", "railway": "station", "source": "KSJ2", "source_ref": "http://nlftp.mlit.go.jp/ksj/jpgis/datalist/KsjTmplt-N02-v1_1.html", "website": "https://aoimorirailway.com/lang_jp/station_list/suwa/", "wikidata": "Q5357110", "wikipedia": "ja:\u8acf\u8a2a\u30ce\u5e73\u99c5"}}, {"type": "node", "id": 265838042, "lat": 40.4755956, "lon": 141.4064353, "tags": {"KSJ2:LIN": "\u9752\u3044\u68ee\u9244\u9053\u7dda", "KSJ2:STN": "\u5317\u9ad8\u5ca9", "name": "\u5317\u9ad8\u5ca9", "name:en": "Kitatakaiwa", "name:ja": "\u5317\u9ad8\u5ca9", "name:ja_rm": "Kitatakaiwa", "name:ko": "\uae30\ud0c0\ud0c0\uce74\uc774\uc640", "note": "National-Land Numerical Information (Railway) 2007, MLIT Japan", "note:ja": "\u56fd\u571f\u6570\u5024\u60c5\u5831\uff08\u9244\u9053\u30c7\u30fc\u30bf\uff09\u5e73\u621019\u5e74\u3000\u56fd\u571f\u4ea4\u901a\u7701", "public_transport": "station", "railway": "station", "source": "KSJ2", "source_ref": "http://nlftp.mlit.go.jp/ksj/jpgis/datalist/KsjTmplt-N02-v1_1.html", "website": "https://aoimorirailway.com/lang_jp/station_list/kitatakaiwa/", "wikidata": "Q5357135", "wikipedia": "ja:\u5317\u9ad8\u5ca9\u99c5"}}, {"type": "node", "id": 265838210, "lat": 40.4487365, "lon": 141.3463976, "tags": {"KSJ2:LIN": "\u9752\u3044\u68ee\u9244\u9053\u7dda", "KSJ2:STN": "\u5263\u5409", "name": "\u5263\u5409", "name:en": "Kenyoshi", "name:ja": "\u5263\u5409", "name:ja_rm": "Kenyoshi", "name:ko": "\uac90\uc694\uc2dc", "note": "National-Land Numerical Information (Railway) 2007, MLIT Japan", "note:ja": "\u56fd\u571f\u6570\u5024\u60c5\u5831\uff08\u9244\u9053\u30c7\u30fc\u30bf\uff09\u5e73\u621019\u5e74\u3000\u56fd\u571f\u4ea4\u901a\u7701", "public_transport": "station", "railway": "station", "source": "KSJ2", "source_ref": "http://nlftp.mlit.go.jp/ksj/jpgis/datalist/KsjTmplt-N02-v1_1.html", "website": "https://aoimorirailway.com/lang_jp/station_list/kenyoshi/", "wikidata": "Q5357122", "wikipedia": "ja:\u5263\u5409\u99c5"}}, {"type": "node", "id": 265838230, "lat": 40.4671967, "lon": 141.37553, "tags": {"KSJ2:LIN": "\u9752\u3044\u68ee\u9244\u9053\u7dda", "KSJ2:STN": "\u82eb\u7c73\u5730", "name": "\u82eb\u7c73\u5730", "name:en": "Tomabechi", "name:ja": "\u82eb\u7c73\u5730", "name:ja_rm": "Tomabechi", "name:ko": "\ub3c4\ub9c8\ubca0\uce58", "note": "National-Land Numerical Information (Railway) 2007, MLIT Japan", "note:ja": "\u56fd\u571f\u6570\u5024\u60c5\u5831\uff08\u9244\u9053\u30c7\u30fc\u30bf\uff09\u5e73\u621019\u5e74\u3000\u56fd\u571f\u4ea4\u901a\u7701", "public_transport": "station", "railway": "station", "source": "KSJ2", "source_ref": "http://nlftp.mlit.go.jp/ksj/jpgis/datalist/KsjTmplt-N02-v1_1.html", "website": "https://aoimorirailway.com/lang_jp/station_list/tomabechi/", "wikidata": "Q6420074", "wikipedia": "ja:\u82eb\u7c73\u5730\u99c5"}}, {"type": "node", "id": 265838322, "lat": 40.3954566, "lon": 141.2731571, "tags": {"KSJ2:LIN": "\u9752\u3044\u68ee\u9244\u9053\u7dda", "KSJ2:STN": "\u4e09\u6238", "name": "\u4e09\u6238", "name:en": "Sannohe", "name:ja": "\u4e09\u6238", "name:ja_rm": "Sannohe", "name:ko": "\uc0b0\ub178\ud5e4", "note": "National-Land Numerical Information (Railway) 2007, MLIT Japan", "note:ja": "\u56fd\u571f\u6570\u5024\u60c5\u5831\uff08\u9244\u9053\u30c7\u30fc\u30bf\uff09\u5e73\u621019\u5e74\u3000\u56fd\u571f\u4ea4\u901a\u7701", "public_transport": "station", "railway": "station", "source": "KSJ2", "source_ref": "http://nlftp.mlit.go.jp/ksj/jpgis/datalist/KsjTmplt-N02-v1_1.html", "website": "https://aoimorirailway.com/lang_jp/station_list/sannohe/", "wikidata": "Q5357203", "wikimedia_commons": "File:Aoimori Sannohe Station building, Aomori Pref.jpg", "wikipedia": "ja:\u4e09\u6238\u99c5"}}, {"type": "node", "id": 3665957894, "lat": 40.7199949, "lon": 141.1534608, "tags": {"name": "\u4e03\u6238\u5341\u548c\u7530", "name:de": "Shichinohe-Towada", "name:en": "Shichinohe-Towada", "name:ja": "\u4e03\u6238\u5341\u548c\u7530", "name:ja_rm": "Shichinohe-Towada", "name:ko": "\uc2dc\uce58\ub178\ud5e4\ud1a0\uc640\ub2e4", "name:ru": "\u0421\u0438\u0442\u0438\u043d\u043e\u0445\u0435-\u0422\u043e\u0432\u0430\u0434\u0430", "public_transport": "station", "railway": "station", "train": "yes", "website": "https://www.jreast.co.jp/estation/station/info.aspx?StationCd=1725", "wikidata": "Q1136467", "wikipedia": "ja:\u4e03\u6238\u5341\u548c\u7530\u99c5"}}, {"type": "node", "id": 3920556721, "lat": 40.5093889, "lon": 141.4311833, "tags": {"highspeed": "yes", "name": "\u516b\u6238", "name:de": "Hachinohe", "name:en": "Hachinohe", "name:ja": "\u516b\u6238", "name:ja_kana": "\u306f\u3061\u306e\u3078", "name:ja_rm": "Hachinohe", "name:ko": "\ud558\uce58\ub178\ud5e4", "name:ru": "\u0425\u0430\u0442\u0438\u043d\u043e\u0445\u0435", "public_transport": "station", "railway": "station", "source": "KSJ2", "train": "yes", "website": "https://www.jreast.co.jp/estation/station/info.aspx?StationCd=1230", "wikidata": "Q800866", "wikipedia": "ja:\u516b\u6238\u99c5"}}, {"type": "node", "id": 3920556724, "lat": 40.6693545, "lon": 141.3536492, "tags": {"KSJ2:LIN": "\u9752\u3044\u68ee\u9244\u9053\u7dda;\u5341\u548c\u7530\u89b3\u5149\u96fb\u9244\u7dda", "KSJ2:STN": "\u4e09\u6ca2", "name": "\u4e09\u6ca2", "name:en": "Misawa", "name:ja": "\u4e09\u6ca2", "name:ja_rm": "Misawa", "name:ko": "\ubbf8\uc0ac\uc640", "note": "National-Land Numerical Information (Railway) 2007, MLIT Japan", "note:ja": "\u56fd\u571f\u6570\u5024\u60c5\u5831\uff08\u9244\u9053\u30c7\u30fc\u30bf\uff09\u5e73\u621019\u5e74\u3000\u56fd\u571f\u4ea4\u901a\u7701", "public_transport": "station", "railway": "station", "source": "KSJ2", "source_ref": "http://nlftp.mlit.go.jp/ksj/jpgis/datalist/KsjTmplt-N02-v1_1.html", "website": "https://aoimorirailway.com/lang_jp/station_list/misawa/", "wikidata": "Q5924504", "wikipedia": "ja:\u4e09\u6ca2\u99c5 (\u9752\u68ee\u770c)"}}, {"type": "node", "id": 5357100607, "lat": 40.5628115, "lon": 141.4393439, "tags": {"KSJ2:LIN": "\u9752\u3044\u68ee\u9244\u9053\u7dda", "KSJ2:STN": "\u9678\u5965\u5e02\u5ddd", "name": "\u9678\u5965\u5e02\u5ddd", "name:en": "Mutsu-Ichikawa", "name:ja": "\u9678\u5965\u5e02\u5ddd", "name:ja_rm": "Mutsu-Ichikawa", "name:ko": "\ubb34\uc4f0\uc774\uce58\uce74\uc640", "note": "National-Land Numerical Information (Railway) 2007, MLIT Japan", "note:ja": "\u56fd\u571f\u6570\u5024\u60c5\u5831\uff08\u9244\u9053\u30c7\u30fc\u30bf\uff09\u5e73\u621019\u5e74\u3000\u56fd\u571f\u4ea4\u901a\u7701", "public_transport": "station", "railway": "station", "source": "KSJ2", "source_ref": "http://nlftp.mlit.go.jp/ksj/jpgis/datalist/KsjTmplt-N02-v1_1.html", "website": "https://aoimorirailway.com/lang_jp/station_list/mutsu/", "wikidata": "Q5356831", "wikipedia": "ja:\u9678\u5965\u5e02\u5ddd\u99c5"}}, {"type": "node", "id": 7029984731, "lat": 40.4671517, "lon": 141.6509651, "tags": {"KSJ2:LIN": "\u516b\u6238\u7dda", "KSJ2:STN": "\u5927\u86c7", "name": "\u5927\u86c7", "name:en": "Oja", "name:ja": "\u5927\u86c7", "name:ja_rm": "\u014cja", "name:ko": "\uc624\uc790", "note": "National-Land Numerical Information (Railway) 2007, MLIT Japan", "note:ja": "\u56fd\u571f\u6570\u5024\u60c5\u5831\uff08\u9244\u9053\u30c7\u30fc\u30bf\uff09\u5e73\u621019\u5e74\u3000\u56fd\u571f\u4ea4\u901a\u7701", "public_transport": "station", "railway": "station", "source": "KSJ2", "source_ref": "http://nlftp.mlit.go.jp/ksj/jpgis/datalist/KsjTmplt-N02-v1_1.html", "wikidata": "Q8081543", "wikipedia": "ja:\u5927\u86c7\u99c5"}}, {"type": "node", "id": 7668030814, "lat": 40.5920089, "lon": 141.4077142, "tags": {"KSJ2:LIN": "\u9752\u3044\u68ee\u9244\u9053\u7dda", "KSJ2:STN": "\u4e0b\u7530", "name": "\u4e0b\u7530", "name:en": "Shimoda", "name:ja": "\u4e0b\u7530", "name:ja_rm": "Shimoda", "name:ko": "\uc2dc\ubaa8\ub2e4", "note": "National-Land Numerical Information (Railway) 2007, MLIT Japan", "note:ja": "\u56fd\u571f\u6570\u5024\u60c5\u5831\uff08\u9244\u9053\u30c7\u30fc\u30bf\uff09\u5e73\u621019\u5e74\u3000\u56fd\u571f\u4ea4\u901a\u7701", "public_transport": "station", "railway": "station", "source": "KSJ2", "source_ref": "http://nlftp.mlit.go.jp/ksj/jpgis/datalist/KsjTmplt-N02-v1_1.html", "website": "https://aoimorirailway.com/lang_jp/station_list/shimoda/", "wikidata": "Q5357199", "wikipedia": "ja:\u4e0b\u7530\u99c5"}}]}