{"version": 0.6, "generator": "Overpass API 0.7.62.4 2390de5a", "osm3s": {"timestamp_osm_base": "2024-12-30T15:10:30Z", "copyright": "The data included in this document is from www.openstreetmap.org. The data is made available under ODbL."}, "elements": [{"type": "node", "id": 298329477, "lat": 36.0033004, "lon": 139.2888558, "tags": {"KSJ2:LIN": "\u516b\u9ad8\u7dda", "KSJ2:RAS": "eb03_8264", "KSJ2:STN": "\u660e\u899a", "KSJ2:segment": "eb02_17645", "name": "\u660e\u899a", "name:en": "My\u014dkaku", "name:ja": "\u660e\u899a", "name:ja_rm": "My\u014dkaku", "name:ko": "\ubb18\uce74\ucfe0", "note": "National-Land Numerical Information (Railway) 2007, MLIT Japan", "note:ja": "\u56fd\u571f\u6570\u5024\u60c5\u5831\uff08\u9244\u9053\u30c7\u30fc\u30bf\uff09\u5e73\u621019\u5e74\u3000\u56fd\u571f\u4ea4\u901a\u7701", "public_transport": "station", "railway": "station", "source": "KSJ2", "source_ref": "http://nlftp.mlit.go.jp/ksj/jpgis/datalist/KsjTmplt-N02-v1_1.html", "wikidata": "Q845049", "wikipedia": "ja:\u660e\u899a\u99c5"}}, {"type": "node", "id": 298329605, "lat": 36.0962747, "lon": 139.1952953, "tags": {"KSJ2:LIN": "\u516b\u9ad8\u7dda", "KSJ2:RAS": "eb03_8256", "KSJ2:STN": "\u6298\u539f", "KSJ2:segment": "eb02_17608", "name": "\u6298\u539f", "name:en": "Orihara", "name:ja": "\u6298\u539f", "name:ja_rm": "Orihara", "name:ko": "\uc624\ub9ac\ud558\ub77c", "note": "National-Land Numerical Information (Railway) 2007, MLIT Japan", "note:ja": "\u56fd\u571f\u6570\u5024\u60c5\u5831\uff08\u9244\u9053\u30c7\u30fc\u30bf\uff09\u5e73\u621019\u5e74\u3000\u56fd\u571f\u4ea4\u901a\u7701", "public_transport": "station", "railway": "station", "source": "KSJ2", "source_ref": "http://nlftp.mlit.go.jp/ksj/jpgis/datalist/KsjTmplt-N02-v1_1.html", "wikidata": "Q845030", "wikipedia": "ja:\u6298\u539f\u99c5"}}, {"type": "node", "id": 298329688, "lat": 36.1534484, "lon": 139.2010083, "tags": {"KSJ2:LIN": "\u516b\u9ad8\u7dda", "KSJ2:RAS": "eb03_8268", "KSJ2:STN": "\u7528\u571f", "KSJ2:segment": "eb02_17615", "name": "\u7528\u571f", "name:en": "Yodo", "name:ja": "\u7528\u571f", "name:ja_rm": "Yodo", "name:ko": "\uc694\ub3c4", "note": "National-Land Numerical Information (Railway) 2007, MLIT Japan", "note:ja": "\u56fd\u571f\u6570\u5024\u60c5\u5831\uff08\u9244\u9053\u30c7\u30fc\u30bf\uff09\u5e73\u621019\u5e74\u3000\u56fd\u571f\u4ea4\u901a\u7701", "public_transport": "station", "railway": "station", "source": "KSJ2", "source_ref": "http://nlftp.mlit.go.jp/ksj/jpgis/datalist/KsjTmplt-N02-v1_1.html", "wheelchair": "yes", "wikidata": "Q844838", "wikipedia": "ja:\u7528\u571f\u99c5"}}, {"type": "node", "id": 298329690, "lat": 36.1729951, "lon": 139.1821775, "tags": {"KSJ2:LIN": "\u516b\u9ad8\u7dda", "KSJ2:RAS": "eb03_8251", "KSJ2:STN": "\u677e\u4e45", "KSJ2:segment": "eb02_17617", "name": "\u677e\u4e45", "name:en": "Matsuhisa", "name:ja": "\u677e\u4e45", "name:ja_rm": "Matsuhisa", "name:ko": "\ub9c8\uc4f0\ud788\uc0ac", "note": "National-Land Numerical Information (Railway) 2007, MLIT Japan", "note:ja": "\u56fd\u571f\u6570\u5024\u60c5\u5831\uff08\u9244\u9053\u30c7\u30fc\u30bf\uff09\u5e73\u621019\u5e74\u3000\u56fd\u571f\u4ea4\u901a\u7701", "public_transport": "station", "railway": "station", "source": "KSJ2", "source_ref": "http://nlftp.mlit.go.jp/ksj/jpgis/datalist/KsjTmplt-N02-v1_1.html", "wheelchair": "yes", "wikidata": "Q845010", "wikipedia": "ja:\u677e\u4e45\u99c5"}}, {"type": "node", "id": 298329691, "lat": 36.075467, "lon": 139.2299283, "tags": {"KSJ2:LIN": "\u516b\u9ad8\u7dda", "KSJ2:RAS": "eb03_8262", "KSJ2:STN": "\u7af9\u6ca2", "KSJ2:segment": "eb02_17619", "name": "\u7af9\u6ca2", "name:en": "Takezawa", "name:ja": "\u7af9\u6ca2", "name:ja_rm": "Takezawa", "name:ko": "\ub2e4\ucf00\uc790\uc640", "note": "National-Land Numerical Information (Railway) 2007, MLIT Japan", "note:ja": "\u56fd\u571f\u6570\u5024\u60c5\u5831\uff08\u9244\u9053\u30c7\u30fc\u30bf\uff09\u5e73\u621019\u5e74\u3000\u56fd\u571f\u4ea4\u901a\u7701", "public_transport": "station", "railway": "station", "source": "KSJ2", "source_ref": "http://nlftp.mlit.go.jp/ksj/jpgis/datalist/KsjTmplt-N02-v1_1.html", "train": "yes", "wikidata": "Q845007", "wikipedia": "ja:\u7af9\u6ca2\u99c5"}}, {"type": "node", "id": 298329913, "lat": 35.9403972, "lon": 139.3093003, "tags": {"KSJ2:LIN": "\u516b\u9ad8\u7dda", "KSJ2:RAS": "eb03_8260", "KSJ2:STN": "\u6bdb\u5442", "KSJ2:segment": "eb02_17638", "name": "\u6bdb\u5442", "name:en": "Moro", "name:ja": "\u6bdb\u5442", "name:ja_rm": "Moro", "name:ko": "\ubaa8\ub85c", "note": "National-Land Numerical Information (Railway) 2007, MLIT Japan", "note:ja": "\u56fd\u571f\u6570\u5024\u60c5\u5831\uff08\u9244\u9053\u30c7\u30fc\u30bf\uff09\u5e73\u621019\u5e74\u3000\u56fd\u571f\u4ea4\u901a\u7701", "public_transport": "station", "railway": "station", "source": "KSJ2", "source_ref": "http://nlftp.mlit.go.jp/ksj/jpgis/datalist/KsjTmplt-N02-v1_1.html", "train": "yes", "wheelchair": "limited", "wikidata": "Q844988", "wikipedia": "ja:\u6bdb\u5442\u99c5"}}, {"type": "node", "id": 298329957, "lat": 36.1926268, "lon": 139.1359581, "tags": {"KSJ2:LIN": "\u516b\u9ad8\u7dda", "KSJ2:RAS": "eb03_8253", "KSJ2:STN": "\u5150\u7389", "KSJ2:segment": "eb02_17614", "name": "\u5150\u7389", "name:en": "Kodama", "name:ja": "\u5150\u7389", "name:ja_rm": "Kodama", "name:ko": "\uace0\ub2e4\ub9c8", "note": "National-Land Numerical Information (Railway) 2007, MLIT Japan", "note:ja": "\u56fd\u571f\u6570\u5024\u60c5\u5831\uff08\u9244\u9053\u30c7\u30fc\u30bf\uff09\u5e73\u621019\u5e74\u3000\u56fd\u571f\u4ea4\u901a\u7701", "public_transport": "station", "railway": "station", "source": "KSJ2", "source_ref": "http://nlftp.mlit.go.jp/ksj/jpgis/datalist/KsjTmplt-N02-v1_1.html", "wikidata": "Q845035", "wikipedia": "ja:\u5150\u7389\u99c5"}}, {"type": "node", "id": 298330913, "lat": 36.0589385, "lon": 139.2609401, "tags": {"KSJ2:LIN": "\u516b\u9ad8\u7dda", "name": "\u5c0f\u5ddd\u753a", "name:en": "Ogawamachi", "name:ja": "\u5c0f\u5ddd\u753a", "name:ja_kana": "\u304a\u304c\u308f\u307e\u3061", "name:ja_rm": "Ogawamachi", "name:ko": "\uc624\uac00\uc640\ub9c8\uce58", "name:ru": "\u041e\u0433\u0430\u0432\u0430\u043c\u0430\u0442\u0438", "note": "National-Land Numerical Information (Railway) 2007, MLIT Japan", "note:ja": "\u56fd\u571f\u6570\u5024\u60c5\u5831\uff08\u9244\u9053\u30c7\u30fc\u30bf\uff09\u5e73\u621019\u5e74\u3000\u56fd\u571f\u4ea4\u901a\u7701", "operator": "\u6771\u65e5\u672c\u65c5\u5ba2\u9244\u9053", "public_transport": "station", "railway": "station", "source": "KSJ2", "source_ref": "http://nlftp.mlit.go.jp/ksj/jpgis/datalist/KsjTmplt-N02-v1_1.html", "wikidata": "Q844858", "wikipedia": "ja:\u5c0f\u5ddd\u753a\u99c5 (\u57fc\u7389\u770c)"}}, {"type": "node", "id": 503873207, "lat": 35.9902119, "lon": 139.083122, "tags": {"KSJ2:LIN": "\u897f\u6b66\u79e9\u7236\u7dda", "KSJ2:STN": "\u897f\u6b66\u79e9\u7236", "alt_name": "\u897f\u6b66\u79e9\u7236\u99c5", "name": "\u897f\u6b66\u79e9\u7236", "name:en": "Seibu-Chichibu", "name:ja": "\u897f\u6b66\u79e9\u7236", "name:ja_kana": "\u305b\u3044\u3076\u3061\u3061\u3076", "name:ja_rm": "Seibu-Chichibu", "name:ko": "\uc138\uc774\ubd80\uc9c0\uce58\ubd80", "note": "National-Land Numerical Information (Railway) 2007, MLIT Japan", "note:ja": "\u56fd\u571f\u6570\u5024\u60c5\u5831\uff08\u9244\u9053\u30c7\u30fc\u30bf\uff09\u5e73\u621019\u5e74\u3000\u56fd\u571f\u4ea4\u901a\u7701", "public_transport": "station", "railway": "station", "source": "KSJ2", "source_ref": "http://nlftp.mlit.go.jp/ksj/jpgis/datalist/KsjTmplt-N02-v1_1.html", "wikidata": "Q7446590", "wikipedia": "ja:\u897f\u6b66\u79e9\u7236\u99c5"}}, {"type": "node", "id": 503883147, "lat": 36.1376538, "lon": 139.4421269, "tags": {"name": "\u6301\u7530", "name:en": "Mochida", "name:ja": "\u6301\u7530", "name:ko": "\ubaa8\uce58\ub2e4", "note": "National-Land Numerical Information (Railway) 2007, MLIT Japan", "note:ja": "\u56fd\u571f\u6570\u5024\u60c5\u5831\uff08\u9244\u9053\u30c7\u30fc\u30bf\uff09\u5e73\u621019\u5e74\u3000\u56fd\u571f\u4ea4\u901a\u7701", "public_transport": "station", "railway": "station", "source": "KSJ2", "source_ref": "http://nlftp.mlit.go.jp/ksj/jpgis/datalist/KsjTmplt-N02-v1_1.html", "wikidata": "Q3701544", "wikipedia": "ja:\u6301\u7530\u99c5"}}, {"type": "node", "id": 503883152, "lat": 36.1477624, "lon": 139.3688331, "tags": {"name": "\u77f3\u539f", "name:en": "Ishiwara", "name:ja": "\u77f3\u539f", "name:ko": "\uc774\uc2dc\uc640\ub77c", "note": "National-Land Numerical Information (Railway) 2007, MLIT Japan", "note:ja": "\u56fd\u571f\u6570\u5024\u60c5\u5831\uff08\u9244\u9053\u30c7\u30fc\u30bf\uff09\u5e73\u621019\u5e74\u3000\u56fd\u571f\u4ea4\u901a\u7701", "public_transport": "station", "railway": "station", "source": "KSJ2", "source_ref": "http://nlftp.mlit.go.jp/ksj/jpgis/datalist/KsjTmplt-N02-v1_1.html", "wikidata": "Q6080414", "wikipedia": "ja:\u77f3\u539f\u99c5 (\u57fc\u7389\u770c)"}}, {"type": "node", "id": 503883287, "lat": 36.1427903, "lon": 139.3810561, "tags": {"name": "\u4e0a\u718a\u8c37", "name:en": "Kami-Kumagaya", "name:ja": "\u4e0a\u718a\u8c37", "name:ja_rm": "Kami-Kumagaya", "name:ko": "\uac00\ubbf8\ucfe0\ub9c8\uac00\uc57c", "note": "National-Land Numerical Information (Railway) 2007, MLIT Japan", "note:ja": "\u56fd\u571f\u6570\u5024\u60c5\u5831\uff08\u9244\u9053\u30c7\u30fc\u30bf\uff09\u5e73\u621019\u5e74\u3000\u56fd\u571f\u4ea4\u901a\u7701", "public_transport": "station", "railway": "station", "source": "KSJ2", "source_ref": "http://nlftp.mlit.go.jp/ksj/jpgis/datalist/KsjTmplt-N02-v1_1.html", "wikidata": "Q6357161", "wikipedia": "ja:\u4e0a\u718a\u8c37\u99c5"}}, {"type": "node", "id": 503883885, "lat": 36.1289552, "lon": 139.2224532, "tags": {"name": "\u5c0f\u524d\u7530", "name:en": "Omaeda", "name:ja": "\u5c0f\u524d\u7530", "name:ko": "\uc624\ub9c8\uc5d0\ub2e4", "note": "National-Land Numerical Information (Railway) 2007, MLIT Japan", "note:ja": "\u56fd\u571f\u6570\u5024\u60c5\u5831\uff08\u9244\u9053\u30c7\u30fc\u30bf\uff09\u5e73\u621019\u5e74\u3000\u56fd\u571f\u4ea4\u901a\u7701", "public_transport": "station", "railway": "station", "source": "KSJ2", "source_ref": "http://nlftp.mlit.go.jp/ksj/jpgis/datalist/KsjTmplt-N02-v1_1.html", "wikidata": "Q7089376", "wikipedia": "ja:\u5c0f\u524d\u7530\u99c5"}}, {"type": "node", "id": 503883886, "lat": 36.131119, "lon": 139.1223146, "tags": {"name": "\u6a0b\u53e3", "name:en": "Higuchi", "name:ja": "\u6a0b\u53e3", "name:ja_kana": "\u3072\u3050\u3061", "name:ja_rm": "Higuchi", "name:ko": "\ud788\uad6c\uce58", "note": "National-Land Numerical Information (Railway) 2007, MLIT Japan", "note:ja": "\u56fd\u571f\u6570\u5024\u60c5\u5831\uff08\u9244\u9053\u30c7\u30fc\u30bf\uff09\u5e73\u621019\u5e74\u3000\u56fd\u571f\u4ea4\u901a\u7701", "public_transport": "station", "railway": "station", "source": "KSJ2", "source_ref": "http://nlftp.mlit.go.jp/ksj/jpgis/datalist/KsjTmplt-N02-v1_1.html", "wikidata": "Q11542163", "wikipedia": "ja:\u6a0b\u53e3\u99c5"}}, {"type": "node", "id": 503883928, "lat": 36.135256, "lon": 139.2591857, "tags": {"name": "\u6c38\u7530", "name:en": "Nagata", "name:ja": "\u6c38\u7530", "name:ko": "\ub098\uac00\ud0c0", "note": "National-Land Numerical Information (Railway) 2007, MLIT Japan", "note:ja": "\u56fd\u571f\u6570\u5024\u60c5\u5831\uff08\u9244\u9053\u30c7\u30fc\u30bf\uff09\u5e73\u621019\u5e74\u3000\u56fd\u571f\u4ea4\u901a\u7701", "public_transport": "station", "railway": "station", "source": "KSJ2", "source_ref": "http://nlftp.mlit.go.jp/ksj/jpgis/datalist/KsjTmplt-N02-v1_1.html", "wikidata": "Q6958664", "wikipedia": "ja:\u6c38\u7530\u99c5 (\u57fc\u7389\u770c)"}}, {"type": "node", "id": 503883929, "lat": 36.0686341, "lon": 139.0939558, "tags": {"KSJ2:LIN": "\u79e9\u7236\u672c\u7dda", "KSJ2:STN": "\u7686\u91ce", "name": "\u7686\u91ce", "name:en": "Minano", "name:ja": "\u7686\u91ce", "name:ja_kana": "\u307f\u306a\u306e", "name:ja_rm": "Minano", "name:ko": "\ubbf8\ub098\ub178", "note": "National-Land Numerical Information (Railway) 2007, MLIT Japan", "note:ja": "\u56fd\u571f\u6570\u5024\u60c5\u5831\uff08\u9244\u9053\u30c7\u30fc\u30bf\uff09\u5e73\u621019\u5e74\u3000\u56fd\u571f\u4ea4\u901a\u7701", "public_transport": "station", "railway": "station", "source": "KSJ2", "source_ref": "http://nlftp.mlit.go.jp/ksj/jpgis/datalist/KsjTmplt-N02-v1_1.html", "wikidata": "Q6863174", "wikipedia": "ja:\u7686\u91ce\u99c5"}}, {"type": "node", "id": 503884086, "lat": 36.0775992, "lon": 139.1063964, "tags": {"name": "\u89aa\u9f3b", "name:en": "Oyahana", "name:ja": "\u89aa\u9f3b", "name:ja_kana": "\u304a\u3084\u306f\u306a", "name:ja_rm": "Oyahana", "name:ko": "\uc624\uc57c\ud558\ub098", "note": "National-Land Numerical Information (Railway) 2007, MLIT Japan", "note:ja": "\u56fd\u571f\u6570\u5024\u60c5\u5831\uff08\u9244\u9053\u30c7\u30fc\u30bf\uff09\u5e73\u621019\u5e74\u3000\u56fd\u571f\u4ea4\u901a\u7701", "public_transport": "station", "railway": "station", "source": "KSJ2", "source_ref": "http://nlftp.mlit.go.jp/ksj/jpgis/datalist/KsjTmplt-N02-v1_1.html", "wikidata": "Q7116209", "wikipedia": "ja:\u89aa\u9f3b\u99c5"}}, {"type": "node", "id": 503884123, "lat": 36.1422371, "lon": 139.2824801, "tags": {"name": "\u6b66\u5ddd", "name:en": "Takekawa", "name:ja": "\u6b66\u5ddd", "name:ko": "\ub2e4\ucf00\uce74\uc640", "note": "National-Land Numerical Information (Railway) 2007, MLIT Japan", "note:ja": "\u56fd\u571f\u6570\u5024\u60c5\u5831\uff08\u9244\u9053\u30c7\u30fc\u30bf\uff09\u5e73\u621019\u5e74\u3000\u56fd\u571f\u4ea4\u901a\u7701", "railway": "station", "source": "KSJ2", "source_ref": "http://nlftp.mlit.go.jp/ksj/jpgis/datalist/KsjTmplt-N02-v1_1.html", "wikidata": "Q7677997", "wikipedia": "ja:\u6b66\u5ddd\u99c5"}}, {"type": "node", "id": 503884675, "lat": 36.1267819, "lon": 139.1580969, "tags": {"name": "\u6ce2\u4e45\u793c", "name:en": "Hagure", "name:ja": "\u6ce2\u4e45\u793c", "name:ko": "\ud558\uad6c\ub808", "note": "National-Land Numerical Information (Railway) 2007, MLIT Japan", "note:ja": "\u56fd\u571f\u6570\u5024\u60c5\u5831\uff08\u9244\u9053\u30c7\u30fc\u30bf\uff09\u5e73\u621019\u5e74\u3000\u56fd\u571f\u4ea4\u901a\u7701", "public_transport": "station", "railway": "station", "source": "KSJ2", "source_ref": "http://nlftp.mlit.go.jp/ksj/jpgis/datalist/KsjTmplt-N02-v1_1.html", "wikidata": "Q3701668", "wikipedia": "ja:\u6ce2\u4e45\u793c\u99c5"}}, {"type": "node", "id": 503885045, "lat": 36.0861719, "lon": 139.1133328, "tags": {"name": "\u4e0a\u9577\u701e", "name:en": "Kaminagatoro", "name:ja": "\u4e0a\u9577\u701e", "name:ja_kana": "\u304b\u307f\u306a\u304c\u3068\u308d", "name:ja_rm": "Kaminagatoro", "name:ko": "\uac00\ubbf8\ub098\uac00\ud1a0\ub85c", "note": "National-Land Numerical Information (Railway) 2007, MLIT Japan", "note:ja": "\u56fd\u571f\u6570\u5024\u60c5\u5831\uff08\u9244\u9053\u30c7\u30fc\u30bf\uff09\u5e73\u621019\u5e74\u3000\u56fd\u571f\u4ea4\u901a\u7701", "public_transport": "station", "railway": "station", "source": "KSJ2", "source_ref": "http://nlftp.mlit.go.jp/ksj/jpgis/datalist/KsjTmplt-N02-v1_1.html", "wikidata": "Q3701538", "wikipedia": "ja:\u4e0a\u9577\u701e\u99c5"}}, {"type": "node", "id": 503885058, "lat": 36.0952949, "lon": 139.1124969, "tags": {"name": "\u9577\u701e", "name:en": "Nagatoro", "name:ja": "\u9577\u701e", "name:ja_kana": "\u306a\u304c\u3068\u308d", "name:ja_rm": "Nagatoro", "name:ko": "\ub098\uac00\ud1a0\ub85c", "note": "National-Land Numerical Information (Railway) 2007, MLIT Japan", "note:ja": "\u56fd\u571f\u6570\u5024\u60c5\u5831\uff08\u9244\u9053\u30c7\u30fc\u30bf\uff09\u5e73\u621019\u5e74\u3000\u56fd\u571f\u4ea4\u901a\u7701", "public_transport": "station", "railway": "station", "source": "KSJ2", "source_ref": "http://nlftp.mlit.go.jp/ksj/jpgis/datalist/KsjTmplt-N02-v1_1.html", "wikidata": "Q8013090", "wikipedia": "ja:\u9577\u701e\u99c5"}}, {"type": "node", "id": 503885116, "lat": 36.1461478, "lon": 139.3514723, "tags": {"name": "\u3072\u308d\u305b\u91ce\u9ce5\u306e\u68ee", "name:en": "Hirose-Yach\u014d-no-Mori", "name:ja": "\u3072\u308d\u305b\u91ce\u9ce5\u306e\u68ee", "name:ko": "\ud788\ub85c\uc138\uc57c\ucd08\ub178\ubaa8\ub9ac", "note": "National-Land Numerical Information (Railway) 2007, MLIT Japan", "note:ja": "\u56fd\u571f\u6570\u5024\u60c5\u5831\uff08\u9244\u9053\u30c7\u30fc\u30bf\uff09\u5e73\u621019\u5e74\u3000\u56fd\u571f\u4ea4\u901a\u7701", "public_transport": "station", "railway": "station", "source": "KSJ2", "source_ref": "http://nlftp.mlit.go.jp/ksj/jpgis/datalist/KsjTmplt-N02-v1_1.html", "wikidata": "Q5770745", "wikipedia": "ja:\u3072\u308d\u305b\u91ce\u9ce5\u306e\u68ee\u99c5"}}, {"type": "node", "id": 503885125, "lat": 36.1429789, "lon": 139.3033632, "tags": {"name": "\u660e\u6238", "name:en": "Aketo", "name:ja": "\u660e\u6238", "name:ko": "\uc544\ucf00\ud1a0", "note": "National-Land Numerical Information (Railway) 2007, MLIT Japan", "note:ja": "\u56fd\u571f\u6570\u5024\u60c5\u5831\uff08\u9244\u9053\u30c7\u30fc\u30bf\uff09\u5e73\u621019\u5e74\u3000\u56fd\u571f\u4ea4\u901a\u7701", "public_transport": "station", "railway": "station", "source": "KSJ2", "source_ref": "http://nlftp.mlit.go.jp/ksj/jpgis/datalist/KsjTmplt-N02-v1_1.html", "wikidata": "Q4700660", "wikipedia": "ja:\u660e\u6238\u99c5"}}, {"type": "node", "id": 503885127, "lat": 36.111646, "lon": 139.1107334, "tags": {"name": "\u91ce\u4e0a", "name:en": "Nogami", "name:ja": "\u91ce\u4e0a", "name:ja_kana": "\u306e\u304c\u307f", "name:ja_rm": "Nogami", "name:ko": "\ub178\uac00\ubbf8", "note": "National-Land Numerical Information (Railway) 2007, MLIT Japan", "note:ja": "\u56fd\u571f\u6570\u5024\u60c5\u5831\uff08\u9244\u9053\u30c7\u30fc\u30bf\uff09\u5e73\u621019\u5e74\u3000\u56fd\u571f\u4ea4\u901a\u7701", "public_transport": "station", "railway": "station", "source": "KSJ2", "source_ref": "http://nlftp.mlit.go.jp/ksj/jpgis/datalist/KsjTmplt-N02-v1_1.html", "wikidata": "Q3701473", "wikipedia": "ja:\u91ce\u4e0a\u99c5"}}, {"type": "node", "id": 503885134, "lat": 35.9985519, "lon": 139.0858688, "tags": {"name": "\u79e9\u7236", "name:en": "Chichibu", "name:ja": "\u79e9\u7236", "name:ja_kana": "\u3061\u3061\u3076", "name:ja_rm": "Chichibu", "name:ko": "\uc9c0\uce58\ubd80", "natural": "hot_spring", "note": "National-Land Numerical Information (Railway) 2007, MLIT Japan", "note:ja": "\u56fd\u571f\u6570\u5024\u60c5\u5831\uff08\u9244\u9053\u30c7\u30fc\u30bf\uff09\u5e73\u621019\u5e74\u3000\u56fd\u571f\u4ea4\u901a\u7701", "public_transport": "station", "railway": "station", "source": "KSJ2", "source_ref": "http://nlftp.mlit.go.jp/ksj/jpgis/datalist/KsjTmplt-N02-v1_1.html", "train": "yes", "wikidata": "Q5096049", "wikipedia": "ja:\u79e9\u7236\u99c5"}}, {"type": "node", "id": 503885906, "lat": 36.1286416, "lon": 139.2070989, "tags": {"KSJ2:LIN": "\u79e9\u7236\u672c\u7dda", "KSJ2:STN": "\u685c\u6ca2", "name": "\u685c\u6ca2", "name:en": "Sakurazawa", "name:ja": "\u685c\u6ca2", "name:ko": "\uc0ac\ucfe0\ub77c\uc790\uc640", "note": "National-Land Numerical Information (Railway) 2007, MLIT Japan", "note:ja": "\u56fd\u571f\u6570\u5024\u60c5\u5831\uff08\u9244\u9053\u30c7\u30fc\u30bf\uff09\u5e73\u621019\u5e74\u3000\u56fd\u571f\u4ea4\u901a\u7701", "public_transport": "station", "railway": "station", "source": "KSJ2", "source_ref": "http://nlftp.mlit.go.jp/ksj/jpgis/datalist/KsjTmplt-N02-v1_1.html", "wikidata": "Q3701568", "wikipedia": "ja:\u685c\u6ca2\u99c5 (\u57fc\u7389\u770c)"}}, {"type": "node", "id": 503885910, "lat": 36.0186342, "lon": 139.0940063, "tags": {"name": "\u5927\u91ce\u539f", "name:en": "Onohara", "name:ja": "\u5927\u91ce\u539f", "name:ko": "\uc624\ub178\ud558\ub77c", "natural": "hot_spring", "note": "National-Land Numerical Information (Railway) 2007, MLIT Japan", "note:ja": "\u56fd\u571f\u6570\u5024\u60c5\u5831\uff08\u9244\u9053\u30c7\u30fc\u30bf\uff09\u5e73\u621019\u5e74\u3000\u56fd\u571f\u4ea4\u901a\u7701", "public_transport": "station", "railway": "station", "source": "KSJ2", "source_ref": "http://nlftp.mlit.go.jp/ksj/jpgis/datalist/KsjTmplt-N02-v1_1.html", "wikidata": "Q8081669", "wikipedia": "ja:\u5927\u91ce\u539f\u99c5"}}, {"type": "node", "id": 503886011, "lat": 36.144622, "lon": 139.3319695, "tags": {"name": "\u5927\u9ebb\u751f", "name:en": "\u014cas\u014d", "name:ja": "\u5927\u9ebb\u751f", "name:ko": "\uc624\uc544\uc18c", "note": "National-Land Numerical Information (Railway) 2007, MLIT Japan", "note:ja": "\u56fd\u571f\u6570\u5024\u60c5\u5831\uff08\u9244\u9053\u30c7\u30fc\u30bf\uff09\u5e73\u621019\u5e74\u3000\u56fd\u571f\u4ea4\u901a\u7701", "railway": "station", "source": "KSJ2", "source_ref": "http://nlftp.mlit.go.jp/ksj/jpgis/datalist/KsjTmplt-N02-v1_1.html", "wikidata": "Q3701525", "wikipedia": "ja:\u5927\u9ebb\u751f\u99c5"}}, {"type": "node", "id": 503886115, "lat": 35.9589194, "lon": 138.9933278, "tags": {"name": "\u767d\u4e45", "name:en": "Shiroku", "name:ja": "\u767d\u4e45", "name:ja-Hira": "\u3057\u308d\u304f", "name:ko": "\uc2dc\ub85c\ucfe0", "note": "National-Land Numerical Information (Railway) 2007, MLIT Japan", "note:ja": "\u56fd\u571f\u6570\u5024\u60c5\u5831\uff08\u9244\u9053\u30c7\u30fc\u30bf\uff09\u5e73\u621019\u5e74\u3000\u56fd\u571f\u4ea4\u901a\u7701", "public_transport": "station", "railway": "station", "source": "KSJ2", "source_ref": "http://nlftp.mlit.go.jp/ksj/jpgis/datalist/KsjTmplt-N02-v1_1.html", "train": "yes", "wikidata": "Q3701539", "wikipedia": "ja:\u767d\u4e45\u99c5"}}, {"type": "node", "id": 503886117, "lat": 35.953936, "lon": 139.0217769, "tags": {"name": "\u6b66\u5dde\u65e5\u91ce", "name:en": "Busyu-Hino", "name:ja": "\u6b66\u5dde\u65e5\u91ce", "name:ja-Hira": "\u3076\u3057\u3085\u3046\u3072\u306e", "name:ko": "\ubd80\uc288\ud788\ub178", "note": "National-Land Numerical Information (Railway) 2007, MLIT Japan", "note:ja": "\u56fd\u571f\u6570\u5024\u60c5\u5831\uff08\u9244\u9053\u30c7\u30fc\u30bf\uff09\u5e73\u621019\u5e74\u3000\u56fd\u571f\u4ea4\u901a\u7701", "public_transport": "station", "railway": "station", "source": "KSJ2", "source_ref": "http://nlftp.mlit.go.jp/ksj/jpgis/datalist/KsjTmplt-N02-v1_1.html", "wikidata": "Q3701398", "wikipedia": "ja:\u6b66\u5dde\u65e5\u91ce\u99c5"}}, {"type": "node", "id": 503886125, "lat": 35.9583654, "lon": 139.0354128, "tags": {"name": "\u6b66\u5dde\u4e2d\u5ddd", "name:en": "Busyu-Nakagawa", "name:ja": "\u6b66\u5dde\u4e2d\u5ddd", "name:ko": "\ubd80\uc288\ub098\uce74\uac00\uc640", "note": "National-Land Numerical Information (Railway) 2007, MLIT Japan", "note:ja": "\u56fd\u571f\u6570\u5024\u60c5\u5831\uff08\u9244\u9053\u30c7\u30fc\u30bf\uff09\u5e73\u621019\u5e74\u3000\u56fd\u571f\u4ea4\u901a\u7701", "public_transport": "station", "railway": "station", "source": "KSJ2", "source_ref": "http://nlftp.mlit.go.jp/ksj/jpgis/datalist/KsjTmplt-N02-v1_1.html", "wikidata": "Q3701401", "wikipedia": "ja:\u6b66\u5dde\u4e2d\u5ddd\u99c5"}}, {"type": "node", "id": 503886320, "lat": 35.9721258, "lon": 139.0683811, "tags": {"name": "\u5f71\u68ee", "name:en": "Kagemori", "name:ja": "\u5f71\u68ee", "name:ko": "\uac00\uac8c\ubaa8\ub9ac", "note": "National-Land Numerical Information (Railway) 2007, MLIT Japan", "note:ja": "\u56fd\u571f\u6570\u5024\u60c5\u5831\uff08\u9244\u9053\u30c7\u30fc\u30bf\uff09\u5e73\u621019\u5e74\u3000\u56fd\u571f\u4ea4\u901a\u7701", "public_transport": "station", "railway": "station", "source": "KSJ2", "source_ref": "http://nlftp.mlit.go.jp/ksj/jpgis/datalist/KsjTmplt-N02-v1_1.html", "wikidata": "Q3701498", "wikipedia": "ja:\u5f71\u68ee\u99c5"}}, {"type": "node", "id": 503886443, "lat": 35.9640037, "lon": 139.0583697, "tags": {"name": "\u6d66\u5c71\u53e3", "name:en": "Urayamaguchi", "name:ja": "\u6d66\u5c71\u53e3", "name:ko": "\uc6b0\ub77c\uc57c\ub9c8\uad6c\uce58", "note": "National-Land Numerical Information (Railway) 2007, MLIT Japan", "note:ja": "\u56fd\u571f\u6570\u5024\u60c5\u5831\uff08\u9244\u9053\u30c7\u30fc\u30bf\uff09\u5e73\u621019\u5e74\u3000\u56fd\u571f\u4ea4\u901a\u7701", "public_transport": "station", "railway": "station", "source": "KSJ2", "source_ref": "http://nlftp.mlit.go.jp/ksj/jpgis/datalist/KsjTmplt-N02-v1_1.html", "wikidata": "Q3701527", "wikipedia": "ja:\u6d66\u5c71\u53e3\u99c5"}}, {"type": "node", "id": 503886681, "lat": 35.9600528, "lon": 138.9790441, "tags": {"name": "\u4e09\u5cf0\u53e3", "name:en": "Mitsumineguchi", "name:ja": "\u4e09\u5cf0\u53e3", "name:ja-Hira": "\u307f\u3064\u307f\u306d\u3050\u3061", "name:ja-Latn": "Mitsumineguchi", "name:ja_kana": "\u307f\u3064\u307f\u306d\u3050\u3061", "name:ja_rm": "Mitsumineguchi", "name:ko": "\ubbf8\uc4f0\ubbf8\ub124\uad6c\uce58", "note": "National-Land Numerical Information (Railway) 2007, MLIT Japan", "note:ja": "\u56fd\u571f\u6570\u5024\u60c5\u5831\uff08\u9244\u9053\u30c7\u30fc\u30bf\uff09\u5e73\u621019\u5e74\u3000\u56fd\u571f\u4ea4\u901a\u7701", "public_transport": "station", "railway": "station", "source": "KSJ2", "source_ref": "http://nlftp.mlit.go.jp/ksj/jpgis/datalist/KsjTmplt-N02-v1_1.html", "wikidata": "Q5969031", "wikipedia": "ja:\u4e09\u5cf0\u53e3\u99c5"}}, {"type": "node", "id": 503889912, "lat": 35.9374897, "lon": 139.3468489, "tags": {"KSJ2:LIN": "\u8d8a\u751f\u7dda", "name": "\u5ddd\u89d2", "name:en": "Kawakado", "name:ja": "\u5ddd\u89d2", "name:ja_kana": "\u304b\u308f\u304b\u3069", "name:ja_rm": "Kawakado", "name:ko": "\uac00\uc640\uce74\ub3c4", "natural": "hot_spring", "network": "\u6771\u6b66\u9244\u9053", "network:en": "Tobu Railway", "network:ja": "\u6771\u6b66\u9244\u9053", "network:wikidata": "Q1321914", "note": "National-Land Numerical Information (Railway) 2007, MLIT Japan", "note:ja": "\u56fd\u571f\u6570\u5024\u60c5\u5831\uff08\u9244\u9053\u30c7\u30fc\u30bf\uff09\u5e73\u621019\u5e74\u3000\u56fd\u571f\u4ea4\u901a\u7701", "operator": "\u6771\u6b66\u9244\u9053", "public_transport": "station", "railway": "station", "ref": "TJ43", "source": "KSJ2", "source_ref": "http://nlftp.mlit.go.jp/ksj/jpgis/datalist/KsjTmplt-N02-v1_1.html", "train": "yes", "wikidata": "Q6379557", "wikipedia": "ja:\u5ddd\u89d2\u99c5"}}, {"type": "node", "id": 503890759, "lat": 35.9519765, "lon": 139.30934, "tags": {"KSJ2:LIN": "\u8d8a\u751f\u7dda", "name": "\u6b66\u5dde\u5510\u6ca2", "name:en": "Bushu-karasawa", "name:ja": "\u6b66\u5dde\u5510\u6ca2", "name:ja_kana": "\u3076\u3057\u3085\u3046\u304b\u3089\u3055\u308f", "name:ja_rm": "Bush\u016b Karasawa", "name:ko": "\ubd80\uc288\uce74\ub77c\uc0ac\uc640", "network": "\u6771\u6b66\u9244\u9053", "network:en": "Tobu Railway", "network:ja": "\u6771\u6b66\u9244\u9053", "network:wikidata": "Q1321914", "note": "National-Land Numerical Information (Railway) 2007, MLIT Japan", "note:ja": "\u56fd\u571f\u6570\u5024\u60c5\u5831\uff08\u9244\u9053\u30c7\u30fc\u30bf\uff09\u5e73\u621019\u5e74\u3000\u56fd\u571f\u4ea4\u901a\u7701", "operator": "\u6771\u6b66\u9244\u9053", "public_transport": "station", "railway": "station", "ref": "TJ46", "source": "KSJ2", "source_ref": "http://nlftp.mlit.go.jp/ksj/jpgis/datalist/KsjTmplt-N02-v1_1.html", "train": "yes", "wikidata": "Q5001626", "wikipedia": "ja:\u6b66\u5dde\u5510\u6ca2\u99c5"}}, {"type": "node", "id": 2964285318, "lat": 35.9316608, "lon": 139.3562818, "tags": {"KSJ2:LIN": "\u8d8a\u751f\u7dda", "name": "\u897f\u5927\u5bb6", "name:en": "Nishi-oya", "name:ja": "\u897f\u5927\u5bb6", "name:ja_kana": "\u306b\u3057\u304a\u304a\u3084", "name:ja_rm": "Nishi \u014cya", "name:ko": "\ub2c8\uc2dc\uc624\uc57c", "network": "\u6771\u6b66\u9244\u9053", "network:en": "Tobu Railway", "network:ja": "\u6771\u6b66\u9244\u9053", "network:wikidata": "Q1321914", "note": "National-Land Numerical Information (Railway) 2007, MLIT Japan", "note:ja": "\u56fd\u571f\u6570\u5024\u60c5\u5831\uff08\u9244\u9053\u30c7\u30fc\u30bf\uff09\u5e73\u621019\u5e74\u3000\u56fd\u571f\u4ea4\u901a\u7701", "operator": "\u6771\u6b66\u9244\u9053", "public_transport": "station", "railway": "station", "ref": "TJ42", "source": "KSJ2", "source_ref": "http://nlftp.mlit.go.jp/ksj/jpgis/datalist/KsjTmplt-N02-v1_1.html", "train": "yes", "wikidata": "Q7040477", "wikipedia": "ja:\u897f\u5927\u5bb6\u99c5"}}, {"type": "node", "id": 3402288118, "lat": 36.3223804, "lon": 139.0127191, "tags": {"highspeed": "yes", "name": "\u9ad8\u5d0e", "name:de": "Takasaki", "name:en": "Takasaki", "name:ja": "\u9ad8\u5d0e", "name:ja_rm": "Takasaki", "name:ko": "\ub2e4\uce74\uc0ac\ud0a4", "name:ru": "\u0422\u0430\u043a\u0430\u0441\u0430\u043a\u0438", "operator": "\u6771\u65e5\u672c\u65c5\u5ba2\u9244\u9053", "public_transport": "station", "railway": "station", "wikidata": "Q801505", "wikipedia": "ja:\u9ad8\u5d0e\u99c5"}}, {"type": "node", "id": 3556466289, "lat": 36.2501545, "lon": 139.083422, "tags": {"name": "\u7fa4\u99ac\u85e4\u5ca1", "name:en": "Gunma-Fujioka", "name:ja": "\u7fa4\u99ac\u85e4\u5ca1", "name:ja_rm": "Gunma-Fujioka", "name:ko": "\uad70\ub9c8\ud6c4\uc9c0\uc624\uce74", "railway": "station", "wikidata": "Q845730", "wikipedia": "ja:\u7fa4\u99ac\u85e4\u5ca1\u99c5"}}, {"type": "node", "id": 3556466291, "lat": 36.3002099, "lon": 139.049137, "tags": {"name": "\u5009\u8cc0\u91ce", "name:en": "Kuragano", "name:ja": "\u5009\u8cc0\u91ce", "name:ja_rm": "Kuragano", "name:ko": "\uad6c\ub77c\uac00\ub178", "operator": "\u6771\u65e5\u672c\u65c5\u5ba2\u9244\u9053", "operator:ja": "\u6771\u65e5\u672c\u65c5\u5ba2\u9244\u9053", "public_transport": "station", "railway": "station", "source": "GSI/KIBAN 2500; NARO", "wikidata": "Q910582", "wikipedia": "ja:\u5009\u8cc0\u91ce\u99c5"}}, {"type": "node", "id": 3558006052, "lat": 36.1915583, "lon": 139.2810987, "tags": {"name": "\u6df1\u8c37", "name:en": "Fukaya", "name:ja": "\u6df1\u8c37", "name:ja_rm": "Fukaya", "name:ko": "\ud6c4\uce74\uc57c", "public_transport": "station", "railway": "station", "wikidata": "Q844895", "wikipedia": "ja:\u6df1\u8c37\u99c5"}}, {"type": "node", "id": 3558006053, "lat": 36.1032019, "lon": 139.4529758, "tags": {"name": "\u5439\u4e0a", "name:en": "Fukiage", "name:ja": "\u5439\u4e0a", "name:ja_rm": "Fukiage", "name:ko": "\ud6c4\ud0a4\uc544\uac8c", "operator": "\u6771\u65e5\u672c\u65c5\u5ba2\u9244\u9053", "public_transport": "station", "railway": "station", "wikidata": "Q845096", "wikipedia": "ja:\u5439\u4e0a\u99c5 (\u57fc\u7389\u770c)"}}, {"type": "node", "id": 3558006054, "lat": 36.1140168, "lon": 139.4320115, "tags": {"name": "\u884c\u7530", "name:en": "Gyoda", "name:ja": "\u884c\u7530", "name:ja_rm": "Gy\u014dda", "name:ko": "\uad50\ub2e4", "public_transport": "station", "railway": "station", "wikidata": "Q845058", "wikipedia": "ja:\u884c\u7530\u99c5"}}, {"type": "node", "id": 3558006055, "lat": 36.2360554, "lon": 139.188536, "tags": {"name": "\u672c\u5e84", "name:en": "Honjo", "name:ja": "\u672c\u5e84", "name:ja_rm": "Honjo", "name:ko": "\ud63c\uc870", "public_transport": "station", "railway": "station", "wikidata": "Q844906", "wikipedia": "ja:\u672c\u5e84\u99c5"}}, {"type": "node", "id": 3558006056, "lat": 36.2535284, "lon": 139.1492447, "tags": {"name": "\u795e\u4fdd\u539f", "name:en": "Jimbohara", "name:ja": "\u795e\u4fdd\u539f", "name:ja_rm": "Jimbohara", "name:ko": "\uc9c4\ubcf4\ud558\ub77c", "public_transport": "station", "railway": "station", "wikidata": "Q845133", "wikipedia": "ja:\u795e\u4fdd\u539f\u99c5"}}, {"type": "node", "id": 3558006057, "lat": 36.1744661, "lon": 139.3304225, "tags": {"name": "\u7c60\u539f", "name:en": "Kagohara", "name:ja": "\u7c60\u539f", "name:ja-Hira": "\u304b\u3054\u306f\u3089", "name:ja_rm": "Kagohara", "name:ko": "\uac00\uace0\ud558\ub77c", "operator": "\u6771\u65e5\u672c\u65c5\u5ba2\u9244\u9053", "public_transport": "station", "railway": "station", "wikidata": "Q845092", "wikipedia": "ja:\u7c60\u539f\u99c5"}}, {"type": "node", "id": 3558006061, "lat": 36.1393423, "lon": 139.389936, "tags": {"highspeed": "yes", "layer": "4", "level": "3", "name": "\u718a\u8c37", "name:en": "Kumagaya", "name:ja": "\u718a\u8c37", "name:ja_rm": "Kumagaya", "name:ko": "\uad6c\ub9c8\uac00\uc57c", "name:ru": "\u041a\u0443\u043c\u0430\u0433\u0430\u044f", "note": "National-Land Numerical Information (Railway) 2007, MLIT Japan", "operator": "\u6771\u65e5\u672c\u65c5\u5ba2\u9244\u9053", "public_transport": "station", "railway": "station", "source": "KSJ2", "source_ref": "http://nlftp.mlit.go.jp/ksj/jpgis/datalist/KsjTmplt-N02-v1_1.html", "wikidata": "Q735594", "wikipedia": "ja:\u718a\u8c37\u99c5"}}, {"type": "node", "id": 3558006064, "lat": 36.2056805, "lon": 139.2375953, "tags": {"name": "\u5ca1\u90e8", "name:en": "Okabe", "name:ja": "\u5ca1\u90e8", "name:ja_rm": "Okabe", "name:ko": "\uc624\uce74\ubca0", "public_transport": "station", "railway": "station", "wikidata": "Q845054", "wikipedia": "ja:\u5ca1\u90e8\u99c5"}}, {"type": "node", "id": 3558006066, "lat": 36.2730572, "lon": 139.1053121, "tags": {"name": "\u65b0\u753a", "name:en": "Shimmachi", "name:ja": "\u65b0\u753a", "name:ja-Latn": "Shimmachi", "name:ko": "\uc0b0\ub9c8\uce58", "operator": "\u6771\u65e5\u672c\u65c5\u5ba2\u9244\u9053", "public_transport": "station", "railway": "station", "wikidata": "Q845085", "wikipedia": "ja:\u65b0\u753a\u99c5 (\u7fa4\u99ac\u770c)"}}, {"type": "node", "id": 3721667220, "lat": 36.3268395, "lon": 139.1942704, "tags": {"KSJ2:LIN": "\u4e21\u6bdb\u7dda;\u4f0a\u52e2\u5d0e\u7dda", "KSJ2:RAS": "eb03_8498", "KSJ2:STN": "\u4f0a\u52e2\u5d0e", "KSJ2:segment": "eb02_18228", "name": "\u4f0a\u52e2\u5d0e", "name:en": "Isesaki", "name:ja": "\u4f0a\u52e2\u5d0e", "name:ja_rm": "Isesaki", "name:ko": "\uc774\uc138\uc0ac\ud0a4", "note": "National-Land Numerical Information (Railway) 2007, MLIT Japan", "note:ja": "\u56fd\u571f\u6570\u5024\u60c5\u5831\uff08\u9244\u9053\u30c7\u30fc\u30bf\uff09\u5e73\u621019\u5e74\u3000\u56fd\u571f\u4ea4\u901a\u7701", "operator": "\u6771\u65e5\u672c\u65c5\u5ba2\u9244\u9053;\u6771\u6b66\u9244\u9053", "public_transport": "station", "railway": "station", "source": "KSJ2", "source_ref": "http://nlftp.mlit.go.jp/ksj/jpgis/datalist/KsjTmplt-N02-v1_1.html", "wheelchair": "yes", "wikidata": "Q5963232", "wikipedia": "ja:\u4f0a\u52e2\u5d0e\u99c5"}}, {"type": "node", "id": 3824505339, "lat": 36.3316945, "lon": 138.9145889, "tags": {"name": "\u5b89\u4e2d", "name:en": "Annaka", "name:ja": "\u5b89\u4e2d", "name:ja-Hira": "\u3042\u3093\u306a\u304b", "name:ja_rm": "Annaka", "name:ko": "\uc548\ub098\uce74", "operator": "\u6771\u65e5\u672c\u65c5\u5ba2\u9244\u9053", "public_transport": "station", "railway": "station", "wikidata": "Q861538", "wikipedia": "ja:\u5b89\u4e2d\u99c5"}}, {"type": "node", "id": 3830636503, "lat": 36.3208614, "lon": 139.0122633, "tags": {"highspeed": "yes", "name": "\u9ad8\u5d0e", "name:en": "Takasaki", "name:ja": "\u9ad8\u5d0e", "name:ja_rm": "Takasaki", "name:ko": "\ub2e4\uce74\uc0ac\ud0a4", "operator": "\u6771\u65e5\u672c\u65c5\u5ba2\u9244\u9053", "public_transport": "station", "railway": "station", "wikidata": "Q801505", "wikipedia": "ja:\u9ad8\u5d0e\u99c5"}}, {"type": "node", "id": 3879947894, "lat": 36.2824282, "lon": 139.0809068, "tags": {"name": "\u5317\u85e4\u5ca1", "name:en": "Kita-Fujioka", "name:ja": "\u5317\u85e4\u5ca1", "name:ja-Latn": "Kita-Fujioka", "name:ko": "\uae30\ud0c0\ud6c4\uc9c0\uc624\uce74", "public_transport": "station", "railway": "station", "source": "Bing 2013", "source_ref": "http://nlftp.mlit.go.jp/ksj/jpgis/datalist/KsjTmplt-N02-v1_1.html", "wikidata": "Q844853", "wikipedia": "ja:\u5317\u85e4\u5ca1\u99c5"}}, {"type": "node", "id": 3893494792, "lat": 36.3123827, "lon": 139.0122646, "tags": {"name": "\u5357\u9ad8\u5d0e", "name:en": "Minami-Takasaki", "name:ja": "\u5357\u9ad8\u5d0e", "name:ja_rm": "Minami-Takasaki", "name:ko": "\ubbf8\ub098\ubbf8\ud0c0\uce74\uc0ac\ud0a4", "network": "\u4e0a\u4fe1\u7dda", "operator": "\u4e0a\u4fe1\u96fb\u9244", "operator:en": "J\u014dshin Dentetsu", "operator:ja": "\u4e0a\u4fe1\u96fb\u9244", "public_transport": "station", "railway": "station", "source": "Bing 2013", "train": "yes", "wikidata": "Q11408788"}}, {"type": "node", "id": 3893504438, "lat": 36.3025866, "lon": 139.0182837, "tags": {"name": "\u4f50\u91ce\u306e\u308f\u305f\u3057", "name:en": "Sano-no-Watashi", "name:ja": "\u4f50\u91ce\u306e\u308f\u305f\u3057", "name:ja_rm": "Sano-no-Watashi", "name:ko": "\uc0ac\ub178\ub178\uc640\ud0c0\uc2dc", "network": "\u4e0a\u4fe1\u7dda", "operator": "\u4e0a\u4fe1\u96fb\u9244", "operator:en": "J\u014dshin Dentetsu", "operator:ja": "\u4e0a\u4fe1\u96fb\u9244", "public_transport": "station", "railway": "station", "train": "yes", "wikidata": "Q17220552", "wikipedia": "ja:\u4f50\u91ce\u306e\u308f\u305f\u3057\u99c5"}}, {"type": "node", "id": 3894565570, "lat": 36.2914111, "lon": 139.018774, "tags": {"name": "\u6839\u5c0f\u5c4b", "name:en": "Negoya", "name:ja": "\u6839\u5c0f\u5c4b", "name:ja_rm": "Negoya", "name:ko": "\ub124\uace0\uc57c", "network": "\u4e0a\u4fe1\u7dda", "operator": "\u4e0a\u4fe1\u96fb\u9244", "public_transport": "station", "railway": "station", "wikidata": "Q11536283", "wikipedia": "ja:\u6839\u5c0f\u5c4b\u99c5"}}, {"type": "node", "id": 3894565571, "lat": 36.2843094, "lon": 139.029513, "tags": {"alt_name:ko": "\ub2e4\uce74\uc0ac\ud0a4\uc1fc\uce74\ub2e4\uc774\uac00\ucfe0\ub9c8\uc5d0", "name": "\u9ad8\u5d0e\u5546\u79d1\u5927\u5b66\u524d", "name:en": "Takasaki-Shoka-Daigaku-mae", "name:ja": "\u9ad8\u5d0e\u5546\u79d1\u5927\u5b66\u524d", "name:ja_rm": "Takasaki-Sh\u014dka-Daigaku-mae", "name:ko": "\ub2e4\uce74\uc0ac\ud0a4\uc0c1\uacfc\ub300\ud559\uc55e", "public_transport": "station", "railway": "station", "source": "Bing 2013", "wikidata": "Q11669741", "wikipedia": "ja:\u9ad8\u5d0e\u5546\u79d1\u5927\u5b66\u524d\u99c5"}}, {"type": "node", "id": 3895228695, "lat": 36.277639, "lon": 139.0381956, "tags": {"name": "\u5c71\u540d", "name:en": "Yamana", "name:ja": "\u5c71\u540d", "name:ja_rm": "Yamana", "name:ko": "\uc57c\ub9c8\ub098", "network": "\u4e0a\u4fe1\u7dda", "operator": "\u4e0a\u4fe1\u96fb\u9244", "public_transport": "station", "railway": "station", "wikidata": "Q11467648", "wikipedia": "ja:\u5c71\u540d\u99c5"}}, {"type": "node", "id": 4068930993, "lat": 36.2772141, "lon": 139.2563411, "tags": {"name": "\u5883\u753a", "name:en": "Sakaimachi", "name:ja": "\u5883\u753a", "name:ja_rm": "Sakaimachi", "name:ko": "\uc0ac\uce74\uc774\ub9c8\uce58", "public_transport": "station", "railway": "station", "source": "KSJ2", "wikidata": "Q258709", "wikipedia": "ja:\u5883\u753a\u99c5"}}, {"type": "node", "id": 4351338272, "lat": 36.2608367, "lon": 138.901902, "tags": {"KSJ2:LIN": "\u4e0a\u4fe1\u7dda", "KSJ2:STN": "\u6771\u5bcc\u5ca1", "name": "\u6771\u5bcc\u5ca1", "name:en": "Higashi-Tomioka", "name:ja": "\u6771\u5bcc\u5ca1", "name:ja_rm": "Higashi-Tomioka", "name:ko": "\ud788\uac00\uc2dc\ud1a0\ubbf8\uc624\uce74", "note": "National-Land Numerical Information (Railway) 2007, MLIT Japan", "note:ja": "\u56fd\u571f\u6570\u5024\u60c5\u5831\uff08\u9244\u9053\u30c7\u30fc\u30bf\uff09\u5e73\u621019\u5e74\u3000\u56fd\u571f\u4ea4\u901a\u7701", "public_transport": "station", "railway": "station", "source": "KSJ2", "source_ref": "http://nlftp.mlit.go.jp/ksj/jpgis/datalist/KsjTmplt-N02-v1_1.html", "wikidata": "Q11526643", "wikipedia": "ja:\u6771\u5bcc\u5ca1\u99c5"}}, {"type": "node", "id": 4351338273, "lat": 36.25629, "lon": 138.9296803, "tags": {"KSJ2:LIN": "\u4e0a\u4fe1\u7dda", "KSJ2:STN": "\u4e0a\u5dde\u798f\u5cf6", "name": "\u4e0a\u5dde\u798f\u5cf6", "name:en": "Joshu-Fukushima", "name:ja": "\u4e0a\u5dde\u798f\u5cf6", "name:ja_rm": "J\u014dsh\u016b-Fukushima", "name:ko": "\uc870\uc288\ud6c4\ucfe0\uc2dc\ub9c8", "note": "National-Land Numerical Information (Railway) 2007, MLIT Japan", "note:ja": "\u56fd\u571f\u6570\u5024\u60c5\u5831\uff08\u9244\u9053\u30c7\u30fc\u30bf\uff09\u5e73\u621019\u5e74\u3000\u56fd\u571f\u4ea4\u901a\u7701", "public_transport": "station", "railway": "station", "source": "KSJ2", "source_ref": "http://nlftp.mlit.go.jp/ksj/jpgis/datalist/KsjTmplt-N02-v1_1.html", "wikidata": "Q11358979", "wikipedia": "ja:\u4e0a\u5dde\u798f\u5cf6\u99c5"}}, {"type": "node", "id": 4351338276, "lat": 36.2559546, "lon": 138.9516222, "tags": {"KSJ2:LIN": "\u4e0a\u4fe1\u7dda", "KSJ2:STN": "\u4e0a\u5dde\u65b0\u5c4b", "name": "\u4e0a\u5dde\u65b0\u5c4b", "name:en": "Joshu-Niiya", "name:ja": "\u4e0a\u5dde\u65b0\u5c4b", "name:ja_rm": "J\u014dsh\u016b-Niiya", "name:ko": "\uc870\uc288\ub2c8\uc57c", "note": "National-Land Numerical Information (Railway) 2007, MLIT Japan", "note:ja": "\u56fd\u571f\u6570\u5024\u60c5\u5831\uff08\u9244\u9053\u30c7\u30fc\u30bf\uff09\u5e73\u621019\u5e74\u3000\u56fd\u571f\u4ea4\u901a\u7701", "public_transport": "station", "railway": "station", "source": "KSJ2", "source_ref": "http://nlftp.mlit.go.jp/ksj/jpgis/datalist/KsjTmplt-N02-v1_1.html", "wikidata": "Q11358976", "wikipedia": "ja:\u4e0a\u5dde\u65b0\u5c4b\u99c5"}}, {"type": "node", "id": 4351338279, "lat": 36.2614153, "lon": 139.0092091, "tags": {"name": "\u99ac\u5ead", "name:en": "Maniwa", "name:ja": "\u99ac\u5ead", "name:ja_rm": "Maniwa", "name:ko": "\ub9c8\ub2c8\uc640", "public_transport": "station", "railway": "station", "source": "Bing 2013", "wikidata": "Q11667961", "wikipedia": "ja:\u99ac\u5ead\u99c5"}}, {"type": "node", "id": 4351338282, "lat": 36.2710412, "lon": 139.0323515, "tags": {"name": "\u897f\u5c71\u540d", "name:en": "Nishi-Yamana", "name:ja": "\u897f\u5c71\u540d", "name:ja_rm": "Nishi-Yamana", "name:ko": "\ub2c8\uc2dc\uc57c\ub9c8\ub098", "public_transport": "station", "railway": "station", "source": "Bing 2013", "source_ref": "http://nlftp.mlit.go.jp/ksj/jpgis/datalist/KsjTmplt-N02-v1_1.html", "wikidata": "Q11627819", "wikipedia": "ja:\u897f\u5c71\u540d\u99c5"}}, {"type": "node", "id": 4351338283, "lat": 36.2557231, "lon": 138.9663303, "tags": {"KSJ2:LIN": "\u4e0a\u4fe1\u7dda", "KSJ2:STN": "\u897f\u5409\u4e95", "name": "\u897f\u5409\u4e95", "name:en": "Nishi-Yoshii", "name:ja": "\u897f\u5409\u4e95", "name:ja_rm": "Nishi-Yoshii", "name:ko": "\ub2c8\uc2dc\uc694\uc2dc\uc774", "note": "National-Land Numerical Information (Railway) 2007, MLIT Japan", "note:ja": "\u56fd\u571f\u6570\u5024\u60c5\u5831\uff08\u9244\u9053\u30c7\u30fc\u30bf\uff09\u5e73\u621019\u5e74\u3000\u56fd\u571f\u4ea4\u901a\u7701", "public_transport": "station", "railway": "station", "source": "KSJ2", "source_ref": "http://nlftp.mlit.go.jp/ksj/jpgis/datalist/KsjTmplt-N02-v1_1.html", "wikidata": "Q11627403", "wikipedia": "ja:\u897f\u5409\u4e95\u99c5"}}, {"type": "node", "id": 4351338287, "lat": 36.2560542, "lon": 138.9842924, "tags": {"KSJ2:LIN": "\u4e0a\u4fe1\u7dda", "KSJ2:STN": "\u5409\u4e95", "name": "\u5409\u4e95", "name:en": "Yoshii", "name:ja": "\u5409\u4e95", "name:ja_rm": "Yoshii", "name:ko": "\uc694\uc2dc\uc774", "note": "National-Land Numerical Information (Railway) 2007, MLIT Japan", "note:ja": "\u56fd\u571f\u6570\u5024\u60c5\u5831\uff08\u9244\u9053\u30c7\u30fc\u30bf\uff09\u5e73\u621019\u5e74\u3000\u56fd\u571f\u4ea4\u901a\u7701", "public_transport": "station", "railway": "station", "source": "KSJ2", "source_ref": "http://nlftp.mlit.go.jp/ksj/jpgis/datalist/KsjTmplt-N02-v1_1.html", "wikidata": "Q11412619", "wikipedia": "ja:\u5409\u4e95\u99c5 (\u7fa4\u99ac\u770c)"}}, {"type": "node", "id": 4755786036, "lat": 36.1364779, "lon": 139.4244068, "tags": {"name": "\u30bd\u30b7\u30aa\u6d41\u901a\u30bb\u30f3\u30bf\u30fc", "operator": "\u79e9\u7236\u9244\u9053", "public_transport": "station", "railway": "station"}}, {"type": "node", "id": 5021413969, "lat": 36.2711282, "lon": 139.3125327, "tags": {"name": "\u6728\u5d0e", "name:en": "Kizaki", "name:ja": "\u6728\u5d0e", "name:ja-Latn": "Kizaki", "name:ko": "\uae30\uc790\ud0a4", "public_transport": "station", "railway": "station", "wikidata": "Q6419173", "wikipedia": "ja:\u6728\u5d0e\u99c5"}}, {"type": "node", "id": 5453487845, "lat": 35.9624056, "lon": 139.2994469, "tags": {"name": "\u8d8a\u751f", "name:en": "Ogose", "operator": "\u6771\u65e5\u672c\u65c5\u5ba2\u9244\u9053", "public_transport": "station", "railway": "station", "train": "yes"}}, {"type": "node", "id": 5791846412, "lat": 35.9724026, "lon": 139.3966925}, {"type": "node", "id": 5791846413, "lat": 35.9721685, "lon": 139.3966453}, {"type": "node", "id": 5791846414, "lat": 35.9720714, "lon": 139.3968235}, {"type": "node", "id": 5791846415, "lat": 35.971974, "lon": 139.3967439}, {"type": "node", "id": 5791846416, "lat": 35.9719641, "lon": 139.3968157}, {"type": "node", "id": 5791846417, "lat": 35.9721777, "lon": 139.3969885}, {"type": "node", "id": 5791846418, "lat": 35.9720859, "lon": 139.3971621}, {"type": "node", "id": 5791846419, "lat": 35.972241, "lon": 139.3972862}, {"type": "node", "id": 5791846420, "lat": 35.9722343, "lon": 139.3972984}, {"type": "node", "id": 5791846421, "lat": 35.97233, "lon": 139.3973774}, {"type": "node", "id": 5791846422, "lat": 35.9723701, "lon": 139.3973017}, {"type": "node", "id": 5791846423, "lat": 35.9721703, "lon": 139.3971423}, {"type": "node", "id": 5791846426, "lat": 35.9723213, "lon": 139.3968621}, {"type": "node", "id": 5791846427, "lat": 35.9725197, "lon": 139.3970216}, {"type": "node", "id": 5791846428, "lat": 35.9725602, "lon": 139.3969458}, {"type": "node", "id": 5791846429, "lat": 35.9723511, "lon": 139.3967904}, {"type": "node", "id": 5861124168, "lat": 35.9852772, "lon": 139.0977904, "tags": {"KSJ2:LIN": "\u897f\u6b66\u79e9\u7236\u7dda", "KSJ2:STN": "\u6a2a\u702c", "name": "\u6a2a\u702c", "name:en": "Yokoze", "name:ja": "\u6a2a\u702c", "name:ja_kana": "\u3088\u3053\u305c", "name:ja_rm": "Yokoze", "name:ko": "\uc694\ucf54\uc81c", "note": "National-Land Numerical Information (Railway) 2007, MLIT Japan", "note:ja": "\u56fd\u571f\u6570\u5024\u60c5\u5831\uff08\u9244\u9053\u30c7\u30fc\u30bf\uff09\u5e73\u621019\u5e74\u3000\u56fd\u571f\u4ea4\u901a\u7701", "public_transport": "station", "railway": "station", "source": "KSJ2", "source_ref": "http://nlftp.mlit.go.jp/ksj/jpgis/datalist/KsjTmplt-N02-v1_1.html", "wheelchair": "yes", "wikidata": "Q8016151", "wikipedia": "ja:\u6a2a\u702c\u99c5"}}, {"type": "node", "id": 5861124169, "lat": 35.9925066, "lon": 139.0837636, "tags": {"name": "\u5fa1\u82b1\u7551", "name:en": "Ohanabatake", "name:ja": "\u5fa1\u82b1\u7551", "name:ja_kana": "\u304a\u306f\u306a\u3070\u305f\u3051", "name:ja_rm": "Ohanabatake", "name:ko": "\uc624\ud558\ub098\ubc14\ud0c0\ucf00", "natural": "hot_spring", "note": "National-Land Numerical Information (Railway) 2007, MLIT Japan", "note:ja": "\u56fd\u571f\u6570\u5024\u60c5\u5831\uff08\u9244\u9053\u30c7\u30fc\u30bf\uff09\u5e73\u621019\u5e74\u3000\u56fd\u571f\u4ea4\u901a\u7701", "public_transport": "station", "railway": "station", "source": "KSJ2", "source_ref": "http://nlftp.mlit.go.jp/ksj/jpgis/datalist/KsjTmplt-N02-v1_1.html", "train": "yes", "wikidata": "Q7080615", "wikipedia": "ja:\u5fa1\u82b1\u7551\u99c5"}}, {"type": "node", "id": 6050989579, "lat": 36.2730451, "lon": 139.2815566, "tags": {"name": "\u4e16\u826f\u7530", "name:en": "Serada", "name:ja": "\u4e16\u826f\u7530", "name:ja_rm": "Serada", "name:ko": "\uc138\ub77c\ub2e4", "public_transport": "station", "railway": "station", "ref": "TI-21", "wikidata": "Q7452609", "wikipedia": "ja:\u4e16\u826f\u7530\u99c5"}}, {"type": "node", "id": 6489640781, "lat": 35.917718, "lon": 139.4361255}, {"type": "node", "id": 6489640782, "lat": 35.9176533, "lon": 139.4361544}, {"type": "node", "id": 6489640783, "lat": 35.9175981, "lon": 139.4360217}, {"type": "node", "id": 6489640784, "lat": 35.9176621, "lon": 139.4359833}, {"type": "node", "id": 6677954148, "lat": 36.2188607, "lon": 139.1794855, "tags": {"highspeed": "yes", "name": "\u672c\u5e84\u65e9\u7a32\u7530", "name:en": "Honj\u014d-Waseda", "name:ja": "\u672c\u5e84\u65e9\u7a32\u7530", "name:ja_kana": "\u307b\u3093\u3058\u3087\u3046\u308f\u305b\u3060", "name:ja_rm": "Honj\u014d-Waseda", "name:ko": "\ud63c\uc870\uc640\uc138\ub2e4", "name:ru": "\u0425\u043e\u043d\u0434\u0437\u0451-\u0412\u0430\u0441\u0435\u0434\u0430", "note": "National-Land Numerical Information (Railway) 2007, MLIT Japan", "note:ja": "\u56fd\u571f\u6570\u5024\u60c5\u5831\uff08\u9244\u9053\u30c7\u30fc\u30bf\uff09\u5e73\u621019\u5e74\u3000\u56fd\u571f\u4ea4\u901a\u7701", "operator": "\u6771\u65e5\u672c\u65c5\u5ba2\u9244\u9053", "public_transport": "station", "railway": "station", "source": "KSJ2", "source_ref": "http://nlftp.mlit.go.jp/ksj/jpgis/datalist/KsjTmplt-N02-v1_1.html", "train": "yes", "wikidata": "Q1138362", "wikipedia": "ja:\u672c\u5e84\u65e9\u7a32\u7530\u99c5"}}, {"type": "node", "id": 6778362968, "lat": 35.9176654, "lon": 139.4360827, "tags": {"name": "\u7684\u5834", "name:en": "Matoba", "name:ja": "\u7684\u5834", "name:ja_rm": "Matoba", "name:ko": "\ub9c8\ud1a0\ubc14", "public_transport": "station", "railway": "station", "train": "yes", "wikidata": "Q844395", "wikipedia": "ja:\u7684\u5834\u99c5"}}, {"type": "node", "id": 6778376925, "lat": 35.9075716, "lon": 139.4065052, "tags": {"name": "\u7b20\u5e61", "name:en": "Kasahata", "name:ja": "\u7b20\u5e61", "name:ja-Hira": "\u304b\u3055\u306f\u305f", "name:ja_rm": "Kasahata", "name:ko": "\uac00\uc0ac\ud558\ud0c0", "public_transport": "station", "railway": "station", "train": "yes", "wikidata": "Q844363", "wikipedia": "ja:\u7b20\u5e61\u99c5"}}, {"type": "node", "id": 6804657899, "lat": 36.3329724, "lon": 139.3411701, "tags": {"KSJ2:LIN": "\u6850\u751f\u7dda", "KSJ2:RAS": "eb03_8584", "KSJ2:STN": "\u6cbb\u826f\u9580\u6a4b", "KSJ2:segment": "eb02_18311", "name": "\u6cbb\u826f\u9580\u6a4b", "name:en": "Jiroembashi", "name:ja": "\u6cbb\u826f\u9580\u6a4b", "name:ja_rm": "Jiroembashi", "name:ko": "\uc9c0\ub85c\uc5d4\ubc14\uc2dc", "note": "National-Land Numerical Information (Railway) 2007, MLIT Japan", "note:ja": "\u56fd\u571f\u6570\u5024\u60c5\u5831\uff08\u9244\u9053\u30c7\u30fc\u30bf\uff09\u5e73\u621019\u5e74\u3000\u56fd\u571f\u4ea4\u901a\u7701", "public_transport": "station", "railway": "station", "source": "KSJ2", "source_ref": "http://nlftp.mlit.go.jp/ksj/jpgis/datalist/KsjTmplt-N02-v1_1.html", "wikidata": "Q6203113", "wikipedia": "ja:\u6cbb\u826f\u9580\u6a4b\u99c5"}}, {"type": "node", "id": 6853619195, "lat": 35.9723625, "lon": 139.396661}, {"type": "node", "id": 6927344272, "lat": 35.9176357, "lon": 139.4361174}, {"type": "node", "id": 6927344273, "lat": 35.9176191, "lon": 139.4361274}, {"type": "node", "id": 6927344274, "lat": 35.9176342, "lon": 139.4361658}, {"type": "node", "id": 6927344275, "lat": 35.9176564, "lon": 139.4361624}, {"type": "node", "id": 7088398595, "lat": 36.3262876, "lon": 139.4318755, "tags": {"KSJ2:LIN": "\u4f0a\u52e2\u5d0e\u7dda", "KSJ2:RAS": "eb03_8507", "KSJ2:STN": "\u91ce\u5dde\u5c71\u8fba", "KSJ2:segment": "eb02_18156", "name": "\u91ce\u5dde\u5c71\u8fba", "name:en": "Yashu-Yamabe", "name:ja": "\u91ce\u5dde\u5c71\u8fba", "name:ja_rm": "Yash\u016b-Yamabe", "name:ko": "\uc57c\uc288\uc57c\ub9c8\ubca0", "note": "National-Land Numerical Information (Railway) 2007, MLIT Japan", "note:ja": "\u56fd\u571f\u6570\u5024\u60c5\u5831\uff08\u9244\u9053\u30c7\u30fc\u30bf\uff09\u5e73\u621019\u5e74\u3000\u56fd\u571f\u4ea4\u901a\u7701", "public_transport": "station", "railway": "station", "source": "KSJ2", "source_ref": "http://nlftp.mlit.go.jp/ksj/jpgis/datalist/KsjTmplt-N02-v1_1.html", "wikidata": "Q8049781", "wikipedia": "ja:\u91ce\u5dde\u5c71\u8fba\u99c5"}}, {"type": "node", "id": 7370988890, "lat": 36.256655, "lon": 139.44662, "tags": {"KSJ2:LIN": "\u5c0f\u6cc9\u7dda", "KSJ2:RAS": "eb03_8605", "KSJ2:STN": "\u7be0\u585a", "KSJ2:segment": "eb02_18359", "name": "\u7be0\u585a", "name:en": "Shinozuka", "name:ja": "\u7be0\u585a", "name:ja_rm": "Shinozuka", "name:ko": "\uc2dc\ub178\uc988\uce74", "note": "National-Land Numerical Information (Railway) 2007, MLIT Japan", "note:ja": "\u56fd\u571f\u6570\u5024\u60c5\u5831\uff08\u9244\u9053\u30c7\u30fc\u30bf\uff09\u5e73\u621019\u5e74\u3000\u56fd\u571f\u4ea4\u901a\u7701", "public_transport": "station", "railway": "station", "source": "KSJ2", "source_ref": "http://nlftp.mlit.go.jp/ksj/jpgis/datalist/KsjTmplt-N02-v1_1.html", "wikidata": "Q7497734", "wikipedia": "ja:\u7be0\u585a\u99c5"}}, {"type": "node", "id": 7371039190, "lat": 36.2594279, "lon": 139.4290858, "tags": {"KSJ2:LIN": "\u5c0f\u6cc9\u7dda", "KSJ2:RAS": "eb03_8598", "KSJ2:STN": "\u6771\u5c0f\u6cc9", "KSJ2:segment": "eb02_18342", "name": "\u6771\u5c0f\u6cc9", "name:en": "Higashi-Koizumi", "name:ja": "\u6771\u5c0f\u6cc9", "name:ja_rm": "Higashi-Koizumi", "name:ko": "\ud788\uac00\uc2dc\ucf54\uc774\uc988\ubbf8", "note": "National-Land Numerical Information (Railway) 2007, MLIT Japan", "note:ja": "\u56fd\u571f\u6570\u5024\u60c5\u5831\uff08\u9244\u9053\u30c7\u30fc\u30bf\uff09\u5e73\u621019\u5e74\u3000\u56fd\u571f\u4ea4\u901a\u7701", "public_transport": "station", "railway": "station", "source": "KSJ2", "source_ref": "http://nlftp.mlit.go.jp/ksj/jpgis/datalist/KsjTmplt-N02-v1_1.html", "wikidata": "Q5753636", "wikipedia": "ja:\u6771\u5c0f\u6cc9\u99c5"}}, {"type": "node", "id": 7374373441, "lat": 36.2583064, "lon": 139.4083142, "tags": {"KSJ2:LIN": "\u5c0f\u6cc9\u7dda", "KSJ2:RAS": "eb03_8601", "KSJ2:STN": "\u897f\u5c0f\u6cc9", "KSJ2:segment": "eb02_18346", "name": "\u897f\u5c0f\u6cc9", "name:en": "Nishi-Koizumi", "name:ja": "\u897f\u5c0f\u6cc9", "name:ja_rm": "Nishi-Koizumi", "name:ko": "\ub2c8\uc2dc\ucf54\uc774\uc988\ubbf8", "name:pt": "Nishi-Koizumi", "note": "National-Land Numerical Information (Railway) 2007, MLIT Japan", "note:ja": "\u56fd\u571f\u6570\u5024\u60c5\u5831\uff08\u9244\u9053\u30c7\u30fc\u30bf\uff09\u5e73\u621019\u5e74\u3000\u56fd\u571f\u4ea4\u901a\u7701", "public_transport": "station", "railway": "station", "source": "KSJ2", "source_ref": "http://nlftp.mlit.go.jp/ksj/jpgis/datalist/KsjTmplt-N02-v1_1.html", "wikidata": "Q11627702", "wikipedia": "ja:\u897f\u5c0f\u6cc9\u99c5"}}, {"type": "node", "id": 7377453616, "lat": 36.2615293, "lon": 139.4197211, "tags": {"KSJ2:LIN": "\u5c0f\u6cc9\u7dda", "KSJ2:RAS": "eb03_8602", "KSJ2:STN": "\u5c0f\u6cc9\u753a", "KSJ2:segment": "eb02_18358", "name": "\u5c0f\u6cc9\u753a", "name:en": "Koizumi-machi", "name:ja": "\u5c0f\u6cc9\u753a", "name:ja_rm": "Koizumi-machi", "name:ko": "\uace0\uc774\uc988\ubbf8\ub9c8\uce58", "note": "National-Land Numerical Information (Railway) 2007, MLIT Japan", "note:ja": "\u56fd\u571f\u6570\u5024\u60c5\u5831\uff08\u9244\u9053\u30c7\u30fc\u30bf\uff09\u5e73\u621019\u5e74\u3000\u56fd\u571f\u4ea4\u901a\u7701", "public_transport": "station", "railway": "station", "source": "KSJ2", "source_ref": "http://nlftp.mlit.go.jp/ksj/jpgis/datalist/KsjTmplt-N02-v1_1.html", "wikidata": "Q6426398", "wikipedia": "ja:\u5c0f\u6cc9\u753a\u99c5 (\u7fa4\u99ac\u770c)"}}, {"type": "node", "id": 7379053850, "lat": 36.2791804, "lon": 139.4088764, "tags": {"KSJ2:LIN": "\u5c0f\u6cc9\u7dda", "KSJ2:RAS": "eb03_8600", "KSJ2:STN": "\u7adc\u821e", "KSJ2:segment": "eb02_18354", "name": "\u7adc\u821e", "name:en": "Ryumai", "name:ja": "\u7adc\u821e", "name:ja_rm": "Ry\u016bmai", "name:ko": "\ub958\ub9c8\uc774", "note": "National-Land Numerical Information (Railway) 2007, MLIT Japan", "note:ja": "\u56fd\u571f\u6570\u5024\u60c5\u5831\uff08\u9244\u9053\u30c7\u30fc\u30bf\uff09\u5e73\u621019\u5e74\u3000\u56fd\u571f\u4ea4\u901a\u7701", "public_transport": "station", "railway": "station", "source": "KSJ2", "source_ref": "http://nlftp.mlit.go.jp/ksj/jpgis/datalist/KsjTmplt-N02-v1_1.html", "wikidata": "Q7385630", "wikipedia": "ja:\u7adc\u821e\u99c5"}}, {"type": "node", "id": 7392223332, "lat": 36.313581, "lon": 139.3548272, "tags": {"KSJ2:LIN": "\u6850\u751f\u7dda", "KSJ2:RAS": "eb03_8586", "KSJ2:STN": "\u4e09\u679a\u6a4b", "KSJ2:segment": "eb02_18317", "name": "\u4e09\u679a\u6a4b", "name:en": "Sammaibashi", "name:ja": "\u4e09\u679a\u6a4b", "name:ja_rm": "Sammaibashi", "name:ko": "\uc0b0\ub9c8\uc774\ubc14\uc2dc", "note": "National-Land Numerical Information (Railway) 2007, MLIT Japan", "note:ja": "\u56fd\u571f\u6570\u5024\u60c5\u5831\uff08\u9244\u9053\u30c7\u30fc\u30bf\uff09\u5e73\u621019\u5e74\u3000\u56fd\u571f\u4ea4\u901a\u7701", "public_transport": "station", "railway": "station", "source": "KSJ2", "source_ref": "http://nlftp.mlit.go.jp/ksj/jpgis/datalist/KsjTmplt-N02-v1_1.html", "wikidata": "Q7409638", "wikipedia": "ja:\u4e09\u679a\u6a4b\u99c5"}}, {"type": "node", "id": 7478301445, "lat": 36.294102, "lon": 139.3787733, "tags": {"name": "\u592a\u7530", "name:en": "Ota", "name:ja": "\u592a\u7530", "name:ja-Hira": "\u304a\u304a\u305f", "name:ja_rm": "Ota", "name:ko": "\uc624\ud0c0", "operator": "\u6771\u6b66\u9244\u9053", "public_transport": "station", "railway": "station", "wikidata": "Q8081729", "wikipedia": "ja:\u592a\u7530\u99c5 (\u7fa4\u99ac\u770c)"}}, {"type": "node", "id": 7800482889, "lat": 35.908302, "lon": 139.2259535, "tags": {"KSJ2:LIN": "\u6c60\u888b\u7dda;\u897f\u6b66\u79e9\u7236\u7dda", "KSJ2:STN": "\u543e\u91ce", "name": "\u543e\u91ce", "name:en": "Agano", "name:ja": "\u543e\u91ce", "name:ja_rm": "Agano", "name:ko": "\uc544\uac00\ub178", "note": "National-Land Numerical Information (Railway) 2007, MLIT Japan", "note:ja": "\u56fd\u571f\u6570\u5024\u60c5\u5831\uff08\u9244\u9053\u30c7\u30fc\u30bf\uff09\u5e73\u621019\u5e74\u3000\u56fd\u571f\u4ea4\u901a\u7701", "public_transport": "station", "railway": "station", "source": "KSJ2", "source_ref": "http://nlftp.mlit.go.jp/ksj/jpgis/datalist/KsjTmplt-N02-v1_1.html", "train": "yes", "wikidata": "Q4691200", "wikipedia": "ja:\u543e\u91ce\u99c5"}}, {"type": "node", "id": 7847692435, "lat": 36.1177399, "lon": 139.1939396, "tags": {"name": "\u5bc4\u5c45", "name:en": "Yorii", "name:ja": "\u5bc4\u5c45", "name:ko": "\uc694\ub9ac\uc774", "name:ru": "\u0401\u0440\u0438\u0438", "public_transport": "station", "railway": "station", "train": "yes", "wheelchair": "yes", "wikidata": "Q910653", "wikipedia": "ja:\u5bc4\u5c45\u99c5"}}, {"type": "node", "id": 7863114047, "lat": 36.0026447, "lon": 139.3977003, "tags": {"name": "\u9ad8\u5742", "name:en": "Takasaka", "name:ja": "\u9ad8\u5742", "name:ja_kana": "\u305f\u304b\u3055\u304b", "name:ja_rm": "Takasaka", "name:ko": "\ub2e4\uce74\uc0ac\uce74", "name:ru": "\u0422\u0430\u043a\u0430\u0441\u0430\u043a\u0430", "network": "\u6771\u6b66\u9244\u9053", "network:en": "Tobu Railway", "network:ja": "\u6771\u6b66\u9244\u9053", "network:wikidata": "Q1321914", "operator": "\u6771\u6b66\u9244\u9053", "public_transport": "station", "railway": "station", "ref": "TJ28", "train": "yes", "wikidata": "Q7677290", "wikipedia": "ja:\u9ad8\u5742\u99c5"}}, {"type": "node", "id": 7864238131, "lat": 35.9256142, "lon": 139.443197, "tags": {"name": "\u971e\u30f6\u95a2", "name:en": "Kasumigaseki", "name:ja": "\u971e\u30f6\u95a2", "name:ja_kana": "\u304b\u3059\u307f\u304c\u305b\u304d", "name:ja_rm": "Kasumigaseki", "name:ko": "\uac00\uc2a4\ubbf8\uac00\uc138\ud0a4", "name:ru": "\u041a\u0430\u0441\u0443\u043c\u0438\u0433\u0430\u0441\u044d\u043a\u0438", "network": "\u6771\u6b66\u9244\u9053", "network:en": "Tobu Railway", "network:ja": "\u6771\u6b66\u9244\u9053", "network:wikidata": "Q1321914", "operator": "\u6771\u6b66\u9244\u9053", "public_transport": "station", "railway": "station", "ref": "TJ23", "train": "yes", "wikidata": "Q5614472", "wikipedia": "ja:\u971e\u30f6\u95a2\u99c5 (\u57fc\u7389\u770c)"}}, {"type": "node", "id": 7864999211, "lat": 36.1170899, "lon": 139.2001958, "tags": {"name": "\u7389\u6dc0", "name:en": "Tamayodo", "name:ja": "\u7389\u6dc0", "name:ko": "\ub2e4\ub9c8\uc694\ub3c4", "name:ru": "\u0422\u0430\u043c\u0430\u0451\u0434\u043e", "public_transport": "station", "railway": "station", "wikidata": "Q7680980", "wikipedia": "ja:\u7389\u6dc0\u99c5"}}, {"type": "node", "id": 7864999216, "lat": 36.1138618, "lon": 139.2090119, "tags": {"name": "\u9262\u5f62", "name:en": "Hachigata", "name:ja": "\u9262\u5f62", "name:ko": "\ud558\uce58\uac00\ud0c0", "name:ru": "\u0425\u0430\u0442\u0438\u0433\u0430\u0442\u0430", "network": "\u6771\u6b66\u9244\u9053", "network:en": "Tobu Railway", "network:ja": "\u6771\u6b66\u9244\u9053", "network:wikidata": "Q1321914", "public_transport": "station", "railway": "station", "train": "yes", "wikidata": "Q5637046", "wikipedia": "ja:\u9262\u5f62\u99c5"}}, {"type": "node", "id": 7864999226, "lat": 36.1074889, "lon": 139.2341747, "tags": {"name": "\u7537\u887e", "name:en": "Obusuma", "name:ja": "\u7537\u887e", "name:ko": "\uc624\ubd80\uc2a4\ub9c8", "name:ru": "\u041e\u0431\u0443\u0441\u0443\u043c\u0430", "network": "\u6771\u6b66\u9244\u9053", "network:en": "Tobu Railway", "network:ja": "\u6771\u6b66\u9244\u9053", "network:wikidata": "Q1321914", "public_transport": "station", "railway": "station", "train": "yes", "wikidata": "Q7075604", "wikipedia": "ja:\u7537\u887e\u99c5"}}, {"type": "node", "id": 7864999237, "lat": 36.0754656, "lon": 139.2377151, "tags": {"name": "\u6771\u6b66\u7af9\u6ca2", "name:en": "T\u014dbu-Takezawa", "name:ja": "\u6771\u6b66\u7af9\u6ca2", "name:ko": "\ub3c4\ubd80\ub2e4\ucf00\uc790\uc640", "name:ru": "\u0422\u043e\u0431\u0443-\u0422\u0430\u043a\u044d\u0434\u0437\u0430\u0432\u0430", "public_transport": "station", "railway": "station", "wikidata": "Q7862634", "wikipedia": "ja:\u6771\u6b66\u7af9\u6ca2\u99c5"}}, {"type": "node", "id": 7864999250, "lat": 36.0584454, "lon": 139.2612627, "tags": {"name": "\u5c0f\u5ddd\u753a", "name:en": "Ogawamachi", "name:ja": "\u5c0f\u5ddd\u753a", "name:ja_kana": "\u304a\u304c\u308f\u307e\u3061", "name:ja_rm": "Ogawamachi", "name:ko": "\ud638\uac00\uc640\ub9c8\uce58", "name:ru": "\u041e\u0433\u0430\u0432\u0430\u043c\u0430\u0442\u0438", "network": "\u6771\u6b66\u9244\u9053", "network:en": "Tobu Railway", "network:ja": "\u6771\u6b66\u9244\u9053", "network:wikidata": "Q1321914", "operator": "\u6771\u6b66\u9244\u9053", "public_transport": "station", "railway": "station", "ref": "TJ33", "train": "yes", "wikidata": "Q844858", "wikipedia": "ja:\u5c0f\u5ddd\u753a\u99c5 (\u57fc\u7389\u770c)"}}, {"type": "node", "id": 7864999263, "lat": 36.04438, "lon": 139.3277842, "tags": {"name": "\u6b66\u8535\u5d50\u5c71", "name:en": "Musashi-ranzan", "name:ja": "\u6b66\u8535\u5d50\u5c71", "name:ja_kana": "\u3080\u3055\u3057\u3089\u3093\u3056\u3093", "name:ja_rm": "Musashi Ranzan", "name:ko": "\ubb34\uc0ac\uc2dc\ub780\uc794", "name:ru": "\u041c\u0443\u0441\u0430\u0441\u0438-\u0420\u0430\u043d\u0434\u0437\u0430\u043d", "network": "\u6771\u6b66\u9244\u9053", "network:en": "Tobu Railway", "network:ja": "\u6771\u6b66\u9244\u9053", "network:wikidata": "Q1321914", "operator": "\u6771\u6b66\u9244\u9053", "public_transport": "station", "railway": "station", "ref": "TJ32", "train": "yes", "wikidata": "Q6940142", "wikipedia": "ja:\u6b66\u8535\u5d50\u5c71\u99c5"}}, {"type": "node", "id": 7864999264, "lat": 36.0434929, "lon": 139.3453972, "tags": {"name": "\u3064\u304d\u306e\u308f", "name:en": "Tsukinowa", "name:ja": "\u3064\u304d\u306e\u308f", "name:ja_kana": "\u3064\u304d\u306e\u308f", "name:ja_rm": "Tsukinowa", "name:ko": "\uc4f0\ud0a4\ub178\uc640", "name:ru": "\u0426\u0443\u043a\u0438\u043d\u043e\u0432\u0430", "network": "\u6771\u6b66\u9244\u9053", "network:en": "Tobu Railway", "network:ja": "\u6771\u6b66\u9244\u9053", "network:wikidata": "Q1321914", "operator": "\u6771\u6b66\u9244\u9053", "public_transport": "station", "railway": "station", "ref": "TJ31", "train": "yes", "wheelchair": "yes", "wikidata": "Q7850076", "wikipedia": "ja:\u3064\u304d\u306e\u308f\u99c5"}}, {"type": "node", "id": 7864999267, "lat": 36.0451902, "lon": 139.3749686, "tags": {"alt_name:ko": "\uc2e0\ub9b0\ucf54\uc5d4", "name": "\u68ee\u6797\u516c\u5712", "name:en": "Shinrin-koen", "name:ja": "\u68ee\u6797\u516c\u5712", "name:ja_kana": "\u3057\u3093\u308a\u3093\u3053\u3046\u3048\u3093", "name:ja_rm": "Shinrin k\u014den", "name:ko": "\uc0bc\ub9bc\uacf5\uc6d0", "name:ru": "\u0421\u0438\u043d\u0440\u0438\u043d\u043a\u043e\u044d\u043d", "operator": "\u6771\u6b66\u9244\u9053", "public_transport": "station", "railway": "station", "ref": "TJ30", "wikidata": "Q5368656", "wikipedia": "ja:\u68ee\u6797\u516c\u5712\u99c5 (\u57fc\u7389\u770c)"}}, {"type": "node", "id": 7864999270, "lat": 36.0347621, "lon": 139.4016056, "tags": {"name": "\u6771\u677e\u5c71", "name:en": "Higashi-matsuyama", "name:ja": "\u6771\u677e\u5c71", "name:ja_kana": "\u3072\u304c\u3057\u307e\u3064\u3084\u307e", "name:ja_rm": "Higashi Matsuyama", "name:ko": "\ud788\uac00\uc2dc\ub9c8\uc4f0\uc57c\ub9c8", "name:ru": "\u0425\u0438\u0433\u0430\u0441\u0438-\u041c\u0430\u0446\u0443\u044f\u043c\u0430", "network": "\u6771\u6b66\u9244\u9053", "network:en": "Tobu Railway", "network:ja": "\u6771\u6b66\u9244\u9053", "network:wikidata": "Q1321914", "operator": "\u6771\u6b66\u9244\u9053", "public_transport": "station", "railway": "station", "ref": "TJ29", "train": "yes", "wheelchair": "yes", "wikidata": "Q5753688", "wikipedia": "ja:\u6771\u677e\u5c71\u99c5"}}, {"type": "node", "id": 7864999272, "lat": 35.9722095, "lon": 139.3968245, "tags": {"name": "\u5317\u5742\u6238", "name:en": "Kita-sakado", "name:ja": "\u5317\u5742\u6238", "name:ja_kana": "\u304d\u305f\u3055\u304b\u3069", "name:ja_rm": "Kita Sakado", "name:ko": "\uae30\ud0c0\uc0ac\uce74\ub3c4", "name:ru": "\u041a\u0438\u0442\u0430-\u0421\u0430\u043a\u0430\u0434\u043e", "network": "\u6771\u6b66\u9244\u9053", "network:en": "Tobu Railway", "network:ja": "\u6771\u6b66\u9244\u9053", "network:wikidata": "Q1321914", "operator": "\u6771\u6b66\u9244\u9053", "public_transport": "station", "railway": "station", "ref": "TJ27", "train": "yes", "wikidata": "Q6417594", "wikipedia": "ja:\u5317\u5742\u6238\u99c5"}}, {"type": "node", "id": 7864999275, "lat": 35.9570602, "lon": 139.3937702, "tags": {"name": "\u5742\u6238", "name:en": "Sakado", "name:ja": "\u5742\u6238", "name:ja_kana": "\u3055\u304b\u3069", "name:ja_rm": "Sakado", "name:ko": "\uc0ac\uce74\ub3c4", "name:ru": "\u0421\u0430\u043a\u0430\u0434\u043e", "note": "National-Land Numerical Information (Railway) 2007, MLIT Japan", "note:ja": "\u56fd\u571f\u6570\u5024\u60c5\u5831\uff08\u9244\u9053\u30c7\u30fc\u30bf\uff09\u5e73\u621019\u5e74\u3000\u56fd\u571f\u4ea4\u901a\u7701", "operator": "\u6771\u6b66\u9244\u9053", "public_transport": "station", "railway": "station", "ref": "TJ26", "source": "KSJ2", "source_ref": "http://nlftp.mlit.go.jp/ksj/jpgis/datalist/KsjTmplt-N02-v1_1.html", "wikidata": "Q7402739", "wikipedia": "ja:\u5742\u6238\u99c5"}}, {"type": "node", "id": 7864999281, "lat": 35.9491238, "lon": 139.408806, "tags": {"name": "\u82e5\u8449", "name:en": "Wakaba", "name:ja": "\u82e5\u8449", "name:ja_kana": "\u308f\u304b\u3070", "name:ja_rm": "Wakaba", "name:ko": "\uc640\uce74\ubc14", "name:ru": "\u0412\u0430\u043a\u0430\u0431\u0430", "network": "\u6771\u6b66\u9244\u9053", "network:en": "Tobu Railway", "network:ja": "\u6771\u6b66\u9244\u9053", "network:wikidata": "Q1321914", "operator": "\u6771\u6b66\u9244\u9053", "public_transport": "station", "railway": "station", "ref": "TJ25", "train": "yes", "wikidata": "Q7960744", "wikipedia": "ja:\u82e5\u8449\u99c5"}}, {"type": "node", "id": 7864999282, "lat": 35.9369427, "lon": 139.4236708, "tags": {"name": "\u9db4\u30f6\u5cf6", "name:en": "Tsurugashima", "name:ja": "\u9db4\u30f6\u5cf6", "name:ja_kana": "\u3064\u308b\u304c\u3057\u307e", "name:ja_rm": "Tsurugashima", "name:ko": "\uc4f0\ub8e8\uac00\uc2dc\ub9c8", "name:ru": "\u0426\u0443\u0440\u0443\u0433\u0430\u0441\u0438\u043c\u0430", "network": "\u6771\u6b66\u9244\u9053", "network:en": "Tobu Railway", "network:ja": "\u6771\u6b66\u9244\u9053", "network:wikidata": "Q1321914", "operator": "\u6771\u6b66\u9244\u9053", "public_transport": "station", "railway": "station", "ref": "TJ24", "train": "yes", "wikidata": "Q7850270", "wikipedia": "ja:\u9db4\u30f6\u5cf6\u99c5"}}, {"type": "node", "id": 7866648782, "lat": 35.9621992, "lon": 139.2993282, "tags": {"KSJ2:LIN": "\u8d8a\u751f\u7dda", "name": "\u8d8a\u751f", "name:en": "Ogose", "name:ja": "\u8d8a\u751f", "name:ja_kana": "\u304a\u3054\u305b", "name:ja_rm": "Ogose", "network": "\u6771\u6b66\u9244\u9053", "network:en": "Tobu Railway", "network:ja": "\u6771\u6b66\u9244\u9053", "network:wikidata": "Q1321914", "note": "National-Land Numerical Information (Railway) 2007, MLIT Japan", "note:ja": "\u56fd\u571f\u6570\u5024\u60c5\u5831\uff08\u9244\u9053\u30c7\u30fc\u30bf\uff09\u5e73\u621019\u5e74\u3000\u56fd\u571f\u4ea4\u901a\u7701", "operator": "\u6771\u6b66\u9244\u9053", "public_transport": "station", "railway": "station", "ref": "TJ47", "source": "KSJ2", "source_ref": "http://nlftp.mlit.go.jp/ksj/jpgis/datalist/KsjTmplt-N02-v1_1.html", "train": "yes", "wikidata": "Q845041", "wikipedia": "ja:\u8d8a\u751f\u99c5"}}, {"type": "node", "id": 7900236531, "lat": 36.1394452, "lon": 139.39017, "tags": {"name": "\u718a\u8c37", "name:en": "Kumagaya", "name:ja": "\u718a\u8c37", "name:ja_rm": "Kumagaya", "public_transport": "station", "railway": "station"}}, {"type": "node", "id": 7965117871, "lat": 35.9469035, "lon": 139.3155095, "tags": {"KSJ2:LIN": "\u8d8a\u751f\u7dda", "name": "\u6771\u6bdb\u5442", "name:en": "Higashi-moro", "name:ja": "\u6771\u6bdb\u5442", "name:ja_kana": "\u3072\u304c\u3057\u3082\u308d", "name:ja_rm": "Higashi Moro", "name:ko": "\ud788\uac00\uc2dc\ubaa8\ub85c", "network": "\u6771\u6b66\u9244\u9053", "network:en": "Tobu Railway", "network:ja": "\u6771\u6b66\u9244\u9053", "network:wikidata": "Q1321914", "note": "National-Land Numerical Information (Railway) 2007, MLIT Japan", "note:ja": "\u56fd\u571f\u6570\u5024\u60c5\u5831\uff08\u9244\u9053\u30c7\u30fc\u30bf\uff09\u5e73\u621019\u5e74\u3000\u56fd\u571f\u4ea4\u901a\u7701", "operator": "\u6771\u6b66\u9244\u9053", "public_transport": "station", "railway": "station", "ref": "TJ45", "source": "KSJ2", "source_ref": "http://nlftp.mlit.go.jp/ksj/jpgis/datalist/KsjTmplt-N02-v1_1.html", "train": "yes", "wheelchair": "limited", "wikidata": "Q11527554", "wikipedia": "ja:\u6771\u6bdb\u5442\u99c5"}}, {"type": "node", "id": 7965136163, "lat": 35.9403713, "lon": 139.3702902, "tags": {"KSJ2:LIN": "\u8d8a\u751f\u7dda", "name": "\u4e00\u672c\u677e", "name:en": "Ippommatsu", "name:ja": "\u4e00\u672c\u677e", "name:ja_kana": "\u3044\u3063\u307d\u3093\u307e\u3064", "name:ja_rm": "Ippommatsu", "name:ko": "\uc787\ud3f0\ub9c8\uc4f0", "network": "\u6771\u6b66\u9244\u9053", "network:en": "Tobu Railway", "network:ja": "\u6771\u6b66\u9244\u9053", "network:wikidata": "Q1321914", "note": "National-Land Numerical Information (Railway) 2007, MLIT Japan", "note:ja": "\u56fd\u571f\u6570\u5024\u60c5\u5831\uff08\u9244\u9053\u30c7\u30fc\u30bf\uff09\u5e73\u621019\u5e74\u3000\u56fd\u571f\u4ea4\u901a\u7701", "operator": "\u6771\u6b66\u9244\u9053", "public_transport": "station", "railway": "station", "ref": "TJ41", "source": "KSJ2", "source_ref": "http://nlftp.mlit.go.jp/ksj/jpgis/datalist/KsjTmplt-N02-v1_1.html", "train": "yes", "wikidata": "Q11352783", "wikipedia": "ja:\u4e00\u672c\u677e\u99c5 (\u57fc\u7389\u770c)"}}, {"type": "node", "id": 7965143821, "lat": 35.9419222, "lon": 139.326014, "tags": {"KSJ2:LIN": "\u8d8a\u751f\u7dda", "name": "\u6b66\u5dde\u9577\u702c", "name:en": "Bushu-nagase", "name:ja": "\u6b66\u5dde\u9577\u702c", "name:ja_kana": "\u3076\u3057\u3085\u3046\u306a\u304c\u305b", "name:ja_rm": "Bush\u016b Nagase", "name:ko": "\ubd80\uc288\ub098\uac00\uc138", "network": "\u6771\u6b66\u9244\u9053", "network:en": "Tobu Railway", "network:ja": "\u6771\u6b66\u9244\u9053", "network:wikidata": "Q1321914", "note": "National-Land Numerical Information (Railway) 2007, MLIT Japan", "note:ja": "\u56fd\u571f\u6570\u5024\u60c5\u5831\uff08\u9244\u9053\u30c7\u30fc\u30bf\uff09\u5e73\u621019\u5e74\u3000\u56fd\u571f\u4ea4\u901a\u7701", "operator": "\u6771\u6b66\u9244\u9053", "public_transport": "station", "railway": "station", "ref": "TJ44", "source": "KSJ2", "source_ref": "http://nlftp.mlit.go.jp/ksj/jpgis/datalist/KsjTmplt-N02-v1_1.html", "toilets:wheelchair": "yes", "train": "yes", "wheelchair": "yes", "wikidata": "Q5001625", "wikipedia": "ja:\u6b66\u5dde\u9577\u702c\u99c5"}}, {"type": "node", "id": 7966871849, "lat": 35.9765419, "lon": 139.1365216, "tags": {"KSJ2:LIN": "\u897f\u6b66\u79e9\u7236\u7dda", "KSJ2:STN": "\u82a6\u30f6\u4e45\u4fdd", "name": "\u82a6\u30f6\u4e45\u4fdd", "name:en": "Ashigakubo", "name:ja": "\u82a6\u30f6\u4e45\u4fdd", "name:ko": "\uc544\uc2dc\uac00\ucfe0\ubcf4", "note": "National-Land Numerical Information (Railway) 2007, MLIT Japan", "note:ja": "\u56fd\u571f\u6570\u5024\u60c5\u5831\uff08\u9244\u9053\u30c7\u30fc\u30bf\uff09\u5e73\u621019\u5e74\u3000\u56fd\u571f\u4ea4\u901a\u7701", "public_transport": "station", "railway": "station", "source": "KSJ2", "source_ref": "http://nlftp.mlit.go.jp/ksj/jpgis/datalist/KsjTmplt-N02-v1_1.html", "wikidata": "Q4805059", "wikipedia": "ja:\u82a6\u30f6\u4e45\u4fdd\u99c5"}}, {"type": "node", "id": 7966871897, "lat": 35.9272331, "lon": 139.2024793, "tags": {"KSJ2:LIN": "\u897f\u6b66\u79e9\u7236\u7dda", "KSJ2:STN": "\u897f\u543e\u91ce", "name": "\u897f\u543e\u91ce", "name:en": "Nishi-Agano", "name:ja": "\u897f\u543e\u91ce", "name:ja_rm": "Nishi-Agano", "name:ko": "\ub2c8\uc2dc\uc544\uac00\ub178", "note": "National-Land Numerical Information (Railway) 2007, MLIT Japan", "note:ja": "\u56fd\u571f\u6570\u5024\u60c5\u5831\uff08\u9244\u9053\u30c7\u30fc\u30bf\uff09\u5e73\u621019\u5e74\u3000\u56fd\u571f\u4ea4\u901a\u7701", "public_transport": "station", "railway": "station", "source": "KSJ2", "source_ref": "http://nlftp.mlit.go.jp/ksj/jpgis/datalist/KsjTmplt-N02-v1_1.html", "wikidata": "Q7040305", "wikipedia": "ja:\u897f\u543e\u91ce\u99c5"}}, {"type": "node", "id": 7966878613, "lat": 35.9384089, "lon": 139.1814595, "tags": {"KSJ2:LIN": "\u897f\u6b66\u79e9\u7236\u7dda", "KSJ2:STN": "\u6b63\u4e38", "name": "\u6b63\u4e38", "name:en": "Shomaru", "name:ja": "\u6b63\u4e38", "name:ja_rm": "Shomaru", "name:ko": "\uc1fc\ub9c8\ub8e8", "note": "National-Land Numerical Information (Railway) 2007, MLIT Japan", "note:ja": "\u56fd\u571f\u6570\u5024\u60c5\u5831\uff08\u9244\u9053\u30c7\u30fc\u30bf\uff09\u5e73\u621019\u5e74\u3000\u56fd\u571f\u4ea4\u901a\u7701", "public_transport": "station", "railway": "station", "source": "KSJ2", "source_ref": "http://nlftp.mlit.go.jp/ksj/jpgis/datalist/KsjTmplt-N02-v1_1.html", "wikidata": "Q8017361", "wikipedia": "ja:\u6b63\u4e38\u99c5"}}, {"type": "node", "id": 7967515039, "lat": 36.2954884, "lon": 139.2240882, "tags": {"KSJ2:LIN": "\u4f0a\u52e2\u5d0e\u7dda", "KSJ2:RAS": "eb03_8509", "KSJ2:STN": "\u525b\u5fd7", "KSJ2:segment": "eb02_18230", "name": "\u525b\u5fd7", "name:en": "Goshi", "name:ja": "\u525b\u5fd7", "name:ja_rm": "G\u014dshi", "name:ko": "\uace0\uc2dc", "note": "National-Land Numerical Information (Railway) 2007, MLIT Japan", "note:ja": "\u56fd\u571f\u6570\u5024\u60c5\u5831\uff08\u9244\u9053\u30c7\u30fc\u30bf\uff09\u5e73\u621019\u5e74\u3000\u56fd\u571f\u4ea4\u901a\u7701", "public_transport": "station", "railway": "station", "source": "KSJ2", "source_ref": "http://nlftp.mlit.go.jp/ksj/jpgis/datalist/KsjTmplt-N02-v1_1.html", "wikidata": "Q5627764", "wikipedia": "ja:\u525b\u5fd7\u99c5"}}, {"type": "node", "id": 7967515045, "lat": 36.3181973, "lon": 139.2018357, "tags": {"name": "\u65b0\u4f0a\u52e2\u5d0e", "name:en": "Shin-Isesaki", "name:ja": "\u65b0\u4f0a\u52e2\u5d0e", "name:ja_rm": "Shin-Isesaki", "name:ko": "\uc2e0\uc774\uc138\uc0ac\ud0a4", "public_transport": "station", "railway": "station", "source": "Bing 2012", "wikidata": "Q7497100", "wikipedia": "ja:\u65b0\u4f0a\u52e2\u5d0e\u99c5"}}, {"type": "node", "id": 7967910517, "lat": 36.329373, "lon": 139.4482747, "tags": {"KSJ2:LIN": "\u4f0a\u52e2\u5d0e\u7dda", "KSJ2:RAS": "eb03_8510", "KSJ2:STN": "\u8db3\u5229\u5e02", "KSJ2:segment": "eb02_18168", "name": "\u8db3\u5229\u5e02", "name:en": "Ashikagashi", "name:ja": "\u8db3\u5229\u5e02", "name:ja_rm": "Ashikagashi", "name:ko": "\uc544\uc2dc\uce74\uac00\uc2dc", "note": "National-Land Numerical Information (Railway) 2007, MLIT Japan", "note:ja": "\u56fd\u571f\u6570\u5024\u60c5\u5831\uff08\u9244\u9053\u30c7\u30fc\u30bf\uff09\u5e73\u621019\u5e74\u3000\u56fd\u571f\u4ea4\u901a\u7701", "public_transport": "station", "railway": "station", "source": "KSJ2", "source_ref": "http://nlftp.mlit.go.jp/ksj/jpgis/datalist/KsjTmplt-N02-v1_1.html", "wikidata": "Q1000572", "wikipedia": "ja:\u8db3\u5229\u5e02\u99c5"}}, {"type": "node", "id": 7967910518, "lat": 36.3083277, "lon": 139.4026154, "tags": {"KSJ2:LIN": "\u4f0a\u52e2\u5d0e\u7dda", "KSJ2:RAS": "eb03_8500", "KSJ2:STN": "\u97ee\u5ddd", "KSJ2:segment": "eb02_18158", "name": "\u97ee\u5ddd", "name:en": "Niragawa", "name:ja": "\u97ee\u5ddd", "name:ja_rm": "Niragawa", "name:ko": "\ub2c8\ub77c\uac00\uc640", "note": "National-Land Numerical Information (Railway) 2007, MLIT Japan", "note:ja": "\u56fd\u571f\u6570\u5024\u60c5\u5831\uff08\u9244\u9053\u30c7\u30fc\u30bf\uff09\u5e73\u621019\u5e74\u3000\u56fd\u571f\u4ea4\u901a\u7701", "public_transport": "station", "railway": "station", "source": "KSJ2", "source_ref": "http://nlftp.mlit.go.jp/ksj/jpgis/datalist/KsjTmplt-N02-v1_1.html", "wikidata": "Q8191297", "wikipedia": "ja:\u97ee\u5ddd\u99c5"}}, {"type": "node", "id": 7967910548, "lat": 36.2830305, "lon": 139.3490785, "tags": {"KSJ2:LIN": "\u4f0a\u52e2\u5d0e\u7dda", "KSJ2:RAS": "eb03_8499", "KSJ2:STN": "\u7d30\u8c37", "KSJ2:segment": "eb02_18240", "name": "\u7d30\u8c37", "name:en": "Hosoya", "name:ja": "\u7d30\u8c37", "name:ja_rm": "Hosoya", "name:ko": "\ud638\uc18c\uc57c", "note": "National-Land Numerical Information (Railway) 2007, MLIT Japan", "note:ja": "\u56fd\u571f\u6570\u5024\u60c5\u5831\uff08\u9244\u9053\u30c7\u30fc\u30bf\uff09\u5e73\u621019\u5e74\u3000\u56fd\u571f\u4ea4\u901a\u7701", "public_transport": "station", "railway": "station", "source": "KSJ2", "source_ref": "http://nlftp.mlit.go.jp/ksj/jpgis/datalist/KsjTmplt-N02-v1_1.html", "wikidata": "Q5908238", "wikipedia": "ja:\u7d30\u8c37\u99c5 (\u7fa4\u99ac\u770c)"}}, {"type": "node", "id": 8079107627, "lat": 36.0908955, "lon": 139.2363597, "tags": {"alt_name": "\u30db\u30f3\u30c0\u5bc4\u5c45\u524d", "alt_name:en": "Honda Yorii-mae", "alt_name:ja": "\u30db\u30f3\u30c0\u5bc4\u5c45\u524d", "alt_name:ja-Latn": "Honda Yorii-mae", "name": "\u307f\u306a\u307f\u5bc4\u5c45", "name:en": "Minami-Yorii", "name:ja": "\u307f\u306a\u307f\u5bc4\u5c45", "name:ja-Latn": "Minami-Yorii", "public_transport": "station", "railway": "station", "ref": "TJ 35", "start_date": "2020-10-31", "strapline": "\u30db\u30f3\u30c0\u5bc4\u5c45\u524d", "strapline:en": "Honda Yorii-mae", "strapline:ja": "\u30db\u30f3\u30c0\u5bc4\u5c45\u524d", "strapline:ja-Latn": "Honda Yorii-mae", "train": "yes", "wikidata": "Q85869544", "wikipedia": "ja:\u307f\u306a\u307f\u5bc4\u5c45\u99c5"}}, {"type": "node", "id": 8891836095, "lat": 36.2167339, "lon": 139.1024009, "tags": {"KSJ2:LIN": "\u516b\u9ad8\u7dda", "KSJ2:RAS": "eb03_8249", "KSJ2:STN": "\u4e39\u8358", "KSJ2:segment": "eb02_17627", "name": "\u4e39\u8358", "name:en": "Tansho", "name:ja": "\u4e39\u8358", "name:ja_kana": "\u305f\u3093\u3057\u3087\u3046", "name:ja_rm": "Tansh\u014d", "name:ko": "\ub2e8\uc1fc", "note": "National-Land Numerical Information (Railway) 2007, MLIT Japan", "note:ja": "\u56fd\u571f\u6570\u5024\u60c5\u5831\uff08\u9244\u9053\u30c7\u30fc\u30bf\uff09\u5e73\u621019\u5e74\u3000\u56fd\u571f\u4ea4\u901a\u7701", "public_transport": "station", "railway": "station", "source": "KSJ2", "source_ref": "http://nlftp.mlit.go.jp/ksj/jpgis/datalist/KsjTmplt-N02-v1_1.html", "wikidata": "Q845044", "wikipedia": "ja:\u4e39\u8358\u99c5"}}, {"type": "node", "id": 9910889843, "lat": 35.9176266, "lon": 139.4361466, "tags": {"entrance": "yes", "railway": "train_station_entrance"}}, {"type": "node", "id": 9920471133, "lat": 36.0469146, "lon": 139.1017105, "tags": {"name": "\u548c\u9285\u9ed2\u8c37", "name:en": "Wado-Kuroya", "name:ja": "\u548c\u9285\u9ed2\u8c37", "name:ja_kana": "\u308f\u3069\u3046\u304f\u308d\u3084", "name:ja_rm": "Wad\u014d-Kuroya", "name:ko": "\uc640\ub3c4\ucfe0\ub85c\uc57c", "public_transport": "station", "railway": "station", "wikidata": "Q7959369", "wikipedia": "ja:\u548c\u9285\u9ed2\u8c37\u99c5"}}, {"type": "node", "id": 10568436106, "lat": 36.0434252, "lon": 139.3456704}, {"type": "node", "id": 10569252305, "lat": 36.0432114, "lon": 139.3454811}, {"type": "node", "id": 10569252306, "lat": 36.043193, "lon": 139.3454227}, {"type": "node", "id": 10569252307, "lat": 36.0433642, "lon": 139.345339}, {"type": "node", "id": 10569252308, "lat": 36.0433306, "lon": 139.3452308}, {"type": "node", "id": 10569277809, "lat": 36.0435274, "lon": 139.3451289}, {"type": "node", "id": 10569277810, "lat": 36.0435642, "lon": 139.3452367}, {"type": "node", "id": 10569277811, "lat": 36.0436649, "lon": 139.3451883}, {"type": "node", "id": 10569277812, "lat": 36.0436817, "lon": 139.3452456}, {"type": "node", "id": 10569277813, "lat": 36.0436337, "lon": 139.3453001}, {"type": "node", "id": 10569277814, "lat": 36.0437129, "lon": 139.3455236}, {"type": "node", "id": 10569277815, "lat": 36.0433386, "lon": 139.3454178}, {"type": "node", "id": 10837069811, "lat": 36.1308138, "lon": 139.2480617, "tags": {"name": "\u3075\u304b\u3084\u82b1\u5712", "name:en": "Fukaya-Hanazono", "name:ja": "\u3075\u304b\u3084\u82b1\u5712", "network": "\u79e9\u7236\u9244\u9053\u672c\u7dda", "operator": "\u79e9\u7236\u9244\u9053", "public_transport": "station", "railway": "station", "wikidata": "Q30302602", "wikipedia": "ja:\u3075\u304b\u3084\u82b1\u5712\u99c5"}}, {"type": "node", "id": 11897162679, "lat": 36.2825692, "lon": 139.3486841}, {"type": "node", "id": 11897162680, "lat": 36.2824384, "lon": 139.3485131}, {"type": "node", "id": 11897162681, "lat": 36.2824751, "lon": 139.3484628}, {"type": "node", "id": 11897162682, "lat": 36.2824449, "lon": 139.3484145}, {"type": "node", "id": 11897162683, "lat": 36.282473, "lon": 139.348391}, {"type": "node", "id": 11897162684, "lat": 36.282507, "lon": 139.3484386}, {"type": "node", "id": 11897162685, "lat": 36.2825633, "lon": 139.348385}, {"type": "node", "id": 11897162686, "lat": 36.2833573, "lon": 139.3495833}, {"type": "node", "id": 11897162687, "lat": 36.283333, "lon": 139.3496024}, {"type": "node", "id": 11897162688, "lat": 36.2828538, "lon": 139.3488938}, {"type": "node", "id": 11897162689, "lat": 36.2825729, "lon": 139.3484822}, {"type": "node", "id": 11897162690, "lat": 36.282622, "lon": 139.3486322}, {"type": "node", "id": 11897162691, "lat": 36.2825489, "lon": 139.3485064}, {"type": "node", "id": 12327689416, "lat": 35.9017534, "lon": 139.3713498, "tags": {"building": "yes", "layer": "1", "name": "\u6b66\u8535\u9ad8\u8429", "name:en": "Musashi-Takahagi", "name:ja": "\u6b66\u8535\u9ad8\u8429", "name:ja_rm": "Musashi-Takahagi", "name:ko": "\ubb34\uc0ac\uc2dc\ud0c0\uce74\ud558\uae30", "public_transport": "station", "railway": "station", "train": "yes", "wikidata": "Q1129108", "wikipedia": "ja:\u6b66\u8535\u9ad8\u8429\u99c5"}}, {"type": "node", "id": 12389348624, "lat": 35.9719577, "lon": 139.3967783}, {"type": "node", "id": 12389348625, "lat": 35.9719778, "lon": 139.396795}, {"type": "node", "id": 12389348627, "lat": 35.9723104, "lon": 139.3967582}, {"type": "node", "id": 12389348628, "lat": 35.9724561, "lon": 139.3968792}, {"type": "node", "id": 12389348629, "lat": 35.9724643, "lon": 139.3968664}, {"type": "way", "id": 611767653, "nodes": [5791846412, 6853619195, 12389348627, 5791846413, 5791846414, 5791846415, 12389348624, 12389348625, 5791846416, 5791846417, 5791846418, 5791846419, 5791846420, 5791846421, 5791846422, 5791846423, 5791846426, 5791846427, 5791846428, 12389348629, 12389348628, 5791846429, 5791846412], "tags": {"bridge": "yes", "building": "train_station", "internet_access": "wlan", "layer": "2", "level": "1", "name": "\u5317\u5742\u6238\u99c5", "network": "\u6771\u6b66\u9244\u9053", "network:en": "Tobu Railway", "network:ja": "\u6771\u6b66\u9244\u9053", "network:wikidata": "Q1321914", "operator": "\u6771\u6b66\u9244\u9053", "public_transport": "station", "railway": "station", "train": "yes"}}, {"type": "way", "id": 691553619, "nodes": [6489640781, 6927344275, 6489640782, 6927344274, 9910889843, 6927344273, 6927344272, 6489640783, 6489640784, 6489640781], "tags": {"building": "train_station", "public_transport": "station", "railway": "station", "train": "yes"}}, {"type": "way", "id": 1133620001, "nodes": [10569252305, 10569252306, 10569252307, 10569252308, 10569277809, 10569277810, 10569277811, 10569277812, 10569277813, 10569277814, 10568436106, 10569277815, 10569252305], "tags": {"public_transport": "station", "railway": "station", "train": "yes"}}, {"type": "way", "id": 1281991810, "nodes": [11897162679, 11897162680, 11897162681, 11897162682, 11897162683, 11897162684, 11897162685, 11897162686, 11897162687, 11897162688, 11897162689, 11897162691, 11897162690, 11897162679], "tags": {"name": "\u7d30\u8c37", "public_transport": "station", "railway": "station", "train": "yes"}}]}