{"version": 0.6, "generator": "Overpass API 0.7.62.4 2390de5a", "osm3s": {"timestamp_osm_base": "2024-12-30T15:00:11Z", "copyright": "The data included in this document is from www.openstreetmap.org. The data is made available under ODbL."}, "elements": [{"type": "node", "id": 184202324, "lat": 43.7893281, "lon": 142.3255606, "tags": {"name": "\u8fd1\u6587", "name:en": "Chikabumi", "name:ja": "\u8fd1\u6587", "name:ko": "\uc9c0\uce74\ubd80\ubbf8", "railway": "station", "ref": "A27", "wikidata": "Q876953", "wikipedia": "ja:\u8fd1\u6587\u99c5"}}, {"type": "node", "id": 264417887, "lat": 43.7325173, "lon": 142.1311118, "tags": {"KSJ2:LIN": "\u51fd\u9928\u7dda", "KSJ2:STN": "\u7d0d\u5185", "name": "\u7d0d\u5185", "name:en": "Osamunai", "name:ja": "\u7d0d\u5185", "name:ko": "\uc624\uc0ac\ubb34\ub098\uc774", "note": "National-Land Numerical Information (Railway) 2007, MLIT Japan", "note:ja": "\u56fd\u571f\u6570\u5024\u60c5\u5831\uff08\u9244\u9053\u30c7\u30fc\u30bf\uff09\u5e73\u621019\u5e74\u3000\u56fd\u571f\u4ea4\u901a\u7701", "railway": "station", "source": "KSJ2", "source_ref": "http://nlftp.mlit.go.jp/ksj/jpgis/datalist/KsjTmplt-N02-v1_1.html", "wikidata": "Q874180", "wikipedia": "ja:\u7d0d\u5185\u99c5"}}, {"type": "node", "id": 264417990, "lat": 43.5552486, "lon": 141.9005856, "tags": {"KSJ2:LIN": "\u51fd\u9928\u7dda", "KSJ2:STN": "\u6edd\u5ddd", "name": "\u6edd\u5ddd", "name:en": "Takikawa", "name:ja": "\u6edd\u5ddd", "name:ja_kana": "\u305f\u304d\u304b\u308f", "name:ja_rm": "Takikawa", "name:ko": "\ub2e4\ud0a4\uce74\uc640", "note": "National-Land Numerical Information (Railway) 2007, MLIT Japan", "note:ja": "\u56fd\u571f\u6570\u5024\u60c5\u5831\uff08\u9244\u9053\u30c7\u30fc\u30bf\uff09\u5e73\u621019\u5e74\u3000\u56fd\u571f\u4ea4\u901a\u7701", "railway": "station", "source": "KSJ2", "source_ref": "http://nlftp.mlit.go.jp/ksj/jpgis/datalist/KsjTmplt-N02-v1_1.html", "wheelchair": "yes", "wikidata": "Q1057763", "wikipedia": "ja:\u6edd\u5ddd\u99c5"}}, {"type": "node", "id": 264418100, "lat": 43.6906252, "lon": 141.9666247, "tags": {"KSJ2:LIN": "\u51fd\u9928\u7dda", "KSJ2:STN": "\u59b9\u80cc\u725b", "name": "\u59b9\u80cc\u725b", "name:en": "Moseushi", "name:ja": "\u59b9\u80cc\u725b", "name:ko": "\ubaa8\uc138\uc6b0\uc2dc", "note": "National-Land Numerical Information (Railway) 2007, MLIT Japan", "note:ja": "\u56fd\u571f\u6570\u5024\u60c5\u5831\uff08\u9244\u9053\u30c7\u30fc\u30bf\uff09\u5e73\u621019\u5e74\u3000\u56fd\u571f\u4ea4\u901a\u7701", "railway": "station", "source": "KSJ2", "source_ref": "http://nlftp.mlit.go.jp/ksj/jpgis/datalist/KsjTmplt-N02-v1_1.html", "wikidata": "Q875565", "wikipedia": "ja:\u59b9\u80cc\u725b\u99c5"}}, {"type": "node", "id": 264418577, "lat": 43.6275544, "lon": 141.9358367, "tags": {"KSJ2:LIN": "\u51fd\u9928\u7dda", "KSJ2:STN": "\u6c5f\u90e8\u4e59", "name": "\u6c5f\u90e8\u4e59", "name:en": "Ebeotsu", "name:ja": "\u6c5f\u90e8\u4e59", "name:ko": "\uc5d0\ubca0\uc624\uc4f0", "note": "National-Land Numerical Information (Railway) 2007, MLIT Japan", "note:ja": "\u56fd\u571f\u6570\u5024\u60c5\u5831\uff08\u9244\u9053\u30c7\u30fc\u30bf\uff09\u5e73\u621019\u5e74\u3000\u56fd\u571f\u4ea4\u901a\u7701", "railway": "station", "source": "KSJ2", "source_ref": "http://nlftp.mlit.go.jp/ksj/jpgis/datalist/KsjTmplt-N02-v1_1.html", "wikidata": "Q875460", "wikipedia": "ja:\u6c5f\u90e8\u4e59\u99c5"}}, {"type": "node", "id": 264418704, "lat": 43.4928947, "lon": 141.9093041, "tags": {"KSJ2:LIN": "\u51fd\u9928\u7dda", "KSJ2:STN": "\u7802\u5ddd", "name": "\u7802\u5ddd", "name:en": "Sunagawa", "name:ja": "\u7802\u5ddd", "name:ko": "\uc2a4\ub098\uac00\uc640", "note": "National-Land Numerical Information (Railway) 2007, MLIT Japan", "note:ja": "\u56fd\u571f\u6570\u5024\u60c5\u5831\uff08\u9244\u9053\u30c7\u30fc\u30bf\uff09\u5e73\u621019\u5e74\u3000\u56fd\u571f\u4ea4\u901a\u7701", "railway": "station", "source": "KSJ2", "source_ref": "http://nlftp.mlit.go.jp/ksj/jpgis/datalist/KsjTmplt-N02-v1_1.html", "toilets:wheelchair": "no", "wheelchair": "limited", "wikidata": "Q872776", "wikipedia": "ja:\u7802\u5ddd\u99c5"}}, {"type": "node", "id": 264420469, "lat": 43.7211231, "lon": 142.0409293, "tags": {"KSJ2:LIN": "\u51fd\u9928\u7dda;\u7559\u840c\u7dda", "KSJ2:STN": "\u6df1\u5ddd", "name": "\u6df1\u5ddd", "name:en": "Fukagawa", "name:ja": "\u6df1\u5ddd", "name:ja_kana": "\u3075\u304b\u304c\u308f", "name:ja_rm": "Fukagawa", "name:ko": "\ud6c4\uce74\uac00\uc640", "note": "National-Land Numerical Information (Railway) 2007, MLIT Japan", "note:ja": "\u56fd\u571f\u6570\u5024\u60c5\u5831\uff08\u9244\u9053\u30c7\u30fc\u30bf\uff09\u5e73\u621019\u5e74\u3000\u56fd\u571f\u4ea4\u901a\u7701", "public_transport": "station", "railway": "station", "source": "KSJ2", "source_ref": "http://nlftp.mlit.go.jp/ksj/jpgis/datalist/KsjTmplt-N02-v1_1.html", "wikidata": "Q1057370", "wikipedia": "ja:\u6df1\u5ddd\u99c5"}}, {"type": "node", "id": 264428891, "lat": 43.8100309, "lon": 141.9343417, "tags": {"name": "\u77f3\u72e9\u6cbc\u7530", "name:en": "Ishikari-Numata", "name:ja": "\u77f3\u72e9\u6cbc\u7530", "name:ko": "\uc774\uc2dc\uce74\ub9ac\ub204\ub9c8\ud0c0", "public_transport": "station", "railway": "station", "source": "KSJ2", "wikidata": "Q6080238", "wikipedia": "ja:\u77f3\u72e9\u6cbc\u7530\u99c5"}}, {"type": "node", "id": 264429457, "lat": 43.7421207, "lon": 142.0147195, "tags": {"name": "\u5317\u4e00\u5df1", "name:en": "Kita-Ichiyan", "name:ja": "\u5317\u4e00\u5df1", "name:ja-Hira": "\u304d\u305f\u3044\u3061\u3084\u3093", "name:ko": "\uae30\ud0c0\uc774\uce58\uc580", "public_transport": "station", "railway": "station", "source": "KSJ2", "wikidata": "Q11400832", "wikipedia": "ja:\u5317\u4e00\u5df2\u99c5"}}, {"type": "node", "id": 264429593, "lat": 43.7687759, "lon": 141.9677278, "tags": {"name": "\u79e9\u7236\u5225", "name:en": "Chippubetsu", "name:ja": "\u79e9\u7236\u5225", "name:ko": "\uc9d3\ud478\ubca0\uc4f0", "public_transport": "station", "railway": "station", "source": "KSJ2", "train": "yes", "wikidata": "Q5101718", "wikipedia": "ja:\u79e9\u7236\u5225\u99c5"}}, {"type": "node", "id": 264429922, "lat": 43.7890595, "lon": 141.9614342, "tags": {"name": "\u5317\u79e9\u7236\u5225", "name:en": "Kita-Chippubetsu", "name:ja": "\u5317\u79e9\u7236\u5225", "name:ko": "\uae30\ud0c0\uce6b\ud478\ubca0\uc4f0", "public_transport": "station", "railway": "station", "source": "KSJ2", "wikidata": "Q11403908", "wikipedia": "ja:\u5317\u79e9\u7236\u5225\u99c5"}}, {"type": "node", "id": 264442501, "lat": 43.4887293, "lon": 142.2109677, "tags": {"KSJ2:LIN": "\u6839\u5ba4\u7dda", "KSJ2:STN": "\u4e0a\u82a6\u5225", "name": "\u4e0a\u82a6\u5225", "name:en": "Kami-Ashibetsu", "name:ja": "\u4e0a\u82a6\u5225", "name:ko": "\uac00\ubbf8\uc544\uc2dc\ubca0\uc4f0", "note": "National-Land Numerical Information (Railway) 2007, MLIT Japan", "note:ja": "\u56fd\u571f\u6570\u5024\u60c5\u5831\uff08\u9244\u9053\u30c7\u30fc\u30bf\uff09\u5e73\u621019\u5e74\u3000\u56fd\u571f\u4ea4\u901a\u7701", "railway": "station", "source": "KSJ2", "source_ref": "http://nlftp.mlit.go.jp/ksj/jpgis/datalist/KsjTmplt-N02-v1_1.html", "wikidata": "Q899040", "wikipedia": "ja:\u4e0a\u82a6\u5225\u99c5"}}, {"type": "node", "id": 264442622, "lat": 43.5165323, "lon": 142.1844061, "tags": {"KSJ2:LIN": "\u6839\u5ba4\u7dda", "KSJ2:STN": "\u82a6\u5225", "name": "\u82a6\u5225", "name:en": "Ashibetsu", "name:ja": "\u82a6\u5225", "name:ko": "\uc544\uc2dc\ubca0\uc4f0", "note": "National-Land Numerical Information (Railway) 2007, MLIT Japan", "note:ja": "\u56fd\u571f\u6570\u5024\u60c5\u5831\uff08\u9244\u9053\u30c7\u30fc\u30bf\uff09\u5e73\u621019\u5e74\u3000\u56fd\u571f\u4ea4\u901a\u7701", "railway": "station", "source": "KSJ2", "source_ref": "http://nlftp.mlit.go.jp/ksj/jpgis/datalist/KsjTmplt-N02-v1_1.html", "wikidata": "Q898900", "wikipedia": "ja:\u82a6\u5225\u99c5"}}, {"type": "node", "id": 264442644, "lat": 43.5413311, "lon": 142.1240876, "tags": {"KSJ2:LIN": "\u6839\u5ba4\u7dda", "KSJ2:STN": "\u5e73\u5cb8", "name": "\u5e73\u5cb8", "name:en": "Hiragishi", "name:ja": "\u5e73\u5cb8", "name:ko": "\ud788\ub77c\uae30\uc2dc", "note": "National-Land Numerical Information (Railway) 2007, MLIT Japan", "note:ja": "\u56fd\u571f\u6570\u5024\u60c5\u5831\uff08\u9244\u9053\u30c7\u30fc\u30bf\uff09\u5e73\u621019\u5e74\u3000\u56fd\u571f\u4ea4\u901a\u7701", "railway": "station", "source": "KSJ2", "source_ref": "http://nlftp.mlit.go.jp/ksj/jpgis/datalist/KsjTmplt-N02-v1_1.html", "wikidata": "Q5768873", "wikipedia": "ja:\u5e73\u5cb8\u99c5 (\u5317\u6d77\u9053\u8d64\u5e73\u5e02)"}}, {"type": "node", "id": 264445019, "lat": 43.5550084, "lon": 142.0483771, "tags": {"KSJ2:LIN": "\u6839\u5ba4\u7dda", "KSJ2:STN": "\u8d64\u5e73", "name": "\u8d64\u5e73", "name:en": "Akabira", "name:ja": "\u8d64\u5e73", "name:ko": "\uc544\uce74\ube44\ub77c", "note": "National-Land Numerical Information (Railway) 2007, MLIT Japan", "note:ja": "\u56fd\u571f\u6570\u5024\u60c5\u5831\uff08\u9244\u9053\u30c7\u30fc\u30bf\uff09\u5e73\u621019\u5e74\u3000\u56fd\u571f\u4ea4\u901a\u7701", "railway": "station", "source": "KSJ2", "source_ref": "http://nlftp.mlit.go.jp/ksj/jpgis/datalist/KsjTmplt-N02-v1_1.html", "wikidata": "Q899024", "wikipedia": "ja:\u8d64\u5e73\u99c5"}}, {"type": "node", "id": 264445577, "lat": 43.5370868, "lon": 142.0826618, "tags": {"KSJ2:LIN": "\u6839\u5ba4\u7dda", "KSJ2:STN": "\u8302\u5c3b", "name": "\u8302\u5c3b", "name:en": "Moshiri", "name:ja": "\u8302\u5c3b", "name:ko": "\ubaa8\uc2dc\ub9ac", "note": "National-Land Numerical Information (Railway) 2007, MLIT Japan", "note:ja": "\u56fd\u571f\u6570\u5024\u60c5\u5831\uff08\u9244\u9053\u30c7\u30fc\u30bf\uff09\u5e73\u621019\u5e74\u3000\u56fd\u571f\u4ea4\u901a\u7701", "railway": "station", "source": "KSJ2", "source_ref": "http://nlftp.mlit.go.jp/ksj/jpgis/datalist/KsjTmplt-N02-v1_1.html", "wikidata": "Q899128", "wikipedia": "ja:\u8302\u5c3b\u99c5"}}, {"type": "node", "id": 264445634, "lat": 43.5739282, "lon": 141.9803668, "tags": {"KSJ2:LIN": "\u6839\u5ba4\u7dda", "KSJ2:STN": "\u6771\u6edd\u5ddd", "name": "\u6771\u6edd\u5ddd", "name:en": "Higashi-Takikawa", "name:ja": "\u6771\u6edd\u5ddd", "name:ko": "\ud788\uac00\uc2dc\ud0c0\ud0a4\uce74\uc640", "note": "National-Land Numerical Information (Railway) 2007, MLIT Japan", "note:ja": "\u56fd\u571f\u6570\u5024\u60c5\u5831\uff08\u9244\u9053\u30c7\u30fc\u30bf\uff09\u5e73\u621019\u5e74\u3000\u56fd\u571f\u4ea4\u901a\u7701", "railway": "station", "source": "KSJ2", "source_ref": "http://nlftp.mlit.go.jp/ksj/jpgis/datalist/KsjTmplt-N02-v1_1.html", "wikidata": "Q898878", "wikipedia": "ja:\u6771\u6edd\u5ddd\u99c5"}}]}