{"version": 0.6, "generator": "Overpass API 0.7.62.4 2390de5a", "osm3s": {"timestamp_osm_base": "2024-12-30T15:09:27Z", "copyright": "The data included in this document is from www.openstreetmap.org. The data is made available under ODbL."}, "elements": [{"type": "node", "id": 264865205, "lat": 35.0291346, "lon": 137.713585, "tags": {"KSJ2:LIN": "\u98ef\u7530\u7dda", "KSJ2:STN": "\u6771\u6804", "name": "\u6771\u6804", "name:en": "Toei", "name:ja": "\u6771\u6804", "name:ko": "\ub3c4\uc5d0\uc774", "note": "National-Land Numerical Information (Railway) 2007, MLIT Japan", "note:ja": "\u56fd\u571f\u6570\u5024\u60c5\u5831\uff08\u9244\u9053\u30c7\u30fc\u30bf\uff09\u5e73\u621019\u5e74\u3000\u56fd\u571f\u4ea4\u901a\u7701", "railway": "station", "source": "KSJ2", "source_ref": "http://nlftp.mlit.go.jp/ksj/jpgis/datalist/KsjTmplt-N02-v1_1.html", "wikidata": "Q774631", "wikipedia": "ja:\u6771\u6804\u99c5"}}, {"type": "node", "id": 264868640, "lat": 35.0850258, "lon": 137.8028337, "tags": {"KSJ2:LIN": "\u98ef\u7530\u7dda", "KSJ2:STN": "\u4e2d\u90e8\u5929\u7adc", "name": "\u4e2d\u90e8\u5929\u7adc", "name:en": "Chubutenryu", "name:ja": "\u4e2d\u90e8\u5929\u7adc", "name:ko": "\uc8fc\ubd80\ud150\ub958", "note": "National-Land Numerical Information (Railway) 2007, MLIT Japan", "note:ja": "\u56fd\u571f\u6570\u5024\u60c5\u5831\uff08\u9244\u9053\u30c7\u30fc\u30bf\uff09\u5e73\u621019\u5e74\u3000\u56fd\u571f\u4ea4\u901a\u7701", "public_transport": "station", "railway": "station", "source": "KSJ2", "source_ref": "http://nlftp.mlit.go.jp/ksj/jpgis/datalist/KsjTmplt-N02-v1_1.html", "wikidata": "Q775718", "wikipedia": "ja:\u4e2d\u90e8\u5929\u7adc\u99c5"}}, {"type": "node", "id": 264869196, "lat": 35.2358535, "lon": 137.8348341, "tags": {"KSJ2:LIN": "\u98ef\u7530\u7dda", "KSJ2:STN": "\u4e2d\u4e95\u4f8d", "name": "\u4e2d\u4e95\u4f8d", "name:en": "Nakaisamurai", "name:ja": "\u4e2d\u4e95\u4f8d", "name:ko": "\ub098\uce74\uc774\uc0ac\ubb34\ub77c\uc774", "note": "National-Land Numerical Information (Railway) 2007, MLIT Japan", "note:ja": "\u56fd\u571f\u6570\u5024\u60c5\u5831\uff08\u9244\u9053\u30c7\u30fc\u30bf\uff09\u5e73\u621019\u5e74\u3000\u56fd\u571f\u4ea4\u901a\u7701", "public_transport": "station", "railway": "station", "source": "KSJ2", "source_ref": "http://nlftp.mlit.go.jp/ksj/jpgis/datalist/KsjTmplt-N02-v1_1.html", "wikidata": "Q894362", "wikipedia": "ja:\u4e2d\u4e95\u4f8d\u99c5"}}, {"type": "node", "id": 264869588, "lat": 35.419034, "lon": 137.8169679, "tags": {"KSJ2:LIN": "\u98ef\u7530\u7dda", "KSJ2:STN": "\u91d1\u91ce", "name": "\u91d1\u91ce", "name:en": "Kinno", "name:ja": "\u91d1\u91ce", "name:ko": "\uae34\ub178", "note": "National-Land Numerical Information (Railway) 2007, MLIT Japan", "note:ja": "\u56fd\u571f\u6570\u5024\u60c5\u5831\uff08\u9244\u9053\u30c7\u30fc\u30bf\uff09\u5e73\u621019\u5e74\u3000\u56fd\u571f\u4ea4\u901a\u7701", "public_transport": "station", "railway": "station", "source": "KSJ2", "source_ref": "http://nlftp.mlit.go.jp/ksj/jpgis/datalist/KsjTmplt-N02-v1_1.html", "wikidata": "Q903011", "wikipedia": "ja:\u91d1\u91ce\u99c5"}}, {"type": "node", "id": 264869712, "lat": 35.0605986, "lon": 137.7751628, "tags": {"KSJ2:LIN": "\u98ef\u7530\u7dda", "KSJ2:STN": "\u65e9\u702c", "name": "\u65e9\u702c", "name:en": "Hayase", "name:ja": "\u65e9\u702c", "name:ko": "\ud558\uc57c\uc138", "note": "National-Land Numerical Information (Railway) 2007, MLIT Japan", "note:ja": "\u56fd\u571f\u6570\u5024\u60c5\u5831\uff08\u9244\u9053\u30c7\u30fc\u30bf\uff09\u5e73\u621019\u5e74\u3000\u56fd\u571f\u4ea4\u901a\u7701", "railway": "station", "source": "KSJ2", "source_ref": "http://nlftp.mlit.go.jp/ksj/jpgis/datalist/KsjTmplt-N02-v1_1.html", "wikidata": "Q775420", "wikipedia": "ja:\u65e9\u702c\u99c5"}}, {"type": "node", "id": 264869718, "lat": 35.0242327, "lon": 137.7038291, "tags": {"KSJ2:LIN": "\u98ef\u7530\u7dda", "KSJ2:STN": "\u6c60\u5834", "name": "\u6c60\u5834", "name:en": "Ikeba", "name:ja": "\u6c60\u5834", "name:ko": "\uc774\ucf00\ubc14", "note": "National-Land Numerical Information (Railway) 2007, MLIT Japan", "note:ja": "\u56fd\u571f\u6570\u5024\u60c5\u5831\uff08\u9244\u9053\u30c7\u30fc\u30bf\uff09\u5e73\u621019\u5e74\u3000\u56fd\u571f\u4ea4\u901a\u7701", "railway": "station", "source": "KSJ2", "source_ref": "http://nlftp.mlit.go.jp/ksj/jpgis/datalist/KsjTmplt-N02-v1_1.html", "wikidata": "Q774526", "wikipedia": "ja:\u6c60\u5834\u99c5"}}, {"type": "node", "id": 264870112, "lat": 35.05019, "lon": 137.7525607, "tags": {"KSJ2:LIN": "\u98ef\u7530\u7dda", "KSJ2:STN": "\u4e0a\u5e02\u5834", "name": "\u4e0a\u5e02\u5834", "name:en": "Kamiichiba", "name:ja": "\u4e0a\u5e02\u5834", "name:ko": "\uac00\ubbf8\uc774\uce58\ubc14", "note": "National-Land Numerical Information (Railway) 2007, MLIT Japan", "note:ja": "\u56fd\u571f\u6570\u5024\u60c5\u5831\uff08\u9244\u9053\u30c7\u30fc\u30bf\uff09\u5e73\u621019\u5e74\u3000\u56fd\u571f\u4ea4\u901a\u7701", "railway": "station", "source": "KSJ2", "source_ref": "http://nlftp.mlit.go.jp/ksj/jpgis/datalist/KsjTmplt-N02-v1_1.html", "wikidata": "Q775018", "wikipedia": "ja:\u4e0a\u5e02\u5834\u99c5"}}, {"type": "node", "id": 264870899, "lat": 35.0562066, "lon": 137.7634326, "tags": {"KSJ2:LIN": "\u98ef\u7530\u7dda", "KSJ2:STN": "\u6d66\u5ddd", "name": "\u6d66\u5ddd", "name:en": "Urakawa", "name:ja": "\u6d66\u5ddd", "name:ko": "\uc6b0\ub77c\uce74\uc640", "note": "National-Land Numerical Information (Railway) 2007, MLIT Japan", "note:ja": "\u56fd\u571f\u6570\u5024\u60c5\u5831\uff08\u9244\u9053\u30c7\u30fc\u30bf\uff09\u5e73\u621019\u5e74\u3000\u56fd\u571f\u4ea4\u901a\u7701", "railway": "station", "source": "KSJ2", "source_ref": "http://nlftp.mlit.go.jp/ksj/jpgis/datalist/KsjTmplt-N02-v1_1.html", "wikidata": "Q775264", "wikipedia": "ja:\u6d66\u5ddd\u99c5"}}, {"type": "node", "id": 264871359, "lat": 35.0692294, "lon": 137.7862474, "tags": {"KSJ2:LIN": "\u98ef\u7530\u7dda", "KSJ2:STN": "\u4e0b\u5ddd\u5408", "name": "\u4e0b\u5ddd\u5408", "name:en": "Shimo-Kawai", "name:ja": "\u4e0b\u5ddd\u5408", "name:ko": "\uc2dc\ubaa8\uce74\uc640\uc774", "note": "National-Land Numerical Information (Railway) 2007, MLIT Japan", "note:ja": "\u56fd\u571f\u6570\u5024\u60c5\u5831\uff08\u9244\u9053\u30c7\u30fc\u30bf\uff09\u5e73\u621019\u5e74\u3000\u56fd\u571f\u4ea4\u901a\u7701", "railway": "station", "source": "KSJ2", "source_ref": "http://nlftp.mlit.go.jp/ksj/jpgis/datalist/KsjTmplt-N02-v1_1.html", "wikidata": "Q775582", "wikipedia": "ja:\u4e0b\u5ddd\u5408\u99c5"}}, {"type": "node", "id": 264871763, "lat": 35.2540501, "lon": 137.8348842, "tags": {"KSJ2:LIN": "\u98ef\u7530\u7dda", "KSJ2:STN": "\u4f0a\u90a3\u5c0f\u6ca2", "name": "\u4f0a\u90a3\u5c0f\u6ca2", "name:en": "Inakozawa", "name:ja": "\u4f0a\u90a3\u5c0f\u6ca2", "name:ko": "\uc774\ub098\ucf54\uc790\uc640", "note": "National-Land Numerical Information (Railway) 2007, MLIT Japan", "note:ja": "\u56fd\u571f\u6570\u5024\u60c5\u5831\uff08\u9244\u9053\u30c7\u30fc\u30bf\uff09\u5e73\u621019\u5e74\u3000\u56fd\u571f\u4ea4\u901a\u7701", "public_transport": "station", "railway": "station", "source": "KSJ2", "source_ref": "http://nlftp.mlit.go.jp/ksj/jpgis/datalist/KsjTmplt-N02-v1_1.html", "wikidata": "Q894419", "wikipedia": "ja:\u4f0a\u90a3\u5c0f\u6ca2\u99c5"}}, {"type": "node", "id": 264872224, "lat": 35.0492285, "lon": 137.7439383, "tags": {"KSJ2:LIN": "\u98ef\u7530\u7dda", "KSJ2:STN": "\u51fa\u99ac", "name": "\u51fa\u99ac", "name:en": "Izumma", "name:ja": "\u51fa\u99ac", "name:ko": "\uc774\uc98c\ub9c8", "note": "National-Land Numerical Information (Railway) 2007, MLIT Japan", "note:ja": "\u56fd\u571f\u6570\u5024\u60c5\u5831\uff08\u9244\u9053\u30c7\u30fc\u30bf\uff09\u5e73\u621019\u5e74\u3000\u56fd\u571f\u4ea4\u901a\u7701", "railway": "station", "source": "KSJ2", "source_ref": "http://nlftp.mlit.go.jp/ksj/jpgis/datalist/KsjTmplt-N02-v1_1.html", "wikidata": "Q774823", "wikipedia": "ja:\u51fa\u99ac\u99c5"}}, {"type": "node", "id": 264872428, "lat": 34.9904329, "lon": 137.6437941, "tags": {"KSJ2:LIN": "\u98ef\u7530\u7dda", "KSJ2:STN": "\u67ff\u5e73", "name": "\u67ff\u5e73", "name:en": "Kakidaira", "name:ja": "\u67ff\u5e73", "name:ko": "\uac00\ud0a4\ub2e4\uc774\ub77c", "note": "National-Land Numerical Information (Railway) 2007, MLIT Japan", "note:ja": "\u56fd\u571f\u6570\u5024\u60c5\u5831\uff08\u9244\u9053\u30c7\u30fc\u30bf\uff09\u5e73\u621019\u5e74\u3000\u56fd\u571f\u4ea4\u901a\u7701", "public_transport": "station", "railway": "station", "source": "KSJ2", "source_ref": "http://nlftp.mlit.go.jp/ksj/jpgis/datalist/KsjTmplt-N02-v1_1.html", "wikidata": "Q774283", "wikipedia": "ja:\u67ff\u5e73\u99c5"}}, {"type": "node", "id": 264872431, "lat": 35.2098095, "lon": 137.8356711, "tags": {"KSJ2:LIN": "\u98ef\u7530\u7dda", "KSJ2:STN": "\u5c0f\u548c\u7530", "name": "\u5c0f\u548c\u7530", "name:en": "Kowada", "name:ja": "\u5c0f\u548c\u7530", "name:ko": "\ucf54\uc640\ub2e4", "note": "National-Land Numerical Information (Railway) 2007, MLIT Japan", "note:ja": "\u56fd\u571f\u6570\u5024\u60c5\u5831\uff08\u9244\u9053\u30c7\u30fc\u30bf\uff09\u5e73\u621019\u5e74\u3000\u56fd\u571f\u4ea4\u901a\u7701", "public_transport": "station", "railway": "station", "source": "KSJ2", "source_ref": "http://nlftp.mlit.go.jp/ksj/jpgis/datalist/KsjTmplt-N02-v1_1.html", "wikidata": "Q778687", "wikipedia": "ja:\u5c0f\u548c\u7530\u99c5"}}, {"type": "node", "id": 264872888, "lat": 35.4023084, "lon": 137.8100679, "tags": {"KSJ2:LIN": "\u98ef\u7530\u7dda", "KSJ2:STN": "\u5510\u7b20", "name": "\u5510\u7b20", "name:en": "Karakasa", "name:ja": "\u5510\u7b20", "name:ko": "\uac00\ub77c\uce74\uc0ac", "note": "National-Land Numerical Information (Railway) 2007, MLIT Japan", "note:ja": "\u56fd\u571f\u6570\u5024\u60c5\u5831\uff08\u9244\u9053\u30c7\u30fc\u30bf\uff09\u5e73\u621019\u5e74\u3000\u56fd\u571f\u4ea4\u901a\u7701", "public_transport": "station", "railway": "station", "source": "KSJ2", "source_ref": "http://nlftp.mlit.go.jp/ksj/jpgis/datalist/KsjTmplt-N02-v1_1.html", "wikidata": "Q894882", "wikipedia": "ja:\u5510\u7b20\u99c5"}}, {"type": "node", "id": 264873485, "lat": 35.0918619, "lon": 137.8098693, "tags": {"KSJ2:LIN": "\u98ef\u7530\u7dda", "KSJ2:STN": "\u4f50\u4e45\u9593", "name": "\u4f50\u4e45\u9593", "name:en": "Sakuma", "name:ja": "\u4f50\u4e45\u9593", "name:ko": "\uc0ac\ucfe0\ub9c8", "note": "National-Land Numerical Information (Railway) 2007, MLIT Japan", "note:ja": "\u56fd\u571f\u6570\u5024\u60c5\u5831\uff08\u9244\u9053\u30c7\u30fc\u30bf\uff09\u5e73\u621019\u5e74\u3000\u56fd\u571f\u4ea4\u901a\u7701", "public_transport": "station", "railway": "station", "source": "KSJ2", "source_ref": "http://nlftp.mlit.go.jp/ksj/jpgis/datalist/KsjTmplt-N02-v1_1.html", "wikidata": "Q776591", "wikipedia": "ja:\u4f50\u4e45\u9593\u99c5"}}, {"type": "node", "id": 264873503, "lat": 34.9885841, "lon": 137.6207693, "tags": {"KSJ2:LIN": "\u98ef\u7530\u7dda", "KSJ2:STN": "\u4e09\u6cb3\u69d9\u539f", "name": "\u4e09\u6cb3\u69d9\u539f", "name:en": "Mikawa-Makihara", "name:ja": "\u4e09\u6cb3\u69d9\u539f", "name:ko": "\ubbf8\uce74\uc640\ub9c8\ud0a4\ud558\ub77c", "note": "National-Land Numerical Information (Railway) 2007, MLIT Japan", "note:ja": "\u56fd\u571f\u6570\u5024\u60c5\u5831\uff08\u9244\u9053\u30c7\u30fc\u30bf\uff09\u5e73\u621019\u5e74\u3000\u56fd\u571f\u4ea4\u901a\u7701", "public_transport": "station", "railway": "station", "source": "KSJ2", "source_ref": "http://nlftp.mlit.go.jp/ksj/jpgis/datalist/KsjTmplt-N02-v1_1.html", "wikidata": "Q774209", "wikipedia": "ja:\u4e09\u6cb3\u69d9\u539f\u99c5"}}, {"type": "node", "id": 264873521, "lat": 35.2674026, "lon": 137.8324935, "tags": {"KSJ2:LIN": "\u98ef\u7530\u7dda", "KSJ2:STN": "\u9daf\u5de3", "name": "\u9daf\u5de3", "name:en": "Ugusu", "name:ja": "\u9daf\u5de3", "name:ko": "\uc6b0\uad6c\uc2a4", "note": "National-Land Numerical Information (Railway) 2007, MLIT Japan", "note:ja": "\u56fd\u571f\u6570\u5024\u60c5\u5831\uff08\u9244\u9053\u30c7\u30fc\u30bf\uff09\u5e73\u621019\u5e74\u3000\u56fd\u571f\u4ea4\u901a\u7701", "public_transport": "station", "railway": "station", "source": "KSJ2", "source_ref": "http://nlftp.mlit.go.jp/ksj/jpgis/datalist/KsjTmplt-N02-v1_1.html", "wikidata": "Q894431", "wikipedia": "ja:\u9daf\u5de3\u99c5"}}, {"type": "node", "id": 264874024, "lat": 35.0017085, "lon": 137.6640193, "tags": {"KSJ2:LIN": "\u98ef\u7530\u7dda", "KSJ2:STN": "\u4e09\u6cb3\u5ddd\u5408", "name": "\u4e09\u6cb3\u5ddd\u5408", "name:en": "Mikawa-Kawai", "name:ja": "\u4e09\u6cb3\u5ddd\u5408", "name:ko": "\ubbf8\uce74\uc640\uce74\uc640\uc774", "note": "National-Land Numerical Information (Railway) 2007, MLIT Japan", "note:ja": "\u56fd\u571f\u6570\u5024\u60c5\u5831\uff08\u9244\u9053\u30c7\u30fc\u30bf\uff09\u5e73\u621019\u5e74\u3000\u56fd\u571f\u4ea4\u901a\u7701", "public_transport": "station", "railway": "station", "source": "KSJ2", "source_ref": "http://nlftp.mlit.go.jp/ksj/jpgis/datalist/KsjTmplt-N02-v1_1.html", "wikidata": "Q774440", "wikipedia": "ja:\u4e09\u6cb3\u5ddd\u5408\u99c5"}}, {"type": "node", "id": 264874612, "lat": 35.3751473, "lon": 137.8141659, "tags": {"KSJ2:LIN": "\u98ef\u7530\u7dda", "KSJ2:STN": "\u9580\u5cf6", "name": "\u9580\u5cf6", "name:en": "Kadoshima", "name:ja": "\u9580\u5cf6", "name:ko": "\uac00\ub3c4\uc2dc\ub9c8", "note": "National-Land Numerical Information (Railway) 2007, MLIT Japan", "note:ja": "\u56fd\u571f\u6570\u5024\u60c5\u5831\uff08\u9244\u9053\u30c7\u30fc\u30bf\uff09\u5e73\u621019\u5e74\u3000\u56fd\u571f\u4ea4\u901a\u7701", "public_transport": "station", "railway": "station", "source": "KSJ2", "source_ref": "http://nlftp.mlit.go.jp/ksj/jpgis/datalist/KsjTmplt-N02-v1_1.html", "wikidata": "Q894868", "wikipedia": "ja:\u9580\u5cf6\u99c5"}}, {"type": "node", "id": 264875878, "lat": 34.9704554, "lon": 137.6130073, "tags": {"KSJ2:LIN": "\u98ef\u7530\u7dda", "KSJ2:STN": "\u6e6f\u8c37\u6e29\u6cc9", "alt_name:ko": "\uc720\uc57c\uc628\uc13c", "name": "\u6e6f\u8c37\u6e29\u6cc9", "name:en": "Yuyaonsen", "name:ja": "\u6e6f\u8c37\u6e29\u6cc9", "name:ko": "\uc720\uc57c\uc628\ucc9c", "note": "National-Land Numerical Information (Railway) 2007, MLIT Japan", "note:ja": "\u56fd\u571f\u6570\u5024\u60c5\u5831\uff08\u9244\u9053\u30c7\u30fc\u30bf\uff09\u5e73\u621019\u5e74\u3000\u56fd\u571f\u4ea4\u901a\u7701", "public_transport": "station", "railway": "station", "source": "KSJ2", "source_ref": "http://nlftp.mlit.go.jp/ksj/jpgis/datalist/KsjTmplt-N02-v1_1.html", "wikidata": "Q773839", "wikipedia": "ja:\u6e6f\u8c37\u6e29\u6cc9\u99c5"}}, {"type": "node", "id": 722149281, "lat": 35.322302, "lon": 137.3891563, "tags": {"KSJ2:LIN": "\u660e\u77e5\u7dda", "KSJ2:RAS": "eb03_10239", "KSJ2:STN": "\u91ce\u5fd7", "KSJ2:segment": "eb02_21786", "name": "\u91ce\u5fd7", "name:en": "Noshi", "name:ja": "\u91ce\u5fd7", "name:ko": "\ub178\uc2dc", "network": "\u660e\u77e5\u7dda", "note": "National-Land Numerical Information (Railway) 2007, MLIT Japan", "note:ja": "\u56fd\u571f\u6570\u5024\u60c5\u5831\uff08\u9244\u9053\u30c7\u30fc\u30bf\uff09\u5e73\u621019\u5e74\u3000\u56fd\u571f\u4ea4\u901a\u7701", "operator": "\u660e\u77e5\u9244\u9053", "operator:website": "https://www.aketetsu.co.jp/", "public_transport": "station", "railway": "station", "source": "KSJ2", "source_ref": "http://nlftp.mlit.go.jp/ksj/jpgis/datalist/KsjTmplt-N02-v1_1.html", "website": "https://www.aketetsu.co.jp/station/noshi/", "wikidata": "Q7061808", "wikipedia": "ja:\u91ce\u5fd7\u99c5"}}, {"type": "node", "id": 722149364, "lat": 35.3689033, "lon": 137.434364, "tags": {"KSJ2:LIN": "\u660e\u77e5\u7dda", "KSJ2:RAS": "eb03_10237", "KSJ2:STN": "\u5ca9\u6751", "KSJ2:segment": "eb02_21771", "name": "\u5ca9\u6751", "name:en": "Iwamura", "name:ja": "\u5ca9\u6751", "name:ko": "\uc774\uc640\ubb34\ub77c", "network": "\u660e\u77e5\u7dda", "note": "National-Land Numerical Information (Railway) 2007, MLIT Japan", "note:ja": "\u56fd\u571f\u6570\u5024\u60c5\u5831\uff08\u9244\u9053\u30c7\u30fc\u30bf\uff09\u5e73\u621019\u5e74\u3000\u56fd\u571f\u4ea4\u901a\u7701", "operator": "\u660e\u77e5\u9244\u9053", "operator:website": "https://www.aketetsu.co.jp/", "public_transport": "station", "railway": "station", "source": "KSJ2", "source_ref": "http://nlftp.mlit.go.jp/ksj/jpgis/datalist/KsjTmplt-N02-v1_1.html", "website": "https://www.aketetsu.co.jp/station/iwamura/", "wheelchair": "limited", "wikidata": "Q11475181", "wikipedia": "ja:\u5ca9\u6751\u99c5"}}, {"type": "node", "id": 722149377, "lat": 35.3869284, "lon": 137.4373163, "tags": {"KSJ2:LIN": "\u660e\u77e5\u7dda", "KSJ2:RAS": "eb03_10242", "KSJ2:STN": "\u98ef\u7fbd\u9593", "KSJ2:segment": "eb02_21776", "name": "\u98ef\u7fbd\u9593", "name:en": "Iibama", "name:ja": "\u98ef\u7fbd\u9593", "name:ko": "\uc774\ubc14\ub9c8", "network": "\u660e\u77e5\u7dda", "note": "National-Land Numerical Information (Railway) 2007, MLIT Japan", "note:ja": "\u56fd\u571f\u6570\u5024\u60c5\u5831\uff08\u9244\u9053\u30c7\u30fc\u30bf\uff09\u5e73\u621019\u5e74\u3000\u56fd\u571f\u4ea4\u901a\u7701", "operator": "\u660e\u77e5\u9244\u9053", "operator:website": "https://www.aketetsu.co.jp/", "public_transport": "station", "railway": "station", "source": "KSJ2", "source_ref": "http://nlftp.mlit.go.jp/ksj/jpgis/datalist/KsjTmplt-N02-v1_1.html", "website": "https://www.aketetsu.co.jp/station/iibama/", "wikidata": "Q11666656", "wikipedia": "ja:\u98ef\u7fbd\u9593\u99c5"}}, {"type": "node", "id": 722149463, "lat": 35.3061728, "lon": 137.3874775, "tags": {"KSJ2:LIN": "\u660e\u77e5\u7dda", "KSJ2:RAS": "eb03_10235", "KSJ2:STN": "\u660e\u667a", "KSJ2:segment": "eb02_21779", "name": "\u660e\u667a", "name:en": "Akechi", "name:ja": "\u660e\u667a", "name:ko": "\uc544\ucf00\uce58", "network": "\u660e\u77e5\u7dda", "note": "National-Land Numerical Information (Railway) 2007, MLIT Japan", "note:ja": "\u56fd\u571f\u6570\u5024\u60c5\u5831\uff08\u9244\u9053\u30c7\u30fc\u30bf\uff09\u5e73\u621019\u5e74\u3000\u56fd\u571f\u4ea4\u901a\u7701", "operator": "\u660e\u77e5\u9244\u9053", "operator:website": "https://www.aketetsu.co.jp/", "public_transport": "station", "railway": "station", "source": "KSJ2", "source_ref": "http://nlftp.mlit.go.jp/ksj/jpgis/datalist/KsjTmplt-N02-v1_1.html", "website": "https://www.aketetsu.co.jp/station/akechi/", "wikidata": "Q4700567", "wikipedia": "ja:\u660e\u667a\u99c5 (\u5c90\u961c\u770c\u6075\u90a3\u5e02)"}}, {"type": "node", "id": 722149636, "lat": 35.3499523, "lon": 137.395676, "tags": {"KSJ2:LIN": "\u660e\u77e5\u7dda", "KSJ2:RAS": "eb03_10238", "KSJ2:STN": "\u5c71\u5ca1", "KSJ2:segment": "eb02_21784", "name": "\u5c71\u5ca1", "name:en": "Yamaoka", "name:ja": "\u5c71\u5ca1", "name:ko": "\uc57c\ub9c8\uc624\uce74", "network": "\u660e\u77e5\u7dda", "note": "National-Land Numerical Information (Railway) 2007, MLIT Japan", "note:ja": "\u56fd\u571f\u6570\u5024\u60c5\u5831\uff08\u9244\u9053\u30c7\u30fc\u30bf\uff09\u5e73\u621019\u5e74\u3000\u56fd\u571f\u4ea4\u901a\u7701", "operator": "\u660e\u77e5\u9244\u9053", "operator:website": "https://www.aketetsu.co.jp/", "public_transport": "station", "railway": "station", "source": "KSJ2", "source_ref": "http://nlftp.mlit.go.jp/ksj/jpgis/datalist/KsjTmplt-N02-v1_1.html", "website": "https://www.aketetsu.co.jp/station/yamaoka/", "wikidata": "Q8047918", "wikipedia": "ja:\u5c71\u5ca1\u99c5"}}, {"type": "node", "id": 722149649, "lat": 35.3550878, "lon": 137.4067318, "tags": {"KSJ2:LIN": "\u660e\u77e5\u7dda", "KSJ2:RAS": "eb03_10236", "KSJ2:segment": "eb02_21780", "name": "\u82b1\u767d\u6e29\u6cc9", "name:en": "Hanashiro Onsen", "name:ja": "\u82b1\u767d\u6e29\u6cc9", "name:ja-Hira": "\u306f\u306a\u3057\u308d\u304a\u3093\u305b\u3093", "name:ko": "\ud558\ub098\uc2dc\ub85c", "network": "\u660e\u77e5\u7dda", "note": "National-Land Numerical Information (Railway) 2007, MLIT Japan", "note:ja": "\u56fd\u571f\u6570\u5024\u60c5\u5831\uff08\u9244\u9053\u30c7\u30fc\u30bf\uff09\u5e73\u621019\u5e74\u3000\u56fd\u571f\u4ea4\u901a\u7701", "old_name": "\u82b1\u767d", "operator": "\u660e\u77e5\u9244\u9053", "operator:website": "https://www.aketetsu.co.jp/", "public_transport": "station", "railway": "station", "source": "KSJ2", "source_ref": "http://nlftp.mlit.go.jp/ksj/jpgis/datalist/KsjTmplt-N02-v1_1.html", "website": "https://www.aketetsu.co.jp/station/hanashiro/", "wikidata": "Q5646936", "wikipedia": "ja:\u82b1\u767d\u6e29\u6cc9\u99c5"}}, {"type": "node", "id": 722149894, "lat": 35.4000446, "lon": 137.4589243, "tags": {"KSJ2:LIN": "\u660e\u77e5\u7dda", "KSJ2:RAS": "eb03_10243", "KSJ2:STN": "\u963f\u6728", "KSJ2:segment": "eb02_21772", "name": "\u963f\u6728", "name:en": "Agi", "name:ja": "\u963f\u6728", "name:ko": "\uc544\uae30", "network": "\u660e\u77e5\u7dda", "note": "National-Land Numerical Information (Railway) 2007, MLIT Japan", "note:ja": "\u56fd\u571f\u6570\u5024\u60c5\u5831\uff08\u9244\u9053\u30c7\u30fc\u30bf\uff09\u5e73\u621019\u5e74\u3000\u56fd\u571f\u4ea4\u901a\u7701", "operator": "\u660e\u77e5\u9244\u9053", "operator:website": "https://www.aketetsu.co.jp/", "public_transport": "station", "railway": "station", "source": "KSJ2", "source_ref": "http://nlftp.mlit.go.jp/ksj/jpgis/datalist/KsjTmplt-N02-v1_1.html", "start_date": "1933-05-24", "website": "https://www.aketetsu.co.jp/station/agi/", "wikidata": "Q4692485", "wikipedia": "ja:\u963f\u6728\u99c5"}}, {"type": "node", "id": 2681951171, "lat": 35.1908396, "lon": 137.8183339, "tags": {"name": "\u5927\u5d50", "name:en": "Ozore", "name:ja-Hira": "\u304a\u304a\u305e\u308c", "name:ja-Latn": "\u014czore", "public_transport": "station", "railway": "station", "wikidata": "Q777630", "wikipedia": "ja:\u5927\u5d50\u99c5"}}, {"type": "node", "id": 4716458901, "lat": 35.3797876, "lon": 137.4324532, "tags": {"name": "\u6975\u697d", "name:en": "Gokuraku", "name:ja": "\u6975\u697d", "name:ko": "\uace0\ucfe0\ub77c\ucfe0", "network": "\u660e\u77e5\u7dda", "operator": "\u660e\u77e5\u9244\u9053", "operator:website": "https://www.aketetsu.co.jp/", "public_transport": "station", "railway": "station", "website": "https://www.aketetsu.co.jp/station/gokuraku/", "wikidata": "Q5578124", "wikipedia": "ja:\u6975\u697d\u99c5"}}]}