{"version": 0.6, "generator": "Overpass API 0.7.62.4 2390de5a", "osm3s": {"timestamp_osm_base": "2024-12-30T15:16:45Z", "copyright": "The data included in this document is from www.openstreetmap.org. The data is made available under ODbL."}, "elements": [{"type": "node", "id": 264167727, "lat": 39.1172003, "lon": 141.8099869, "tags": {"KSJ2:LIN": "\u5357\u30ea\u30a2\u30b9\u7dda", "name": "\u4e09\u9678", "name:en": "Sanriku", "name:ja": "\u4e09\u9678", "name:ja_kana": "\u3055\u3093\u308a\u304f", "name:ja_rm": "Sanriku", "name:ko": "\uc0b0\ub9ac\ucfe0", "note": "National-Land Numerical Information (Railway) 2007, MLIT Japan", "note:ja": "\u56fd\u571f\u6570\u5024\u60c5\u5831\uff08\u9244\u9053\u30c7\u30fc\u30bf\uff09\u5e73\u621019\u5e74\u3000\u56fd\u571f\u4ea4\u901a\u7701", "public_transport": "station", "railway": "station", "source": "KSJ2", "source_ref": "http://nlftp.mlit.go.jp/ksj/jpgis/datalist/KsjTmplt-N02-v1_1.html", "website": "https://www.sanrikutetsudou.com/?p=628", "wikidata": "Q11358278", "wikipedia": "ja:\u4e09\u9678\u99c5"}}, {"type": "node", "id": 264167729, "lat": 39.0682084, "lon": 141.7421022, "tags": {"KSJ2:LIN": "\u5357\u30ea\u30a2\u30b9\u7dda", "name": "\u9678\u524d\u8d64\u5d0e", "name:en": "Rikuzen-Akasaki", "name:ja": "\u9678\u524d\u8d64\u5d0e", "name:ja_kana": "\u308a\u304f\u305c\u3093\u3042\u304b\u3055\u304d", "name:ja_rm": "Rikuzen-Akasaki", "name:ko": "\ub9ac\ucfe0\uc820\uc544\uce74\uc0ac\ud0a4", "note": "National-Land Numerical Information (Railway) 2007, MLIT Japan", "note:ja": "\u56fd\u571f\u6570\u5024\u60c5\u5831\uff08\u9244\u9053\u30c7\u30fc\u30bf\uff09\u5e73\u621019\u5e74\u3000\u56fd\u571f\u4ea4\u901a\u7701", "operator": "\u4e09\u9678\u9244\u9053", "operator:ja": "\u4e09\u9678\u9244\u9053", "public_transport": "station", "railway": "station", "source": "KSJ2", "source_ref": "http://nlftp.mlit.go.jp/ksj/jpgis/datalist/KsjTmplt-N02-v1_1.html", "website": "https://www.sanrikutetsudou.com/?p=636", "wikidata": "Q11658561", "wikipedia": "ja:\u9678\u524d\u8d64\u5d0e\u99c5"}}, {"type": "node", "id": 264167730, "lat": 39.093452, "lon": 141.8065792, "tags": {"KSJ2:LIN": "\u5357\u30ea\u30a2\u30b9\u7dda", "name": "\u752b\u5dba", "name:en": "Horei", "name:ja": "\u752b\u5dba", "name:ja_kana": "\u307b\u308c\u3044", "name:ja_rm": "Horei", "name:ko": "\ud638\ub808\uc774", "note": "National-Land Numerical Information (Railway) 2007, MLIT Japan", "note:ja": "\u56fd\u571f\u6570\u5024\u60c5\u5831\uff08\u9244\u9053\u30c7\u30fc\u30bf\uff09\u5e73\u621019\u5e74\u3000\u56fd\u571f\u4ea4\u901a\u7701", "operator": "\u4e09\u9678\u9244\u9053", "operator:ja": "\u4e09\u9678\u9244\u9053", "public_transport": "station", "railway": "station", "source": "KSJ2", "source_ref": "http://nlftp.mlit.go.jp/ksj/jpgis/datalist/KsjTmplt-N02-v1_1.html", "website": "https://www.sanrikutetsudou.com/?p=630", "wikidata": "Q11575103", "wikipedia": "ja:\u752b\u5dba\u99c5"}}, {"type": "node", "id": 264167812, "lat": 39.1510917, "lon": 141.8360118, "tags": {"KSJ2:LIN": "\u5357\u30ea\u30a2\u30b9\u7dda", "name": "\u5409\u6d5c", "name:en": "Yoshihama", "name:ja": "\u5409\u6d5c", "name:ja_kana": "\u3088\u3057\u306f\u307e", "name:ja_rm": "Yoshihama", "name:ko": "\uc694\uc2dc\ud558\ub9c8", "note": "National-Land Numerical Information (Railway) 2007, MLIT Japan", "note:ja": "\u56fd\u571f\u6570\u5024\u60c5\u5831\uff08\u9244\u9053\u30c7\u30fc\u30bf\uff09\u5e73\u621019\u5e74\u3000\u56fd\u571f\u4ea4\u901a\u7701", "operator": "\u4e09\u9678\u9244\u9053", "operator:ja": "\u4e09\u9678\u9244\u9053", "public_transport": "station", "railway": "station", "source": "KSJ2", "source_ref": "http://nlftp.mlit.go.jp/ksj/jpgis/datalist/KsjTmplt-N02-v1_1.html", "website": "https://www.sanrikutetsudou.com/?p=626", "wikidata": "Q11413470", "wikipedia": "ja:\u5409\u6d5c\u99c5 (\u5ca9\u624b\u770c)"}}, {"type": "node", "id": 264167813, "lat": 39.0744002, "lon": 141.8163943, "tags": {"KSJ2:LIN": "\u5357\u30ea\u30a2\u30b9\u7dda", "name": "\u604b\u3057\u6d5c", "name:en": "Koishihama", "name:ja": "\u604b\u3057\u6d5c", "name:ja-Hira": "\u3053\u3044\u3057\u306f\u307e", "name:ja_rm": "Koishihama", "name:ko": "\uace0\uc774\uc2dc\ud558\ub9c8", "note": "National-Land Numerical Information (Railway) 2007, MLIT Japan", "note:ja": "\u56fd\u571f\u6570\u5024\u60c5\u5831\uff08\u9244\u9053\u30c7\u30fc\u30bf\uff09\u5e73\u621019\u5e74\u3000\u56fd\u571f\u4ea4\u901a\u7701", "operator": "\u4e09\u9678\u9244\u9053", "operator:ja": "\u4e09\u9678\u9244\u9053", "public_transport": "station", "railway": "station", "source": "KSJ2", "source_ref": "http://nlftp.mlit.go.jp/ksj/jpgis/datalist/KsjTmplt-N02-v1_1.html", "website": "https://www.sanrikutetsudou.com/?p=12012", "wikidata": "Q11491746", "wikipedia": "ja:\u604b\u3057\u6d5c\u99c5"}}, {"type": "node", "id": 264167895, "lat": 39.2460523, "lon": 141.8860497, "tags": {"KSJ2:LIN": "\u5357\u30ea\u30a2\u30b9\u7dda", "name": "\u5e73\u7530", "name:en": "Heita", "name:ja": "\u5e73\u7530", "name:ja_kana": "\u3078\u3044\u305f", "name:ja_rm": "Heita", "name:ko": "\ud5e4\uc774\ud0c0", "note": "National-Land Numerical Information (Railway) 2007, MLIT Japan", "note:ja": "\u56fd\u571f\u6570\u5024\u60c5\u5831\uff08\u9244\u9053\u30c7\u30fc\u30bf\uff09\u5e73\u621019\u5e74\u3000\u56fd\u571f\u4ea4\u901a\u7701", "operator": "\u4e09\u9678\u9244\u9053", "operator:ja": "\u4e09\u9678\u9244\u9053", "public_transport": "station", "railway": "station", "source": "KSJ2", "source_ref": "http://nlftp.mlit.go.jp/ksj/jpgis/datalist/KsjTmplt-N02-v1_1.html", "website": "https://www.sanrikutetsudou.com/?p=622", "wikidata": "Q11483408", "wikipedia": "ja:\u5e73\u7530\u99c5 (\u5ca9\u624b\u770c)"}}, {"type": "node", "id": 264167942, "lat": 39.0542007, "lon": 141.7989788, "tags": {"KSJ2:LIN": "\u5357\u30ea\u30a2\u30b9\u7dda", "name": "\u7dbe\u91cc", "name:en": "Ryori", "name:ja": "\u7dbe\u91cc", "name:ja_kana": "\u308a\u3087\u3046\u308a", "name:ja_rm": "Ry\u014dri", "name:ko": "\ub8cc\ub9ac", "note": "National-Land Numerical Information (Railway) 2007, MLIT Japan", "note:ja": "\u56fd\u571f\u6570\u5024\u60c5\u5831\uff08\u9244\u9053\u30c7\u30fc\u30bf\uff09\u5e73\u621019\u5e74\u3000\u56fd\u571f\u4ea4\u901a\u7701", "operator": "\u4e09\u9678\u9244\u9053", "operator:ja": "\u4e09\u9678\u9244\u9053", "public_transport": "station", "railway": "station", "source": "KSJ2", "source_ref": "http://nlftp.mlit.go.jp/ksj/jpgis/datalist/KsjTmplt-N02-v1_1.html", "website": "https://www.sanrikutetsudou.com/?p=634", "wikidata": "Q11607405", "wikipedia": "ja:\u7dbe\u91cc\u99c5"}}, {"type": "node", "id": 264234867, "lat": 39.4639054, "lon": 141.9507652, "tags": {"KSJ2:LIN": "\u5c71\u7530\u7dda", "KSJ2:STN": "\u9678\u4e2d\u5c71\u7530", "name": "\u9678\u4e2d\u5c71\u7530", "name:en": "Rikuchu-Yamada", "name:ja": "\u9678\u4e2d\u5c71\u7530", "name:ja_kana": "\u308a\u304f\u3061\u3085\u3046\u3084\u307e\u3060", "name:ja_rm": "Rikuch\u016b-Yamada", "name:ko": "\ub9ac\ucfe0\ucd94\uc57c\ub9c8\ub2e4", "note": "National-Land Numerical Information (Railway) 2007, MLIT Japan", "note:ja": "\u56fd\u571f\u6570\u5024\u60c5\u5831\uff08\u9244\u9053\u30c7\u30fc\u30bf\uff09\u5e73\u621019\u5e74\u3000\u56fd\u571f\u4ea4\u901a\u7701", "public_transport": "station", "railway": "station", "source": "KSJ2", "source_ref": "http://nlftp.mlit.go.jp/ksj/jpgis/datalist/KsjTmplt-N02-v1_1.html", "website": "https://www.sanrikutetsudou.com/?p=12031", "wikidata": "Q7334120", "wikipedia": "ja:\u9678\u4e2d\u5c71\u7530\u99c5"}}, {"type": "node", "id": 264236583, "lat": 39.4312024, "lon": 141.9739513, "tags": {"KSJ2:LIN": "\u5c71\u7530\u7dda", "KSJ2:STN": "\u5ca9\u624b\u8239\u8d8a", "name": "\u5ca9\u624b\u8239\u8d8a", "name:en": "Iwate-Funakoshi", "name:ja": "\u5ca9\u624b\u8239\u8d8a", "name:ja_rm": "Iwate-Funakoshi", "name:ko": "\uc774\uc640\ud14c\ud6c4\ub098\ucf54\uc2dc", "note": "National-Land Numerical Information (Railway) 2007, MLIT Japan", "note:ja": "\u56fd\u571f\u6570\u5024\u60c5\u5831\uff08\u9244\u9053\u30c7\u30fc\u30bf\uff09\u5e73\u621019\u5e74\u3000\u56fd\u571f\u4ea4\u901a\u7701", "public_transport": "station", "railway": "station", "source": "KSJ2", "source_ref": "http://nlftp.mlit.go.jp/ksj/jpgis/datalist/KsjTmplt-N02-v1_1.html", "website": "https://www.sanrikutetsudou.com/?p=12035", "wikidata": "Q6100776", "wikipedia": "ja:\u5ca9\u624b\u8239\u8d8a\u99c5"}}, {"type": "node", "id": 264236801, "lat": 39.3268633, "lon": 141.8880137, "tags": {"KSJ2:LIN": "\u5c71\u7530\u7dda", "KSJ2:STN": "\u9d5c\u4f4f\u5c45", "name": "\u9d5c\u4f4f\u5c45", "name:en": "Unosumai", "name:ja": "\u9d5c\u4f4f\u5c45", "name:ja_rm": "Unosumai", "name:ko": "\uc6b0\ub178\uc2a4\ub9c8\uc774", "note": "National-Land Numerical Information (Railway) 2007, MLIT Japan", "note:ja": "\u56fd\u571f\u6570\u5024\u60c5\u5831\uff08\u9244\u9053\u30c7\u30fc\u30bf\uff09\u5e73\u621019\u5e74\u3000\u56fd\u571f\u4ea4\u901a\u7701", "operator": "\u4e09\u9678\u9244\u9053", "operator:ja": "\u4e09\u9678\u9244\u9053", "public_transport": "station", "railway": "station", "source": "KSJ2", "source_ref": "http://nlftp.mlit.go.jp/ksj/jpgis/datalist/KsjTmplt-N02-v1_1.html", "website": "https://www.sanrikutetsudou.com/?p=12046", "wikidata": "Q7897271", "wikipedia": "ja:\u9d5c\u4f4f\u5c45\u99c5"}}, {"type": "node", "id": 264237036, "lat": 39.3082279, "lon": 141.8889773, "tags": {"KSJ2:LIN": "\u5c71\u7530\u7dda", "KSJ2:STN": "\u4e21\u77f3", "name": "\u4e21\u77f3", "name:en": "Ryoishi", "name:ja": "\u4e21\u77f3", "name:ja_rm": "Ry\u014dishi", "name:ko": "\ub8cc\uc774\uc2dc", "note": "National-Land Numerical Information (Railway) 2007, MLIT Japan", "note:ja": "\u56fd\u571f\u6570\u5024\u60c5\u5831\uff08\u9244\u9053\u30c7\u30fc\u30bf\uff09\u5e73\u621019\u5e74\u3000\u56fd\u571f\u4ea4\u901a\u7701", "operator": "\u4e09\u9678\u9244\u9053", "operator:ja": "\u4e09\u9678\u9244\u9053", "public_transport": "station", "railway": "station", "source": "KSJ2", "source_ref": "http://nlftp.mlit.go.jp/ksj/jpgis/datalist/KsjTmplt-N02-v1_1.html", "website": "https://www.sanrikutetsudou.com/?p=12049", "wikidata": "Q7385594", "wikipedia": "ja:\u4e21\u77f3\u99c5"}}, {"type": "node", "id": 264237096, "lat": 39.3836466, "lon": 141.9351291, "tags": {"KSJ2:LIN": "\u5c71\u7530\u7dda", "KSJ2:STN": "\u6d6a\u677f\u6d77\u5cb8", "name": "\u6d6a\u677f\u6d77\u5cb8", "name:en": "Namiita-Kaigan", "name:ja": "\u6d6a\u677f\u6d77\u5cb8", "name:ja_rm": "Namiita-Kaigan", "name:ko": "\ub098\ubbf8\uc774\ud0c0\uce74\uc774\uac04", "note": "National-Land Numerical Information (Railway) 2007, MLIT Japan", "note:ja": "\u56fd\u571f\u6570\u5024\u60c5\u5831\uff08\u9244\u9053\u30c7\u30fc\u30bf\uff09\u5e73\u621019\u5e74\u3000\u56fd\u571f\u4ea4\u901a\u7701", "operator": "\u4e09\u9678\u9244\u9053", "operator:ja": "\u4e09\u9678\u9244\u9053", "public_transport": "station", "railway": "station", "source": "KSJ2", "source_ref": "http://nlftp.mlit.go.jp/ksj/jpgis/datalist/KsjTmplt-N02-v1_1.html", "website": "https://www.sanrikutetsudou.com/?p=12037", "wikidata": "Q6961845", "wikipedia": "ja:\u6d6a\u677f\u6d77\u5cb8\u99c5"}}, {"type": "node", "id": 264238326, "lat": 39.3698457, "lon": 141.938865, "tags": {"KSJ2:LIN": "\u5c71\u7530\u7dda", "KSJ2:STN": "\u5409\u91cc\u5409\u91cc", "name": "\u5409\u91cc\u5409\u91cc", "name:en": "Kirikiri", "name:ja": "\u5409\u91cc\u5409\u91cc", "name:ja_rm": "Kirikiri", "name:ko": "\uae30\ub9ac\ud0a4\ub9ac", "note": "National-Land Numerical Information (Railway) 2007, MLIT Japan", "note:ja": "\u56fd\u571f\u6570\u5024\u60c5\u5831\uff08\u9244\u9053\u30c7\u30fc\u30bf\uff09\u5e73\u621019\u5e74\u3000\u56fd\u571f\u4ea4\u901a\u7701", "operator": "\u4e09\u9678\u9244\u9053", "public_transport": "station", "railway": "station", "source": "KSJ2", "source_ref": "http://nlftp.mlit.go.jp/ksj/jpgis/datalist/KsjTmplt-N02-v1_1.html", "website": "https://www.sanrikutetsudou.com/?p=12041", "wikidata": "Q3892986", "wikipedia": "ja:\u5409\u91cc\u5409\u91cc\u99c5"}}, {"type": "node", "id": 264238639, "lat": 39.3566039, "lon": 141.9022324, "tags": {"KSJ2:LIN": "\u5c71\u7530\u7dda", "KSJ2:STN": "\u5927\u69cc", "name": "\u5927\u69cc", "name:en": "Otsuchi", "name:ja": "\u5927\u69cc", "name:ja_rm": "\u014ctsuchi", "name:ko": "\uc624\uc4f0\uce58", "note": "National-Land Numerical Information (Railway) 2007, MLIT Japan", "note:ja": "\u56fd\u571f\u6570\u5024\u60c5\u5831\uff08\u9244\u9053\u30c7\u30fc\u30bf\uff09\u5e73\u621019\u5e74\u3000\u56fd\u571f\u4ea4\u901a\u7701", "operator": "\u4e09\u9678\u9244\u9053", "operator:ja": "\u4e09\u9678\u9244\u9053", "public_transport": "station", "railway": "station", "source": "KSJ2", "source_ref": "http://nlftp.mlit.go.jp/ksj/jpgis/datalist/KsjTmplt-N02-v1_1.html", "website": "https://www.sanrikutetsudou.com/?p=12044", "wikidata": "Q8081776", "wikipedia": "ja:\u5927\u69cc\u99c5"}}, {"type": "node", "id": 264240774, "lat": 39.4540258, "lon": 141.9552778, "tags": {"name": "\u7e54\u7b20", "name:en": "Orikasa", "name:ja": "\u7e54\u7b20", "name:ja_rm": "Orikasa", "name:ko": "\uc624\ub9ac\uce74\uc0ac", "operator": "\u4e09\u9678\u9244\u9053", "operator:ja": "\u4e09\u9678\u9244\u9053", "public_transport": "station", "railway": "station", "train": "yes", "website": "https://www.sanrikutetsudou.com/?p=12033", "wikidata": "Q7102667", "wikipedia": "ja:\u7e54\u7b20\u99c5"}}, {"type": "node", "id": 264254043, "lat": 39.2507071, "lon": 141.7604816, "tags": {"name": "\u6d1e\u6cc9", "name:en": "Dosen", "name:ja": "\u6d1e\u6cc9", "name:ja_rm": "D\u014dsen", "name:ko": "\ub3c4\uc13c", "note": "National-Land Numerical Information (Railway) 2007, MLIT Japan", "note:ja": "\u56fd\u571f\u6570\u5024\u60c5\u5831\uff08\u9244\u9053\u30c7\u30fc\u30bf\uff09\u5e73\u621019\u5e74\u3000\u56fd\u571f\u4ea4\u901a\u7701", "public_transport": "station", "railway": "station", "source": "KSJ2", "source_ref": "http://nlftp.mlit.go.jp/ksj/jpgis/datalist/KsjTmplt-N02-v1_1.html", "wikidata": "Q3893001", "wikipedia": "ja:\u6d1e\u6cc9\u99c5"}}, {"type": "node", "id": 264254095, "lat": 39.2645683, "lon": 141.8365965, "tags": {"KSJ2:LIN": "\u91dc\u77f3\u7dda", "KSJ2:STN": "\u5c0f\u4f50\u91ce", "name": "\u5c0f\u4f50\u91ce", "name:en": "Kosano", "name:ja": "\u5c0f\u4f50\u91ce", "name:ja_rm": "Kosano", "name:ko": "\uace0\uc0ac\ub178", "note": "National-Land Numerical Information (Railway) 2007, MLIT Japan", "note:ja": "\u56fd\u571f\u6570\u5024\u60c5\u5831\uff08\u9244\u9053\u30c7\u30fc\u30bf\uff09\u5e73\u621019\u5e74\u3000\u56fd\u571f\u4ea4\u901a\u7701", "public_transport": "station", "railway": "station", "source": "KSJ2", "source_ref": "http://nlftp.mlit.go.jp/ksj/jpgis/datalist/KsjTmplt-N02-v1_1.html", "wikidata": "Q3893007", "wikipedia": "ja:\u5c0f\u4f50\u91ce\u99c5"}}, {"type": "node", "id": 264254841, "lat": 39.2563991, "lon": 141.8015862, "tags": {"name": "\u677e\u5009", "name:en": "Matsukura", "name:ja": "\u677e\u5009", "name:ja_rm": "Matsukura", "name:ko": "\ub9c8\uc4f0\ucfe0\ub77c", "note": "National-Land Numerical Information (Railway) 2007, MLIT Japan", "note:ja": "\u56fd\u571f\u6570\u5024\u60c5\u5831\uff08\u9244\u9053\u30c7\u30fc\u30bf\uff09\u5e73\u621019\u5e74\u3000\u56fd\u571f\u4ea4\u901a\u7701", "public_transport": "station", "railway": "station", "source": "KSJ2", "source_ref": "http://nlftp.mlit.go.jp/ksj/jpgis/datalist/KsjTmplt-N02-v1_1.html", "wikidata": "Q3892966", "wikipedia": "ja:\u677e\u5009\u99c5"}}, {"type": "node", "id": 264255486, "lat": 39.2807739, "lon": 141.7184277, "tags": {"KSJ2:LIN": "\u91dc\u77f3\u7dda", "KSJ2:STN": "\u9678\u4e2d\u5927\u6a4b", "name": "\u9678\u4e2d\u5927\u6a4b", "name:en": "Rikuchu-Ohashi", "name:ja": "\u9678\u4e2d\u5927\u6a4b", "name:ja-Hira": "\u308a\u304f\u3061\u3085\u3046\u304a\u304a\u306f\u3057", "name:ja_rm": "Rikuch\u016b-\u014chashi", "name:ko": "\ub9ac\ucfe0\ucd94\uc624\ud558\uc2dc", "note": "National-Land Numerical Information (Railway) 2007, MLIT Japan", "note:ja": "\u56fd\u571f\u6570\u5024\u60c5\u5831\uff08\u9244\u9053\u30c7\u30fc\u30bf\uff09\u5e73\u621019\u5e74\u3000\u56fd\u571f\u4ea4\u901a\u7701", "public_transport": "station", "railway": "station", "source": "KSJ2", "source_ref": "http://nlftp.mlit.go.jp/ksj/jpgis/datalist/KsjTmplt-N02-v1_1.html", "wikidata": "Q3892975", "wikipedia": "ja:\u9678\u4e2d\u5927\u6a4b\u99c5"}}, {"type": "node", "id": 3907992152, "lat": 39.0857647, "lon": 141.7106981, "tags": {"bus": "yes", "name": "\u76db", "name:en": "Sakari", "name:ja": "\u76db", "name:ja_rm": "Sakari", "name:ko": "\uc0ac\uce74\ub9ac", "note": "National-Land Numerical Information (Railway) 2007, MLIT Japan", "public_transport": "station", "railway": "station", "source": "KSJ2", "source_ref": "http://nlftp.mlit.go.jp/ksj/jpgis/datalist/KsjTmplt-N02-v1_1.html", "train": "yes", "website": "https://www.sanrikutetsudou.com/?p=638", "wikidata": "Q8190872", "wikipedia": "ja:\u76db\u99c5"}}, {"type": "node", "id": 3910699182, "lat": 39.2734923, "lon": 141.8724537, "tags": {"KSJ2:LIN": "\u5357\u30ea\u30a2\u30b9\u7dda;\u5c71\u7530\u7dda;\u91dc\u77f3\u7dda", "KSJ2:STN": "\u91dc\u77f3", "name": "\u91dc\u77f3", "name:en": "Kamaishi", "name:ja": "\u91dc\u77f3", "name:ja_kana": "\u304b\u307e\u3044\u3057", "name:ja_rm": "Kamaishi", "name:ko": "\uac00\ub9c8\uc774\uc2dc", "note": "National-Land Numerical Information (Railway) 2007, MLIT Japan", "note:ja": "\u56fd\u571f\u6570\u5024\u60c5\u5831\uff08\u9244\u9053\u30c7\u30fc\u30bf\uff09\u5e73\u621019\u5e74\u3000\u56fd\u571f\u4ea4\u901a\u7701", "public_transport": "station", "railway": "station", "source": "KSJ2", "source_ref": "http://nlftp.mlit.go.jp/ksj/jpgis/datalist/KsjTmplt-N02-v1_1.html", "website": "https://www.sanrikutetsudou.com/?p=620", "wikidata": "Q3892979", "wikipedia": "ja:\u91dc\u77f3\u99c5"}}, {"type": "node", "id": 3910699183, "lat": 39.2017921, "lon": 141.8613539, "tags": {"KSJ2:LIN": "\u5357\u30ea\u30a2\u30b9\u7dda", "name": "\u5510\u4e39", "name:en": "Toni", "name:ja": "\u5510\u4e39", "name:ja_kana": "\u3068\u3046\u306b", "name:ja_rm": "T\u014dni", "name:ko": "\ub3c4\ub2c8", "note": "National-Land Numerical Information (Railway) 2007, MLIT Japan", "note:ja": "\u56fd\u571f\u6570\u5024\u60c5\u5831\uff08\u9244\u9053\u30c7\u30fc\u30bf\uff09\u5e73\u621019\u5e74\u3000\u56fd\u571f\u4ea4\u901a\u7701", "operator": "\u4e09\u9678\u9244\u9053", "operator:ja": "\u4e09\u9678\u9244\u9053", "public_transport": "station", "railway": "station", "source": "KSJ2", "source_ref": "http://nlftp.mlit.go.jp/ksj/jpgis/datalist/KsjTmplt-N02-v1_1.html", "website": "https://www.sanrikutetsudou.com/?p=624", "wikidata": "Q11418503", "wikipedia": "ja:\u5510\u4e39\u99c5"}}]}