{"version": 0.6, "generator": "Overpass API 0.7.62.4 2390de5a", "osm3s": {"timestamp_osm_base": "2024-12-30T14:57:07Z", "copyright": "The data included in this document is from www.openstreetmap.org. The data is made available under ODbL."}, "elements": [{"type": "node", "id": 264802427, "lat": 37.6992561, "lon": 138.8319529, "tags": {"name": "\u5f25\u5f66", "name:en": "Yahiko", "name:ja": "\u5f25\u5f66", "name:ko": "\uc57c\ud788\ucf54", "public_transport": "stop_position", "railway": "station", "source": "Bing 2011", "wikidata": "Q8046814", "wikipedia": "ja:\u5f25\u5f66\u99c5"}}, {"type": "node", "id": 264802433, "lat": 37.690813, "lon": 138.851307, "tags": {"KSJ2:LIN": "\u5f25\u5f66\u7dda", "KSJ2:STN": "\u77e2\u4f5c", "name": "\u77e2\u4f5c", "name:en": "Yahagi", "name:ja": "\u77e2\u4f5c", "name:ko": "\uc57c\ud558\uae30", "note": "National-Land Numerical Information (Railway) 2007, MLIT Japan", "note:ja": "\u56fd\u571f\u6570\u5024\u60c5\u5831\uff08\u9244\u9053\u30c7\u30fc\u30bf\uff09\u5e73\u621019\u5e74\u3000\u56fd\u571f\u4ea4\u901a\u7701", "railway": "station", "source": "KSJ2", "source_ref": "http://nlftp.mlit.go.jp/ksj/jpgis/datalist/KsjTmplt-N02-v1_1.html", "toilets:wheelchair": "no", "wikidata": "Q8046789", "wikipedia": "ja:\u77e2\u4f5c\u99c5"}}]}