{"version": 0.6, "generator": "Overpass API 0.7.62.4 2390de5a", "osm3s": {"timestamp_osm_base": "2024-12-30T15:17:43Z", "copyright": "The data included in this document is from www.openstreetmap.org. The data is made available under ODbL."}, "elements": [{"type": "node", "id": 264430249, "lat": 43.7022708, "lon": 142.3821499, "tags": {"KSJ2:LIN": "\u5bcc\u826f\u91ce\u7dda", "KSJ2:STN": "\u897f\u745e\u7a42", "name": "\u897f\u745e\u7a42", "name:en": "Nishi-Mizuho", "name:ja": "\u897f\u745e\u7a42", "name:ja_kana": "\u306b\u3057\u307f\u305a\u307b", "name:ja_rm": "Nishi-Mizuho", "name:ko": "\ub2c8\uc2dc\ubbf8\uc988\ud638", "note": "National-Land Numerical Information (Railway) 2007, MLIT Japan", "note:ja": "\u56fd\u571f\u6570\u5024\u60c5\u5831\uff08\u9244\u9053\u30c7\u30fc\u30bf\uff09\u5e73\u621019\u5e74\u3000\u56fd\u571f\u4ea4\u901a\u7701", "railway": "station", "ref": "F32", "source": "KSJ2", "source_ref": "http://nlftp.mlit.go.jp/ksj/jpgis/datalist/KsjTmplt-N02-v1_1.html", "wikidata": "Q7040380", "wikipedia": "ja:\u897f\u745e\u7a42\u99c5"}}, {"type": "node", "id": 264430250, "lat": 43.5376491, "lon": 142.4473761, "tags": {"KSJ2:LIN": "\u5bcc\u826f\u91ce\u7dda", "KSJ2:STN": "\u7f8e\u99ac\u725b", "name": "\u7f8e\u99ac\u725b", "name:en": "Bibaushi", "name:ja": "\u7f8e\u99ac\u725b", "name:ja_kana": "\u3073\u3070\u3046\u3057", "name:ja_rm": "Bibaushi", "name:ko": "\ube44\ubc14\uc6b0\uc2dc", "note": "National-Land Numerical Information (Railway) 2007, MLIT Japan", "note:ja": "\u56fd\u571f\u6570\u5024\u60c5\u5831\uff08\u9244\u9053\u30c7\u30fc\u30bf\uff09\u5e73\u621019\u5e74\u3000\u56fd\u571f\u4ea4\u901a\u7701", "public_transport": "station", "railway": "station", "source": "KSJ2", "source_ref": "http://nlftp.mlit.go.jp/ksj/jpgis/datalist/KsjTmplt-N02-v1_1.html", "wikidata": "Q4902965", "wikipedia": "ja:\u7f8e\u99ac\u725b\u99c5"}}, {"type": "node", "id": 264430271, "lat": 43.6434786, "lon": 142.4512768, "tags": {"KSJ2:LIN": "\u5bcc\u826f\u91ce\u7dda", "KSJ2:STN": "\u5343\u4ee3\u30f6\u5ca1", "name": "\u5343\u4ee3\u30f6\u5ca1", "name:en": "Chiyogaoka", "name:ja": "\u5343\u4ee3\u30f6\u5ca1", "name:ja_kana": "\u3061\u3088\u304c\u304a\u304b", "name:ja_rm": "Chiyogaoka", "name:ko": "\uc9c0\uc694\uac00\uc624\uce74", "note": "National-Land Numerical Information (Railway) 2007, MLIT Japan", "note:ja": "\u56fd\u571f\u6570\u5024\u60c5\u5831\uff08\u9244\u9053\u30c7\u30fc\u30bf\uff09\u5e73\u621019\u5e74\u3000\u56fd\u571f\u4ea4\u901a\u7701", "railway": "station", "ref": "F35", "source": "KSJ2", "source_ref": "http://nlftp.mlit.go.jp/ksj/jpgis/datalist/KsjTmplt-N02-v1_1.html", "wikidata": "Q5102629", "wikipedia": "ja:\u5343\u4ee3\u30f6\u5ca1\u99c5"}}, {"type": "node", "id": 264430273, "lat": 43.7627501, "lon": 142.3579263, "tags": {"KSJ2:LIN": "\u5bcc\u826f\u91ce\u7dda", "KSJ2:STN": "\u65ed\u5ddd", "name": "\u65ed\u5ddd", "name:en": "Asahikawa", "name:ja": "\u65ed\u5ddd", "name:ja_kana": "\u3042\u3055\u3072\u304b\u308f", "name:ja_rm": "Asahikawa", "name:ko": "\uc544\uc0ac\ud788\uce74\uc640", "note": "National-Land Numerical Information (Railway) 2007, MLIT Japan", "note:ja": "\u56fd\u571f\u6570\u5024\u60c5\u5831\uff08\u9244\u9053\u30c7\u30fc\u30bf\uff09\u5e73\u621019\u5e74\u3000\u56fd\u571f\u4ea4\u901a\u7701", "operator": "JR\u5317\u6d77\u9053 (JR Hokkaido)", "railway": "station", "ref": "A28", "source": "KSJ2", "source_ref": "http://nlftp.mlit.go.jp/ksj/jpgis/datalist/KsjTmplt-N02-v1_1.html", "wikidata": "Q1073617", "wikipedia": "ja:\u65ed\u5ddd\u99c5"}}, {"type": "node", "id": 264430274, "lat": 43.6822208, "lon": 142.3935605, "tags": {"KSJ2:LIN": "\u5bcc\u826f\u91ce\u7dda", "KSJ2:STN": "\u897f\u795e\u697d", "name": "\u897f\u795e\u697d", "name:en": "Nishi-Kagura", "name:ja": "\u897f\u795e\u697d", "name:ja_kana": "\u306b\u3057\u304b\u3050\u3089", "name:ja_rm": "Nishi-Kagura", "name:ko": "\ub2c8\uc2dc\uce74\uad6c\ub77c", "note": "National-Land Numerical Information (Railway) 2007, MLIT Japan", "note:ja": "\u56fd\u571f\u6570\u5024\u60c5\u5831\uff08\u9244\u9053\u30c7\u30fc\u30bf\uff09\u5e73\u621019\u5e74\u3000\u56fd\u571f\u4ea4\u901a\u7701", "railway": "station", "ref": "F33", "source": "KSJ2", "source_ref": "http://nlftp.mlit.go.jp/ksj/jpgis/datalist/KsjTmplt-N02-v1_1.html", "wikidata": "Q8191113", "wikipedia": "ja:\u897f\u795e\u697d\u99c5"}}, {"type": "node", "id": 264430305, "lat": 43.7309287, "lon": 142.3657889, "tags": {"KSJ2:LIN": "\u5bcc\u826f\u91ce\u7dda", "KSJ2:STN": "\u7dd1\u304c\u4e18", "name": "\u7dd1\u304c\u4e18", "name:en": "Midorigaoka", "name:ja": "\u7dd1\u304c\u4e18", "name:ja_kana": "\u307f\u3069\u308a\u304c\u304a\u304b", "name:ko": "\ubbf8\ub3c4\ub9ac\uac00\uc624\uce74", "note": "National-Land Numerical Information (Railway) 2007, MLIT Japan", "note:ja": "\u56fd\u571f\u6570\u5024\u60c5\u5831\uff08\u9244\u9053\u30c7\u30fc\u30bf\uff09\u5e73\u621019\u5e74\u3000\u56fd\u571f\u4ea4\u901a\u7701", "railway": "station", "ref": "F30", "source": "KSJ2", "source_ref": "http://nlftp.mlit.go.jp/ksj/jpgis/datalist/KsjTmplt-N02-v1_1.html", "wikidata": "Q8192222", "wikipedia": "ja:\u7dd1\u304c\u4e18\u99c5 (\u5317\u6d77\u9053)"}}, {"type": "node", "id": 264430307, "lat": 43.5909601, "lon": 142.4612251, "tags": {"KSJ2:LIN": "\u5bcc\u826f\u91ce\u7dda", "KSJ2:STN": "\u7f8e\u745b", "name": "\u7f8e\u745b", "name:en": "Biei", "name:ja": "\u7f8e\u745b", "name:ja_kana": "\u3073\u3048\u3044", "name:ja_rm": "Biei", "name:ko": "\ube44\uc5d0\uc774", "note": "National-Land Numerical Information (Railway) 2007, MLIT Japan", "note:ja": "\u56fd\u571f\u6570\u5024\u60c5\u5831\uff08\u9244\u9053\u30c7\u30fc\u30bf\uff09\u5e73\u621019\u5e74\u3000\u56fd\u571f\u4ea4\u901a\u7701", "railway": "station", "ref": "F37", "source": "KSJ2", "source_ref": "http://nlftp.mlit.go.jp/ksj/jpgis/datalist/KsjTmplt-N02-v1_1.html", "wikidata": "Q867979", "wikipedia": "ja:\u7f8e\u745b\u99c5"}}, {"type": "node", "id": 264430313, "lat": 43.7209639, "lon": 142.3714513, "tags": {"KSJ2:LIN": "\u5bcc\u826f\u91ce\u7dda", "KSJ2:STN": "\u897f\u5fa1\u6599", "name": "\u897f\u5fa1\u6599", "name:en": "Nishigoryo", "name:ja": "\u897f\u5fa1\u6599", "name:ja_kana": "\u306b\u3057\u3054\u308a\u3087\u3046", "name:ja_rm": "Nishigory\u014d", "name:ko": "\ub2c8\uc2dc\uace0\ub8cc", "note": "National-Land Numerical Information (Railway) 2007, MLIT Japan", "note:ja": "\u56fd\u571f\u6570\u5024\u60c5\u5831\uff08\u9244\u9053\u30c7\u30fc\u30bf\uff09\u5e73\u621019\u5e74\u3000\u56fd\u571f\u4ea4\u901a\u7701", "railway": "station", "ref": "F31", "source": "KSJ2", "source_ref": "http://nlftp.mlit.go.jp/ksj/jpgis/datalist/KsjTmplt-N02-v1_1.html", "wikidata": "Q7040338", "wikipedia": "ja:\u897f\u5fa1\u6599\u99c5"}}, {"type": "node", "id": 264430315, "lat": 43.617963, "lon": 142.479649, "tags": {"KSJ2:LIN": "\u5bcc\u826f\u91ce\u7dda", "KSJ2:STN": "\u5317\u7f8e\u745b", "name": "\u5317\u7f8e\u745b", "name:en": "Kita-Biei", "name:ja": "\u5317\u7f8e\u745b", "name:ja_kana": "\u304d\u305f\u3073\u3048\u3044", "name:ja_rm": "Kita-Biei", "name:ko": "\uae30\ud0c0\ube44\uc5d0\uc774", "note": "National-Land Numerical Information (Railway) 2007, MLIT Japan", "note:ja": "\u56fd\u571f\u6570\u5024\u60c5\u5831\uff08\u9244\u9053\u30c7\u30fc\u30bf\uff09\u5e73\u621019\u5e74\u3000\u56fd\u571f\u4ea4\u901a\u7701", "railway": "station", "ref": "F36", "source": "KSJ2", "source_ref": "http://nlftp.mlit.go.jp/ksj/jpgis/datalist/KsjTmplt-N02-v1_1.html", "wikidata": "Q6417520", "wikipedia": "ja:\u5317\u7f8e\u745b\u99c5"}}, {"type": "node", "id": 264430494, "lat": 43.6691933, "lon": 142.4145765, "tags": {"KSJ2:LIN": "\u5bcc\u826f\u91ce\u7dda", "KSJ2:STN": "\u897f\u8056\u548c", "name": "\u897f\u8056\u548c", "name:en": "Nishi-Seiwa", "name:ja": "\u897f\u8056\u548c", "name:ja_kana": "\u306b\u3057\u305b\u3044\u308f", "name:ja_rm": "Nishi-Seiwa", "name:ko": "\ub2c8\uc2dc\uc138\uc774\uc640", "note": "National-Land Numerical Information (Railway) 2007, MLIT Japan", "note:ja": "\u56fd\u571f\u6570\u5024\u60c5\u5831\uff08\u9244\u9053\u30c7\u30fc\u30bf\uff09\u5e73\u621019\u5e74\u3000\u56fd\u571f\u4ea4\u901a\u7701", "public_transport": "station", "railway": "station", "ref": "F34", "source": "KSJ2", "source_ref": "http://nlftp.mlit.go.jp/ksj/jpgis/datalist/KsjTmplt-N02-v1_1.html", "wikidata": "Q7040398", "wikipedia": "ja:\u897f\u8056\u548c\u99c5"}}, {"type": "node", "id": 264430497, "lat": 43.7451454, "lon": 142.3583198, "tags": {"KSJ2:LIN": "\u5bcc\u826f\u91ce\u7dda", "KSJ2:STN": "\u795e\u697d\u5ca1", "name": "\u795e\u697d\u5ca1", "name:en": "Kaguraoka", "name:ja": "\u795e\u697d\u5ca1", "name:ja_kana": "\u304b\u3050\u3089\u304a\u304b", "name:ja_rm": "Kaguraoka", "name:ko": "\uac00\uad6c\ub77c\uc624\uce74", "note": "National-Land Numerical Information (Railway) 2007, MLIT Japan", "note:ja": "\u56fd\u571f\u6570\u5024\u60c5\u5831\uff08\u9244\u9053\u30c7\u30fc\u30bf\uff09\u5e73\u621019\u5e74\u3000\u56fd\u571f\u4ea4\u901a\u7701", "public_transport": "stop_position", "railway": "station", "ref": "F29", "source": "KSJ2", "source_ref": "http://nlftp.mlit.go.jp/ksj/jpgis/datalist/KsjTmplt-N02-v1_1.html", "wikidata": "Q864424", "wikipedia": "ja:\u795e\u697d\u5ca1\u99c5"}}, {"type": "node", "id": 264434916, "lat": 43.8962388, "lon": 142.6555387, "tags": {"name": "\u4e2d\u611b\u5225", "name:en": "Naka-Aibetsu", "name:ja": "\u4e2d\u611b\u5225", "name:ko": "\ub098\uce74\uc544\uc774\ubca0\uc4f0", "railway": "station", "source": "KSJ2", "wikidata": "Q6960081", "wikipedia": "ja:\u4e2d\u611b\u5225\u99c5"}}, {"type": "node", "id": 264434925, "lat": 43.8257933, "lon": 142.5170687, "tags": {"name": "\u5f53\u9ebb", "name:en": "T\u014dma", "name:ja": "\u5f53\u9ebb", "name:ja_kana": "\u3068\u3046\u307e", "name:ja_rm": "T\u014dma", "name:ko": "\ub3c4\ub9c8", "railway": "station", "source": "KSJ2", "wikidata": "Q7862702", "wikipedia": "ja:\u5f53\u9ebb\u99c5"}}, {"type": "node", "id": 264435019, "lat": 43.7805099, "lon": 142.4087045, "tags": {"name": "\u5357\u6c38\u5c71", "name:en": "Minami-Nagayama", "name:ja": "\u5357\u6c38\u5c71", "name:ko": "\ubbf8\ub098\ubbf8\ub098\uac00\uc57c\ub9c8", "name:ru": "\u0412\u0438\u043d\u0433-\u0428\u0430\u043d\u044c-\u042e\u0436\u043d\u044b\u0439", "railway": "station", "source": "KSJ2", "wikidata": "Q6862957", "wikipedia": "ja:\u5357\u6c38\u5c71\u99c5"}}, {"type": "node", "id": 264435619, "lat": 43.776596, "lon": 142.4410352, "tags": {"name": "\u6771\u65ed\u5ddd", "name:en": "Higashi-Asahikawa", "name:ja": "\u6771\u65ed\u5ddd", "name:ko": "\ud788\uac00\uc2dc\uc544\uc0ac\ud788\uce74\uc640", "railway": "station", "source": "KSJ2", "wikidata": "Q5753484", "wikipedia": "ja:\u6771\u65ed\u5ddd\u99c5"}}, {"type": "node", "id": 264435653, "lat": 43.851709, "lon": 142.694129, "tags": {"name": "\u5b89\u8db3\u9593", "name:en": "Antaroma", "name:ja": "\u5b89\u8db3\u9593", "name:ko": "\uc548\ud0c0\ub85c\ub9c8", "railway": "station", "source": "KSJ2", "wikidata": "Q4771058", "wikipedia": "ja:\u5b89\u8db3\u9593\u99c5"}}, {"type": "node", "id": 264435945, "lat": 43.8489623, "lon": 142.7664783, "tags": {"name": "\u4e0a\u5ddd", "name:en": "Kamikawa", "name:ja": "\u4e0a\u5ddd", "name:ko": "\uac00\ubbf8\uce74\uc640", "public_transport": "station", "railway": "station", "source": "KSJ2", "wikidata": "Q6357868", "wikipedia": "ja:\u4e0a\u5ddd\u99c5"}}, {"type": "node", "id": 264436580, "lat": 43.875741, "lon": 142.525223, "tags": {"name": "\u4f0a\u9999\u725b", "name:en": "Ikaushi", "name:ja": "\u4f0a\u9999\u725b", "name:ko": "\uc774\uce74\uc6b0\uc2dc", "railway": "station", "source": "KSJ2", "wikidata": "Q5995483", "wikipedia": "ja:\u4f0a\u9999\u725b\u99c5"}}, {"type": "node", "id": 264437087, "lat": 43.802184, "lon": 142.487327, "tags": {"name": "\u685c\u5ca1", "name:en": "Sakuraoka", "name:ja": "\u685c\u5ca1", "name:ko": "\uc0ac\ucfe0\ub77c\uc624\uce74", "railway": "station", "source": "KSJ2", "wikidata": "Q8190663", "wikipedia": "ja:\u685c\u5ca1\u99c5"}}, {"type": "node", "id": 264449965, "lat": 43.8141987, "lon": 142.4344105, "tags": {"KSJ2:LIN": "\u5b97\u8c37\u7dda", "name": "\u6c38\u5c71", "name:en": "Nagayama", "name:ja": "\u6c38\u5c71", "name:ja_rm": "Nagayama", "name:ko": "\ub098\uac00\uc57c\ub9c8", "name:ru": "\u0418\u043e\u043d\u0433-\u0428\u0430\u043d\u044c", "note": "National-Land Numerical Information (Railway) 2007, MLIT Japan", "note:ja": "\u56fd\u571f\u6570\u5024\u60c5\u5831\uff08\u9244\u9053\u30c7\u30fc\u30bf\uff09\u5e73\u621019\u5e74\u3000\u56fd\u571f\u4ea4\u901a\u7701", "railway": "station", "ref": "W31", "source": "KSJ2", "source_ref": "http://nlftp.mlit.go.jp/ksj/jpgis/datalist/KsjTmplt-N02-v1_1.html", "wikidata": "Q872885", "wikipedia": "ja:\u6c38\u5c71\u99c5"}}, {"type": "node", "id": 264450519, "lat": 43.8267036, "lon": 142.4544413, "tags": {"KSJ2:LIN": "\u5b97\u8c37\u7dda", "KSJ2:STN": "\u5317\u6c38\u5c71", "name": "\u5317\u6c38\u5c71", "name:en": "Kita-Nagayama", "name:ja": "\u5317\u6c38\u5c71", "name:ko": "\uae30\ud0c0\ub098\uac00\uc57c\ub9c8", "note": "National-Land Numerical Information (Railway) 2007, MLIT Japan", "note:ja": "\u56fd\u571f\u6570\u5024\u60c5\u5831\uff08\u9244\u9053\u30c7\u30fc\u30bf\uff09\u5e73\u621019\u5e74\u3000\u56fd\u571f\u4ea4\u901a\u7701", "railway": "station", "source": "KSJ2", "source_ref": "http://nlftp.mlit.go.jp/ksj/jpgis/datalist/KsjTmplt-N02-v1_1.html", "wikidata": "Q872816", "wikipedia": "ja:\u5317\u6c38\u5c71\u99c5"}}, {"type": "node", "id": 264451267, "lat": 43.8748825, "lon": 142.471427, "tags": {"KSJ2:LIN": "\u5b97\u8c37\u7dda", "KSJ2:STN": "\u6bd4\u5e03", "name": "\u6bd4\u5e03", "name:en": "Pippu", "name:ja": "\u6bd4\u5e03", "name:ko": "\ud54f\ud478", "note": "National-Land Numerical Information (Railway) 2007, MLIT Japan", "note:ja": "\u56fd\u571f\u6570\u5024\u60c5\u5831\uff08\u9244\u9053\u30c7\u30fc\u30bf\uff09\u5e73\u621019\u5e74\u3000\u56fd\u571f\u4ea4\u901a\u7701", "railway": "station", "source": "KSJ2", "source_ref": "http://nlftp.mlit.go.jp/ksj/jpgis/datalist/KsjTmplt-N02-v1_1.html", "wikidata": "Q872859", "wikipedia": "ja:\u6bd4\u5e03\u99c5"}}, {"type": "node", "id": 264451482, "lat": 43.7639244, "lon": 142.3758353, "tags": {"KSJ2:LIN": "\u5b97\u8c37\u7dda", "KSJ2:STN": "\u65ed\u5ddd\u56db\u6761", "name": "\u65ed\u5ddd\u56db\u6761", "name:en": "Asahikawa-yojo", "name:ja": "\u65ed\u5ddd\u56db\u6761", "name:ja_kana": "\u3042\u3055\u3072\u304b\u308f\u3088\u3058\u3087\u3046", "name:ja_rm": "Asahikawa-yojo", "name:ko": "\uc544\uc0ac\ud788\uce74\uc640\uc694\uc870", "note": "National-Land Numerical Information (Railway) 2007, MLIT Japan", "note:ja": "\u56fd\u571f\u6570\u5024\u60c5\u5831\uff08\u9244\u9053\u30c7\u30fc\u30bf\uff09\u5e73\u621019\u5e74\u3000\u56fd\u571f\u4ea4\u901a\u7701", "railway": "station", "ref": "A29", "source": "KSJ2", "source_ref": "http://nlftp.mlit.go.jp/ksj/jpgis/datalist/KsjTmplt-N02-v1_1.html", "wikidata": "Q872636", "wikipedia": "ja:\u65ed\u5ddd\u56db\u6761\u99c5"}}, {"type": "node", "id": 6063546673, "lat": 43.780067, "lon": 142.3847953, "tags": {"KSJ2:LIN": "\u5b97\u8c37\u7dda;\u77f3\u5317\u7dda", "KSJ2:STN": "\u65b0\u65ed\u5ddd", "name": "\u65b0\u65ed\u5ddd", "name:en": "Shin-Asahikawa", "name:ja": "\u65b0\u65ed\u5ddd", "name:ko": "\uc2e0\uc544\uc0ac\ud788\uce74\uc640", "name:ru": "\u0410\u0441\u0430\u0445\u0438\u043a\u0430\u0432\u0430-\u041d\u043e\u0432\u044b\u0439", "note": "National-Land Numerical Information (Railway) 2007, MLIT Japan", "note:ja": "\u56fd\u571f\u6570\u5024\u60c5\u5831\uff08\u9244\u9053\u30c7\u30fc\u30bf\uff09\u5e73\u621019\u5e74\u3000\u56fd\u571f\u4ea4\u901a\u7701", "railway": "station", "ref": "A30", "source": "KSJ2", "source_ref": "http://nlftp.mlit.go.jp/ksj/jpgis/datalist/KsjTmplt-N02-v1_1.html", "wikidata": "Q873131", "wikipedia": "ja:\u65b0\u65ed\u5ddd\u99c5"}}, {"type": "node", "id": 7350916476, "lat": 43.8986761, "lon": 142.5821583, "tags": {"name": "\u611b\u5225", "name:en": "Aibetsu", "name:ja": "\u611b\u5225", "name:ko": "\uc544\uc774\ubca0\uc4f0", "public_transport": "station", "railway": "station", "source": "KSJ2", "wikidata": "Q4696540", "wikipedia": "ja:\u611b\u5225\u99c5"}}]}