{"version": 0.6, "generator": "Overpass API 0.7.62.4 2390de5a", "osm3s": {"timestamp_osm_base": "2024-12-30T15:15:41Z", "copyright": "The data included in this document is from www.openstreetmap.org. The data is made available under ODbL."}, "elements": [{"type": "node", "id": 264423617, "lat": 42.6696174, "lon": 140.3057391, "tags": {"KSJ2:LIN": "\u51fd\u9928\u7dda", "KSJ2:STN": "\u9ed2\u677e\u5185", "name": "\u9ed2\u677e\u5185", "name:en": "Kuromatsunai", "name:ja": "\u9ed2\u677e\u5185", "name:ko": "\uad6c\ub85c\ub9c8\uc4f0\ub098\uc774", "note": "National-Land Numerical Information (Railway) 2007, MLIT Japan", "note:ja": "\u56fd\u571f\u6570\u5024\u60c5\u5831\uff08\u9244\u9053\u30c7\u30fc\u30bf\uff09\u5e73\u621019\u5e74\u3000\u56fd\u571f\u4ea4\u901a\u7701", "public_transport": "station", "railway": "station", "ref": "S30", "source": "KSJ2", "source_ref": "http://nlftp.mlit.go.jp/ksj/jpgis/datalist/KsjTmplt-N02-v1_1.html", "wikidata": "Q864218", "wikipedia": "ja:\u9ed2\u677e\u5185\u99c5"}}, {"type": "node", "id": 264423670, "lat": 42.6757064, "lon": 140.3749797, "tags": {"KSJ2:LIN": "\u51fd\u9928\u7dda", "KSJ2:STN": "\u71b1\u90db", "name": "\u71b1\u90db", "name:en": "Neppu", "name:ja": "\u71b1\u90db", "name:ko": "\ub137\ud478", "note": "National-Land Numerical Information (Railway) 2007, MLIT Japan", "note:ja": "\u56fd\u571f\u6570\u5024\u60c5\u5831\uff08\u9244\u9053\u30c7\u30fc\u30bf\uff09\u5e73\u621019\u5e74\u3000\u56fd\u571f\u4ea4\u901a\u7701", "public_transport": "station", "railway": "station", "ref": "S29", "source": "KSJ2", "source_ref": "http://nlftp.mlit.go.jp/ksj/jpgis/datalist/KsjTmplt-N02-v1_1.html", "wikidata": "Q864353", "wikipedia": "ja:\u71b1\u90db\u99c5"}}, {"type": "node", "id": 264426062, "lat": 42.761362, "lon": 140.4654829, "tags": {"KSJ2:LIN": "\u51fd\u9928\u7dda", "KSJ2:STN": "\u76ee\u540d", "name": "\u76ee\u540d", "name:en": "Mena", "name:ja": "\u76ee\u540d", "name:ko": "\uba54\ub098", "note": "National-Land Numerical Information (Railway) 2007, MLIT Japan", "note:ja": "\u56fd\u571f\u6570\u5024\u60c5\u5831\uff08\u9244\u9053\u30c7\u30fc\u30bf\uff09\u5e73\u621019\u5e74\u3000\u56fd\u571f\u4ea4\u901a\u7701", "public_transport": "station", "railway": "station", "ref": "S28", "source": "KSJ2", "source_ref": "http://nlftp.mlit.go.jp/ksj/jpgis/datalist/KsjTmplt-N02-v1_1.html", "wikidata": "Q848093", "wikipedia": "ja:\u76ee\u540d\u99c5"}}]}