{"version": 0.6, "generator": "Overpass API 0.7.62.4 2390de5a", "osm3s": {"timestamp_osm_base": "2024-12-30T15:10:30Z", "copyright": "The data included in this document is from www.openstreetmap.org. The data is made available under ODbL."}, "elements": [{"type": "node", "id": 263068741, "lat": 37.716006, "lon": 139.353368, "tags": {"KSJ2:LIN": "\u78d0\u8d8a\u897f\u7dda", "KSJ2:STN": "\u4e94\u5341\u5cf6", "name": "\u4e94\u5341\u5cf6", "name:en": "Igashima", "name:ja": "\u4e94\u5341\u5cf6", "name:ja_rm": "Igashima", "name:ko": "\uc774\uac00\uc2dc\ub9c8", "note": "National-Land Numerical Information (Railway) 2007, MLIT Japan", "note:ja": "\u56fd\u571f\u6570\u5024\u60c5\u5831\uff08\u9244\u9053\u30c7\u30fc\u30bf\uff09\u5e73\u621019\u5e74\u3000\u56fd\u571f\u4ea4\u901a\u7701", "railway": "station", "source": "KSJ2", "source_ref": "http://nlftp.mlit.go.jp/ksj/jpgis/datalist/KsjTmplt-N02-v1_1.html", "wikidata": "Q5991525", "wikipedia": "ja:\u4e94\u5341\u5cf6\u99c5"}}, {"type": "node", "id": 263068967, "lat": 37.7469155, "lon": 139.1697061, "tags": {"KSJ2:LIN": "\u78d0\u8d8a\u897f\u7dda", "KSJ2:STN": "\u5317\u4e94\u6cc9", "name": "\u5317\u4e94\u6cc9", "name:en": "Kita-Gosen", "name:ja": "\u5317\u4e94\u6cc9", "name:ja_rm": "Kita-Gosen", "name:ko": "\uae30\ud0c0\uace0\uc13c", "note": "National-Land Numerical Information (Railway) 2007, MLIT Japan", "note:ja": "\u56fd\u571f\u6570\u5024\u60c5\u5831\uff08\u9244\u9053\u30c7\u30fc\u30bf\uff09\u5e73\u621019\u5e74\u3000\u56fd\u571f\u4ea4\u901a\u7701", "railway": "station", "source": "KSJ2", "source_ref": "http://nlftp.mlit.go.jp/ksj/jpgis/datalist/KsjTmplt-N02-v1_1.html", "wikidata": "Q11401076", "wikipedia": "ja:\u5317\u4e94\u6cc9\u99c5"}}, {"type": "node", "id": 263068970, "lat": 37.7687383, "lon": 139.1624053, "tags": {"KSJ2:LIN": "\u78d0\u8d8a\u897f\u7dda", "KSJ2:STN": "\u65b0\u95a2", "name": "\u65b0\u95a2", "name:en": "Shinseki", "name:ja": "\u65b0\u95a2", "name:ja_rm": "Shinseki", "name:ko": "\uc2e0\uc138\ud0a4", "note": "National-Land Numerical Information (Railway) 2007, MLIT Japan", "note:ja": "\u56fd\u571f\u6570\u5024\u60c5\u5831\uff08\u9244\u9053\u30c7\u30fc\u30bf\uff09\u5e73\u621019\u5e74\u3000\u56fd\u571f\u4ea4\u901a\u7701", "railway": "station", "source": "KSJ2", "source_ref": "http://nlftp.mlit.go.jp/ksj/jpgis/datalist/KsjTmplt-N02-v1_1.html", "wikidata": "Q7497755", "wikipedia": "ja:\u65b0\u95a2\u99c5"}}, {"type": "node", "id": 263068972, "lat": 37.7087576, "lon": 139.3818032, "tags": {"KSJ2:LIN": "\u78d0\u8d8a\u897f\u7dda", "KSJ2:STN": "\u4e09\u5ddd", "name": "\u4e09\u5ddd", "name:en": "Mikawa", "name:ja": "\u4e09\u5ddd", "name:ja-Hira": "\u307f\u304b\u308f", "name:ja_rm": "Mikawa", "name:ko": "\ubbf8\uce74\uc640", "note": "National-Land Numerical Information (Railway) 2007, MLIT Japan", "note:ja": "\u56fd\u571f\u6570\u5024\u60c5\u5831\uff08\u9244\u9053\u30c7\u30fc\u30bf\uff09\u5e73\u621019\u5e74\u3000\u56fd\u571f\u4ea4\u901a\u7701", "railway": "station", "source": "KSJ2", "source_ref": "http://nlftp.mlit.go.jp/ksj/jpgis/datalist/KsjTmplt-N02-v1_1.html", "wikidata": "Q6845747", "wikipedia": "ja:\u4e09\u5ddd\u99c5 (\u65b0\u6f5f\u770c)"}}, {"type": "node", "id": 263068974, "lat": 37.736462, "lon": 139.322154, "tags": {"KSJ2:LIN": "\u78d0\u8d8a\u897f\u7dda", "KSJ2:STN": "\u6771\u4e0b\u6761", "name": "\u6771\u4e0b\u6761", "name:en": "Higashi-Gejo", "name:ja": "\u6771\u4e0b\u6761", "name:ja_rm": "Higashi-Gej\u014d", "name:ko": "\ud788\uac00\uc2dc\uac8c\uc870", "note": "National-Land Numerical Information (Railway) 2007, MLIT Japan", "note:ja": "\u56fd\u571f\u6570\u5024\u60c5\u5831\uff08\u9244\u9053\u30c7\u30fc\u30bf\uff09\u5e73\u621019\u5e74\u3000\u56fd\u571f\u4ea4\u901a\u7701", "railway": "station", "source": "KSJ2", "source_ref": "http://nlftp.mlit.go.jp/ksj/jpgis/datalist/KsjTmplt-N02-v1_1.html", "wikidata": "Q11523874", "wikipedia": "ja:\u6771\u4e0b\u6761\u99c5"}}, {"type": "node", "id": 263069425, "lat": 37.7376277, "lon": 139.2604505, "tags": {"KSJ2:LIN": "\u78d0\u8d8a\u897f\u7dda", "KSJ2:STN": "\u99ac\u4e0b", "name": "\u99ac\u4e0b", "name:en": "Maoroshi", "name:ja": "\u99ac\u4e0b", "name:ja_rm": "Maoroshi", "name:ko": "\ub9c8\uc624\ub85c\uc2dc", "note": "National-Land Numerical Information (Railway) 2007, MLIT Japan", "note:ja": "\u56fd\u571f\u6570\u5024\u60c5\u5831\uff08\u9244\u9053\u30c7\u30fc\u30bf\uff09\u5e73\u621019\u5e74\u3000\u56fd\u571f\u4ea4\u901a\u7701", "railway": "station", "source": "KSJ2", "source_ref": "http://nlftp.mlit.go.jp/ksj/jpgis/datalist/KsjTmplt-N02-v1_1.html", "wikidata": "Q6753692", "wikipedia": "ja:\u99ac\u4e0b\u99c5"}}, {"type": "node", "id": 263069587, "lat": 37.7344736, "lon": 139.1795387, "tags": {"KSJ2:LIN": "\u78d0\u8d8a\u897f\u7dda", "KSJ2:STN": "\u4e94\u6cc9", "name": "\u4e94\u6cc9", "name:en": "Gosen", "name:ja": "\u4e94\u6cc9", "name:ja_rm": "Gosen", "name:ko": "\uace0\uc13c", "note": "National-Land Numerical Information (Railway) 2007, MLIT Japan", "note:ja": "\u56fd\u571f\u6570\u5024\u60c5\u5831\uff08\u9244\u9053\u30c7\u30fc\u30bf\uff09\u5e73\u621019\u5e74\u3000\u56fd\u571f\u4ea4\u901a\u7701", "railway": "station", "source": "KSJ2", "source_ref": "http://nlftp.mlit.go.jp/ksj/jpgis/datalist/KsjTmplt-N02-v1_1.html", "wikidata": "Q5587162", "wikipedia": "ja:\u4e94\u6cc9\u99c5"}}, {"type": "node", "id": 263069803, "lat": 37.7879759, "lon": 139.1432148, "tags": {"KSJ2:LIN": "\u78d0\u8d8a\u897f\u7dda", "KSJ2:STN": "\u6771\u65b0\u6d25", "name": "\u6771\u65b0\u6d25", "name:en": "Higashi-Niitsu", "name:ja": "\u6771\u65b0\u6d25", "name:ja_rm": "Higashi-Niitsu", "name:ko": "\ud788\uac00\uc2dc\ub2c8\uc4f0", "note": "National-Land Numerical Information (Railway) 2007, MLIT Japan", "note:ja": "\u56fd\u571f\u6570\u5024\u60c5\u5831\uff08\u9244\u9053\u30c7\u30fc\u30bf\uff09\u5e73\u621019\u5e74\u3000\u56fd\u571f\u4ea4\u901a\u7701", "railway": "station", "source": "KSJ2", "source_ref": "http://nlftp.mlit.go.jp/ksj/jpgis/datalist/KsjTmplt-N02-v1_1.html", "wheelchair": "no", "wikidata": "Q5753777", "wikipedia": "ja:\u6771\u65b0\u6d25\u99c5"}}, {"type": "node", "id": 263069904, "lat": 37.7296646, "lon": 139.2222957, "tags": {"KSJ2:LIN": "\u78d0\u8d8a\u897f\u7dda", "KSJ2:STN": "\u733f\u548c\u7530", "name": "\u733f\u548c\u7530", "name:en": "Saruwada", "name:ja": "\u733f\u548c\u7530", "name:ja_rm": "Saruwada", "name:ko": "\uc0ac\ub8e8\uc640\ub2e4", "note": "National-Land Numerical Information (Railway) 2007, MLIT Japan", "note:ja": "\u56fd\u571f\u6570\u5024\u60c5\u5831\uff08\u9244\u9053\u30c7\u30fc\u30bf\uff09\u5e73\u621019\u5e74\u3000\u56fd\u571f\u4ea4\u901a\u7701", "railway": "station", "source": "KSJ2", "source_ref": "http://nlftp.mlit.go.jp/ksj/jpgis/datalist/KsjTmplt-N02-v1_1.html", "wikidata": "Q7424750", "wikipedia": "ja:\u733f\u548c\u7530\u99c5"}}, {"type": "node", "id": 263069905, "lat": 37.7350353, "lon": 139.2905541, "tags": {"KSJ2:LIN": "\u78d0\u8d8a\u897f\u7dda", "KSJ2:STN": "\u54b2\u82b1", "name": "\u54b2\u82b1", "name:en": "Sakihana", "name:ja": "\u54b2\u82b1", "name:ja_rm": "Sakihana", "name:ko": "\uc0ac\ud0a4\ud558\ub098", "note": "National-Land Numerical Information (Railway) 2007, MLIT Japan", "note:ja": "\u56fd\u571f\u6570\u5024\u60c5\u5831\uff08\u9244\u9053\u30c7\u30fc\u30bf\uff09\u5e73\u621019\u5e74\u3000\u56fd\u571f\u4ea4\u901a\u7701", "railway": "station", "source": "KSJ2", "source_ref": "http://nlftp.mlit.go.jp/ksj/jpgis/datalist/KsjTmplt-N02-v1_1.html", "wikidata": "Q11418295", "wikipedia": "ja:\u54b2\u82b1\u99c5"}}, {"type": "node", "id": 264410551, "lat": 37.9225051, "lon": 139.158294, "tags": {"name": "\u65b0\u5d0e", "name:en": "Niizaki", "name:ja": "\u65b0\u5d0e", "name:ko": "\ub2c8\uc790\ud0a4", "railway": "station", "source": "KSJ2", "train": "yes", "wikidata": "Q7034508", "wikipedia": "ja:\u65b0\u5d0e\u99c5"}}, {"type": "node", "id": 264413821, "lat": 37.8693273, "lon": 138.9547059, "tags": {"KSJ2:LIN": "\u8d8a\u5f8c\u7dda", "KSJ2:STN": "\u65b0\u6f5f\u5927\u5b66\u524d", "name": "\u65b0\u6f5f\u5927\u5b66\u524d", "name:en": "Niigata Daigaku-mae", "name:ja": "\u65b0\u6f5f\u5927\u5b66\u524d", "name:ko": "\ub2c8\uac00\ud0c0\ub2e4\uc774\uac00\ucfe0\ub9c8\uc5d0", "note": "National-Land Numerical Information (Railway) 2007, MLIT Japan", "note:ja": "\u56fd\u571f\u6570\u5024\u60c5\u5831\uff08\u9244\u9053\u30c7\u30fc\u30bf\uff09\u5e73\u621019\u5e74\u3000\u56fd\u571f\u4ea4\u901a\u7701", "railway": "station", "source": "KSJ2", "source_ref": "http://nlftp.mlit.go.jp/ksj/jpgis/datalist/KsjTmplt-N02-v1_1.html", "toilets:wheelchair": "no", "wheelchair": "limited", "wikidata": "Q801256", "wikipedia": "ja:\u65b0\u6f5f\u5927\u5b66\u524d\u99c5"}}, {"type": "node", "id": 264413827, "lat": 37.8582582, "lon": 138.9365061, "tags": {"KSJ2:LIN": "\u8d8a\u5f8c\u7dda", "KSJ2:STN": "\u5185\u91ce", "name": "\u5185\u91ce", "name:en": "Uchino", "name:ja": "\u5185\u91ce", "name:ko": "\uc6b0\uce58\ub178", "note": "National-Land Numerical Information (Railway) 2007, MLIT Japan", "note:ja": "\u56fd\u571f\u6570\u5024\u60c5\u5831\uff08\u9244\u9053\u30c7\u30fc\u30bf\uff09\u5e73\u621019\u5e74\u3000\u56fd\u571f\u4ea4\u901a\u7701", "railway": "station", "source": "KSJ2", "source_ref": "http://nlftp.mlit.go.jp/ksj/jpgis/datalist/KsjTmplt-N02-v1_1.html", "wheelchair": "yes", "wikidata": "Q7876732", "wikipedia": "ja:\u5185\u91ce\u99c5"}}, {"type": "node", "id": 264413869, "lat": 37.846149, "lon": 138.9267322, "tags": {"KSJ2:LIN": "\u8d8a\u5f8c\u7dda", "KSJ2:STN": "\u5185\u91ce\u897f\u304c\u4e18", "name": "\u5185\u91ce\u897f\u304c\u4e18", "name:en": "Uchino-Nishigaoka", "name:ja": "\u5185\u91ce\u897f\u304c\u4e18", "name:ko": "\uc6b0\uce58\ub178\ub2c8\uc2dc\uac00\uc624\uce74", "note": "National-Land Numerical Information (Railway) 2007, MLIT Japan", "note:ja": "\u56fd\u571f\u6570\u5024\u60c5\u5831\uff08\u9244\u9053\u30c7\u30fc\u30bf\uff09\u5e73\u621019\u5e74\u3000\u56fd\u571f\u4ea4\u901a\u7701", "railway": "station", "source": "KSJ2", "source_ref": "http://nlftp.mlit.go.jp/ksj/jpgis/datalist/KsjTmplt-N02-v1_1.html", "wikidata": "Q7876731", "wikipedia": "ja:\u5185\u91ce\u897f\u304c\u4e18\u99c5"}}, {"type": "node", "id": 264413965, "lat": 37.7568262, "lon": 138.8896189, "tags": {"KSJ2:LIN": "\u8d8a\u5f8c\u7dda", "KSJ2:STN": "\u5dfb", "name": "\u5dfb", "name:en": "Maki", "name:ja": "\u5dfb", "name:ja_kana": "\u307e\u304d", "name:ja_rm": "Maki", "name:ko": "\ub9c8\ud0a4", "note": "National-Land Numerical Information (Railway) 2007, MLIT Japan", "note:ja": "\u56fd\u571f\u6570\u5024\u60c5\u5831\uff08\u9244\u9053\u30c7\u30fc\u30bf\uff09\u5e73\u621019\u5e74\u3000\u56fd\u571f\u4ea4\u901a\u7701", "public_transport": "station", "railway": "station", "source": "KSJ2", "source_ref": "http://nlftp.mlit.go.jp/ksj/jpgis/datalist/KsjTmplt-N02-v1_1.html", "wikidata": "Q6739504", "wikipedia": "ja:\u5dfb\u99c5"}}, {"type": "node", "id": 264413970, "lat": 37.8895461, "lon": 138.9911972, "tags": {"KSJ2:LIN": "\u8d8a\u5f8c\u7dda", "KSJ2:STN": "\u5c0f\u91dd", "name": "\u5c0f\u91dd", "name:en": "Kobari", "name:ja": "\u5c0f\u91dd", "name:ja-Hira": "\u3053\u3070\u308a", "name:ja-Latn": "Kobari", "name:ko": "\uace0\ubc14\ub9ac", "note": "National-Land Numerical Information (Railway) 2007, MLIT Japan", "note:ja": "\u56fd\u571f\u6570\u5024\u60c5\u5831\uff08\u9244\u9053\u30c7\u30fc\u30bf\uff09\u5e73\u621019\u5e74\u3000\u56fd\u571f\u4ea4\u901a\u7701", "railway": "station", "source": "KSJ2", "source_ref": "http://nlftp.mlit.go.jp/ksj/jpgis/datalist/KsjTmplt-N02-v1_1.html", "wikidata": "Q6424268", "wikipedia": "ja:\u5c0f\u91dd\u99c5"}}, {"type": "node", "id": 264414010, "lat": 37.722228, "lon": 138.880236, "tags": {"KSJ2:LIN": "\u8d8a\u5f8c\u7dda", "KSJ2:STN": "\u5ca9\u5ba4", "name": "\u5ca9\u5ba4", "name:en": "Iwamuro", "name:ja": "\u5ca9\u5ba4", "name:ko": "\uc774\uc640\ubb34\ub85c", "note": "National-Land Numerical Information (Railway) 2007, MLIT Japan", "note:ja": "\u56fd\u571f\u6570\u5024\u60c5\u5831\uff08\u9244\u9053\u30c7\u30fc\u30bf\uff09\u5e73\u621019\u5e74\u3000\u56fd\u571f\u4ea4\u901a\u7701", "public_transport": "station", "railway": "station", "source": "KSJ2", "source_ref": "http://nlftp.mlit.go.jp/ksj/jpgis/datalist/KsjTmplt-N02-v1_1.html", "wikidata": "Q11474353", "wikipedia": "ja:\u5ca9\u5ba4\u99c5"}}, {"type": "node", "id": 264414094, "lat": 37.815666, "lon": 138.9079351, "tags": {"KSJ2:LIN": "\u8d8a\u5f8c\u7dda", "KSJ2:STN": "\u8d8a\u5f8c\u8d64\u585a", "name": "\u8d8a\u5f8c\u8d64\u585a", "name:en": "Echigo-Akatsuka", "name:ja": "\u8d8a\u5f8c\u8d64\u585a", "name:ko": "\uc5d0\uce58\uace0\uc544\uce74\uc4f0\uce74", "note": "National-Land Numerical Information (Railway) 2007, MLIT Japan", "note:ja": "\u56fd\u571f\u6570\u5024\u60c5\u5831\uff08\u9244\u9053\u30c7\u30fc\u30bf\uff09\u5e73\u621019\u5e74\u3000\u56fd\u571f\u4ea4\u901a\u7701", "railway": "station", "source": "KSJ2", "source_ref": "http://nlftp.mlit.go.jp/ksj/jpgis/datalist/KsjTmplt-N02-v1_1.html", "wikidata": "Q5332407", "wikipedia": "ja:\u8d8a\u5f8c\u8d64\u585a\u99c5"}}, {"type": "node", "id": 264414095, "lat": 37.793767, "lon": 138.9111168, "tags": {"KSJ2:LIN": "\u8d8a\u5f8c\u7dda", "KSJ2:STN": "\u8d8a\u5f8c\u66fd\u6839", "name": "\u8d8a\u5f8c\u66fd\u6839", "name:en": "Echigo-Sone", "name:ja": "\u8d8a\u5f8c\u66fd\u6839", "name:ko": "\uc5d0\uce58\uace0\uc18c\ub124", "note": "National-Land Numerical Information (Railway) 2007, MLIT Japan", "note:ja": "\u56fd\u571f\u6570\u5024\u60c5\u5831\uff08\u9244\u9053\u30c7\u30fc\u30bf\uff09\u5e73\u621019\u5e74\u3000\u56fd\u571f\u4ea4\u901a\u7701", "railway": "station", "source": "KSJ2", "source_ref": "http://nlftp.mlit.go.jp/ksj/jpgis/datalist/KsjTmplt-N02-v1_1.html", "wikidata": "Q5332422", "wikipedia": "ja:\u8d8a\u5f8c\u66fd\u6839\u99c5"}}, {"type": "node", "id": 264414127, "lat": 37.8986325, "lon": 139.001079, "tags": {"KSJ2:LIN": "\u8d8a\u5f8c\u7dda", "KSJ2:STN": "\u9752\u5c71", "name": "\u9752\u5c71", "name:en": "Aoyama", "name:ja": "\u9752\u5c71", "name:ja-Hira": "\u3042\u304a\u3084\u307e", "name:ja-Latn": "Aoyama", "name:ko": "\uc544\uc624\uc57c\ub9c8", "note": "National-Land Numerical Information (Railway) 2007, MLIT Japan", "note:ja": "\u56fd\u571f\u6570\u5024\u60c5\u5831\uff08\u9244\u9053\u30c7\u30fc\u30bf\uff09\u5e73\u621019\u5e74\u3000\u56fd\u571f\u4ea4\u901a\u7701", "railway": "station", "source": "KSJ2", "source_ref": "http://nlftp.mlit.go.jp/ksj/jpgis/datalist/KsjTmplt-N02-v1_1.html", "wikidata": "Q4778836", "wikipedia": "ja:\u9752\u5c71\u99c5 (\u65b0\u6f5f\u770c)"}}, {"type": "node", "id": 264414130, "lat": 37.702545, "lon": 138.882131, "tags": {"KSJ2:LIN": "\u8d8a\u5f8c\u7dda", "KSJ2:STN": "\u5317\u5409\u7530", "name": "\u5317\u5409\u7530", "name:en": "Kita-Yoshida", "name:ja": "\u5317\u5409\u7530", "name:ja-Hira": "\u304d\u305f\u3088\u3057\u3060", "name:ko": "\uae30\ud0c0\uc694\uc2dc\ub2e4", "note": "National-Land Numerical Information (Railway) 2007, MLIT Japan", "note:ja": "\u56fd\u571f\u6570\u5024\u60c5\u5831\uff08\u9244\u9053\u30c7\u30fc\u30bf\uff09\u5e73\u621019\u5e74\u3000\u56fd\u571f\u4ea4\u901a\u7701", "public_transport": "station", "railway": "station", "source": "KSJ2", "source_ref": "http://nlftp.mlit.go.jp/ksj/jpgis/datalist/KsjTmplt-N02-v1_1.html", "wikidata": "Q6417624", "wikipedia": "ja:\u5317\u5409\u7530\u99c5"}}, {"type": "node", "id": 264414188, "lat": 37.8792824, "lon": 138.9739339, "tags": {"KSJ2:LIN": "\u8d8a\u5f8c\u7dda", "KSJ2:STN": "\u5bfa\u5c3e", "name": "\u5bfa\u5c3e", "name:en": "Terao", "name:ja": "\u5bfa\u5c3e", "name:ja-Hira": "\u3066\u3089\u304a", "name:ko": "\ub370\ub77c\uc624", "note": "National-Land Numerical Information (Railway) 2007, MLIT Japan", "note:ja": "\u56fd\u571f\u6570\u5024\u60c5\u5831\uff08\u9244\u9053\u30c7\u30fc\u30bf\uff09\u5e73\u621019\u5e74\u3000\u56fd\u571f\u4ea4\u901a\u7701", "public_transport": "station", "railway": "station", "source": "KSJ2", "source_ref": "http://nlftp.mlit.go.jp/ksj/jpgis/datalist/KsjTmplt-N02-v1_1.html", "wikidata": "Q7701583", "wikipedia": "ja:\u5bfa\u5c3e\u99c5"}}, {"type": "node", "id": 264800968, "lat": 37.8000262, "lon": 139.1209935, "tags": {"name": "\u65b0\u6d25", "name:de": "Niitsu", "name:en": "Niitsu", "name:ja-Hira": "\u306b\u3044\u3064", "name:ja-Latn": "Niitsu", "name:ru": "\u041d\u0438\u0438\u0446\u0443", "operator": "\u6771\u65e5\u672c\u65c5\u5ba2\u9244\u9053", "operator:en": "East Japan Railway Company", "public_transport": "station", "railway": "station", "source": "KSJ2", "train": "yes", "wikidata": "Q7034489", "wikipedia": "ja:\u65b0\u6d25\u99c5"}}, {"type": "node", "id": 264801432, "lat": 37.87718, "lon": 139.108242, "tags": {"KSJ2:LIN": "\u4fe1\u8d8a\u7dda", "KSJ2:STN": "\u4e80\u7530", "name": "\u4e80\u7530", "name:en": "Kameda", "name:ru": "\u041a\u0430\u043c\u0435\u0434\u0430", "note": "National-Land Numerical Information (Railway) 2007, MLIT Japan", "note:ja": "\u56fd\u571f\u6570\u5024\u60c5\u5831\uff08\u9244\u9053\u30c7\u30fc\u30bf\uff09\u5e73\u621019\u5e74\u3000\u56fd\u571f\u4ea4\u901a\u7701", "railway": "station", "source": "KSJ2", "source_ref": "http://nlftp.mlit.go.jp/ksj/jpgis/datalist/KsjTmplt-N02-v1_1.html", "wikidata": "Q3701529", "wikipedia": "ja:\u4e80\u7530\u99c5"}}, {"type": "node", "id": 264802440, "lat": 37.6797694, "lon": 138.9092888, "tags": {"KSJ2:LIN": "\u5f25\u5f66\u7dda", "KSJ2:STN": "\u897f\u71d5", "name": "\u897f\u71d5", "name:en": "Nishi-Tsubame", "name:ja": "\u897f\u71d5", "name:ja_rm": "Nishi tsubame", "name:ko": "\ub2c8\uc2dc\uc4f0\ubc14\uba54", "note": "National-Land Numerical Information (Railway) 2007, MLIT Japan", "note:ja": "\u56fd\u571f\u6570\u5024\u60c5\u5831\uff08\u9244\u9053\u30c7\u30fc\u30bf\uff09\u5e73\u621019\u5e74\u3000\u56fd\u571f\u4ea4\u901a\u7701", "railway": "station", "source": "KSJ2", "source_ref": "http://nlftp.mlit.go.jp/ksj/jpgis/datalist/KsjTmplt-N02-v1_1.html", "wikidata": "Q7040435", "wikipedia": "ja:\u897f\u71d5\u99c5"}}, {"type": "node", "id": 4087367885, "lat": 37.9122444, "lon": 139.0613294, "tags": {"KSJ2:LIN": "\u4fe1\u8d8a\u7dda;\u767d\u65b0\u7dda;\u8d8a\u5f8c\u7dda;\u4e0a\u8d8a\u65b0\u5e79\u7dda", "highspeed": "yes", "name": "\u65b0\u6f5f", "name:de": "Niigata", "name:en": "Niigata", "name:ja": "\u65b0\u6f5f", "name:ja_rm": "Niigata", "name:ko": "\ub2c8\uac00\ud0c0 \uc5ed", "name:ru": "\u041d\u0438\u0438\u0433\u0430\u0442\u0430", "name:zh": "\u65b0\u6f5f", "note": "National-Land Numerical Information (Railway) 2007, MLIT Japan", "note:ja": "\u56fd\u571f\u6570\u5024\u60c5\u5831\uff08\u9244\u9053\u30c7\u30fc\u30bf\uff09\u5e73\u621019\u5e74\u3000\u56fd\u571f\u4ea4\u901a\u7701", "public_transport": "station", "railway": "station", "source": "KSJ2", "source_ref": "http://nlftp.mlit.go.jp/ksj/jpgis/datalist/KsjTmplt-N02-v1_1.html", "wikidata": "Q701753", "wikipedia": "ja:\u65b0\u6f5f\u99c5"}}, {"type": "node", "id": 4087367886, "lat": 37.9119638, "lon": 139.030323, "tags": {"KSJ2:LIN": "\u8d8a\u5f8c\u7dda", "name": "\u767d\u5c71", "name:en": "Hakusan", "name:ja": "\u767d\u5c71", "name:ko": "\ud558\ucfe0\uc0b0", "note": "National-Land Numerical Information (Railway) 2007, MLIT Japan", "note:ja": "\u56fd\u571f\u6570\u5024\u60c5\u5831\uff08\u9244\u9053\u30c7\u30fc\u30bf\uff09\u5e73\u621019\u5e74\u3000\u56fd\u571f\u4ea4\u901a\u7701", "public_transport": "station", "railway": "station", "source": "KSJ2", "source_ref": "http://nlftp.mlit.go.jp/ksj/jpgis/datalist/KsjTmplt-N02-v1_1.html", "wikidata": "Q5640658", "wikipedia": "ja:\u767d\u5c71\u99c5 (\u65b0\u6f5f\u770c)"}}, {"type": "node", "id": 4087367887, "lat": 37.9060049, "lon": 139.0151209, "tags": {"KSJ2:LIN": "\u8d8a\u5f8c\u7dda", "name": "\u95a2\u5c4b", "name:en": "Sekiya", "name:ja": "\u95a2\u5c4b", "name:ko": "\uc138\ud0a4\uc57c", "note": "National-Land Numerical Information (Railway) 2007, MLIT Japan", "note:ja": "\u56fd\u571f\u6570\u5024\u60c5\u5831\uff08\u9244\u9053\u30c7\u30fc\u30bf\uff09\u5e73\u621019\u5e74\u3000\u56fd\u571f\u4ea4\u901a\u7701", "railway": "station", "source": "KSJ2", "source_ref": "http://nlftp.mlit.go.jp/ksj/jpgis/datalist/KsjTmplt-N02-v1_1.html", "wikidata": "Q7447217", "wikipedia": "ja:\u95a2\u5c4b\u99c5 (\u65b0\u6f5f\u770c)"}}, {"type": "node", "id": 4087716008, "lat": 37.896568, "lon": 139.095285, "tags": {"KSJ2:LIN": "\u4fe1\u8d8a\u7dda", "KSJ2:STN": "\u8d8a\u5f8c\u77f3\u5c71", "name": "\u8d8a\u5f8c\u77f3\u5c71", "name:de": "Echigo-Ishiyama", "name:en": "Echigo-Ishiyama", "name:ru": "\u042d\u0442\u0438\u0433\u043e-\u0418\u0441\u0438\u044f\u043c\u0430", "operator": "\u6771\u65e5\u672c\u65c5\u5ba2\u9244\u9053", "operator:en": "East Japan Railway Company", "operator:ja": "\u6771\u65e5\u672c\u65c5\u5ba2\u9244\u9053", "railway": "station", "wikidata": "Q11636520", "wikipedia": "ja:\u8d8a\u5f8c\u77f3\u5c71\u99c5"}}, {"type": "node", "id": 4087788338, "lat": 37.9155853, "lon": 139.1295069, "tags": {"KSJ2:LIN": "\u767d\u65b0\u7dda", "KSJ2:STN": "\u5927\u5f62", "name": "\u5927\u5f62", "name:en": "Ogata", "name:ja": "\u5927\u5f62", "name:ja_rm": "\u014cgata", "name:ko": "\uc624\uac00\ud0c0", "note": "National-Land Numerical Information (Railway) 2007, MLIT Japan", "note:ja": "\u56fd\u571f\u6570\u5024\u60c5\u5831\uff08\u9244\u9053\u30c7\u30fc\u30bf\uff09\u5e73\u621019\u5e74\u3000\u56fd\u571f\u4ea4\u901a\u7701", "railway": "station", "source": "KSJ2", "source_ref": "http://nlftp.mlit.go.jp/ksj/jpgis/datalist/KsjTmplt-N02-v1_1.html", "wikidata": "Q8081468", "wikipedia": "ja:\u5927\u5f62\u99c5"}}, {"type": "node", "id": 4087788339, "lat": 37.9087908, "lon": 139.1087895, "tags": {"KSJ2:LIN": "\u767d\u65b0\u7dda", "name": "\u6771\u65b0\u6f5f", "name:en": "Higashi-Niigata", "name:ja": "\u6771\u65b0\u6f5f", "name:ko": "\ud788\uac00\uc2dc\ub2c8\uac00\ud0c0", "name:ru": "\u0425\u0438\u0433\u0430\u0441\u0438-\u041d\u0438\u0438\u0433\u0430\u0442\u0430", "note:ja": "\u56fd\u571f\u6570\u5024\u60c5\u5831\uff08\u9244\u9053\u30c7\u30fc\u30bf\uff09\u5e73\u621019\u5e74\u3000\u56fd\u571f\u4ea4\u901a\u7701", "railway": "station", "wikidata": "Q5753771", "wikipedia": "ja:\u6771\u65b0\u6f5f\u99c5"}}, {"type": "node", "id": 4358958785, "lat": 37.8333137, "lon": 139.1115522, "tags": {"KSJ2:LIN": "\u4fe1\u8d8a\u7dda", "KSJ2:STN": "\u837b\u5ddd", "name": "\u837b\u5ddd", "name:en": "Ogikawa", "name:ja": "\u837b\u5ddd", "name:ja_rm": "Ogikawa", "name:ko": "\uc624\uae30\uce74\uc640", "name:ru": "\u041e\u0433\u0438\u043a\u0430\u0432\u0430", "note": "National-Land Numerical Information (Railway) 2007, MLIT Japan", "note:ja": "\u56fd\u571f\u6570\u5024\u60c5\u5831\uff08\u9244\u9053\u30c7\u30fc\u30bf\uff09\u5e73\u621019\u5e74\u3000\u56fd\u571f\u4ea4\u901a\u7701", "public_transport": "station", "railway": "station", "source": "KSJ2", "source_ref": "http://nlftp.mlit.go.jp/ksj/jpgis/datalist/KsjTmplt-N02-v1_1.html", "train": "yes", "wikidata": "Q7080040", "wikipedia": "ja:\u837b\u5ddd\u99c5"}}, {"type": "node", "id": 4358958787, "lat": 37.8132978, "lon": 139.1172452, "tags": {"name": "\u3055\u3064\u304d\u91ce", "name:en": "Satsukino", "name:ja": "\u3055\u3064\u304d\u91ce", "name:ja_rm": "Satsukino", "name:ko": "\uc0ac\uc4f0\ud0a4\ub178", "name:ru": "\u0421\u0430\u0446\u0443\u043a\u0438\u043d\u043e", "public_transport": "station", "railway": "station", "source": "KSJ2", "train": "yes", "wikidata": "Q7426493", "wikipedia": "ja:\u3055\u3064\u304d\u91ce\u99c5"}}, {"type": "node", "id": 4358958788, "lat": 37.7192533, "lon": 139.074837, "tags": {"KSJ2:LIN": "\u4fe1\u8d8a\u7dda", "KSJ2:STN": "\u7530\u4e0a", "name": "\u7530\u4e0a", "name:en": "Tagami", "name:ja": "\u7530\u4e0a", "name:ja_rm": "Tagami", "name:ko": "\ub2e4\uac00\ubbf8", "name:ru": "\u0422\u0430\u0433\u0430\u043c\u0438", "note": "National-Land Numerical Information (Railway) 2007, MLIT Japan", "note:ja": "\u56fd\u571f\u6570\u5024\u60c5\u5831\uff08\u9244\u9053\u30c7\u30fc\u30bf\uff09\u5e73\u621019\u5e74\u3000\u56fd\u571f\u4ea4\u901a\u7701", "public_transport": "station", "railway": "station", "source": "KSJ2", "source_ref": "http://nlftp.mlit.go.jp/ksj/jpgis/datalist/KsjTmplt-N02-v1_1.html", "wikidata": "Q7675148", "wikipedia": "ja:\u7530\u4e0a\u99c5"}}, {"type": "node", "id": 4358959791, "lat": 37.7728487, "lon": 139.1145295, "tags": {"KSJ2:LIN": "\u4fe1\u8d8a\u7dda", "KSJ2:STN": "\u53e4\u6d25", "name": "\u53e4\u6d25", "name:en": "Furutsu", "name:ja": "\u53e4\u6d25", "name:ja_kana": "\u3075\u308b\u3064", "name:ja_rm": "Furutsu", "name:ko": "\ud6c4\ub8e8\uc4f0", "name:ru": "\u0424\u0443\u0440\u0443\u0446\u0443", "note": "National-Land Numerical Information (Railway) 2007, MLIT Japan", "note:ja": "\u56fd\u571f\u6570\u5024\u60c5\u5831\uff08\u9244\u9053\u30c7\u30fc\u30bf\uff09\u5e73\u621019\u5e74\u3000\u56fd\u571f\u4ea4\u901a\u7701", "railway": "station", "source": "KSJ2", "source_ref": "http://nlftp.mlit.go.jp/ksj/jpgis/datalist/KsjTmplt-N02-v1_1.html", "wikidata": "Q5509827", "wikipedia": "ja:\u53e4\u6d25\u99c5"}}, {"type": "node", "id": 4358959793, "lat": 37.6934437, "lon": 139.0606693, "tags": {"KSJ2:LIN": "\u4fe1\u8d8a\u7dda", "KSJ2:STN": "\u7fbd\u751f\u7530", "name": "\u7fbd\u751f\u7530", "name:en": "Hanyuda", "name:ja": "\u7fbd\u751f\u7530", "name:ja_rm": "Hany\u016bda", "name:ko": "\ud558\ub274\ub2e4", "name:ru": "\u0425\u0430\u043d\u044e\u0434\u0430", "note": "National-Land Numerical Information (Railway) 2007, MLIT Japan", "note:ja": "\u56fd\u571f\u6570\u5024\u60c5\u5831\uff08\u9244\u9053\u30c7\u30fc\u30bf\uff09\u5e73\u621019\u5e74\u3000\u56fd\u571f\u4ea4\u901a\u7701", "railway": "station", "source": "KSJ2", "source_ref": "http://nlftp.mlit.go.jp/ksj/jpgis/datalist/KsjTmplt-N02-v1_1.html", "wikidata": "Q5651465", "wikipedia": "ja:\u7fbd\u751f\u7530\u99c5"}}, {"type": "node", "id": 4358959890, "lat": 37.74904, "lon": 139.0957077, "tags": {"KSJ2:LIN": "\u4fe1\u8d8a\u7dda", "KSJ2:STN": "\u77e2\u4ee3\u7530", "name": "\u77e2\u4ee3\u7530", "name:en": "Yashiroda", "name:ja": "\u77e2\u4ee3\u7530", "name:ja_rm": "Yashiroda", "name:ko": "\uc57c\uc2dc\ub85c\ub2e4", "name:ru": "\u042f\u0441\u0438\u0440\u043e\u0434\u0430", "note": "National-Land Numerical Information (Railway) 2007, MLIT Japan", "note:ja": "\u56fd\u571f\u6570\u5024\u60c5\u5831\uff08\u9244\u9053\u30c7\u30fc\u30bf\uff09\u5e73\u621019\u5e74\u3000\u56fd\u571f\u4ea4\u901a\u7701", "railway": "station", "source": "KSJ2", "source_ref": "http://nlftp.mlit.go.jp/ksj/jpgis/datalist/KsjTmplt-N02-v1_1.html", "wikidata": "Q8049745", "wikipedia": "ja:\u77e2\u4ee3\u7530\u99c5"}}, {"type": "node", "id": 4621752486, "lat": 37.9197443, "lon": 139.2156646, "tags": {"name": "\u8c4a\u6804", "name:en": "Toyosaka", "name:ja": "\u8c4a\u6804", "name:ja_rm": "Toyosaka", "name:ko": "\ub3c4\uc694\uc0ac\uce74", "railway": "station", "train": "yes", "wikidata": "Q11633770"}}, {"type": "node", "id": 4660003130, "lat": 37.9210746, "lon": 139.1784476, "tags": {"name": "\u65e9\u901a", "name:en": "Hayadori", "name:ja": "\u65e9\u901a", "name:ja_rm": "Hayad\u014dri", "name:ko": "\ud558\uc57c\ub3c4\ub9ac", "railway": "station", "source": "KSJ2", "train": "yes", "wikidata": "Q5685949", "wikipedia": "ja:\u65e9\u901a\u99c5"}}, {"type": "node", "id": 4660003135, "lat": 37.9373837, "lon": 139.2415202, "tags": {"name": "\u9ed2\u5c71", "name:en": "Kuroyama", "name:ja": "\u9ed2\u5c71", "name:ja_rm": "Kuroyama", "name:ko": "\uad6c\ub85c\uc57c\ub9c8", "railway": "station", "source": "KSJ2", "train": "yes", "wikidata": "Q11678101", "wikipedia": "ja:\u9ed2\u5c71\u99c5"}}, {"type": "node", "id": 4660003151, "lat": 37.9500062, "lon": 139.2692896, "tags": {"name": "\u4f50\u3005\u6728", "name:en": "Sasaki", "name:ja": "\u4f50\u3005\u6728", "name:ja_rm": "Sasaki", "name:ko": "\uc0ac\uc0ac\ud0a4", "public_transport": "station", "railway": "station", "source": "KSJ2", "train": "yes", "wikidata": "Q7424988", "wikipedia": "ja:\u4f50\u3005\u6728\u99c5"}}, {"type": "node", "id": 4660003178, "lat": 37.9414451, "lon": 139.3067996, "tags": {"name": "\u897f\u65b0\u767a\u7530", "name:en": "Nishi-Shibata", "name:ja": "\u897f\u65b0\u767a\u7530", "name:ja_rm": "Nishi-Shibata", "name:ko": "\ub2c8\uc2dc\uc2dc\ubc14\ud0c0", "railway": "station", "source": "KSJ2", "wikidata": "Q7040400", "wikipedia": "ja:\u897f\u65b0\u767a\u7530\u99c5"}}, {"type": "node", "id": 4660003217, "lat": 37.8176353, "lon": 139.1783306, "tags": {"name": "\u4eac\u30f6\u702c", "name:en": "Kyogase", "name:ja-Hira": "\u304d\u3087\u3046\u304c\u305b", "name:ja-Latn": "Ky\u014dgase", "public_transport": "station", "railway": "station", "source": "GSImaps/ort", "train": "yes", "wikidata": "Q6453024", "wikipedia": "ja:\u4eac\u30f6\u702c\u99c5"}}, {"type": "node", "id": 4660003248, "lat": 37.8365796, "lon": 139.2172379, "tags": {"name": "\u6c34\u539f", "name:en": "Suibara", "name:ja-Latn": "Suibara", "public_transport": "station", "railway": "station", "train": "yes", "wheelchair": "no", "wikidata": "Q7635304", "wikipedia": "ja:\u6c34\u539f\u99c5"}}, {"type": "node", "id": 4660003250, "lat": 37.8890407, "lon": 139.2719214, "tags": {"name": "\u6708\u5ca1", "name:en": "Tsukioka", "name:ja": "\u6708\u5ca1", "name:ja-Latn": "Tsukioka", "name:ko": "\uc4f0\ud0a4\uc624\uce74", "public_transport": "station", "railway": "station", "source": "GSImaps/ort", "train": "yes", "wikidata": "Q7850078", "wikipedia": "ja:\u6708\u5ca1\u99c5 (\u65b0\u6f5f\u770c)"}}, {"type": "node", "id": 5643028699, "lat": 37.9765659, "lon": 139.3585253, "tags": {"name": "\u52a0\u6cbb", "name:en": "Kaji", "public_transport": "station", "railway": "station", "source": "GSImaps/ort", "train": "yes", "wikidata": "Q11398692", "wikipedia": "ja:\u52a0\u6cbb\u99c5"}}, {"type": "node", "id": 5690634859, "lat": 38.0198357, "lon": 139.3793526, "tags": {"name": "\u91d1\u585a", "name:en": "Kanazuka", "public_transport": "station", "railway": "station", "source": "GSImaps/ort", "train": "yes", "wikidata": "Q6360909", "wikipedia": "ja:\u91d1\u585a\u99c5"}}, {"type": "node", "id": 6138421923, "lat": 37.8626975, "lon": 139.2447352, "tags": {"name": "\u795e\u5c71", "name:en": "Kamiyama", "name:ja-Hira": "\u304b\u307f\u3084\u307e", "name:ja-Latn": "Kamiyama", "public_transport": "station", "railway": "station", "source": "GSImaps/ort", "train": "yes", "wikidata": "Q6358632", "wikipedia": "ja:\u795e\u5c71\u99c5"}}, {"type": "node", "id": 6138441705, "lat": 37.9439691, "lon": 139.3349158, "tags": {"name": "\u65b0\u767a\u7530", "name:en": "Shibata", "name:ja-Hira": "\u3057\u3070\u305f", "name:ja-Latn": "Shibata", "public_transport": "station", "railway": "station", "source": "GSImaps/ort", "train": "yes", "wikidata": "Q7496029", "wikipedia": "ja:\u65b0\u767a\u7530\u99c5"}}, {"type": "node", "id": 6138441734, "lat": 37.912254, "lon": 139.3026294, "tags": {"name": "\u4e2d\u6d66", "name:en": "Nakaura", "public_transport": "station", "railway": "station", "source": "GSImaps/ort", "train": "yes", "wikidata": "Q6960367", "wikipedia": "ja:\u4e2d\u6d66\u99c5"}}, {"type": "node", "id": 6141631489, "lat": 38.0500723, "lon": 139.3980637, "tags": {"name": "\u4e2d\u6761", "name:en": "Nakajo", "name:ja-Hira": "\u306a\u304b\u3058\u3087\u3046", "name:ja-Latn": "Nakaj\u014d", "public_transport": "station", "railway": "station", "source": "KSJ2", "train": "yes", "wikidata": "Q11366177", "wikipedia": "ja:\u4e2d\u6761\u99c5"}}, {"type": "node", "id": 6374726435, "lat": 37.68706, "lon": 138.8786948, "tags": {"KSJ2:LIN": "\u5f25\u5f66\u7dda", "KSJ2:STN": "\u5409\u7530", "name": "\u5409\u7530", "name:en": "Yoshida", "name:ja": "\u5409\u7530", "name:ko": "\uc694\uc2dc\ub2e4", "note": "National-Land Numerical Information (Railway) 2007, MLIT Japan", "note:ja": "\u56fd\u571f\u6570\u5024\u60c5\u5831\uff08\u9244\u9053\u30c7\u30fc\u30bf\uff09\u5e73\u621019\u5e74\u3000\u56fd\u571f\u4ea4\u901a\u7701", "public_transport": "station", "railway": "station", "source": "KSJ2", "source_ref": "http://nlftp.mlit.go.jp/ksj/jpgis/datalist/KsjTmplt-N02-v1_1.html", "wikidata": "Q8056004", "wikipedia": "ja:\u5409\u7530\u99c5 (\u65b0\u6f5f\u770c)"}}, {"type": "node", "id": 10012218802, "lat": 37.7193198, "lon": 139.074824}, {"type": "node", "id": 10012218803, "lat": 37.7192082, "lon": 139.0747496}, {"type": "node", "id": 10012218804, "lat": 37.7191782, "lon": 139.0748224}, {"type": "node", "id": 10012218805, "lat": 37.7192913, "lon": 139.0748971}, {"type": "way", "id": 1093240788, "nodes": [10012218802, 10012218803, 10012218804, 10012218805, 10012218802], "tags": {"building": "yes", "public_transport": "station", "railway": "station", "train": "yes"}}]}