{"version": 0.6, "generator": "Overpass API 0.7.62.4 2390de5a", "osm3s": {"timestamp_osm_base": "2024-12-30T14:58:07Z", "copyright": "The data included in this document is from www.openstreetmap.org. The data is made available under ODbL."}, "elements": [{"type": "node", "id": 264180828, "lat": 36.7212122, "lon": 139.9502693, "tags": {"name": "\u84b2\u9808\u5742", "name:de": "Kamasusaka", "name:en": "Kamasusaka", "name:ja-Hira": "\u304b\u307e\u3059\u3055\u304b", "name:ja-Latn": "Kamasusaka", "name:ru": "\u041a\u0430\u043c\u0430\u0441\u0443\u0441\u0430\u043a\u0430", "public_transport": "station", "railway": "station", "source": "KSJ2", "train": "yes", "wikidata": "Q872618", "wikipedia": "ja:\u84b2\u9808\u5742\u99c5"}}, {"type": "node", "id": 264183592, "lat": 36.681443, "lon": 139.962198, "tags": {"name": "\u6c0f\u5bb6", "name:de": "Ujiie", "name:en": "Ujiie", "name:ja-Hira": "\u3046\u3058\u3044\u3048", "name:ja-Latn": "Ujiie", "name:ru": "\u0423\u0434\u0437\u0438\u0438\u044d", "public_transport": "station", "railway": "station", "source": "KSJ2", "train": "yes", "wikidata": "Q872732", "wikipedia": "ja:\u6c0f\u5bb6\u99c5"}}, {"type": "node", "id": 264412395, "lat": 36.5709476, "lon": 139.7630742, "tags": {"name": "\u9e7f\u6cbc", "name:en": "Kanuma", "name:it": "Kanuma", "name:ja": "\u9e7f\u6cbc", "name:ja-Hira": "\u304b\u306c\u307e", "name:ja-Latn": "Kanuma", "name:ko": "\uac00\ub204\ub9c8", "note": "National-Land Numerical Information (Railway) 2007, MLIT Japan", "public_transport": "station", "railway": "station", "source": "KSJ2", "source_ref": "http://nlftp.mlit.go.jp/ksj/jpgis/datalist/KsjTmplt-N02-v1_1.html", "wikidata": "Q6365667", "wikipedia": "ja:\u9e7f\u6cbc\u99c5"}}, {"type": "node", "id": 264412544, "lat": 36.637253, "lon": 139.728009, "tags": {"KSJ2:LIN": "\u65e5\u5149\u7dda", "KSJ2:STN": "\u6587\u631f", "name": "\u6587\u631f", "name:en": "Fubasami", "name:it": "Fubasami", "name:ja": "\u6587\u631f", "name:ja-Latn": "Fubasami", "name:ko": "\ud6c4\ubc14\uc0ac\ubbf8", "note": "National-Land Numerical Information (Railway) 2007, MLIT Japan", "note:ja": "\u56fd\u571f\u6570\u5024\u60c5\u5831\uff08\u9244\u9053\u30c7\u30fc\u30bf\uff09\u5e73\u621019\u5e74\u3000\u56fd\u571f\u4ea4\u901a\u7701", "public_transport": "station", "railway": "station", "source": "KSJ2", "source_ref": "http://nlftp.mlit.go.jp/ksj/jpgis/datalist/KsjTmplt-N02-v1_1.html", "wikidata": "Q5506909", "wikipedia": "ja:\u6587\u631f\u99c5"}}, {"type": "node", "id": 823275390, "lat": 36.4110352, "lon": 139.9801004, "tags": {"name": "\u5bfa\u5185", "name:en": "Terauchi", "name:ja": "\u5bfa\u5185", "name:ja_rm": "Terauchi", "name:ko": "\ub370\ub77c\uc6b0\uce58", "note": "National-Land Numerical Information (Railway) 2007, MLIT Japan", "operator": "\u771f\u5ca1\u9435\u9053", "operator:en": "Mooka Railway", "public_transport": "station", "railway": "station", "source": "KSJ2", "source_ref": "http://nlftp.mlit.go.jp/ksj/jpgis/datalist/KsjTmplt-N02-v1_1.html", "train": "yes", "wikidata": "Q7701643", "wikipedia": "ja:\u5bfa\u5185\u99c5"}}, {"type": "node", "id": 823277290, "lat": 36.3584812, "lon": 139.9704471, "tags": {"name": "\u3072\u3050\u3061", "name:en": "Higuchi", "name:ja": "\u3072\u3050\u3061", "name:ja_rm": "Higuchi", "name:ko": "\ud788\uad6c\uce58", "note": "National-Land Numerical Information (Railway) 2007, MLIT Japan", "operator": "\u771f\u5ca1\u9435\u9053", "operator:en": "Moka Railway", "public_transport": "station", "railway": "station", "source": "KSJ2", "source_ref": "http://nlftp.mlit.go.jp/ksj/jpgis/datalist/KsjTmplt-N02-v1_1.html", "train": "yes", "wikidata": "Q5760181", "wikipedia": "ja:\u3072\u3050\u3061\u99c5"}}, {"type": "node", "id": 823277653, "lat": 36.375811, "lon": 139.9715254, "tags": {"name": "\u4e45\u4e0b\u7530", "name:en": "Kugeta", "name:ja": "\u4e45\u4e0b\u7530", "name:ja_rm": "Kugeta", "name:ko": "\uad6c\uac8c\ud0c0", "note": "National-Land Numerical Information (Railway) 2007, MLIT Japan", "operator": "\u771f\u5ca1\u9435\u9053", "operator:en": "Moka Railway", "public_transport": "station", "railway": "station", "source": "KSJ2", "source_ref": "http://nlftp.mlit.go.jp/ksj/jpgis/datalist/KsjTmplt-N02-v1_1.html", "train": "yes", "wikidata": "Q6441968", "wikipedia": "ja:\u4e45\u4e0b\u7530\u99c5"}}, {"type": "node", "id": 925345480, "lat": 36.779461, "lon": 139.7111778, "tags": {"name": "\u65b0\u9ad8\u5fb3", "name:en": "Shin-Takatoku Station", "name:ja": "\u65b0\u9ad8\u5fb3", "name:ja_rm": "Shin-Takatoku", "name:ko": "\uc2e0\ud0c0\uce74\ud1a0\ucfe0", "public_transport": "station", "railway": "station", "source": "KSJ2", "train": "yes", "wikidata": "Q7497134", "wikipedia": "ja:\u65b0\u9ad8\u5fb3\u99c5"}}, {"type": "node", "id": 925346262, "lat": 36.7324624, "lon": 139.691952, "tags": {"name": "\u5927\u8c37\u5411", "name:en": "Daiyamuko", "name:ja": "\u5927\u8c37\u5411", "name:ja_kana": "\u3060\u3044\u3084\u3080\u3053\u3046", "name:ja_rm": "Daiya-Muk\u014d", "name:ko": "\ub2e4\uc774\uc57c\ubb34\ucf54", "public_transport": "station", "railway": "station", "source": "KSJ2", "train": "yes", "wikidata": "Q5209838", "wikipedia": "ja:\u5927\u8c37\u5411\u99c5"}}, {"type": "node", "id": 3721336950, "lat": 36.5592983, "lon": 139.8981571, "tags": {"highspeed": "yes", "name": "\u5b87\u90fd\u5bae", "name:de": "Utsunomiya", "name:en": "Utsunomiya", "name:it": "Utsunomiya", "name:ja-Hira": "\u3046\u3064\u306e\u307f\u3084", "name:ja-Latn": "Utsunomiya", "name:ru": "\u0423\u0446\u0443\u043d\u043e\u043c\u0438\u044f", "operator": "\u6771\u65e5\u672c\u65c5\u5ba2\u9243\u9053", "public_transport": "station", "railway": "station", "source": "KSJ2", "toilets:wheelchair": "yes", "train": "yes", "wheelchair": "yes", "wikidata": "Q801549", "wikipedia": "ja:\u5b87\u90fd\u5bae\u99c5"}}, {"type": "node", "id": 3721641451, "lat": 36.7478743, "lon": 139.6194559, "tags": {"amenity": "luggage_locker", "name": "\u6771\u6b66\u65e5\u5149", "name:en": "Tobu-Nikko", "name:it": "Tobu-Nikko", "name:ja": "\u6771\u6b66\u65e5\u5149", "name:ja-Latn": "T\u014dbu-Nikk\u014d", "note": "National-Land Numerical Information (Railway) 2007, MLIT Japan", "note:ja": "\u56fd\u571f\u6570\u5024\u60c5\u5831\uff08\u9244\u9053\u30c7\u30fc\u30bf\uff09\u5e73\u621019\u5e74\u3000\u56fd\u571f\u4ea4\u901a\u7701", "public_transport": "station", "railway": "station", "ref": "TN25", "source": "KSJ2", "source_ref": "http://nlftp.mlit.go.jp/ksj/jpgis/datalist/KsjTmplt-N02-v1_1.html", "wikidata": "Q7862640", "wikipedia": "ja:\u6771\u6b66\u65e5\u5149\u99c5"}}, {"type": "node", "id": 3721641452, "lat": 36.3717284, "lon": 139.7314038, "tags": {"name": "\u6803\u6728", "name:en": "Tochigi", "name:ja": "\u6803\u6728", "name:ja_kana": "\u3068\u3061\u304e", "name:ja_rm": "Tochigi", "name:ko": "\ub3c4\uce58\uae30", "name:zh": "\u6803\u6728\u7ad9", "note": "National-Land Numerical Information (Railway) 2007, MLIT Japan", "public_transport": "station", "railway": "station", "source": "KSJ2", "source_ref": "http://nlftp.mlit.go.jp/ksj/jpgis/datalist/KsjTmplt-N02-v1_1.html", "wikidata": "Q7811990", "wikipedia": "ja:\u6803\u6728\u99c5"}}, {"type": "node", "id": 3730051723, "lat": 36.725635, "lon": 139.6927992, "tags": {"name": "\u4e0b\u4eca\u5e02", "name:en": "Shimo-Imaichi", "name:ja": "\u4e0b\u4eca\u5e02", "name:ja_kana": "\u3057\u3082\u3044\u307e\u3044\u3061", "name:ja_rm": "Shimo-Imaichi", "name:ko": "\uc2dc\ubaa8\uc774\ub9c8\uc774\uce58", "note": "National-Land Numerical Information (Railway) 2007, MLIT Japan", "note:ja": "\u56fd\u571f\u6570\u5024\u60c5\u5831\uff08\u9244\u9053\u30c7\u30fc\u30bf\uff09\u5e73\u621019\u5e74\u3000\u56fd\u571f\u4ea4\u901a\u7701", "public_transport": "station", "railway": "station", "ref": "TN23", "source": "KSJ2", "source_ref": "http://nlftp.mlit.go.jp/ksj/jpgis/datalist/KsjTmplt-N02-v1_1.html", "wikidata": "Q7496924", "wikipedia": "ja:\u4e0b\u4eca\u5e02\u99c5"}}, {"type": "node", "id": 3730128013, "lat": 36.720468, "lon": 139.6872715, "tags": {"KSJ2:LIN": "\u65e5\u5149\u7dda", "KSJ2:STN": "\u4eca\u5e02", "name": "\u4eca\u5e02", "name:en": "Imaichi", "name:es": "Imaichi", "name:it": "Imaichi", "name:ja": "\u4eca\u5e02", "name:ja-Hira": "\u3044\u307e\u3044\u3061", "name:ja-Latn": "Imaichi", "name:ko": "\uc774\ub9c8\uc774\uce58", "note": "National-Land Numerical Information (Railway) 2007, MLIT Japan", "note:ja": "\u56fd\u571f\u6570\u5024\u60c5\u5831\uff08\u9244\u9053\u30c7\u30fc\u30bf\uff09\u5e73\u621019\u5e74\u3000\u56fd\u571f\u4ea4\u901a\u7701", "public_transport": "station", "railway": "station", "source": "KSJ2", "source_ref": "http://nlftp.mlit.go.jp/ksj/jpgis/datalist/KsjTmplt-N02-v1_1.html", "wikidata": "Q8190599", "wikipedia": "ja:\u4eca\u5e02\u99c5"}}, {"type": "node", "id": 3730128014, "lat": 36.7277842, "lon": 139.6814776, "tags": {"KSJ2:LIN": "\u65e5\u5149\u7dda", "KSJ2:STN": "\u4e0a\u4eca\u5e02", "name": "\u4e0a\u4eca\u5e02", "name:en": "Kami-Imaichi", "name:ja": "\u4e0a\u4eca\u5e02", "name:ja_kana": "\u304b\u307f\u3044\u307e\u3044\u3061", "name:ja_rm": "Kami-Imaichi", "name:ko": "\uac00\ubbf8\uc774\ub9c8\uc774\uce58", "note": "National-Land Numerical Information (Railway) 2007, MLIT Japan", "note:ja": "\u56fd\u571f\u6570\u5024\u60c5\u5831\uff08\u9244\u9053\u30c7\u30fc\u30bf\uff09\u5e73\u621019\u5e74\u3000\u56fd\u571f\u4ea4\u901a\u7701", "public_transport": "station", "railway": "station", "source": "KSJ2", "source_ref": "http://nlftp.mlit.go.jp/ksj/jpgis/datalist/KsjTmplt-N02-v1_1.html", "wikidata": "Q6357139", "wikipedia": "ja:\u4e0a\u4eca\u5e02\u99c5"}}, {"type": "node", "id": 3730128016, "lat": 36.6766205, "lon": 139.7123688, "tags": {"KSJ2:LIN": "\u65e5\u5149\u7dda", "KSJ2:STN": "\u660e\u795e", "name": "\u660e\u795e", "name:en": "Myojin", "name:ja": "\u660e\u795e", "name:ja_rm": "My\u014djin", "name:ko": "\ubb18\uc9c4", "note": "National-Land Numerical Information (Railway) 2007, MLIT Japan", "note:ja": "\u56fd\u571f\u6570\u5024\u60c5\u5831\uff08\u9244\u9053\u30c7\u30fc\u30bf\uff09\u5e73\u621019\u5e74\u3000\u56fd\u571f\u4ea4\u901a\u7701", "public_transport": "station", "railway": "station", "source": "KSJ2", "source_ref": "http://nlftp.mlit.go.jp/ksj/jpgis/datalist/KsjTmplt-N02-v1_1.html", "wikidata": "Q6949386", "wikipedia": "ja:\u660e\u795e\u99c5"}}, {"type": "node", "id": 3730128017, "lat": 36.7471805, "lon": 139.6219414, "tags": {"name": "\u65e5\u5149", "name:en": "Nikko", "name:ja": "\u65e5\u5149", "name:ja-Hira": "\u306b\u3063\u3053\u3046", "name:ja-Latn": "Nikk\u014d", "public_transport": "station", "railway": "station", "train": "yes", "wikidata": "Q1048777"}}, {"type": "node", "id": 3828076592, "lat": 36.6314909, "lon": 139.979591, "tags": {"name": "\u5b9d\u7a4d\u5bfa", "name:de": "Hoshakuji", "name:en": "Hoshakuji", "name:ja-Hira": "\u307b\u3046\u3057\u3083\u304f\u3058", "name:ja-Latn": "H\u014dshakuji", "name:ru": "\u0425\u043e\u0441\u044f\u043a\u0443\u0434\u0437\u0438", "public_transport": "station", "railway": "station", "source": "KSJ2", "train": "yes", "wikidata": "Q872554", "wikipedia": "ja:\u5b9d\u7a4d\u5bfa\u99c5"}}, {"type": "node", "id": 3898269403, "lat": 36.3898235, "lon": 139.7424779, "tags": {"name": "\u65b0\u6803\u6728", "name:en": "Shin-Tochigi", "name:ja": "\u65b0\u6803\u6728", "name:ja_rm": "Shin-Tochigi", "name:ko": "\uc2e0\ud1a0\uce58\uae30", "note": "National-Land Numerical Information (Railway) 2007, MLIT Japan", "public_transport": "station", "railway": "station", "ref": "TN12", "source": "KSJ2", "source_ref": "http://nlftp.mlit.go.jp/ksj/jpgis/datalist/KsjTmplt-N02-v1_1.html", "wikidata": "Q7497137", "wikipedia": "ja:\u65b0\u6803\u6728\u99c5"}}, {"type": "node", "id": 4098109337, "lat": 36.5982887, "lon": 139.9444191, "tags": {"name": "\u5ca1\u672c", "name:en": "Okamoto", "name:ja-Hira": "\u304a\u304b\u3082\u3068", "name:ja-Latn": "Okamoto", "name:ru": "\u041e\u043a\u0430\u043c\u043e\u0442\u043e", "operator": "\u6771\u65e5\u672c\u65c5\u5ba2\u9244\u9053", "public_transport": "station", "railway": "station", "source": "KSJ2", "train": "yes", "wikidata": "Q873979", "wikipedia": "ja:\u5ca1\u672c\u99c5 (\u6803\u6728\u770c)"}}, {"type": "node", "id": 4098109338, "lat": 36.5382007, "lon": 139.8586506, "tags": {"name": "\u9db4\u7530", "name:en": "Tsuruta", "name:it": "Tsuruta", "name:ja-Hira": "\u3064\u308b\u305f", "name:ja-Latn": "Tsuruta", "public_transport": "station", "railway": "station", "source": "KSJ2", "train": "yes", "wikidata": "Q1305535", "wikipedia": "ja:\u9db4\u7530\u99c5"}}, {"type": "node", "id": 4098306775, "lat": 36.5590664, "lon": 139.8805997, "tags": {"name": "\u6771\u6b66\u5b87\u90fd\u5bae", "name:de": "Tobu-Utsunomiya", "name:en": "Tobu-Utsunomiya", "name:ja": "\u6771\u6b66\u5b87\u90fd\u5bae", "name:ja_kana": "\u3068\u3046\u3076\u3046\u3064\u306e\u307f\u3084", "name:ja_rm": "Tobu-Utsunomiya", "name:ko": "\ub3c4\ubd80\uc6b0\uc4f0\ub178\ubbf8\uc57c", "note": "National-Land Numerical Information (Railway) 2007, MLIT Japan", "operator": "\u6771\u6b66\u9244\u9053", "public_transport": "station", "railway": "station", "ref": "TN40", "source": "KSJ2", "source_ref": "http://nlftp.mlit.go.jp/ksj/jpgis/datalist/KsjTmplt-N02-v1_1.html", "wheelchair": "limited", "wikidata": "Q7862642", "wikipedia": "ja:\u6771\u6b66\u5b87\u90fd\u5bae\u99c5"}}, {"type": "node", "id": 4358153720, "lat": 36.4515561, "lon": 139.8238137, "tags": {"name": "\u56fd\u8c37", "name:en": "Kuniya", "name:ja": "\u56fd\u8c37", "name:ja_rm": "Kuniya", "name:ko": "\uad6c\ub2c8\uc57c", "note": "National-Land Numerical Information (Railway) 2007, MLIT Japan", "public_transport": "station", "railway": "station", "ref": "TN34", "source": "KSJ2", "source_ref": "http://nlftp.mlit.go.jp/ksj/jpgis/datalist/KsjTmplt-N02-v1_1.html", "wikidata": "Q11421382", "wikipedia": "ja:\u56fd\u8c37\u99c5"}}, {"type": "node", "id": 4358153721, "lat": 36.4226613, "lon": 139.8051121, "tags": {"name": "\u58ec\u751f", "name:en": "Mibu", "name:ja": "\u58ec\u751f", "name:ja_rm": "Mibu", "name:ko": "\ubbf8\ubd80", "note": "National-Land Numerical Information (Railway) 2007, MLIT Japan", "public_transport": "station", "railway": "station", "ref": "TN33", "source": "KSJ2", "source_ref": "http://nlftp.mlit.go.jp/ksj/jpgis/datalist/KsjTmplt-N02-v1_1.html", "wikidata": "Q6827788", "wikipedia": "ja:\u58ec\u751f\u99c5"}}, {"type": "node", "id": 4358903093, "lat": 36.4364953, "lon": 139.8665122, "tags": {"name": "\u77f3\u6a4b", "name:de": "Ishibashi", "name:en": "Ishibashi", "name:ja": "\u77f3\u6a4b", "name:ja-Hira": "\u3044\u3057\u3070\u3057", "name:ja-Latn": "Ishibashi", "name:ru": "\u0418\u0441\u0438\u0431\u0430\u0441\u0438", "operator": "\u6771\u65e5\u672c\u65c5\u5ba2\u9244\u9053", "public_transport": "station", "railway": "station", "toilets:wheelchair": "yes", "wheelchair": "yes", "wikidata": "Q866078", "wikipedia": "ja:\u77f3\u6a4b\u962a\u5927\u524d\u99c5"}}, {"type": "node", "id": 5586958187, "lat": 36.5572113, "lon": 139.7449379, "tags": {"name": "\u65b0\u9e7f\u6cbc", "name:en": "Shin-Kanuma", "name:ja": "\u65b0\u9e7f\u6cbc", "name:ja_kana": "\u3057\u3093\u304b\u306c\u307e", "name:ja_rm": "Shin-Kanuma", "name:ko": "\uc2e0\uce74\ub204\ub9c8", "note": "National-Land Numerical Information (Railway) 2007, MLIT Japan", "public_transport": "station", "railway": "station", "source": "KSJ2", "source_ref": "http://nlftp.mlit.go.jp/ksj/jpgis/datalist/KsjTmplt-N02-v1_1.html", "wikidata": "Q7497103", "wikipedia": "ja:\u65b0\u9e7f\u6cbc\u99c5"}}, {"type": "node", "id": 5586958219, "lat": 36.5330893, "lon": 139.7418934, "tags": {"name": "\u6a05\u5c71", "name:en": "Momiyama", "name:ja": "\u6a05\u5c71", "name:ja_kana": "\u3082\u307f\u3084\u307e", "name:ja_rm": "Momiyama", "name:ko": "\ubaa8\ubbf8\uc57c\ub9c8", "note": "National-Land Numerical Information (Railway) 2007, MLIT Japan", "public_transport": "station", "railway": "station", "source": "KSJ2", "source_ref": "http://nlftp.mlit.go.jp/ksj/jpgis/datalist/KsjTmplt-N02-v1_1.html", "wikidata": "Q6897322", "wikipedia": "ja:\u6a05\u5c71\u99c5"}}, {"type": "node", "id": 5587060435, "lat": 36.6513639, "lon": 139.713918, "tags": {"name": "\u4e0b\u5c0f\u4ee3", "name:en": "Shimo-Goshiro", "name:ja": "\u4e0b\u5c0f\u4ee3", "name:ja_rm": "Shimo-Goshiro", "name:ko": "\uc2dc\ubaa8\uace0\uc2dc\ub85c", "note": "National-Land Numerical Information (Railway) 2007, MLIT Japan", "note:ja": "\u56fd\u571f\u6570\u5024\u60c5\u5831\uff08\u9244\u9053\u30c7\u30fc\u30bf\uff09\u5e73\u621019\u5e74\u3000\u56fd\u571f\u4ea4\u901a\u7701", "public_transport": "station", "railway": "station", "source": "KSJ2", "source_ref": "http://nlftp.mlit.go.jp/ksj/jpgis/datalist/KsjTmplt-N02-v1_1.html", "wikidata": "Q11360791", "wikipedia": "ja:\u4e0b\u5c0f\u4ee3\u99c5"}}, {"type": "node", "id": 5587062040, "lat": 36.6202016, "lon": 139.7076968, "tags": {"name": "\u677f\u8377", "name:en": "Itaga", "name:ja": "\u677f\u8377", "name:ja_rm": "Itaga", "name:ko": "\uc774\ud0c0\uac00", "note": "National-Land Numerical Information (Railway) 2007, MLIT Japan", "public_transport": "station", "railway": "station", "source": "KSJ2", "source_ref": "http://nlftp.mlit.go.jp/ksj/jpgis/datalist/KsjTmplt-N02-v1_1.html", "wikidata": "Q6092365", "wikipedia": "ja:\u677f\u8377\u99c5"}}, {"type": "node", "id": 5826868234, "lat": 36.7542157, "lon": 139.9459854, "tags": {"name": "\u7247\u5ca1", "name:de": "Kataoka", "name:en": "Kataoka", "name:ja-Hira": "\u304b\u305f\u304a\u304b", "name:ja-Latn": "Kataoka", "name:ru": "\u041a\u0430\u0442\u0430\u043e\u043a\u0430", "public_transport": "station", "railway": "station", "source": "KSJ2", "train": "yes", "wikidata": "Q873013", "wikipedia": "ja:\u7247\u5ca1\u99c5"}}, {"type": "node", "id": 5827279832, "lat": 36.3743446, "lon": 139.8419693, "tags": {"name": "\u5c0f\u91d1\u4e95", "name:de": "Koganei", "name:en": "Koganei", "name:ja": "\u5c0f\u91d1\u4e95", "name:ja-Hira": "\u3053\u304c\u306d\u3044", "name:ja-Latn": "Koganei", "name:ru": "\u041a\u043e\u0433\u0430\u043d\u0435\u0438", "public_transport": "station", "railway": "station", "source": "KSJ2", "wheelchair": "yes", "wikidata": "Q861505", "wikipedia": "ja:\u5c0f\u91d1\u4e95\u99c5"}}, {"type": "node", "id": 5827279863, "lat": 36.3953175, "lon": 139.8545254, "tags": {"name": "\u81ea\u6cbb\u533b\u5927", "name:de": "Jichiidai", "name:en": "Jichiidai", "name:ja": "\u81ea\u6cbb\u533b\u5927", "name:ja-Hira": "\u3058\u3061\u3044\u3060\u3044", "name:ja-Latn": "Jichiidai", "name:ru": "\u0414\u0437\u0438\u0442\u0438\u0438\u0434\u0430\u0439", "public_transport": "station", "railway": "station", "source": "KSJ2", "wikidata": "Q873156", "wikipedia": "ja:\u81ea\u6cbb\u533b\u5927\u99c5"}}, {"type": "node", "id": 6050500242, "lat": 36.5071518, "lon": 139.7453712, "tags": {"name": "\u6961\u6728", "name:en": "Niregi", "name:ja": "\u6961\u6728", "name:ja_kana": "\u306b\u308c\u304e", "name:ja_rm": "Niregi", "name:ko": "\ub2c8\ub808\uae30", "note": "National-Land Numerical Information (Railway) 2007, MLIT Japan", "public_transport": "station", "railway": "station", "wikidata": "Q7039945", "wikipedia": "ja:\u6961\u6728\u99c5"}}, {"type": "node", "id": 8022247082, "lat": 36.4079871, "lon": 139.7412861, "tags": {"name": "\u5408\u6226\u5834", "name:en": "Kassemba", "name:ja": "\u5408\u6226\u5834", "name:ja_rm": "Kassenba", "name:ko": "\uac13\uc13c\ubc14", "note": "National-Land Numerical Information (Railway) 2007, MLIT Japan", "public_transport": "station", "railway": "station", "source": "KSJ2", "source_ref": "http://nlftp.mlit.go.jp/ksj/jpgis/datalist/KsjTmplt-N02-v1_1.html", "wikidata": "Q6374725", "wikipedia": "ja:\u5408\u6226\u5834\u99c5"}}, {"type": "node", "id": 8022247371, "lat": 36.4293476, "lon": 139.7473143, "tags": {"name": "\u5bb6\u4e2d", "name:en": "Ienaka", "name:ja": "\u5bb6\u4e2d", "name:ja_rm": "Ienaka", "name:ko": "\uc774\uc5d0\ub098\uce74", "note": "National-Land Numerical Information (Railway) 2007, MLIT Japan", "public_transport": "station", "railway": "station", "source": "KSJ2", "source_ref": "http://nlftp.mlit.go.jp/ksj/jpgis/datalist/KsjTmplt-N02-v1_1.html", "wikidata": "Q5990042", "wikipedia": "ja:\u5bb6\u4e2d\u99c5"}}, {"type": "node", "id": 8057414616, "lat": 36.3981905, "lon": 139.6093007, "tags": {"name": "\u845b\u751f", "name:en": "Kuzu", "name:ja": "\u845b\u751f", "name:ja_rm": "Kuz\u016b", "name:ko": "\uad6c\uc988", "note": "National-Land Numerical Information (Railway) 2007, MLIT Japan", "public_transport": "station", "railway": "station", "source": "KSJ2", "source_ref": "http://nlftp.mlit.go.jp/ksj/jpgis/datalist/KsjTmplt-N02-v1_1.html", "wikidata": "Q845948", "wikipedia": "ja:\u845b\u751f\u99c5"}}, {"type": "node", "id": 8062667099, "lat": 36.3782804, "lon": 139.5930737, "tags": {"name": "\u591a\u7530", "name:en": "Tada", "name:ja": "\u591a\u7530", "name:ja_rm": "Tada", "name:ko": "\ub2e4\ub2e4", "note": "National-Land Numerical Information (Railway) 2007, MLIT Japan", "public_transport": "station", "railway": "station", "source": "KSJ2", "source_ref": "http://nlftp.mlit.go.jp/ksj/jpgis/datalist/KsjTmplt-N02-v1_1.html", "wikidata": "Q7674268", "wikipedia": "ja:\u591a\u7530\u99c5 (\u6803\u6728\u770c)"}}, {"type": "node", "id": 8062667101, "lat": 36.3669606, "lon": 139.5817468, "tags": {"name": "\u7530\u6cbc", "name:en": "Tanuma", "name:ja": "\u7530\u6cbc", "name:ja_rm": "Tanuma", "name:ko": "\ub2e4\ub204\ub9c8", "note": "National-Land Numerical Information (Railway) 2007, MLIT Japan", "public_transport": "station", "railway": "station", "source": "KSJ2", "source_ref": "http://nlftp.mlit.go.jp/ksj/jpgis/datalist/KsjTmplt-N02-v1_1.html", "wikidata": "Q7683909", "wikipedia": "ja:\u7530\u6cbc\u99c5"}}, {"type": "node", "id": 8062880433, "lat": 36.5806929, "lon": 139.7378941, "tags": {"name": "\u5317\u9e7f\u6cbc", "name:en": "Kita-Kanuma", "name:ja": "\u5317\u9e7f\u6cbc", "name:ja_rm": "Kita-Kanuma", "name:ko": "\uae30\ud0c0\uce74\ub204\ub9c8", "note": "National-Land Numerical Information (Railway) 2007, MLIT Japan", "public_transport": "station", "railway": "station", "source": "KSJ2", "source_ref": "http://nlftp.mlit.go.jp/ksj/jpgis/datalist/KsjTmplt-N02-v1_1.html", "wikidata": "Q6417558", "wikipedia": "ja:\u5317\u9e7f\u6cbc\u99c5"}}, {"type": "node", "id": 8063060775, "lat": 36.4661485, "lon": 139.7494138, "tags": {"name": "\u6771\u6b66\u91d1\u5d0e", "name:en": "T\u014dbu Kanasaki", "name:ja": "\u6771\u6b66\u91d1\u5d0e", "name:ja_rm": "T\u014dbu-Kanasaki", "name:ko": "\ub3c4\ubd80\uac00\ub098\uc0ac\ud0a4", "note": "National-Land Numerical Information (Railway) 2007, MLIT Japan", "public_transport": "station", "railway": "station", "source": "KSJ2", "source_ref": "http://nlftp.mlit.go.jp/ksj/jpgis/datalist/KsjTmplt-N02-v1_1.html", "wikidata": "Q7862636", "wikipedia": "ja:\u6771\u6b66\u91d1\u5d0e\u99c5"}}, {"type": "node", "id": 8076485974, "lat": 36.7604507, "lon": 139.71335, "tags": {"name": "\u5927\u6851", "name:en": "Okuwa", "name:ja": "\u5927\u6851", "name:ja_rm": "\u014ckuwa", "name:ko": "\uc624\ucfe0\uc640", "note": "National-Land Numerical Information (Railway) 2007, MLIT Japan", "note:ja": "\u56fd\u571f\u6570\u5024\u60c5\u5831\uff08\u9244\u9053\u30c7\u30fc\u30bf\uff09\u5e73\u621019\u5e74\u3000\u56fd\u571f\u4ea4\u901a\u7701", "public_transport": "station", "railway": "station", "source": "KSJ2", "source_ref": "http://nlftp.mlit.go.jp/ksj/jpgis/datalist/KsjTmplt-N02-v1_1.html", "wikidata": "Q8081590", "wikipedia": "ja:\u5927\u6851\u99c5 (\u6803\u6728\u770c)"}}, {"type": "node", "id": 8147921977, "lat": 36.4662182, "lon": 139.8293442, "tags": {"name": "\u304a\u3082\u3061\u3083\u306e\u307e\u3061", "name:en": "Omocha-no-Machi", "name:ja": "\u304a\u3082\u3061\u3083\u306e\u307e\u3061", "name:ja_rm": "Omocha-no-Machi", "name:ko": "\uc624\ubaa8\ucc28\ub178\ub9c8\uce58", "note": "National-Land Numerical Information (Railway) 2007, MLIT Japan", "public_transport": "station", "railway": "station", "ref": "TN35", "source": "KSJ2", "source_ref": "http://nlftp.mlit.go.jp/ksj/jpgis/datalist/KsjTmplt-N02-v1_1.html", "wikidata": "Q7090437", "wikipedia": "ja:\u304a\u3082\u3061\u3083\u306e\u307e\u3061\u99c5"}}, {"type": "node", "id": 8147921979, "lat": 36.4853953, "lon": 139.835528, "tags": {"name": "\u5b89\u585a", "name:en": "Yasuzuka", "name:ja": "\u5b89\u585a", "name:ja_rm": "Yasuzuka", "name:ko": "\uc57c\uc2a4\uc988\uce74", "note": "National-Land Numerical Information (Railway) 2007, MLIT Japan", "public_transport": "station", "railway": "station", "ref": "TN36", "source": "KSJ2", "source_ref": "http://nlftp.mlit.go.jp/ksj/jpgis/datalist/KsjTmplt-N02-v1_1.html", "wikidata": "Q8050142", "wikipedia": "ja:\u5b89\u585a\u99c5"}}, {"type": "node", "id": 8147921981, "lat": 36.5146817, "lon": 139.8504746, "tags": {"name": "\u897f\u5ddd\u7530", "name:en": "Nishi-Kawada", "name:ja": "\u897f\u5ddd\u7530", "name:ja_rm": "Nishi-Kawada", "name:ko": "\ub2c8\uc2dc\uce74\uc640\ub2e4", "note": "National-Land Numerical Information (Railway) 2007, MLIT Japan", "public_transport": "station", "railway": "station", "ref": "TN37", "source": "KSJ2", "source_ref": "http://nlftp.mlit.go.jp/ksj/jpgis/datalist/KsjTmplt-N02-v1_1.html", "wikidata": "Q11628148", "wikipedia": "ja:\u897f\u5ddd\u7530\u99c5"}}, {"type": "node", "id": 8147921982, "lat": 36.4089576, "lon": 139.7730325, "tags": {"name": "\u91ce\u5dde\u5927\u585a", "name:en": "Yashu-Otsuka", "name:ja": "\u91ce\u5dde\u5927\u585a", "name:ja_rm": "Yash\u016b-\u014ctsuka", "name:ko": "\uc57c\uc288\uc624\uc4f0\uce74", "note": "National-Land Numerical Information (Railway) 2007, MLIT Japan", "public_transport": "station", "railway": "station", "ref": "TN32", "source": "KSJ2", "source_ref": "http://nlftp.mlit.go.jp/ksj/jpgis/datalist/KsjTmplt-N02-v1_1.html", "wikidata": "Q8049778", "wikipedia": "ja:\u91ce\u5dde\u5927\u585a\u99c5"}}, {"type": "node", "id": 8147921987, "lat": 36.5313091, "lon": 139.8610143, "tags": {"name": "\u6c5f\u66fd\u5cf6", "name:en": "Esojima", "name:ja": "\u6c5f\u66fd\u5cf6", "name:ja_rm": "Esojima", "name:ko": "\uc5d0\uc18c\uc9c0\ub9c8", "note": "National-Land Numerical Information (Railway) 2007, MLIT Japan", "public_transport": "station", "railway": "station", "ref": "TN38", "source": "KSJ2", "source_ref": "http://nlftp.mlit.go.jp/ksj/jpgis/datalist/KsjTmplt-N02-v1_1.html", "wikidata": "Q5398613", "wikipedia": "ja:\u6c5f\u66fd\u5cf6\u99c5"}}, {"type": "node", "id": 8147921988, "lat": 36.5436177, "lon": 139.8717284, "tags": {"name": "\u5357\u5b87\u90fd\u5bae", "name:en": "Minami-Utsunomiya", "name:ja": "\u5357\u5b87\u90fd\u5bae", "name:ja_rm": "Minami-Utsunomiya", "name:ko": "\ubbf8\ub098\ubbf8\uc6b0\uc4f0\ub178\ubbf8\uc57c", "note": "National-Land Numerical Information (Railway) 2007, MLIT Japan", "public_transport": "station", "railway": "station", "ref": "TN39", "source": "KSJ2", "source_ref": "http://nlftp.mlit.go.jp/ksj/jpgis/datalist/KsjTmplt-N02-v1_1.html", "wikidata": "Q6862982", "wikipedia": "ja:\u5357\u5b87\u90fd\u5bae\u99c5"}}, {"type": "node", "id": 8147921993, "lat": 36.4016815, "lon": 139.7540881, "tags": {"name": "\u91ce\u5dde\u5e73\u5ddd", "name:en": "Yashu-Hirakawa", "name:ja": "\u91ce\u5dde\u5e73\u5ddd", "name:ja_rm": "Yash\u016b-Hirakawa", "name:ko": "\uc57c\uc288\ud788\ub77c\uce74\uc640", "note": "National-Land Numerical Information (Railway) 2007, MLIT Japan", "public_transport": "station", "railway": "station", "ref": "TN31", "source": "KSJ2", "source_ref": "http://nlftp.mlit.go.jp/ksj/jpgis/datalist/KsjTmplt-N02-v1_1.html", "wikidata": "Q8049775", "wikipedia": "ja:\u91ce\u5dde\u5e73\u5ddd\u99c5"}}, {"type": "node", "id": 8173024298, "lat": 36.5591594, "lon": 139.8985076, "tags": {"highspeed": "yes", "name": "\u5b87\u90fd\u5bae", "name:de": "Utsunomiya", "name:en": "Utsunomiya", "name:it": "Utsunomiya", "name:ja-Hira": "\u3046\u3064\u306e\u307f\u3084", "name:ja-Latn": "Utsunomiya", "name:ru": "\u0423\u0446\u0443\u043d\u043e\u043c\u0438\u044f", "operator": "\u6771\u65e5\u672c\u65c5\u5ba2\u9243\u9053", "public_transport": "station", "railway": "station", "source": "KSJ2", "toilets:wheelchair": "yes", "wheelchair": "yes", "wikidata": "Q801549", "wikipedia": "ja:\u5b87\u90fd\u5bae\u99c5"}}, {"type": "node", "id": 8832005298, "lat": 36.3507283, "lon": 139.7816502, "tags": {"name": "\u601d\u5ddd", "name:en": "Omoigawa", "name:ja": "\u601d\u5ddd", "name:ja_rm": "Omoigawa", "name:ko": "\uc624\ubaa8\uc774\uac00\uc640", "note": "National-Land Numerical Information (Railway) 2007, MLIT Japan", "public_transport": "station", "railway": "station", "source": "KSJ2", "source_ref": "http://nlftp.mlit.go.jp/ksj/jpgis/datalist/KsjTmplt-N02-v1_1.html", "wikidata": "Q7090612", "wikipedia": "ja:\u601d\u5ddd\u99c5"}}, {"type": "node", "id": 11166511809, "lat": 36.686353, "lon": 139.7324588, "tags": {"KSJ2:LIN": "\u65e5\u5149\u7dda", "KSJ2:STN": "\u4e0b\u91ce\u5927\u6ca2", "name": "\u4e0b\u91ce\u5927\u6ca2", "name:en": "Shimotsuke-Osawa", "name:it": "Shimotsuke-Osawa", "name:ja": "\u4e0b\u91ce\u5927\u6ca2", "name:ja-Latn": "Shimotsuke-\u014csawa", "name:ko": "\uc2dc\ubaa8\uc4f0\ucf00\uc624\uc0ac\uc640", "note": "National-Land Numerical Information (Railway) 2007, MLIT Japan", "note:ja": "\u56fd\u571f\u6570\u5024\u60c5\u5831\uff08\u9244\u9053\u30c7\u30fc\u30bf\uff09\u5e73\u621019\u5e74\u3000\u56fd\u571f\u4ea4\u901a\u7701", "public_transport": "station", "railway": "station", "source": "KSJ2", "source_ref": "http://nlftp.mlit.go.jp/ksj/jpgis/datalist/KsjTmplt-N02-v1_1.html", "wikidata": "Q7497018", "wikipedia": "ja:\u4e0b\u91ce\u5927\u6ca2\u99c5"}}, {"type": "node", "id": 11196857410, "lat": 36.6531194, "lon": 139.4498771, "tags": {"KSJ2:LIN": "\u308f\u305f\u3089\u305b\u6e13\u8c37\u7dda", "KSJ2:STN": "\u9593\u85e4", "name": "\u9593\u85e4", "name:en": "Mato", "name:ja": "\u9593\u85e4", "name:ja_rm": "Mato", "name:ko": "\ub9c8\ud1a0", "note": "National-Land Numerical Information (Railway) 2007, MLIT Japan", "note:ja": "\u56fd\u571f\u6570\u5024\u60c5\u5831\uff08\u9244\u9053\u30c7\u30fc\u30bf\uff09\u5e73\u621019\u5e74\u3000\u56fd\u571f\u4ea4\u901a\u7701", "public_transport": "station", "railway": "station", "source": "KSJ2", "source_ref": "http://nlftp.mlit.go.jp/ksj/jpgis/datalist/KsjTmplt-N02-v1_1.html", "wikidata": "Q6792161", "wikipedia": "ja:\u9593\u85e4\u99c5"}}, {"type": "node", "id": 11225116577, "lat": 36.6417269, "lon": 139.4479775, "tags": {"KSJ2:LIN": "\u308f\u305f\u3089\u305b\u6e13\u8c37\u7dda", "KSJ2:STN": "\u8db3\u5c3e", "name": "\u8db3\u5c3e", "name:en": "Ashio", "name:ja": "\u8db3\u5c3e", "name:ja_rm": "Ashio", "name:ko": "\uc544\uc2dc\uc624", "note": "National-Land Numerical Information (Railway) 2007, MLIT Japan", "note:ja": "\u56fd\u571f\u6570\u5024\u60c5\u5831\uff08\u9244\u9053\u30c7\u30fc\u30bf\uff09\u5e73\u621019\u5e74\u3000\u56fd\u571f\u4ea4\u901a\u7701", "public_transport": "station", "railway": "station", "source": "KSJ2", "source_ref": "http://nlftp.mlit.go.jp/ksj/jpgis/datalist/KsjTmplt-N02-v1_1.html", "wikidata": "Q4805122", "wikipedia": "ja:\u8db3\u5c3e\u99c5"}}, {"type": "node", "id": 11451819162, "lat": 36.4939255, "lon": 139.8770003, "tags": {"name": "\u96c0\u5bae", "name:en": "Suzumenomiya", "name:ja": "\u96c0\u5bae", "name:ja-Hira": "\u3059\u305a\u3081\u306e\u307f\u3084", "name:ja-Latn": "Suzumenomiya", "operator": "\u6771\u65e5\u672c\u65c5\u5ba2\u9244\u9053", "public_transport": "station", "railway": "station", "toilets:wheelchair": "yes", "wheelchair": "yes", "wikidata": "Q872950", "wikipedia": "ja:\u96c0\u5bae\u99c5"}}]}