{"version": 0.6, "generator": "Overpass API 0.7.62.4 2390de5a", "osm3s": {"timestamp_osm_base": "2024-12-30T15:09:27Z", "copyright": "The data included in this document is from www.openstreetmap.org. The data is made available under ODbL."}, "elements": [{"type": "node", "id": 264875703, "lat": 34.9102392, "lon": 137.5142196, "tags": {"KSJ2:LIN": "\u98ef\u7530\u7dda", "name": "\u8336\u81fc\u5c71", "name:en": "Chausuyama", "note": "National-Land Numerical Information (Railway) 2007, MLIT Japan", "note:ja": "\u56fd\u571f\u6570\u5024\u60c5\u5831\uff08\u9244\u9053\u30c7\u30fc\u30bf\uff09\u5e73\u621019\u5e74\u3000\u56fd\u571f\u4ea4\u901a\u7701", "public_transport": "station", "railway": "station", "source": "KSJ2", "source_ref": "http://nlftp.mlit.go.jp/ksj/jpgis/datalist/KsjTmplt-N02-v1_1.html", "wikidata": "Q772936", "wikipedia": "ja:\u8336\u81fc\u5c71\u99c5"}}, {"type": "node", "id": 264875767, "lat": 34.867991, "lon": 137.4417271, "tags": {"KSJ2:LIN": "\u98ef\u7530\u7dda", "KSJ2:STN": "\u6c5f\u5cf6", "name": "\u6c5f\u5cf6", "name:en": "Ejima", "name:ja": "\u6c5f\u5cf6", "name:ko": "\uc5d0\uc9c0\ub9c8", "note": "National-Land Numerical Information (Railway) 2007, MLIT Japan", "note:ja": "\u56fd\u571f\u6570\u5024\u60c5\u5831\uff08\u9244\u9053\u30c7\u30fc\u30bf\uff09\u5e73\u621019\u5e74\u3000\u56fd\u571f\u4ea4\u901a\u7701", "public_transport": "station", "railway": "station", "source": "KSJ2", "source_ref": "http://nlftp.mlit.go.jp/ksj/jpgis/datalist/KsjTmplt-N02-v1_1.html", "wikidata": "Q772390", "wikipedia": "ja:\u6c5f\u5cf6\u99c5"}}, {"type": "node", "id": 264875774, "lat": 34.9325573, "lon": 137.57618, "tags": {"KSJ2:LIN": "\u98ef\u7530\u7dda", "KSJ2:STN": "\u672c\u9577\u7be0", "name": "\u672c\u9577\u7be0", "name:en": "Hon-Nagashino", "name:ja": "\u672c\u9577\u7be0", "name:ko": "\ud63c\ub098\uac00\uc2dc\ub178", "note": "National-Land Numerical Information (Railway) 2007, MLIT Japan", "note:ja": "\u56fd\u571f\u6570\u5024\u60c5\u5831\uff08\u9244\u9053\u30c7\u30fc\u30bf\uff09\u5e73\u621019\u5e74\u3000\u56fd\u571f\u4ea4\u901a\u7701", "public_transport": "station", "railway": "station", "source": "KSJ2", "source_ref": "http://nlftp.mlit.go.jp/ksj/jpgis/datalist/KsjTmplt-N02-v1_1.html", "wikidata": "Q773509", "wikipedia": "ja:\u672c\u9577\u7be0\u99c5"}}, {"type": "node", "id": 264875778, "lat": 34.8480089, "lon": 137.4145912, "tags": {"KSJ2:LIN": "\u98ef\u7530\u7dda", "KSJ2:STN": "\u4e09\u6cb3\u4e00\u5bae", "name": "\u4e09\u6cb3\u4e00\u5bae", "name:en": "Mikawa-Ichinomiya", "name:ja": "\u4e09\u6cb3\u4e00\u5bae", "name:ko": "\ubbf8\uce74\uc640\uc774\uce58\ub178\ubbf8\uc57c", "note": "National-Land Numerical Information (Railway) 2007, MLIT Japan", "note:ja": "\u56fd\u571f\u6570\u5024\u60c5\u5831\uff08\u9244\u9053\u30c7\u30fc\u30bf\uff09\u5e73\u621019\u5e74\u3000\u56fd\u571f\u4ea4\u901a\u7701", "railway": "station", "source": "KSJ2", "source_ref": "http://nlftp.mlit.go.jp/ksj/jpgis/datalist/KsjTmplt-N02-v1_1.html", "wikidata": "Q772219", "wikipedia": "ja:\u4e09\u6cb3\u4e00\u5bae\u99c5"}}, {"type": "node", "id": 264875795, "lat": 34.9060253, "lon": 137.5028182, "tags": {"KSJ2:LIN": "\u98ef\u7530\u7dda", "KSJ2:STN": "\u6771\u65b0\u753a", "name": "\u6771\u65b0\u753a", "name:en": "Higashi-Shimmachi", "name:ja": "\u6771\u65b0\u753a", "name:ko": "\ud788\uac00\uc2dc\uc2e0\ub9c8\uce58", "note": "National-Land Numerical Information (Railway) 2007, MLIT Japan", "note:ja": "\u56fd\u571f\u6570\u5024\u60c5\u5831\uff08\u9244\u9053\u30c7\u30fc\u30bf\uff09\u5e73\u621019\u5e74\u3000\u56fd\u571f\u4ea4\u901a\u7701", "public_transport": "station", "railway": "station", "source": "KSJ2", "source_ref": "http://nlftp.mlit.go.jp/ksj/jpgis/datalist/KsjTmplt-N02-v1_1.html", "wikidata": "Q772815", "wikipedia": "ja:\u6771\u65b0\u753a\u99c5"}}, {"type": "node", "id": 264875798, "lat": 34.9011344, "lon": 137.4930966, "tags": {"KSJ2:LIN": "\u98ef\u7530\u7dda", "KSJ2:STN": "\u65b0\u57ce", "name": "\u65b0\u57ce", "name:en": "Shinshiro", "name:ja": "\u65b0\u57ce", "name:ko": "\uc2e0\uc2dc\ub85c", "note": "National-Land Numerical Information (Railway) 2007, MLIT Japan", "note:ja": "\u56fd\u571f\u6570\u5024\u60c5\u5831\uff08\u9244\u9053\u30c7\u30fc\u30bf\uff09\u5e73\u621019\u5e74\u3000\u56fd\u571f\u4ea4\u901a\u7701", "public_transport": "station", "railway": "station", "source": "KSJ2", "source_ref": "http://nlftp.mlit.go.jp/ksj/jpgis/datalist/KsjTmplt-N02-v1_1.html", "wikidata": "Q772724", "wikipedia": "ja:\u65b0\u57ce\u99c5"}}, {"type": "node", "id": 264875874, "lat": 34.8895266, "lon": 137.4781095, "tags": {"KSJ2:LIN": "\u98ef\u7530\u7dda", "KSJ2:STN": "\u91ce\u7530\u57ce", "name": "\u91ce\u7530\u57ce", "name:en": "Nodaj\u014d", "name:ja": "\u91ce\u7530\u57ce", "name:ko": "\ub178\ub2e4\uc870", "note": "National-Land Numerical Information (Railway) 2007, MLIT Japan", "note:ja": "\u56fd\u571f\u6570\u5024\u60c5\u5831\uff08\u9244\u9053\u30c7\u30fc\u30bf\uff09\u5e73\u621019\u5e74\u3000\u56fd\u571f\u4ea4\u901a\u7701", "public_transport": "station", "railway": "station", "source": "KSJ2", "source_ref": "http://nlftp.mlit.go.jp/ksj/jpgis/datalist/KsjTmplt-N02-v1_1.html", "wikidata": "Q772615", "wikipedia": "ja:\u91ce\u7530\u57ce\u99c5"}}, {"type": "node", "id": 264876100, "lat": 34.9301812, "lon": 137.5484913, "tags": {"KSJ2:LIN": "\u98ef\u7530\u7dda", "KSJ2:STN": "\u5927\u6d77", "name": "\u5927\u6d77", "name:en": "Omi", "name:ja": "\u5927\u6d77", "name:ko": "\uc624\ubbf8", "note": "National-Land Numerical Information (Railway) 2007, MLIT Japan", "note:ja": "\u56fd\u571f\u6570\u5024\u60c5\u5831\uff08\u9244\u9053\u30c7\u30fc\u30bf\uff09\u5e73\u621019\u5e74\u3000\u56fd\u571f\u4ea4\u901a\u7701", "public_transport": "station", "railway": "station", "source": "KSJ2", "source_ref": "http://nlftp.mlit.go.jp/ksj/jpgis/datalist/KsjTmplt-N02-v1_1.html", "wikidata": "Q773149", "wikipedia": "ja:\u5927\u6d77\u99c5"}}, {"type": "node", "id": 264876206, "lat": 34.9121868, "lon": 137.5272478, "tags": {"KSJ2:LIN": "\u98ef\u7530\u7dda", "KSJ2:STN": "\u4e09\u6cb3\u6771\u90f7", "name": "\u4e09\u6cb3\u6771\u90f7", "name:en": "Mikawa-T\u014dg\u014d", "name:ja": "\u4e09\u6cb3\u6771\u90f7", "name:ko": "\ubbf8\uce74\uc640\ud1a0\uace0", "note": "National-Land Numerical Information (Railway) 2007, MLIT Japan", "note:ja": "\u56fd\u571f\u6570\u5024\u60c5\u5831\uff08\u9244\u9053\u30c7\u30fc\u30bf\uff09\u5e73\u621019\u5e74\u3000\u56fd\u571f\u4ea4\u901a\u7701", "public_transport": "station", "railway": "station", "source": "KSJ2", "source_ref": "http://nlftp.mlit.go.jp/ksj/jpgis/datalist/KsjTmplt-N02-v1_1.html", "wikidata": "Q773025", "wikipedia": "ja:\u4e09\u6cb3\u6771\u90f7\u99c5"}}, {"type": "node", "id": 264876208, "lat": 34.9205477, "lon": 137.5518303, "tags": {"KSJ2:LIN": "\u98ef\u7530\u7dda", "KSJ2:STN": "\u9ce5\u5c45", "name": "\u9ce5\u5c45", "name:en": "Torii", "name:ja": "\u9ce5\u5c45", "name:ko": "\ub3c4\ub9ac\uc774", "note": "National-Land Numerical Information (Railway) 2007, MLIT Japan", "note:ja": "\u56fd\u571f\u6570\u5024\u60c5\u5831\uff08\u9244\u9053\u30c7\u30fc\u30bf\uff09\u5e73\u621019\u5e74\u3000\u56fd\u571f\u4ea4\u901a\u7701", "public_transport": "station", "railway": "station", "source": "KSJ2", "source_ref": "http://nlftp.mlit.go.jp/ksj/jpgis/datalist/KsjTmplt-N02-v1_1.html", "wikidata": "Q773265", "wikipedia": "ja:\u9ce5\u5c45\u99c5"}}, {"type": "node", "id": 264876209, "lat": 34.9514295, "lon": 137.6028585, "tags": {"KSJ2:LIN": "\u98ef\u7530\u7dda", "KSJ2:STN": "\u4e09\u6cb3\u5927\u91ce", "name": "\u4e09\u6cb3\u5927\u91ce", "name:en": "Mikawa-Ono", "name:ja": "\u4e09\u6cb3\u5927\u91ce", "name:ko": "\ubbf8\uce74\uc640\uc624\ub178", "note": "National-Land Numerical Information (Railway) 2007, MLIT Japan", "note:ja": "\u56fd\u571f\u6570\u5024\u60c5\u5831\uff08\u9244\u9053\u30c7\u30fc\u30bf\uff09\u5e73\u621019\u5e74\u3000\u56fd\u571f\u4ea4\u901a\u7701", "public_transport": "station", "railway": "station", "source": "KSJ2", "source_ref": "http://nlftp.mlit.go.jp/ksj/jpgis/datalist/KsjTmplt-N02-v1_1.html", "wikidata": "Q773619", "wikipedia": "ja:\u4e09\u6cb3\u5927\u91ce\u99c5"}}, {"type": "node", "id": 265836366, "lat": 34.7183114, "lon": 137.3800382, "tags": {"KSJ2:LIN": "\u6e25\u7f8e\u7dda", "KSJ2:STN": "\u82a6\u539f", "name": "\u82a6\u539f", "name:en": "Ashihara", "name:ja": "\u82a6\u539f", "name:ko": "\uc544\uc2dc\ud558\ub77c", "note": "National-Land Numerical Information (Railway) 2007, MLIT Japan", "note:ja": "\u56fd\u571f\u6570\u5024\u60c5\u5831\uff08\u9244\u9053\u30c7\u30fc\u30bf\uff09\u5e73\u621019\u5e74\u3000\u56fd\u571f\u4ea4\u901a\u7701", "public_transport": "stop_position", "railway": "station", "source": "KSJ2", "source_ref": "http://nlftp.mlit.go.jp/ksj/jpgis/datalist/KsjTmplt-N02-v1_1.html", "wikidata": "Q4805065", "wikipedia": "ja:\u82a6\u539f\u99c5"}}, {"type": "node", "id": 265836368, "lat": 34.7271062, "lon": 137.3816125, "tags": {"KSJ2:LIN": "\u6e25\u7f8e\u7dda", "KSJ2:STN": "\u9ad8\u5e2b", "name": "\u9ad8\u5e2b", "name:en": "Takashi", "name:ja": "\u9ad8\u5e2b", "name:ja-Hira": "\u305f\u304b\u3057", "name:ko": "\ub2e4\uce74\uc2dc", "network": "\u8c4a\u6a4b\u9244\u9053\u6e25\u7f8e\u7dda", "note": "National-Land Numerical Information (Railway) 2007, MLIT Japan", "note:ja": "\u56fd\u571f\u6570\u5024\u60c5\u5831\uff08\u9244\u9053\u30c7\u30fc\u30bf\uff09\u5e73\u621019\u5e74\u3000\u56fd\u571f\u4ea4\u901a\u7701", "operator": "\u8c4a\u6a4b\u9244\u9053", "public_transport": "stop_position", "railway": "station", "source": "KSJ2", "source_ref": "http://nlftp.mlit.go.jp/ksj/jpgis/datalist/KsjTmplt-N02-v1_1.html", "wikidata": "Q7677376", "wikipedia": "ja:\u9ad8\u5e2b\u99c5"}}, {"type": "node", "id": 265836417, "lat": 34.7417849, "lon": 137.3856656, "tags": {"KSJ2:LIN": "\u6e25\u7f8e\u7dda", "KSJ2:STN": "\u611b\u77e5\u5927\u5b66\u524d", "alt_name:ko": "\uc544\uc774\uce58\ub2e4\uc774\uac00\ucfe0\ub9c8\uc5d0", "name": "\u611b\u77e5\u5927\u5b66\u524d", "name:en": "Aichidaigakumae", "name:ja": "\u611b\u77e5\u5927\u5b66\u524d", "name:ko": "\uc544\uc774\uce58\ub300\ud559\uc55e", "network": "\u8c4a\u6a4b\u9244\u9053\u6e25\u7f8e\u7dda", "note": "National-Land Numerical Information (Railway) 2007, MLIT Japan", "note:ja": "\u56fd\u571f\u6570\u5024\u60c5\u5831\uff08\u9244\u9053\u30c7\u30fc\u30bf\uff09\u5e73\u621019\u5e74\u3000\u56fd\u571f\u4ea4\u901a\u7701", "operator": "\u8c4a\u6a4b\u9244\u9053", "public_transport": "station", "railway": "station", "source": "KSJ2", "source_ref": "http://nlftp.mlit.go.jp/ksj/jpgis/datalist/KsjTmplt-N02-v1_1.html", "wikidata": "Q4696602", "wikipedia": "ja:\u611b\u77e5\u5927\u5b66\u524d\u99c5"}}, {"type": "node", "id": 265836527, "lat": 34.7358118, "lon": 137.3855432, "tags": {"KSJ2:LIN": "\u6e25\u7f8e\u7dda", "KSJ2:STN": "\u5357\u6804", "name": "\u5357\u6804", "name:en": "Minami-Sakae", "name:ja": "\u5357\u6804", "name:ko": "\ubbf8\ub098\ubbf8\uc0ac\uce74\uc5d0", "network": "\u8c4a\u6a4b\u9244\u9053\u6e25\u7f8e\u7dda", "note": "National-Land Numerical Information (Railway) 2007, MLIT Japan", "note:ja": "\u56fd\u571f\u6570\u5024\u60c5\u5831\uff08\u9244\u9053\u30c7\u30fc\u30bf\uff09\u5e73\u621019\u5e74\u3000\u56fd\u571f\u4ea4\u901a\u7701", "operator": "\u8c4a\u6a4b\u9244\u9053", "public_transport": "station", "railway": "station", "source": "KSJ2", "source_ref": "http://nlftp.mlit.go.jp/ksj/jpgis/datalist/KsjTmplt-N02-v1_1.html", "wikidata": "Q11407984", "wikipedia": "ja:\u5357\u6804\u99c5"}}, {"type": "node", "id": 265836562, "lat": 34.7110413, "lon": 137.3731935, "tags": {"KSJ2:LIN": "\u6e25\u7f8e\u7dda", "KSJ2:STN": "\u690d\u7530", "name": "\u690d\u7530", "name:en": "Ueta", "name:ja": "\u690d\u7530", "name:ko": "\uc6b0\uc5d0\ud0c0", "network": "\u8c4a\u6a4b\u9244\u9053\u6e25\u7f8e\u7dda", "note": "National-Land Numerical Information (Railway) 2007, MLIT Japan", "note:ja": "\u56fd\u571f\u6570\u5024\u60c5\u5831\uff08\u9244\u9053\u30c7\u30fc\u30bf\uff09\u5e73\u621019\u5e74\u3000\u56fd\u571f\u4ea4\u901a\u7701", "operator": "\u8c4a\u6a4b\u9244\u9053", "public_transport": "stop_position", "railway": "station", "source": "KSJ2", "source_ref": "http://nlftp.mlit.go.jp/ksj/jpgis/datalist/KsjTmplt-N02-v1_1.html", "wikidata": "Q7877483", "wikipedia": "ja:\u690d\u7530\u99c5 (\u611b\u77e5\u770c\u8c4a\u6a4b\u5e02)"}}, {"type": "node", "id": 380254403, "lat": 34.8071715, "lon": 137.6519999, "tags": {"KSJ2:LIN": "\u5929\u7adc\u6d5c\u540d\u6e56\u7dda", "KSJ2:RAS": "eb03_5559", "KSJ2:STN": "\u6c17\u8cc0", "KSJ2:segment": "eb02_11525", "name": "\u6c17\u8cc0", "name:en": "Kiga", "name:ja": "\u6c17\u8cc0", "name:ko": "\ud0a4\uac00", "note": "National-Land Numerical Information (Railway) 2007, MLIT Japan", "note:ja": "\u56fd\u571f\u6570\u5024\u60c5\u5831\uff08\u9244\u9053\u30c7\u30fc\u30bf\uff09\u5e73\u621019\u5e74\u3000\u56fd\u571f\u4ea4\u901a\u7701", "public_transport": "station", "railway": "station", "source": "KSJ2", "source_ref": "http://nlftp.mlit.go.jp/ksj/jpgis/datalist/KsjTmplt-N02-v1_1.html", "wikidata": "Q6405898", "wikipedia": "ja:\u6c17\u8cc0\u99c5"}}, {"type": "node", "id": 380377125, "lat": 34.727957, "lon": 137.4943072, "tags": {"KSJ2:LIN": "\u5929\u7adc\u6d5c\u540d\u6e56\u7dda", "KSJ2:RAS": "eb03_5543", "KSJ2:STN": "\u30a2\u30b9\u30e2\u524d", "KSJ2:segment": "eb02_11475", "name": "\u30a2\u30b9\u30e2\u524d", "name:en": "Asumomae", "name:ja": "\u30a2\u30b9\u30e2\u524d", "name:ko": "\uc544\uc2a4\ubaa8\ub9c8\uc5d0", "note": "National-Land Numerical Information (Railway) 2007, MLIT Japan", "note:ja": "\u56fd\u571f\u6570\u5024\u60c5\u5831\uff08\u9244\u9053\u30c7\u30fc\u30bf\uff09\u5e73\u621019\u5e74\u3000\u56fd\u571f\u4ea4\u901a\u7701", "railway": "station", "source": "KSJ2", "source_ref": "http://nlftp.mlit.go.jp/ksj/jpgis/datalist/KsjTmplt-N02-v1_1.html", "wikidata": "Q4811876", "wikipedia": "ja:\u30a2\u30b9\u30e2\u524d\u99c5"}}, {"type": "node", "id": 380377478, "lat": 34.7379431, "lon": 137.509757, "tags": {"name": "\u5927\u68ee", "name:en": "\u014cmori", "railway": "station", "source": "bing", "wikidata": "Q8081629", "wikipedia": "ja:\u5927\u68ee\u99c5 (\u9759\u5ca1\u770c)"}}, {"type": "node", "id": 380423354, "lat": 34.8124363, "lon": 137.6658365, "tags": {"KSJ2:LIN": "\u5929\u7adc\u6d5c\u540d\u6e56\u7dda", "KSJ2:RAS": "eb03_5555", "KSJ2:STN": "\u6c17\u8cc0\u9ad8\u6821\u524d", "KSJ2:segment": "eb02_11510", "name": "\u5ca1\u5730", "name:en": "Okaji", "name:ja": "\u5ca1\u5730", "name:ko": "\uc624\uce74\uc9c0", "note": "National-Land Numerical Information (Railway) 2007, MLIT Japan", "note:ja": "\u56fd\u571f\u6570\u5024\u60c5\u5831\uff08\u9244\u9053\u30c7\u30fc\u30bf\uff09\u5e73\u621019\u5e74\u3000\u56fd\u571f\u4ea4\u901a\u7701", "public_transport": "station", "railway": "station", "source": "KSJ2", "source_ref": "http://nlftp.mlit.go.jp/ksj/jpgis/datalist/KsjTmplt-N02-v1_1.html", "wikidata": "Q11548132", "wikipedia": "ja:\u6c17\u8cc0\u9ad8\u6821\u524d\u99c5"}}, {"type": "node", "id": 382957063, "lat": 34.753547, "lon": 137.5119981, "tags": {"KSJ2:LIN": "\u5929\u7adc\u6d5c\u540d\u6e56\u7dda", "KSJ2:RAS": "eb03_5547", "KSJ2:STN": "\u77e5\u6ce2\u7530", "KSJ2:segment": "eb02_11489", "name": "\u77e5\u6ce2\u7530", "name:en": "Chibata", "name:ja": "\u77e5\u6ce2\u7530", "name:ko": "\uc9c0\ubc14\ud0c0", "note": "National-Land Numerical Information (Railway) 2007, MLIT Japan", "note:ja": "\u56fd\u571f\u6570\u5024\u60c5\u5831\uff08\u9244\u9053\u30c7\u30fc\u30bf\uff09\u5e73\u621019\u5e74\u3000\u56fd\u571f\u4ea4\u901a\u7701", "railway": "station", "source": "KSJ2", "source_ref": "http://nlftp.mlit.go.jp/ksj/jpgis/datalist/KsjTmplt-N02-v1_1.html", "wikidata": "Q11584604", "wikipedia": "ja:\u77e5\u6ce2\u7530\u99c5"}}, {"type": "node", "id": 382964143, "lat": 34.7838769, "lon": 137.5417021, "tags": {"KSJ2:LIN": "\u5929\u7adc\u6d5c\u540d\u6e56\u7dda", "KSJ2:RAS": "eb03_5557", "KSJ2:STN": "\u5c3e\u5948", "KSJ2:segment": "eb02_11517", "name": "\u5c3e\u5948", "name:en": "Ona", "name:ja": "\u5c3e\u5948", "name:ko": "\uc624\ub098", "note": "National-Land Numerical Information (Railway) 2007, MLIT Japan", "note:ja": "\u56fd\u571f\u6570\u5024\u60c5\u5831\uff08\u9244\u9053\u30c7\u30fc\u30bf\uff09\u5e73\u621019\u5e74\u3000\u56fd\u571f\u4ea4\u901a\u7701", "railway": "station", "source": "KSJ2", "source_ref": "http://nlftp.mlit.go.jp/ksj/jpgis/datalist/KsjTmplt-N02-v1_1.html", "wikidata": "Q7091654", "wikipedia": "ja:\u5c3e\u5948\u99c5"}}, {"type": "node", "id": 382964213, "lat": 34.7951184, "lon": 137.5458778, "tags": {"KSJ2:LIN": "\u5929\u7adc\u6d5c\u540d\u6e56\u7dda", "KSJ2:RAS": "eb03_5552", "KSJ2:STN": "\u5965\u6d5c\u540d\u6e56", "KSJ2:segment": "eb02_11516", "name": "\u5965\u6d5c\u540d\u6e56", "name:en": "Okuhamanako", "name:ja": "\u5965\u6d5c\u540d\u6e56", "name:ko": "\uc624\ucfe0\ud558\ub9c8\ub098\ucf54", "note": "National-Land Numerical Information (Railway) 2007, MLIT Japan", "note:ja": "\u56fd\u571f\u6570\u5024\u60c5\u5831\uff08\u9244\u9053\u30c7\u30fc\u30bf\uff09\u5e73\u621019\u5e74\u3000\u56fd\u571f\u4ea4\u901a\u7701", "railway": "station", "source": "KSJ2", "source_ref": "http://nlftp.mlit.go.jp/ksj/jpgis/datalist/KsjTmplt-N02-v1_1.html", "wikidata": "Q7082722", "wikipedia": "ja:\u5965\u6d5c\u540d\u6e56\u99c5"}}, {"type": "node", "id": 382964282, "lat": 34.8025896, "lon": 137.5518041, "tags": {"KSJ2:LIN": "\u5929\u7adc\u6d5c\u540d\u6e56\u7dda", "KSJ2:RAS": "eb03_5561", "KSJ2:STN": "\u4e09\u30f6\u65e5", "KSJ2:segment": "eb02_11528", "name": "\u4e09\u30f6\u65e5", "name:en": "Mikkabi", "name:ja": "\u4e09\u30f6\u65e5", "name:ko": "\ubc0b\uce74\ube44", "note": "National-Land Numerical Information (Railway) 2007, MLIT Japan", "note:ja": "\u56fd\u571f\u6570\u5024\u60c5\u5831\uff08\u9244\u9053\u30c7\u30fc\u30bf\uff09\u5e73\u621019\u5e74\u3000\u56fd\u571f\u4ea4\u901a\u7701", "railway": "station", "source": "KSJ2", "source_ref": "http://nlftp.mlit.go.jp/ksj/jpgis/datalist/KsjTmplt-N02-v1_1.html", "wikidata": "Q11354068", "wikipedia": "ja:\u4e09\u30f6\u65e5\u99c5"}}, {"type": "node", "id": 382968543, "lat": 34.7957713, "lon": 137.5745043, "tags": {"KSJ2:LIN": "\u5929\u7adc\u6d5c\u540d\u6e56\u7dda", "KSJ2:RAS": "eb03_5558", "KSJ2:STN": "\u90fd\u7b51", "KSJ2:segment": "eb02_11519", "name": "\u90fd\u7b51", "name:en": "Tsuzuki", "name:ja": "\u90fd\u7b51", "name:ko": "\uc4f0\uc988\ud0a4", "note": "National-Land Numerical Information (Railway) 2007, MLIT Japan", "note:ja": "\u56fd\u571f\u6570\u5024\u60c5\u5831\uff08\u9244\u9053\u30c7\u30fc\u30bf\uff09\u5e73\u621019\u5e74\u3000\u56fd\u571f\u4ea4\u901a\u7701", "railway": "station", "source": "KSJ2", "source_ref": "http://nlftp.mlit.go.jp/ksj/jpgis/datalist/KsjTmplt-N02-v1_1.html", "wikidata": "Q7850403", "wikipedia": "ja:\u90fd\u7b51\u99c5"}}, {"type": "node", "id": 382968614, "lat": 34.7903654, "lon": 137.5865868, "tags": {"KSJ2:LIN": "\u5929\u7adc\u6d5c\u540d\u6e56\u7dda", "KSJ2:RAS": "eb03_5554", "KSJ2:STN": "\u6771\u90fd\u7b51", "KSJ2:segment": "eb02_11493", "name": "\u6771\u90fd\u7b51", "name:en": "Higashi-Tsuzuki", "name:ja": "\u6771\u90fd\u7b51", "name:ko": "\ud788\uac00\uc2dc\uc4f0\uc988\ud0a4", "note": "National-Land Numerical Information (Railway) 2007, MLIT Japan", "note:ja": "\u56fd\u571f\u6570\u5024\u60c5\u5831\uff08\u9244\u9053\u30c7\u30fc\u30bf\uff09\u5e73\u621019\u5e74\u3000\u56fd\u571f\u4ea4\u901a\u7701", "public_transport": "station", "railway": "station", "source": "KSJ2", "source_ref": "http://nlftp.mlit.go.jp/ksj/jpgis/datalist/KsjTmplt-N02-v1_1.html", "wikidata": "Q11528574", "wikipedia": "ja:\u6771\u90fd\u7b51\u99c5"}}, {"type": "node", "id": 382968668, "lat": 34.789129, "lon": 137.5993612, "tags": {"KSJ2:LIN": "\u5929\u7adc\u6d5c\u540d\u6e56\u7dda", "KSJ2:RAS": "eb03_5546", "KSJ2:STN": "\u6d5c\u540d\u6e56\u4f50\u4e45\u7c73", "KSJ2:segment": "eb02_11470", "name": "\u6d5c\u540d\u6e56\u4f50\u4e45\u7c73", "name:en": "Hamanako-Sakume", "name:ja": "\u6d5c\u540d\u6e56\u4f50\u4e45\u7c73", "name:ko": "\ud558\ub9c8\ub098\ucf54\uc0ac\ucfe0\uba54", "note": "National-Land Numerical Information (Railway) 2007, MLIT Japan", "note:ja": "\u56fd\u571f\u6570\u5024\u60c5\u5831\uff08\u9244\u9053\u30c7\u30fc\u30bf\uff09\u5e73\u621019\u5e74\u3000\u56fd\u571f\u4ea4\u901a\u7701", "public_transport": "station", "railway": "station", "source": "KSJ2", "source_ref": "http://nlftp.mlit.go.jp/ksj/jpgis/datalist/KsjTmplt-N02-v1_1.html", "wikidata": "Q5644042", "wikipedia": "ja:\u6d5c\u540d\u6e56\u4f50\u4e45\u7c73\u99c5"}}, {"type": "node", "id": 382970669, "lat": 34.7900701, "lon": 137.6124671, "tags": {"KSJ2:LIN": "\u5929\u7adc\u6d5c\u540d\u6e56\u7dda", "KSJ2:RAS": "eb03_5550", "KSJ2:STN": "\u5bf8\u5ea7", "KSJ2:segment": "eb02_11498", "name": "\u5bf8\u5ea7", "name:en": "Sunza", "name:ja": "\u5bf8\u5ea7", "name:ko": "\uc2a8\uc790", "note": "National-Land Numerical Information (Railway) 2007, MLIT Japan", "note:ja": "\u56fd\u571f\u6570\u5024\u60c5\u5831\uff08\u9244\u9053\u30c7\u30fc\u30bf\uff09\u5e73\u621019\u5e74\u3000\u56fd\u571f\u4ea4\u901a\u7701", "public_transport": "station", "railway": "station", "source": "KSJ2", "source_ref": "http://nlftp.mlit.go.jp/ksj/jpgis/datalist/KsjTmplt-N02-v1_1.html", "wikidata": "Q7641773", "wikipedia": "ja:\u5bf8\u5ea7\u99c5"}}, {"type": "node", "id": 382972596, "lat": 34.802363, "lon": 137.62157, "tags": {"KSJ2:LIN": "\u5929\u7adc\u6d5c\u540d\u6e56\u7dda", "KSJ2:RAS": "eb03_5539", "KSJ2:STN": "\u897f\u6c17\u8cc0", "KSJ2:segment": "eb02_11463", "name": "\u897f\u6c17\u8cc0", "name:en": "Nishi-Kiga", "name:ja": "\u897f\u6c17\u8cc0", "name:ko": "\ub2c8\uc2dc\ud0a4\uac00", "note": "National-Land Numerical Information (Railway) 2007, MLIT Japan", "note:ja": "\u56fd\u571f\u6570\u5024\u60c5\u5831\uff08\u9244\u9053\u30c7\u30fc\u30bf\uff09\u5e73\u621019\u5e74\u3000\u56fd\u571f\u4ea4\u901a\u7701", "public_transport": "station", "railway": "station", "source": "KSJ2", "source_ref": "http://nlftp.mlit.go.jp/ksj/jpgis/datalist/KsjTmplt-N02-v1_1.html", "wikidata": "Q7040366", "wikipedia": "ja:\u897f\u6c17\u8cc0\u99c5"}}, {"type": "node", "id": 382974078, "lat": 34.8169904, "lon": 137.6809432, "tags": {"KSJ2:LIN": "\u5929\u7adc\u6d5c\u540d\u6e56\u7dda", "KSJ2:RAS": "eb03_5563", "KSJ2:STN": "\u91d1\u6307", "KSJ2:segment": "eb02_11459", "name": "\u91d1\u6307", "name:en": "Kanasashi", "name:ja": "\u91d1\u6307", "name:ko": "\uac00\ub098\uc0ac\uc2dc", "note": "National-Land Numerical Information (Railway) 2007, MLIT Japan", "note:ja": "\u56fd\u571f\u6570\u5024\u60c5\u5831\uff08\u9244\u9053\u30c7\u30fc\u30bf\uff09\u5e73\u621019\u5e74\u3000\u56fd\u571f\u4ea4\u901a\u7701", "public_transport": "station", "railway": "station", "source": "KSJ2", "source_ref": "http://nlftp.mlit.go.jp/ksj/jpgis/datalist/KsjTmplt-N02-v1_1.html", "wikidata": "Q11647108", "wikipedia": "ja:\u91d1\u6307\u99c5"}}, {"type": "node", "id": 382974256, "lat": 34.8200643, "lon": 137.7093747, "tags": {"KSJ2:LIN": "\u5929\u7adc\u6d5c\u540d\u6e56\u7dda", "KSJ2:RAS": "eb03_5538", "KSJ2:STN": "\u6d5c\u677e\u5927\u5b66\u524d", "KSJ2:segment": "eb02_11461", "alt_name:ko": "\ud558\ub9c8\ub9c8\uc4f0\ub2e4\uc774\uac00\ucfe0\ub9c8\uc5d0", "name": "\u5e38\u8449\u5927\u5b66\u524d", "name:en": "Tokohadaigakumae", "name:ja": "\u5e38\u8449\u5927\u5b66\u524d", "name:ko": "\ud558\ub9c8\ub9c8\uc4f0\ub300\ud559\uad50\uc55e", "note:ja": "\u56fd\u571f\u6570\u5024\u60c5\u5831\uff08\u9244\u9053\u30c7\u30fc\u30bf\uff09\u5e73\u621019\u5e74\u3000\u56fd\u571f\u4ea4\u901a\u7701", "railway": "station", "source": "KSJ2", "source_ref": "http://nlftp.mlit.go.jp/ksj/jpgis/datalist/KsjTmplt-N02-v1_1.html", "wikidata": "Q5644028", "wikipedia": "ja:\u5e38\u8449\u5927\u5b66\u524d\u99c5"}}, {"type": "node", "id": 382974354, "lat": 34.828349, "lon": 137.7182877, "tags": {"KSJ2:LIN": "\u5929\u7adc\u6d5c\u540d\u6e56\u7dda", "KSJ2:RAS": "eb03_5548", "KSJ2:STN": "\u90fd\u7530", "KSJ2:segment": "eb02_11492", "name": "\u90fd\u7530", "name:en": "Miyakoda", "name:ja": "\u90fd\u7530", "name:ko": "\ubbf8\uc57c\ucf54\ub2e4", "note": "National-Land Numerical Information (Railway) 2007, MLIT Japan", "note:ja": "\u56fd\u571f\u6570\u5024\u60c5\u5831\uff08\u9244\u9053\u30c7\u30fc\u30bf\uff09\u5e73\u621019\u5e74\u3000\u56fd\u571f\u4ea4\u901a\u7701", "public_transport": "station", "railway": "station", "source": "KSJ2", "source_ref": "http://nlftp.mlit.go.jp/ksj/jpgis/datalist/KsjTmplt-N02-v1_1.html", "wikidata": "Q6884273", "wikipedia": "ja:\u90fd\u7530\u99c5"}}, {"type": "node", "id": 382974421, "lat": 34.8345062, "lon": 137.7325018, "tags": {"KSJ2:LIN": "\u5929\u7adc\u6d5c\u540d\u6e56\u7dda", "KSJ2:RAS": "eb03_5556", "KSJ2:STN": "\u30d5\u30eb\u30fc\u30c4\u30d1\u30fc\u30af", "KSJ2:segment": "eb02_11513", "name": "\u30d5\u30eb\u30fc\u30c4\u30d1\u30fc\u30af", "name:en": "Fruit Park", "name:ja": "\u30d5\u30eb\u30fc\u30c4\u30d1\u30fc\u30af", "name:ko": "\ud6c4\ub974\uce20\ud30c\ud06c", "note": "National-Land Numerical Information (Railway) 2007, MLIT Japan", "note:ja": "\u56fd\u571f\u6570\u5024\u60c5\u5831\uff08\u9244\u9053\u30c7\u30fc\u30bf\uff09\u5e73\u621019\u5e74\u3000\u56fd\u571f\u4ea4\u901a\u7701", "public_transport": "station", "railway": "station", "source": "KSJ2", "source_ref": "http://nlftp.mlit.go.jp/ksj/jpgis/datalist/KsjTmplt-N02-v1_1.html", "wikidata": "Q5506377", "wikipedia": "ja:\u30d5\u30eb\u30fc\u30c4\u30d1\u30fc\u30af\u99c5"}}, {"type": "node", "id": 384097400, "lat": 34.8303908, "lon": 137.7736222, "tags": {"KSJ2:LIN": "\u5929\u7adc\u6d5c\u540d\u6e56\u7dda", "KSJ2:RAS": "eb03_5542", "KSJ2:STN": "\u5bae\u53e3", "KSJ2:segment": "eb02_11474", "name": "\u5bae\u53e3", "name:en": "Miyaguchi", "name:ja": "\u5bae\u53e3", "name:ko": "\ubbf8\uc57c\uad6c\uce58", "note": "National-Land Numerical Information (Railway) 2007, MLIT Japan", "note:ja": "\u56fd\u571f\u6570\u5024\u60c5\u5831\uff08\u9244\u9053\u30c7\u30fc\u30bf\uff09\u5e73\u621019\u5e74\u3000\u56fd\u571f\u4ea4\u901a\u7701", "public_transport": "station", "railway": "station", "source": "KSJ2", "source_ref": "http://nlftp.mlit.go.jp/ksj/jpgis/datalist/KsjTmplt-N02-v1_1.html", "wikidata": "Q5370103", "wikipedia": "ja:\u5bae\u53e3\u99c5"}}, {"type": "node", "id": 384097410, "lat": 34.8376039, "lon": 137.7922232, "tags": {"KSJ2:LIN": "\u5929\u7adc\u6d5c\u540d\u6e56\u7dda", "KSJ2:RAS": "eb03_5544", "KSJ2:STN": "\u5ca9\u6c34\u5bfa", "KSJ2:segment": "eb02_11477", "name": "\u5ca9\u6c34\u5bfa", "name:en": "Gansuiji", "name:ja": "\u5ca9\u6c34\u5bfa", "name:ko": "\uac04\uc2a4\uc774\uc9c0", "note": "National-Land Numerical Information (Railway) 2007, MLIT Japan", "note:ja": "\u56fd\u571f\u6570\u5024\u60c5\u5831\uff08\u9244\u9053\u30c7\u30fc\u30bf\uff09\u5e73\u621019\u5e74\u3000\u56fd\u571f\u4ea4\u901a\u7701", "public_transport": "station", "railway": "station", "source": "KSJ2", "source_ref": "http://nlftp.mlit.go.jp/ksj/jpgis/datalist/KsjTmplt-N02-v1_1.html", "wikidata": "Q5369863", "wikipedia": "ja:\u5ca9\u6c34\u5bfa\u99c5"}}, {"type": "node", "id": 384097490, "lat": 34.8594236, "lon": 137.8127698, "tags": {"KSJ2:LIN": "\u5929\u7adc\u6d5c\u540d\u6e56\u7dda", "KSJ2:RAS": "eb03_5562", "KSJ2:STN": "\u4e8c\u4fe3\u672c\u753a", "KSJ2:segment": "eb02_11533", "name": "\u4e8c\u4fe3\u672c\u753a", "name:en": "Futamata-Hommachi", "name:ja": "\u4e8c\u4fe3\u672c\u753a", "name:ko": "\ud6c4\ud0c0\ub9c8\ud0c0\ud63c\ub9c8\uce58", "note": "National-Land Numerical Information (Railway) 2007, MLIT Japan", "note:ja": "\u56fd\u571f\u6570\u5024\u60c5\u5831\uff08\u9244\u9053\u30c7\u30fc\u30bf\uff09\u5e73\u621019\u5e74\u3000\u56fd\u571f\u4ea4\u901a\u7701", "public_transport": "station", "railway": "station", "source": "KSJ2", "source_ref": "http://nlftp.mlit.go.jp/ksj/jpgis/datalist/KsjTmplt-N02-v1_1.html", "wikidata": "Q5369835", "wikipedia": "ja:\u4e8c\u4fe3\u672c\u753a\u99c5"}}, {"type": "node", "id": 384097522, "lat": 34.8592613, "lon": 137.8198416, "tags": {"KSJ2:LIN": "\u5929\u7adc\u6d5c\u540d\u6e56\u7dda", "KSJ2:RAS": "eb03_5553", "KSJ2:STN": "\u5929\u7adc\u4e8c\u4fe3", "KSJ2:segment": "eb02_11471", "name": "\u5929\u7adc\u4e8c\u4fe3", "name:en": "Tenry\u016b-Futamata", "name:ja": "\u5929\u7adc\u4e8c\u4fe3", "name:ko": "\ub374\ub958\ud6c4\ud0c0\ub9c8\ud0c0", "note": "National-Land Numerical Information (Railway) 2007, MLIT Japan", "note:ja": "\u56fd\u571f\u6570\u5024\u60c5\u5831\uff08\u9244\u9053\u30c7\u30fc\u30bf\uff09\u5e73\u621019\u5e74\u3000\u56fd\u571f\u4ea4\u901a\u7701", "public_transport": "station", "railway": "station", "source": "KSJ2", "source_ref": "http://nlftp.mlit.go.jp/ksj/jpgis/datalist/KsjTmplt-N02-v1_1.html", "wikidata": "Q5370092", "wikipedia": "ja:\u5929\u7adc\u4e8c\u4fe3\u99c5"}}, {"type": "node", "id": 384106876, "lat": 34.8474474, "lon": 137.8299713, "tags": {"KSJ2:LIN": "\u5929\u7adc\u6d5c\u540d\u6e56\u7dda", "KSJ2:RAS": "eb03_5541", "KSJ2:STN": "\u4e0a\u91ce\u90e8", "KSJ2:segment": "eb02_11502", "name": "\u4e0a\u91ce\u90e8", "name:en": "Kaminobe", "name:ja": "\u4e0a\u91ce\u90e8", "name:ko": "\uac00\ubbf8\ub178\ubca0", "note": "National-Land Numerical Information (Railway) 2007, MLIT Japan", "note:ja": "\u56fd\u571f\u6570\u5024\u60c5\u5831\uff08\u9244\u9053\u30c7\u30fc\u30bf\uff09\u5e73\u621019\u5e74\u3000\u56fd\u571f\u4ea4\u901a\u7701", "railway": "station", "source": "KSJ2", "source_ref": "http://nlftp.mlit.go.jp/ksj/jpgis/datalist/KsjTmplt-N02-v1_1.html", "wikidata": "Q5370098", "wikipedia": "ja:\u4e0a\u91ce\u90e8\u99c5"}}, {"type": "node", "id": 384106890, "lat": 34.8372326, "lon": 137.8397255, "tags": {"KSJ2:LIN": "\u5929\u7adc\u6d5c\u540d\u6e56\u7dda", "KSJ2:RAS": "eb03_5560", "KSJ2:STN": "\u8c4a\u5ca1", "KSJ2:segment": "eb02_11527", "name": "\u8c4a\u5ca1", "name:en": "Toyooka", "name:ja": "\u8c4a\u5ca1", "name:ko": "\ub3c4\uc694\uc624\uce74", "note": "National-Land Numerical Information (Railway) 2007, MLIT Japan", "note:ja": "\u56fd\u571f\u6570\u5024\u60c5\u5831\uff08\u9244\u9053\u30c7\u30fc\u30bf\uff09\u5e73\u621019\u5e74\u3000\u56fd\u571f\u4ea4\u901a\u7701", "railway": "station", "source": "KSJ2", "source_ref": "http://nlftp.mlit.go.jp/ksj/jpgis/datalist/KsjTmplt-N02-v1_1.html", "wikidata": "Q5369843", "wikipedia": "ja:\u8c4a\u5ca1\u99c5 (\u9759\u5ca1\u770c)"}}, {"type": "node", "id": 650020145, "lat": 34.926122, "lon": 137.565176, "tags": {"KSJ2:LIN": "\u98ef\u7530\u7dda", "KSJ2:STN": "\u9577\u7be0\u57ce", "name": "\u9577\u7be0\u57ce", "name:en": "Nagashinojo", "name:ja": "\u9577\u7be0\u57ce", "name:ko": "\ub098\uac00\uc2dc\ub178\uc870", "public_transport": "station", "railway": "station", "wikidata": "Q773379", "wikipedia": "ja:\u9577\u7be0\u57ce\u99c5"}}, {"type": "node", "id": 2131883889, "lat": 34.8291037, "lon": 137.3522832, "tags": {"name": "\u516b\u5e61", "name:en": "Yawata", "name:ja-Hira": "\u3084\u308f\u305f", "public_transport": "station", "railway": "station", "wikidata": "Q8050457", "wikipedia": "ja:\u516b\u5e61\u99c5 (\u611b\u77e5\u770c)"}}, {"type": "node", "id": 2144967945, "lat": 34.8224611, "lon": 137.3964811, "tags": {"KSJ2:LIN": "\u8c4a\u5ddd\u7dda", "addr:block_number": "21", "addr:city": "\u8c4a\u5ddd\u5e02", "addr:country": "JP", "addr:full": "\u611b\u77e5\u770c\u8c4a\u5ddd\u5e02\u8c4a\u5ddd\u753a\u4ec1\u4fdd\u901a21\u756a\u5730\u306e5", "addr:housenumber": "5", "addr:neighbourhood": "\u4ec1\u4fdd\u901a", "addr:postcode": "442-0033", "addr:province": "\u611b\u77e5\u770c", "addr:quarter": "\u8c4a\u5ddd\u753a", "int_name": "Toyokawa-Inari", "name": "\u8c4a\u5ddd\u7a32\u8377", "name:en": "Toyokawa-Inari", "name:ja": "\u8c4a\u5ddd\u7a32\u8377", "name:ja-Hira": "\u3068\u3088\u304b\u308f\u3044\u306a\u308a", "name:ja-Latn": "Toyokawa-Inari", "name:ko": "\ub3c4\uc694\uce74\uc640\uc774\ub098\ub9ac", "railway": "station", "wikidata": "Q7830673", "wikipedia": "ja:\u8c4a\u5ddd\u7a32\u8377\u99c5"}}, {"type": "node", "id": 2166454721, "lat": 34.8376284, "lon": 137.3280939, "tags": {"KSJ2:LIN": "\u8c4a\u5ddd\u7dda", "name": "\u56fd\u5e9c", "name:en": "K\u014d", "name:ja": "\u56fd\u5e9c", "name:ja-Hira": "\u3053\u3046", "name:ja-Latn": "K\u014d", "name:ko": "\uace0", "note": "National-Land Numerical Information (Railway) 2007, MLIT Japan", "note:ja": "\u56fd\u571f\u6570\u5024\u60c5\u5831\uff08\u9244\u9053\u30c7\u30fc\u30bf\uff09\u5e73\u621019\u5e74\u3000\u56fd\u571f\u4ea4\u901a\u7701", "operator": "\u540d\u53e4\u5c4b\u9244\u9053", "public_transport": "station", "railway": "station", "ref": "NH04", "source": "KSJ2", "source_ref": "http://nlftp.mlit.go.jp/ksj/jpgis/datalist/KsjTmplt-N02-v1_1.html", "wikidata": "Q1067597", "wikipedia": "ja:\u56fd\u5e9c\u99c5 (\u611b\u77e5\u770c)"}}, {"type": "node", "id": 2209290267, "lat": 34.8185534, "lon": 137.3871195, "tags": {"KSJ2:LIN": "\u8c4a\u5ddd\u7dda", "addr:block_number": "33", "addr:city": "\u8c4a\u5ddd\u5e02", "addr:country": "JP", "addr:full": "\u611b\u77e5\u770c\u8c4a\u5ddd\u5e02\u99c5\u524d\u901a3\u4e01\u76ee33\u756a\u5730", "addr:neighbourhood": "3", "addr:postcode": "442-0045", "addr:province": "\u611b\u77e5\u770c", "addr:quarter": "\u99c5\u524d\u901a", "int_name": "Inariguchi", "name": "\u7a32\u8377\u53e3", "name:en": "Inariguchi", "name:ja": "\u7a32\u8377\u53e3", "name:ja-Hira": "\u3044\u306a\u308a\u3050\u3061", "name:ja-Latn": "Inariguchi", "name:ko": "\uc774\ub098\ub9ac\uad6c\uce58", "railway": "station", "wikidata": "Q8190406", "wikipedia": "ja:\u7a32\u8377\u53e3\u99c5"}}, {"type": "node", "id": 2674891406, "lat": 34.8303518, "lon": 137.7735101}, {"type": "node", "id": 2674891408, "lat": 34.8303045, "lon": 137.773518}, {"type": "node", "id": 2674891410, "lat": 34.8302994, "lon": 137.773756}, {"type": "node", "id": 2674891412, "lat": 34.8303764, "lon": 137.7737438}, {"type": "node", "id": 2699342733, "lat": 34.8302762, "lon": 137.7735806}, {"type": "node", "id": 2699342734, "lat": 34.8302762, "lon": 137.7736909}, {"type": "node", "id": 2699342735, "lat": 34.8302806, "lon": 137.7737429}, {"type": "node", "id": 2699342736, "lat": 34.830288, "lon": 137.7736899}, {"type": "node", "id": 2699342737, "lat": 34.8302973, "lon": 137.7737404}, {"type": "node", "id": 2699342738, "lat": 34.830311, "lon": 137.7735731}, {"type": "node", "id": 2701194053, "lat": 34.8466564, "lon": 137.8079886, "tags": {"name": "\u897f\u9e7f\u5cf6", "name:en": "Nishi-Kajima", "public_transport": "station", "railway": "station", "ref": "18", "train": "yes", "wikidata": "Q847907", "wikipedia": "ja:\u897f\u9e7f\u5cf6\u99c5"}}, {"type": "node", "id": 2702182549, "lat": 34.8302768, "lon": 137.7735863}, {"type": "node", "id": 3998379789, "lat": 34.725834, "lon": 137.4389256, "tags": {"name": "\u4e8c\u5ddd", "name:de": "Futagawa", "name:en": "Futagawa", "name:it": "Futagawa", "name:ja": "\u4e8c\u5ddd", "name:ja-Latn": "Futagawa", "name:ko": "\ud6c4\ud0c0\uac00\uc640", "name:ru": "\u0424\u0443\u0442\u0430\u0433\u0430\u0432\u0430", "public_transport": "station", "railway": "station", "wikidata": "Q872067", "wikipedia": "ja:\u4e8c\u5ddd\u99c5"}}, {"type": "node", "id": 3998380425, "lat": 34.7621013, "lon": 137.3829965, "tags": {"KSJ2:LIN": "\u6e25\u7f8e\u7dda", "KSJ2:STN": "\u65b0\u8c4a\u6a4b", "name": "\u65b0\u8c4a\u6a4b", "name:de": "Shin-Toyohashi", "name:en": "Shin-Toyohashi", "name:ja": "\u65b0\u8c4a\u6a4b", "name:ko": "\uc2e0\ud1a0\uc694\ud558\uc2dc", "name:ru": "\u0421\u0438\u043d-\u0422\u043e\u0451\u0445\u0430\u0441\u0438", "note": "National-Land Numerical Information (Railway) 2007, MLIT Japan", "note:ja": "\u56fd\u571f\u6570\u5024\u60c5\u5831\uff08\u9244\u9053\u30c7\u30fc\u30bf\uff09\u5e73\u621019\u5e74\u3000\u56fd\u571f\u4ea4\u901a\u7701", "public_transport": "station", "railway": "station", "ref": "1", "source": "KSJ2", "source_ref": "http://nlftp.mlit.go.jp/ksj/jpgis/datalist/KsjTmplt-N02-v1_1.html", "wikidata": "Q7497141", "wikipedia": "ja:\u65b0\u8c4a\u6a4b\u99c5"}}, {"type": "node", "id": 3998380426, "lat": 34.7233194, "lon": 137.4844101, "tags": {"name": "\u65b0\u6240\u539f", "name:de": "Shinjohara", "name:en": "Shinjohara", "name:it": "Shinjohara", "name:ja": "\u65b0\u6240\u539f", "name:ja-Latn": "Shinjohara", "name:ko": "\uc2e0\uc870\ud558\ub77c", "name:ru": "\u0421\u0438\u043d\u0434\u0437\u0451\u0445\u0430\u0440\u0430", "public_transport": "station", "railway": "station", "wikidata": "Q872044", "wikipedia": "ja:\u65b0\u6240\u539f\u99c5"}}, {"type": "node", "id": 3999134476, "lat": 34.8127096, "lon": 137.3163269, "tags": {"addr:city": "\u8c4a\u5ddd\u5e02", "addr:province": "\u611b\u77e5\u770c", "name": "\u611b\u77e5\u5fa1\u6d25", "name:de": "Aichi-Mito", "name:en": "Aichi-Mito", "name:it": "Aichi-Mito", "name:ja": "\u611b\u77e5\u5fa1\u6d25", "name:ja-Latn": "Aichi-Mito", "name:ko": "\uc544\uc774\uce58\ubbf8\ud1a0", "name:ru": "\u0410\u0439\u0442\u0438-\u041c\u0438\u0442\u043e", "network": "CA \u6771\u6d77\u9053\u672c\u7dda\uff08\u540d\u53e4\u5c4b\u5730\u533a)", "operator": "JR \u6771\u6d77\u65c5\u5ba2\u9244\u9053", "public_transport": "station", "railway": "station", "start_date": "1888-09-01", "wikidata": "Q872467", "wikipedia": "ja:\u611b\u77e5\u5fa1\u6d25\u99c5"}}, {"type": "node", "id": 3999134477, "lat": 34.7752077, "lon": 137.3742695, "tags": {"KSJ2:LIN": "\u98ef\u7530\u7dda", "KSJ2:STN": "\u8239\u753a", "gauge": "1067", "name": "\u8239\u753a", "name:de": "Funamachi", "name:en": "Funamachi", "name:ja": "\u8239\u753a", "name:ja_kana": "\u3075\u306a\u307e\u3061", "name:ja_rm": "Funamachi", "name:ko": "\ud6c4\ub098\ub9c8\uce58", "note": "National-Land Numerical Information (Railway) 2007, MLIT Japan", "note:ja": "\u56fd\u571f\u6570\u5024\u60c5\u5831\uff08\u9244\u9053\u30c7\u30fc\u30bf\uff09\u5e73\u621019\u5e74\u3000\u56fd\u571f\u4ea4\u901a\u7701", "operator": "\u6771\u6d77\u65c5\u5ba2\u9244\u9053", "public_transport": "station", "railway": "station", "source": "bing; GSI/KIBAN 2500", "source_ref": "http://nlftp.mlit.go.jp/ksj/jpgis/datalist/KsjTmplt-N02-v1_1.html", "wikidata": "Q771600", "wikipedia": "ja:\u8239\u753a\u99c5"}}, {"type": "node", "id": 3999134479, "lat": 34.796866, "lon": 137.3530077, "tags": {"name": "\u897f\u5c0f\u5742\u4e95", "name:de": "Nishi-Kozakai", "name:en": "Nishi-Kozakai", "name:it": "Nishi-Kozakai", "name:ja": "\u897f\u5c0f\u5742\u4e95", "name:ja-Latn": "Nishi-Kozakai", "name:ru": "\u041d\u0438\u0441\u0438-\u041a\u043e\u0434\u0437\u0430\u043a\u0430\u0438", "note": "National-Land Numerical Information (Railway) 2007, MLIT Japan", "note:ja": "\u56fd\u571f\u6570\u5024\u60c5\u5831\uff08\u9244\u9053\u30c7\u30fc\u30bf\uff09\u5e73\u621019\u5e74\u3000\u56fd\u571f\u4ea4\u901a\u7701", "public_transport": "station", "railway": "station", "source": "KSJ2", "source_ref": "http://nlftp.mlit.go.jp/ksj/jpgis/datalist/KsjTmplt-N02-v1_1.html", "wikidata": "Q871834", "wikipedia": "ja:\u897f\u5c0f\u5742\u4e95\u99c5"}}, {"type": "node", "id": 3999135698, "lat": 34.7808294, "lon": 137.3705964, "tags": {"KSJ2:LIN": "\u98ef\u7530\u7dda", "KSJ2:STN": "\u4e0b\u5730", "building": "train_station", "gauge": "1067", "name": "\u4e0b\u5730", "name:de": "Shimoji", "name:en": "Shimoji", "name:ja": "\u4e0b\u5730", "name:ja_kana": "\u3057\u3082\u3058", "name:ja_rm": "Shimoji", "name:ko": "\uc2dc\ubaa8\uc9c0", "note": "National-Land Numerical Information (Railway) 2007, MLIT Japan", "note:ja": "\u56fd\u571f\u6570\u5024\u60c5\u5831\uff08\u9244\u9053\u30c7\u30fc\u30bf\uff09\u5e73\u621019\u5e74\u3000\u56fd\u571f\u4ea4\u901a\u7701", "public_transport": "station", "railway": "station", "source": "KSJ2", "source_ref": "http://nlftp.mlit.go.jp/ksj/jpgis/datalist/KsjTmplt-N02-v1_1.html", "wikidata": "Q771733", "wikipedia": "ja:\u4e0b\u5730\u99c5"}}, {"type": "node", "id": 3999159996, "lat": 34.6944067, "lon": 137.5695762, "tags": {"name": "\u65b0\u5c45\u753a", "name:de": "Araimachi", "name:en": "Araimachi", "name:ja": "\u65b0\u5c45\u753a", "name:ko": "\uc544\ub77c\uc774\ub9c8\uce58", "network": "JR\u6771\u6d77\u9053\u672c\u7dda", "operator": "\u6771\u6d77\u65c5\u5ba2\u9244\u9053", "public_transport": "station", "railway": "station", "wikidata": "Q871856", "wikipedia": "ja:\u65b0\u5c45\u753a\u99c5"}}, {"type": "node", "id": 3999163781, "lat": 34.7168397, "lon": 137.5460261, "tags": {"name": "\u9df2\u6d25", "name:de": "Washizu", "name:en": "Washizu", "name:it": "Washizu", "name:ja": "\u9df2\u6d25", "name:ja-Latn": "Washizu", "name:ko": "\uc640\uc2dc\uc988", "name:ru": "\u0412\u0430\u0441\u0438\u0434\u0437\u0443", "network": "JR\u6771\u6d77\u9053\u672c\u7dda", "public_transport": "station", "railway": "station", "wikidata": "Q871417", "wikipedia": "ja:\u9df2\u6d25\u99c5"}}, {"type": "node", "id": 3999193758, "lat": 34.6898623, "lon": 137.6037602, "tags": {"name": "\u5f01\u5929\u5cf6", "name:de": "Bentenjima", "name:en": "Bentenjima", "name:it": "Bentenjima", "name:ja": "\u5f01\u5929\u5cf6", "name:ja-Hira": "\u3079\u3093\u3066\u3093\u3058\u307e", "name:ja-Latn": "Bentenjima", "name:ko": "\ubca4\ud150\uc9c0\ub9c8", "name:ru": "\u0411\u0435\u043d\u0442\u0435\u043d\u0434\u0437\u0438\u043c\u0430", "public_transport": "station", "railway": "station", "wikidata": "Q870946", "wikipedia": "ja:\u5f01\u5929\u5cf6\u99c5"}}, {"type": "node", "id": 3999193759, "lat": 34.7039437, "lon": 137.7348528, "tags": {"name": "\u6d5c\u677e", "name:de": "Hamamatsu", "name:en": "Hamamatsu", "name:it": "Hamamatsu", "name:ja": "\u6d5c\u677e", "name:ja-Latn": "Hamamatsu", "name:ko": "\ud558\ub9c8\ub9c8\uc4f0", "name:ru": "\u0425\u0430\u043c\u0430\u043c\u0430\u0446\u0443", "public_transport": "station", "railway": "station", "ref": "CA34", "wikidata": "Q603640", "wikipedia": "ja:\u6d5c\u677e\u99c5"}}, {"type": "node", "id": 3999193760, "lat": 34.6857162, "lon": 137.6271386, "tags": {"name": "\u821e\u962a", "name:de": "Maisaka", "name:en": "Maisaka", "name:it": "Maisaka", "name:ja": "\u821e\u962a", "name:ja-Latn": "Maisaka", "name:ko": "\ub9c8\uc774\uc0ac\uce74", "name:ru": "\u041c\u0430\u0438\u0441\u0430\u043a\u0430", "public_transport": "station", "railway": "station", "website": "https://railway.jr-central.co.jp/station-guide/shizuoka/maisaka/", "wikidata": "Q871787", "wikipedia": "ja:\u821e\u962a\u99c5"}}, {"type": "node", "id": 3999193766, "lat": 34.6904941, "lon": 137.6810035, "tags": {"name": "\u9ad8\u585a", "name:de": "Takatsuka", "name:en": "Takatsuka", "name:it": "Takatsuka", "name:ja": "\u9ad8\u585a", "name:ja-Latn": "Takatsuka", "name:ko": "\ub2e4\uce74\uc4f0\uce74", "name:ru": "\u0422\u0430\u043a\u0430\u0446\u0443\u043a\u0430", "public_transport": "station", "railway": "station", "wikidata": "Q871086", "wikipedia": "ja:\u9ad8\u585a\u99c5"}}, {"type": "node", "id": 3999193767, "lat": 34.7170086, "lon": 137.7792839, "tags": {"name": "\u5929\u7adc\u5ddd", "name:de": "Tenry\u016bgawa", "name:en": "Tenryugawa", "name:ja": "\u5929\u7adc\u5ddd", "name:ko": "\ub374\ub958\uac00\uc640", "name:ru": "\u0422\u0435\u043d\u0440\u044e\u0433\u0430\u0432\u0430", "public_transport": "station", "railway": "station", "wikidata": "Q871509", "wikipedia": "ja:\u5929\u7adc\u5ddd\u99c5"}}, {"type": "node", "id": 3999193768, "lat": 34.7120279, "lon": 137.819956, "tags": {"name": "\u8c4a\u7530\u753a", "name:de": "Toyodach\u014d", "name:en": "Toyodacho", "name:it": "Toyodacho", "name:ja": "\u8c4a\u7530\u753a", "name:ja-Latn": "Toyodach\u014d", "name:ko": "\ub3c4\uc694\ub2e4\ucd08", "name:ru": "\u0422\u043e\u0451\u0434\u0430\u0442\u0451", "public_transport": "station", "railway": "station", "wikidata": "Q871482", "wikipedia": "ja:\u8c4a\u7530\u753a\u99c5"}}, {"type": "node", "id": 3999393681, "lat": 34.7101215, "lon": 137.8517978, "tags": {"brand": "JR\u6771\u6d77", "brand:en": "JR Central", "brand:ja": "JR\u6771\u6d77", "brand:ja-Latn": "JR Tokai", "bus": "yes", "name": "\u78d0\u7530", "name:de": "Iwata", "name:en": "Iwata", "name:ja": "\u78d0\u7530", "name:ja-Latn": "Iwata", "name:ko": "\uc774\uc640\ud0c0", "name:ru": "\u0418\u0432\u0430\u0442\u0430", "operator": "\u6771\u6d77\u65c5\u5ba2\u9244\u9053", "operator:en": "Central Japan Railway Company", "operator:ja": "\u6771\u6d77\u65c5\u5ba2\u9244\u9053", "public_transport": "station", "railway": "station", "railway:traffic_mode": "mixed", "train": "yes", "wikidata": "Q862970", "wikipedia": "ja:\u78d0\u7530\u99c5"}}, {"type": "node", "id": 4281889773, "lat": 34.8024557, "lon": 137.3550449, "tags": {"KSJ2:LIN": "\u540d\u53e4\u5c4b\u672c\u7dda", "KSJ2:STN": "\u4f0a\u5948", "name": "\u4f0a\u5948", "name:en": "Ina", "name:ja": "\u4f0a\u5948", "name:ko": "\uc774\ub098", "note": "National-Land Numerical Information (Railway) 2007, MLIT Japan", "note:ja": "\u56fd\u571f\u6570\u5024\u60c5\u5831\uff08\u9244\u9053\u30c7\u30fc\u30bf\uff09\u5e73\u621019\u5e74\u3000\u56fd\u571f\u4ea4\u901a\u7701", "public_transport": "stop_position", "railway": "station", "ref": "NH02", "source": "KSJ2", "source_ref": "http://nlftp.mlit.go.jp/ksj/jpgis/datalist/KsjTmplt-N02-v1_1.html", "wikidata": "Q6013231", "wikipedia": "ja:\u4f0a\u5948\u99c5"}}, {"type": "node", "id": 4401226131, "lat": 34.8762763, "lon": 137.4551363, "tags": {"KSJ2:LIN": "\u98ef\u7530\u7dda", "KSJ2:STN": "\u6771\u4e0a", "addr:city": "\u8c4a\u5ddd\u5e02", "addr:country": "JP", "addr:neighbourhood": "\u6771\u4eac\u5bfa", "addr:postcode": "441-1202", "addr:province": "\u611b\u77e5\u770c", "addr:quarter": "\u6771\u4e0a\u753a", "name": "\u6771\u4e0a", "name:en": "T\u014dj\u014d", "name:ja": "\u6771\u4e0a", "name:ja-Hira": "\u3068\u3046\u3058\u3087\u3046", "name:ja-Latn": "T\u014dj\u014d", "name:ko": "\ub3c4\uc870", "note": "National-Land Numerical Information (Railway) 2007, MLIT Japan", "note:ja": "\u56fd\u571f\u6570\u5024\u60c5\u5831\uff08\u9244\u9053\u30c7\u30fc\u30bf\uff09\u5e73\u621019\u5e74\u3000\u56fd\u571f\u4ea4\u901a\u7701", "operator": "\u6771\u6d77\u65c5\u5ba2\u9244\u9053", "public_transport": "station", "railway": "station", "source": "KSJ2", "source_ref": "http://nlftp.mlit.go.jp/ksj/jpgis/datalist/KsjTmplt-N02-v1_1.html", "wikidata": "Q772472", "wikipedia": "ja:\u6771\u4e0a\u99c5"}}, {"type": "node", "id": 4451970095, "lat": 34.8644208, "lon": 137.4313491, "tags": {"KSJ2:LIN": "\u98ef\u7530\u7dda", "KSJ2:STN": "\u9577\u5c71", "addr:city": "\u8c4a\u5ddd\u5e02", "addr:country": "JP", "addr:neighbourhood": "\u897f\u6c34\u795e\u5e73", "addr:postcode": "441-1202", "addr:province": "\u611b\u77e5\u770c", "addr:quarter": "\u4e0a\u9577\u5c71\u753a", "name": "\u9577\u5c71", "name:en": "Nagayama", "name:ja": "\u9577\u5c71", "name:ja-Hira": "\u306a\u304c\u3084\u307e", "name:ja-Latn": "Nagayama", "name:ko": "\ub098\uac00\uc57c\ub9c8", "note": "National-Land Numerical Information (Railway) 2007, MLIT Japan", "note:ja": "\u56fd\u571f\u6570\u5024\u60c5\u5831\uff08\u9244\u9053\u30c7\u30fc\u30bf\uff09\u5e73\u621019\u5e74\u3000\u56fd\u571f\u4ea4\u901a\u7701", "operator": "\u6771\u6d77\u65c5\u5ba2\u9244\u9053", "railway": "station", "source": "KSJ2", "source_ref": "http://nlftp.mlit.go.jp/ksj/jpgis/datalist/KsjTmplt-N02-v1_1.html", "wikidata": "Q772341", "wikipedia": "ja:\u9577\u5c71\u99c5"}}, {"type": "node", "id": 4919784418, "lat": 34.7630551, "lon": 137.3821758, "tags": {"gauge": "1067", "name": "\u8c4a\u6a4b", "name:de": "Toyohashi", "name:en": "Toyohashi", "name:it": "Toyohashi", "name:ja": "\u8c4a\u6a4b", "name:ja-Hira": "\u3068\u3088\u306f\u3057", "name:ja-Latn": "Toyohashi", "name:ko": "\ub3c4\uc694\ud558\uc2dc", "name:ru": "\u0422\u043e\u0439\u043e\u0445\u0430\u0441\u0438", "name:uk": "\u0422\u043e\u0439\u043e\u0445\u0430\u0441\u0456", "public_transport": "station", "railway": "station", "ref": "CA42;CD00;NH01", "train": "yes", "usage": "main", "wikidata": "Q771465", "wikipedia": "ja:\u8c4a\u6a4b\u99c5"}}, {"type": "node", "id": 5199279785, "lat": 34.7121939, "lon": 137.8198412}, {"type": "node", "id": 5199279786, "lat": 34.7121583, "lon": 137.8200577}, {"type": "node", "id": 5199279787, "lat": 34.7119398, "lon": 137.8200045}, {"type": "node", "id": 5199279788, "lat": 34.7119537, "lon": 137.8199195}, {"type": "node", "id": 5199279789, "lat": 34.7118986, "lon": 137.8199061}, {"type": "node", "id": 5199279790, "lat": 34.711922, "lon": 137.8197635}, {"type": "node", "id": 5199279791, "lat": 34.7119712, "lon": 137.8197755}, {"type": "node", "id": 5199279792, "lat": 34.7119562, "lon": 137.8198669}, {"type": "node", "id": 5199279793, "lat": 34.712113, "lon": 137.819905}, {"type": "node", "id": 5199279794, "lat": 34.7121261, "lon": 137.8198247}, {"type": "node", "id": 6014487236, "lat": 34.7977227, "lon": 137.3632454, "tags": {"KSJ2:LIN": "\u98ef\u7530\u7dda", "KSJ2:STN": "\u5c0f\u5742\u4e95", "name": "\u5c0f\u5742\u4e95", "name:en": "Kozakai", "name:ja": "\u5c0f\u5742\u4e95", "name:ko": "\uace0\uc790\uce74\uc774", "note": "National-Land Numerical Information (Railway) 2007, MLIT Japan", "note:ja": "\u56fd\u571f\u6570\u5024\u60c5\u5831\uff08\u9244\u9053\u30c7\u30fc\u30bf\uff09\u5e73\u621019\u5e74\u3000\u56fd\u571f\u4ea4\u901a\u7701", "railway": "station", "source": "KSJ2", "source_ref": "http://nlftp.mlit.go.jp/ksj/jpgis/datalist/KsjTmplt-N02-v1_1.html", "wikidata": "Q771874", "wikipedia": "ja:\u5c0f\u5742\u4e95\u99c5"}}, {"type": "node", "id": 6024094312, "lat": 34.8591422, "lon": 137.3113034, "tags": {"KSJ2:LIN": "\u540d\u53e4\u5c4b\u672c\u7dda", "KSJ2:STN": "\u540d\u96fb\u8d64\u5742", "int_name": "Meiden Akasaka", "name": "\u540d\u96fb\u8d64\u5742", "name:en": "Meiden Akasaka", "name:ja": "\u540d\u96fb\u8d64\u5742", "name:ja-Hira": "\u3081\u3044\u3067\u3093\u3042\u304b\u3055\u304b", "name:ja-Latn": "Meiden Akasaka", "name:ko": "\uba54\uc774\ub374\uc544\uce74\uc0ac\uce74", "note": "National-Land Numerical Information (Railway) 2007, MLIT Japan", "note:ja": "\u56fd\u571f\u6570\u5024\u60c5\u5831\uff08\u9244\u9053\u30c7\u30fc\u30bf\uff09\u5e73\u621019\u5e74\u3000\u56fd\u571f\u4ea4\u901a\u7701", "operator": "\u540d\u53e4\u5c4b\u9244\u9053", "public_transport": "station", "railway": "station", "ref": "NH06", "source": "KSJ2", "source_ref": "http://nlftp.mlit.go.jp/ksj/jpgis/datalist/KsjTmplt-N02-v1_1.html", "wikidata": "Q6809963", "wikipedia": "ja:\u540d\u96fb\u8d64\u5742\u99c5"}}, {"type": "node", "id": 6024094313, "lat": 34.8457169, "lon": 137.3218047, "tags": {"KSJ2:LIN": "\u540d\u53e4\u5c4b\u672c\u7dda", "KSJ2:STN": "\u5fa1\u6cb9", "name": "\u5fa1\u6cb9", "name:en": "Goyu", "name:ja": "\u5fa1\u6cb9", "name:ja-Hira": "\u3054\u3086", "name:ko": "\uace0\uc720", "note": "National-Land Numerical Information (Railway) 2007, MLIT Japan", "note:ja": "\u56fd\u571f\u6570\u5024\u60c5\u5831\uff08\u9244\u9053\u30c7\u30fc\u30bf\uff09\u5e73\u621019\u5e74\u3000\u56fd\u571f\u4ea4\u901a\u7701", "operator": "\u540d\u53e4\u5c4b\u9244\u9053", "public_transport": "station", "railway": "station", "ref": "NH05", "source": "KSJ2", "source_ref": "http://nlftp.mlit.go.jp/ksj/jpgis/datalist/KsjTmplt-N02-v1_1.html", "wikidata": "Q5590215", "wikipedia": "ja:\u5fa1\u6cb9\u99c5"}}, {"type": "node", "id": 6024094358, "lat": 34.8145772, "lon": 137.3457215, "tags": {"KSJ2:LIN": "\u540d\u53e4\u5c4b\u672c\u7dda", "KSJ2:STN": "\u5c0f\u7530\u6e15", "name": "\u5c0f\u7530\u6e15", "name:en": "Odabuchi", "name:ja": "\u5c0f\u7530\u6e15", "name:ko": "\uc624\ub2e4\ubd80\uce58", "note": "National-Land Numerical Information (Railway) 2007, MLIT Japan", "note:ja": "\u56fd\u571f\u6570\u5024\u60c5\u5831\uff08\u9244\u9053\u30c7\u30fc\u30bf\uff09\u5e73\u621019\u5e74\u3000\u56fd\u571f\u4ea4\u901a\u7701", "operator": "\u540d\u53e4\u5c4b\u9244\u9053", "public_transport": "station", "railway": "station", "ref": "NH03", "source": "KSJ2", "source_ref": "http://nlftp.mlit.go.jp/ksj/jpgis/datalist/KsjTmplt-N02-v1_1.html", "wikidata": "Q7077218", "wikipedia": "ja:\u5c0f\u7530\u6e15\u99c5"}}, {"type": "node", "id": 6026919982, "lat": 34.8237233, "lon": 137.3699221, "tags": {"KSJ2:LIN": "\u8c4a\u5ddd\u7dda", "int_name": "Suwach\u014d", "name": "\u8acf\u8a2a\u753a", "name:en": "Suwach\u014d", "name:ja": "\u8acf\u8a2a\u753a", "name:ja-Hira": "\u3059\u308f\u3061\u3087\u3046", "name:ko": "\uc2a4\uc640\ucd08", "note": "National-Land Numerical Information (Railway) 2007, MLIT Japan", "note:ja": "\u56fd\u571f\u6570\u5024\u60c5\u5831\uff08\u9244\u9053\u30c7\u30fc\u30bf\uff09\u5e73\u621019\u5e74\u3000\u56fd\u571f\u4ea4\u901a\u7701", "railway": "station", "source": "KSJ2", "source_ref": "http://nlftp.mlit.go.jp/ksj/jpgis/datalist/KsjTmplt-N02-v1_1.html", "wikidata": "Q7650548", "wikipedia": "ja:\u8acf\u8a2a\u753a\u99c5"}}, {"type": "node", "id": 6620793971, "lat": 34.7036136, "lon": 137.7349439, "tags": {"KSJ2:LIN": "\u6771\u6d77\u9053\u65b0\u5e79\u7dda", "KSJ2:STN": "\u6d5c\u677e", "highspeed": "yes", "name": "\u6d5c\u677e", "name:de": "Hamamatsu", "name:en": "Hamamatsu", "name:it": "Hamamatsu", "name:ja": "\u6d5c\u677e", "name:ja-Hira": "\u306f\u307e\u307e\u3064", "name:ja-Latn": "Hamamatsu", "name:ko": "\ud558\ub9c8\ub9c8\uc4f0", "name:ru": "\u0425\u0430\u043c\u0430\u043c\u0430\u0446\u0443", "name:uk": "\u0425\u0430\u043c\u0430\u043c\u0430\u0446\u0443", "note": "National-Land Numerical Information (Railway) 2007, MLIT Japan", "note:ja": "\u56fd\u571f\u6570\u5024\u60c5\u5831\uff08\u9244\u9053\u30c7\u30fc\u30bf\uff09\u5e73\u621019\u5e74\u3000\u56fd\u571f\u4ea4\u901a\u7701", "public_transport": "station", "railway": "station", "source": "KSJ2", "source_ref": "http://nlftp.mlit.go.jp/ksj/jpgis/datalist/KsjTmplt-N02-v1_1.html", "wheelchair": "yes", "wikidata": "Q603640", "wikipedia": "ja:\u6d5c\u677e\u99c5"}}, {"type": "node", "id": 7603698002, "lat": 34.703629, "lon": 137.7324983, "tags": {"KSJ2:LIN": "\u9244\u9053\u7dda", "KSJ2:STN": "\u65b0\u6d5c\u677e", "name": "\u65b0\u6d5c\u677e", "name:en": "Shin-Hamamatsu", "name:ja": "\u65b0\u6d5c\u677e", "name:ko": "\uc2e0\ud558\ub9c8\ub9c8\uc4f0", "network": "\u9060\u5dde\u9244\u9053\u9244\u9053\u7dda", "note": "National-Land Numerical Information (Railway) 2007, MLIT Japan", "note:ja": "\u56fd\u571f\u6570\u5024\u60c5\u5831\uff08\u9244\u9053\u30c7\u30fc\u30bf\uff09\u5e73\u621019\u5e74\u3000\u56fd\u571f\u4ea4\u901a\u7701", "operator": "\u9060\u5dde\u9244\u9053", "operator:en": "Enshu Railway", "public_transport": "station", "railway": "station", "ref": "ET01", "source": "KSJ2", "source_ref": "http://nlftp.mlit.go.jp/ksj/jpgis/datalist/KsjTmplt-N02-v1_1.html", "wikidata": "Q7497088", "wikipedia": "ja:\u65b0\u6d5c\u677e\u99c5"}}, {"type": "node", "id": 7603727972, "lat": 34.7416361, "lon": 137.7453317, "tags": {"KSJ2:LIN": "\u9244\u9053\u7dda", "KSJ2:STN": "\u9060\u5dde\u4e0a\u5cf6", "name": "\u4e0a\u5cf6", "name:en": "Kamijima", "name:ja": "\u4e0a\u5cf6", "name:ko": "\uac00\ubbf8\uc9c0\ub9c8", "note": "National-Land Numerical Information (Railway) 2007, MLIT Japan", "note:ja": "\u56fd\u571f\u6570\u5024\u60c5\u5831\uff08\u9244\u9053\u30c7\u30fc\u30bf\uff09\u5e73\u621019\u5e74\u3000\u56fd\u571f\u4ea4\u901a\u7701", "public_transport": "station", "railway": "station", "ref": "07", "source": "KSJ2", "source_ref": "http://nlftp.mlit.go.jp/ksj/jpgis/datalist/KsjTmplt-N02-v1_1.html", "wikidata": "Q169614", "wikipedia": "ja:\u4e0a\u5cf6\u99c5 (\u9759\u5ca1\u770c)"}}, {"type": "node", "id": 7603727981, "lat": 34.7476581, "lon": 137.7518232, "tags": {"KSJ2:LIN": "\u9244\u9053\u7dda", "KSJ2:STN": "\u81ea\u52d5\u8eca\u5b66\u6821\u524d", "alt_name:ko": "\uc9c0\ub3c4\uc0e4\uac13\ucf54\ub9c8\uc5d0", "name": "\u81ea\u52d5\u8eca\u5b66\u6821\u524d", "name:en": "Jid\u014dsha-Gakk\u014d-Mae", "name:ja": "\u81ea\u52d5\u8eca\u5b66\u6821\u524d", "name:ko": "\uc790\ub3d9\ucc28\ud559\uad50\uc55e", "note": "National-Land Numerical Information (Railway) 2007, MLIT Japan", "note:ja": "\u56fd\u571f\u6570\u5024\u60c5\u5831\uff08\u9244\u9053\u30c7\u30fc\u30bf\uff09\u5e73\u621019\u5e74\u3000\u56fd\u571f\u4ea4\u901a\u7701", "public_transport": "station", "railway": "station", "source": "KSJ2", "source_ref": "http://nlftp.mlit.go.jp/ksj/jpgis/datalist/KsjTmplt-N02-v1_1.html", "wikidata": "Q6192178", "wikipedia": "ja:\u81ea\u52d5\u8eca\u5b66\u6821\u524d\u99c5"}}, {"type": "node", "id": 7603753721, "lat": 34.7244729, "lon": 137.738657, "tags": {"KSJ2:LIN": "\u9244\u9053\u7dda", "KSJ2:STN": "\u52a9\u4fe1", "name": "\u52a9\u4fe1", "name:en": "Sukenobu", "name:ja": "\u52a9\u4fe1", "name:ko": "\uc2a4\ucf00\ub178\ubd80", "note": "National-Land Numerical Information (Railway) 2007, MLIT Japan", "note:ja": "\u56fd\u571f\u6570\u5024\u60c5\u5831\uff08\u9244\u9053\u30c7\u30fc\u30bf\uff09\u5e73\u621019\u5e74\u3000\u56fd\u571f\u4ea4\u901a\u7701", "public_transport": "station", "railway": "station", "source": "KSJ2", "source_ref": "http://nlftp.mlit.go.jp/ksj/jpgis/datalist/KsjTmplt-N02-v1_1.html", "wikidata": "Q7635748", "wikipedia": "ja:\u52a9\u4fe1\u99c5"}}, {"type": "node", "id": 7603797340, "lat": 34.7679049, "lon": 137.7632692, "tags": {"KSJ2:LIN": "\u9244\u9053\u7dda", "KSJ2:STN": "\u7a4d\u5fd7", "name": "\u7a4d\u5fd7", "name:en": "Sekishi", "name:ja": "\u7a4d\u5fd7", "name:ko": "\uc138\ud0a4\uc2dc", "note": "National-Land Numerical Information (Railway) 2007, MLIT Japan", "note:ja": "\u56fd\u571f\u6570\u5024\u60c5\u5831\uff08\u9244\u9053\u30c7\u30fc\u30bf\uff09\u5e73\u621019\u5e74\u3000\u56fd\u571f\u4ea4\u901a\u7701", "public_transport": "station", "railway": "station", "source": "KSJ2", "source_ref": "http://nlftp.mlit.go.jp/ksj/jpgis/datalist/KsjTmplt-N02-v1_1.html", "wikidata": "Q11597140", "wikipedia": "ja:\u7a4d\u5fd7\u99c5"}}, {"type": "node", "id": 7603799192, "lat": 34.7575253, "lon": 137.7574892, "tags": {"KSJ2:LIN": "\u9244\u9053\u7dda", "KSJ2:STN": "\u3055\u304e\u306e\u5bae", "name": "\u3055\u304e\u306e\u5bae", "name:en": "Saginomiya", "name:ja": "\u3055\u304e\u306e\u5bae", "name:ko": "\uc0ac\uae30\ub178\ubbf8\uc57c", "note": "National-Land Numerical Information (Railway) 2007, MLIT Japan", "note:ja": "\u56fd\u571f\u6570\u5024\u60c5\u5831\uff08\u9244\u9053\u30c7\u30fc\u30bf\uff09\u5e73\u621019\u5e74\u3000\u56fd\u571f\u4ea4\u901a\u7701", "public_transport": "station", "railway": "station", "ref": "08", "source": "KSJ2", "source_ref": "http://nlftp.mlit.go.jp/ksj/jpgis/datalist/KsjTmplt-N02-v1_1.html", "wikidata": "Q7399284", "wikipedia": "ja:\u3055\u304e\u306e\u5bae\u99c5"}}, {"type": "node", "id": 7815197544, "lat": 34.8233551, "lon": 137.7985655, "tags": {"KSJ2:LIN": "\u9244\u9053\u7dda", "KSJ2:STN": "\u9060\u5dde\u829d\u672c", "name": "\u9060\u5dde\u829d\u672c", "name:en": "Ensh\u016b-Shibamoto", "name:ja": "\u9060\u5dde\u829d\u672c", "name:ko": "\uc5d4\uc288\uc2dc\ubc14\ubaa8\ud1a0", "network": "\u9060\u5dde\u9244\u9053\u9244\u9053\u7dda", "note": "National-Land Numerical Information (Railway) 2007, MLIT Japan", "note:ja": "\u56fd\u571f\u6570\u5024\u60c5\u5831\uff08\u9244\u9053\u30c7\u30fc\u30bf\uff09\u5e73\u621019\u5e74\u3000\u56fd\u571f\u4ea4\u901a\u7701", "operator": "\u9060\u5dde\u9244\u9053", "public_transport": "station", "railway": "station", "source": "KSJ2", "source_ref": "http://nlftp.mlit.go.jp/ksj/jpgis/datalist/KsjTmplt-N02-v1_1.html", "wikidata": "Q5379986", "wikipedia": "ja:\u9060\u5dde\u829d\u672c\u99c5"}}, {"type": "node", "id": 7815291854, "lat": 34.808232, "lon": 137.7954936, "tags": {"KSJ2:LIN": "\u9244\u9053\u7dda", "KSJ2:STN": "\u9060\u5dde\u5c0f\u6797", "name": "\u9060\u5dde\u5c0f\u6797", "name:en": "Ensh\u016b-Kobayashi", "name:ja": "\u9060\u5dde\u5c0f\u6797", "name:ko": "\uc5d4\uc288\ucf54\ubc14\uc57c\uc2dc", "note": "National-Land Numerical Information (Railway) 2007, MLIT Japan", "note:ja": "\u56fd\u571f\u6570\u5024\u60c5\u5831\uff08\u9244\u9053\u30c7\u30fc\u30bf\uff09\u5e73\u621019\u5e74\u3000\u56fd\u571f\u4ea4\u901a\u7701", "public_transport": "station", "railway": "station", "source": "KSJ2", "source_ref": "http://nlftp.mlit.go.jp/ksj/jpgis/datalist/KsjTmplt-N02-v1_1.html", "wikidata": "Q5379981", "wikipedia": "ja:\u9060\u5dde\u5c0f\u6797\u99c5"}}, {"type": "node", "id": 7815296639, "lat": 34.8344623, "lon": 137.8011445, "tags": {"KSJ2:LIN": "\u9244\u9053\u7dda", "KSJ2:STN": "\u9060\u5dde\u5ca9\u6c34\u5bfa", "name": "\u9060\u5dde\u5ca9\u6c34\u5bfa", "name:en": "Ensh\u016b-Gansuiji", "name:ja": "\u9060\u5dde\u5ca9\u6c34\u5bfa", "name:ko": "\uc5d4\uc288\uac04\uc2a4\uc774\uc9c0", "network": "\u9060\u5dde\u9244\u9053\u9244\u9053\u7dda", "note": "National-Land Numerical Information (Railway) 2007, MLIT Japan", "note:ja": "\u56fd\u571f\u6570\u5024\u60c5\u5831\uff08\u9244\u9053\u30c7\u30fc\u30bf\uff09\u5e73\u621019\u5e74\u3000\u56fd\u571f\u4ea4\u901a\u7701", "operator": "\u9060\u5dde\u9244\u9053", "public_transport": "station", "railway": "station", "source": "KSJ2", "source_ref": "http://nlftp.mlit.go.jp/ksj/jpgis/datalist/KsjTmplt-N02-v1_1.html", "wikidata": "Q5379980", "wikipedia": "ja:\u9060\u5dde\u5ca9\u6c34\u5bfa\u99c5"}}, {"type": "node", "id": 8047320735, "lat": 34.6960273, "lon": 137.3590317, "tags": {"KSJ2:LIN": "\u6e25\u7f8e\u7dda", "KSJ2:STN": "\u5927\u6e05\u6c34", "bus": "no", "name": "\u5927\u6e05\u6c34", "name:en": "\u014cshimizu", "name:ja": "\u5927\u6e05\u6c34", "name:ko": "\uc624\uc2dc\ubbf8\uc988", "network": "\u8c4a\u6a4b\u9244\u9053\u6e25\u7f8e\u7dda", "note": "National-Land Numerical Information (Railway) 2007, MLIT Japan", "note:ja": "\u56fd\u571f\u6570\u5024\u60c5\u5831\uff08\u9244\u9053\u30c7\u30fc\u30bf\uff09\u5e73\u621019\u5e74\u3000\u56fd\u571f\u4ea4\u901a\u7701", "operator": "\u8c4a\u6a4b\u9244\u9053", "public_transport": "station", "railway": "station", "source": "KSJ2", "source_ref": "http://nlftp.mlit.go.jp/ksj/jpgis/datalist/KsjTmplt-N02-v1_1.html", "wikidata": "Q11063469", "wikipedia": "ja:\u5927\u6e05\u6c34\u99c5"}}, {"type": "node", "id": 8065224864, "lat": 34.7489029, "lon": 137.3880468, "tags": {"KSJ2:LIN": "\u6e25\u7f8e\u7dda", "KSJ2:STN": "\u5c0f\u6c60", "name": "\u5c0f\u6c60", "name:en": "Koike", "name:ja": "\u5c0f\u6c60", "name:ko": "\uace0\uc774\ucf00", "note": "National-Land Numerical Information (Railway) 2007, MLIT Japan", "note:ja": "\u56fd\u571f\u6570\u5024\u60c5\u5831\uff08\u9244\u9053\u30c7\u30fc\u30bf\uff09\u5e73\u621019\u5e74\u3000\u56fd\u571f\u4ea4\u901a\u7701", "public_transport": "station", "railway": "station", "source": "KSJ2", "source_ref": "http://nlftp.mlit.go.jp/ksj/jpgis/datalist/KsjTmplt-N02-v1_1.html", "wikidata": "Q6426277", "wikipedia": "ja:\u5c0f\u6c60\u99c5"}}, {"type": "node", "id": 8065224871, "lat": 34.7546694, "lon": 137.3885681, "tags": {"KSJ2:LIN": "\u6e25\u7f8e\u7dda", "KSJ2:STN": "\u67f3\u751f\u6a4b", "name": "\u67f3\u751f\u6a4b", "name:en": "Yagyu-bashi", "name:ja": "\u67f3\u751f\u6a4b", "name:ko": "\uc57c\uaddc\ubc14\uc2dc", "note": "National-Land Numerical Information (Railway) 2007, MLIT Japan", "note:ja": "\u56fd\u571f\u6570\u5024\u60c5\u5831\uff08\u9244\u9053\u30c7\u30fc\u30bf\uff09\u5e73\u621019\u5e74\u3000\u56fd\u571f\u4ea4\u901a\u7701", "operator": "\u8c4a\u6a4b\u9244\u9053", "operator:en": "Toyohashi Railroad", "operator:ja": "\u8c4a\u6a4b\u9244\u9053", "public_transport": "station", "railway": "station", "source": "KSJ2", "source_ref": "http://nlftp.mlit.go.jp/ksj/jpgis/datalist/KsjTmplt-N02-v1_1.html", "wikidata": "Q8046769", "wikipedia": "ja:\u67f3\u751f\u6a4b\u99c5"}}, {"type": "node", "id": 8065224872, "lat": 34.6922788, "lon": 137.3347362, "tags": {"KSJ2:LIN": "\u6e25\u7f8e\u7dda", "KSJ2:STN": "\u8001\u6d25", "name": "\u8001\u6d25", "name:en": "Oitsu", "name:ja": "\u8001\u6d25", "name:ko": "\uc624\uc774\uc4f0", "network": "\u8c4a\u6a4b\u9244\u9053\u6e25\u7f8e\u7dda", "note": "National-Land Numerical Information (Railway) 2007, MLIT Japan", "note:ja": "\u56fd\u571f\u6570\u5024\u60c5\u5831\uff08\u9244\u9053\u30c7\u30fc\u30bf\uff09\u5e73\u621019\u5e74\u3000\u56fd\u571f\u4ea4\u901a\u7701", "operator": "\u8c4a\u6a4b\u9244\u9053", "public_transport": "station", "railway": "station", "source": "KSJ2", "source_ref": "http://nlftp.mlit.go.jp/ksj/jpgis/datalist/KsjTmplt-N02-v1_1.html", "wikidata": "Q7081563", "wikipedia": "ja:\u8001\u6d25\u99c5"}}, {"type": "node", "id": 8065224878, "lat": 34.6805504, "lon": 137.3207961, "tags": {"KSJ2:LIN": "\u6e25\u7f8e\u7dda", "KSJ2:STN": "\u6749\u5c71", "name": "\u6749\u5c71", "name:en": "Sugiyama", "name:ja": "\u6749\u5c71", "name:ko": "\uc2a4\uae30\uc57c\ub9c8", "network": "\u8c4a\u6a4b\u9244\u9053\u6e25\u7f8e\u7dda", "note": "National-Land Numerical Information (Railway) 2007, MLIT Japan", "note:ja": "\u56fd\u571f\u6570\u5024\u60c5\u5831\uff08\u9244\u9053\u30c7\u30fc\u30bf\uff09\u5e73\u621019\u5e74\u3000\u56fd\u571f\u4ea4\u901a\u7701", "operator": "\u8c4a\u6a4b\u9244\u9053", "public_transport": "station", "railway": "station", "source": "KSJ2", "source_ref": "http://nlftp.mlit.go.jp/ksj/jpgis/datalist/KsjTmplt-N02-v1_1.html", "train": "yes", "wikidata": "Q7635131", "wikipedia": "ja:\u6749\u5c71\u99c5"}}, {"type": "node", "id": 8067559531, "lat": 34.7059383, "lon": 137.3673888, "tags": {"KSJ2:LIN": "\u6e25\u7f8e\u7dda", "KSJ2:STN": "\u5411\u30f6\u4e18", "name": "\u5411\u30f6\u4e18", "name:en": "Mukougaoka", "name:ja": "\u5411\u30f6\u4e18", "name:ko": "\ubb34\ucf54\uac00\uc624\uce74", "network": "\u8c4a\u6a4b\u9244\u9053\u6e25\u7f8e\u7dda", "note": "National-Land Numerical Information (Railway) 2007, MLIT Japan", "note:ja": "\u56fd\u571f\u6570\u5024\u60c5\u5831\uff08\u9244\u9053\u30c7\u30fc\u30bf\uff09\u5e73\u621019\u5e74\u3000\u56fd\u571f\u4ea4\u901a\u7701", "operator": "\u8c4a\u6a4b\u9244\u9053", "public_transport": "station", "railway": "station", "source": "KSJ2", "source_ref": "http://nlftp.mlit.go.jp/ksj/jpgis/datalist/KsjTmplt-N02-v1_1.html", "wikidata": "Q11415864", "wikipedia": "ja:\u5411\u30f6\u4e18\u99c5"}}, {"type": "node", "id": 8093166102, "lat": 34.7072436, "lon": 137.732652, "tags": {"KSJ2:LIN": "\u9244\u9053\u7dda", "KSJ2:STN": "\u7b2c\u4e00\u901a\u308a", "name": "\u7b2c\u4e00\u901a\u308a", "name:en": "Dai-Ichi-d\u014dri", "name:ja": "\u7b2c\u4e00\u901a\u308a", "name:ko": "\ub2e4\uc774\uc774\uce58\ub3c4\ub9ac", "network": "\u9060\u5dde\u9244\u9053\u9244\u9053\u7dda", "note": "National-Land Numerical Information (Railway) 2007, MLIT Japan", "note:ja": "\u56fd\u571f\u6570\u5024\u60c5\u5831\uff08\u9244\u9053\u30c7\u30fc\u30bf\uff09\u5e73\u621019\u5e74\u3000\u56fd\u571f\u4ea4\u901a\u7701", "operator": "\u9060\u5dde\u9244\u9053", "public_transport": "station", "railway": "station", "source": "KSJ2", "source_ref": "http://nlftp.mlit.go.jp/ksj/jpgis/datalist/KsjTmplt-N02-v1_1.html", "wikidata": "Q5208966", "wikipedia": "ja:\u7b2c\u4e00\u901a\u308a\u99c5"}}, {"type": "node", "id": 8093166103, "lat": 34.7104777, "lon": 137.7333198, "tags": {"KSJ2:LIN": "\u9244\u9053\u7dda", "KSJ2:STN": "\u9060\u5dde\u75c5\u9662", "alt_name:ko": "\uc5d4\uc288\ubd64\uc778", "name": "\u9060\u5dde\u75c5\u9662", "name:en": "Enshubyoin", "name:ja": "\u9060\u5dde\u75c5\u9662", "name:ja-Latn": "Ensh\u016b-By\u014din", "name:ko": "\uc5d4\uc288\ubcd1\uc6d0", "note": "National-Land Numerical Information (Railway) 2007, MLIT Japan", "note:ja": "\u56fd\u571f\u6570\u5024\u60c5\u5831\uff08\u9244\u9053\u30c7\u30fc\u30bf\uff09\u5e73\u621019\u5e74\u3000\u56fd\u571f\u4ea4\u901a\u7701", "public_transport": "station", "railway": "station", "source": "KSJ2", "source_ref": "http://nlftp.mlit.go.jp/ksj/jpgis/datalist/KsjTmplt-N02-v1_1.html", "wikidata": "Q5379979", "wikipedia": "ja:\u9060\u5dde\u75c5\u9662\u99c5"}}, {"type": "node", "id": 8093166108, "lat": 34.7169874, "lon": 137.735943, "tags": {"KSJ2:LIN": "\u9244\u9053\u7dda", "KSJ2:STN": "\u516b\u5e61", "name": "\u516b\u5e61", "name:en": "Hachiman", "name:ja": "\u516b\u5e61", "name:ko": "\ud558\uce58\ub9cc", "note": "National-Land Numerical Information (Railway) 2007, MLIT Japan", "note:ja": "\u56fd\u571f\u6570\u5024\u60c5\u5831\uff08\u9244\u9053\u30c7\u30fc\u30bf\uff09\u5e73\u621019\u5e74\u3000\u56fd\u571f\u4ea4\u901a\u7701", "public_transport": "station", "railway": "station", "source": "KSJ2", "source_ref": "http://nlftp.mlit.go.jp/ksj/jpgis/datalist/KsjTmplt-N02-v1_1.html", "wikidata": "Q5637051", "wikipedia": "ja:\u516b\u5e61\u99c5 (\u9759\u5ca1\u770c)"}}, {"type": "node", "id": 8093166111, "lat": 34.7331243, "lon": 137.7412458, "tags": {"KSJ2:LIN": "\u9244\u9053\u7dda", "KSJ2:STN": "\u9060\u5dde\u66f3\u99ac", "name": "\u66f3\u99ac", "name:en": "Hikuma", "name:ja": "\u66f3\u99ac", "name:ko": "\ud788\ucfe0\ub9c8", "note": "National-Land Numerical Information (Railway) 2007, MLIT Japan", "note:ja": "\u56fd\u571f\u6570\u5024\u60c5\u5831\uff08\u9244\u9053\u30c7\u30fc\u30bf\uff09\u5e73\u621019\u5e74\u3000\u56fd\u571f\u4ea4\u901a\u7701", "public_transport": "station", "railway": "station", "source": "KSJ2", "source_ref": "http://nlftp.mlit.go.jp/ksj/jpgis/datalist/KsjTmplt-N02-v1_1.html", "wikidata": "Q169414", "wikipedia": "ja:\u66f3\u99ac\u99c5"}}, {"type": "node", "id": 8093209317, "lat": 34.7767574, "lon": 137.7738428, "tags": {"KSJ2:LIN": "\u9244\u9053\u7dda", "KSJ2:STN": "\u9060\u5dde\u897f\u30f6\u5d0e", "alt_name:ko": "\uc5d4\uc288\ub2c8\uc2dc\uac00\uc0ac\ud0a4", "name": "\u9060\u5dde\u897f\u30f6\u5d0e", "name:en": "Ensh\u016b-Nishigasaki", "name:ja": "\u9060\u5dde\u897f\u30f6\u5d0e", "name:ko": "\uc5d4\uc288\ub2c8\uc2dc\uac00\uc0ac\ud0a4", "note": "National-Land Numerical Information (Railway) 2007, MLIT Japan", "note:ja": "\u56fd\u571f\u6570\u5024\u60c5\u5831\uff08\u9244\u9053\u30c7\u30fc\u30bf\uff09\u5e73\u621019\u5e74\u3000\u56fd\u571f\u4ea4\u901a\u7701", "operator": "\u9060\u5dde\u9244\u9053\uff08\u682a\uff09", "public_transport": "station", "railway": "station", "ref": "11", "source": "KSJ2", "source_ref": "http://nlftp.mlit.go.jp/ksj/jpgis/datalist/KsjTmplt-N02-v1_1.html", "train": "yes", "wikidata": "Q5379985", "wikipedia": "ja:\u9060\u5dde\u897f\u30f6\u5d0e\u99c5"}}, {"type": "node", "id": 8093209321, "lat": 34.7842114, "lon": 137.7778445, "tags": {"KSJ2:LIN": "\u9244\u9053\u7dda", "KSJ2:STN": "\u9060\u5dde\u5c0f\u677e", "name": "\u9060\u5dde\u5c0f\u677e", "name:en": "Ensh\u016b-Komatsu", "name:ja": "\u9060\u5dde\u5c0f\u677e", "name:ko": "\uc5d4\uc288\ucf54\ub9c8\uc4f0", "network": "\u9060\u5dde\u9244\u9053\u9244\u9053\u7dda", "note": "National-Land Numerical Information (Railway) 2007, MLIT Japan", "note:ja": "\u56fd\u571f\u6570\u5024\u60c5\u5831\uff08\u9244\u9053\u30c7\u30fc\u30bf\uff09\u5e73\u621019\u5e74\u3000\u56fd\u571f\u4ea4\u901a\u7701", "operator": "\u9060\u5dde\u9244\u9053", "public_transport": "station", "railway": "station", "ref": "12", "source": "KSJ2", "source_ref": "http://nlftp.mlit.go.jp/ksj/jpgis/datalist/KsjTmplt-N02-v1_1.html", "wikidata": "Q5379983", "wikipedia": "ja:\u9060\u5dde\u5c0f\u677e\u99c5"}}, {"type": "node", "id": 8093209328, "lat": 34.7912868, "lon": 137.7842671, "tags": {"KSJ2:LIN": "\u9244\u9053\u7dda", "KSJ2:STN": "\u6d5c\u5317", "name": "\u6d5c\u5317", "name:ja": "\u6d5c\u5317", "name:ko": "\ud558\ub9c8\ud0a4\ud0c0", "note": "National-Land Numerical Information (Railway) 2007, MLIT Japan", "note:ja": "\u56fd\u571f\u6570\u5024\u60c5\u5831\uff08\u9244\u9053\u30c7\u30fc\u30bf\uff09\u5e73\u621019\u5e74\u3000\u56fd\u571f\u4ea4\u901a\u7701", "public_transport": "station", "railway": "station", "source": "KSJ2", "source_ref": "http://nlftp.mlit.go.jp/ksj/jpgis/datalist/KsjTmplt-N02-v1_1.html", "wikidata": "Q5644006", "wikipedia": "ja:\u6d5c\u5317\u99c5"}}, {"type": "node", "id": 8093209330, "lat": 34.7978782, "lon": 137.7895296, "tags": {"KSJ2:LIN": "\u9244\u9053\u7dda", "alt_name:ko": "\ubbf8\uc18c\ub178\ucd94\uc624\ucf54\uc5d4", "name": "\u7f8e\u8597\u4e2d\u592e\u516c\u5712", "name:en": "Misono-Ch\u016b\u014d-k\u014den", "name:ja": "\u7f8e\u8597\u4e2d\u592e\u516c\u5712", "name:ja-Hira": "\u307f\u305d\u306e\u3061\u3085\u3046\u304a\u3046\u3053\u3046\u3048\u3093", "name:ko": "\ubbf8\uc18c\ub178\uc911\uc559\uacf5\uc6d0", "network": "\u9060\u5dde\u9244\u9053\u9244\u9053\u7dda", "note": "National-Land Numerical Information (Railway) 2007, MLIT Japan", "note:ja": "\u56fd\u571f\u6570\u5024\u60c5\u5831\uff08\u9244\u9053\u30c7\u30fc\u30bf\uff09\u5e73\u621019\u5e74\u3000\u56fd\u571f\u4ea4\u901a\u7701", "old_name": "\u5317\u6d5c\u4e2d\u5b66\u6821\u524d", "operator": "\u9060\u5dde\u9244\u9053", "public_transport": "station", "railway": "station", "ref": "14", "source": "KSJ2", "source_ref": "http://nlftp.mlit.go.jp/ksj/jpgis/datalist/KsjTmplt-N02-v1_1.html", "wikidata": "Q6875882", "wikipedia": "ja:\u7f8e\u8597\u4e2d\u592e\u516c\u5712\u99c5"}}, {"type": "node", "id": 8097329952, "lat": 34.8227602, "lon": 137.3968532, "tags": {"addr:block_number": "10", "addr:city": "\u8c4a\u5ddd\u5e02", "addr:country": "JP", "addr:full": "\u611b\u77e5\u770c\u8c4a\u5ddd\u5e02\u8c4a\u5ddd\u753a\u4ec1\u4fdd\u901a10\u756a\u5730", "addr:neighbourhood": "\u4ec1\u4fdd\u901a", "addr:postcode": "442-0033", "addr:province": "\u611b\u77e5\u770c", "addr:quarter": "\u8c4a\u5ddd\u753a", "int_name": "Toyokawa", "name": "\u8c4a\u5ddd", "name:en": "Toyokawa", "name:ja": "\u8c4a\u5ddd", "name:ja-Hira": "\u3068\u3088\u304b\u308f", "name:ja-Latn": "Toyokawa", "name:ko": "\ub3c4\uc694\uce74\uc640", "railway": "station", "source": "survey", "wikidata": "Q772133", "wikipedia": "ja:\u8c4a\u5ddd\u99c5_(\u611b\u77e5\u770c)"}}, {"type": "node", "id": 8239370522, "lat": 34.8088489, "lon": 137.3821436, "tags": {"name": "\u725b\u4e45\u4fdd", "name:en": "Ushikubo", "name:ja": "\u725b\u4e45\u4fdd", "name:ko": "\uc6b0\uc2dc\ucfe0\ubcf4", "note": "National-Land Numerical Information (Railway) 2007, MLIT Japan", "note:ja": "\u56fd\u571f\u6570\u5024\u60c5\u5831\uff08\u9244\u9053\u30c7\u30fc\u30bf\uff09\u5e73\u621019\u5e74\u3000\u56fd\u571f\u4ea4\u901a\u7701", "public_transport": "station", "railway": "station", "source": "KSJ2", "source_ref": "http://nlftp.mlit.go.jp/ksj/jpgis/datalist/KsjTmplt-N02-v1_1.html", "train": "yes", "wikidata": "Q772016", "wikipedia": "ja:\u725b\u4e45\u4fdd\u99c5"}}, {"type": "node", "id": 11341532927, "lat": 34.7626409, "lon": 137.3812062, "tags": {"gauge": "1435", "highspeed": "yes", "name": "\u8c4a\u6a4b", "name:de": "Toyohashi", "name:en": "Toyohashi", "name:it": "Toyohashi", "name:ja": "\u8c4a\u6a4b", "name:ja-Hira": "\u3068\u3088\u306f\u3057", "name:ja-Latn": "Toyohashi", "name:ko": "\ub3c4\uc694\ud558\uc2dc", "name:ru": "\u0422\u043e\u0439\u043e\u0445\u0430\u0441\u0438", "name:uk": "\u0422\u043e\u0439\u043e\u0445\u0430\u0441\u0456", "public_transport": "station", "railway": "station", "train": "yes", "usage": "main", "wikidata": "Q771465", "wikipedia": "ja:\u8c4a\u6a4b\u99c5"}}, {"type": "way", "id": 261875640, "nodes": [2674891406, 2674891408, 2699342738, 2699342733, 2702182549, 2699342736, 2699342734, 2699342735, 2699342737, 2674891410, 2674891412, 2674891406], "tags": {"building": "train_station", "public_transport": "station", "railway": "station", "source": "GSI/KIBAN 2500", "train": "yes"}}, {"type": "way", "id": 536799229, "nodes": [5199279785, 5199279786, 5199279787, 5199279788, 5199279789, 5199279790, 5199279791, 5199279792, 5199279793, 5199279794, 5199279785], "tags": {"building": "yes", "building:levels": "2", "layer": "1", "public_transport": "station", "railway": "station", "train": "yes"}}]}