{"version": 0.6, "generator": "Overpass API 0.7.62.4 2390de5a", "osm3s": {"timestamp_osm_base": "2024-12-30T14:57:07Z", "copyright": "The data included in this document is from www.openstreetmap.org. The data is made available under ODbL."}, "elements": [{"type": "node", "id": 264414237, "lat": 37.566069, "lon": 138.741791, "tags": {"KSJ2:LIN": "\u8d8a\u5f8c\u7dda", "KSJ2:STN": "\u5999\u6cd5\u5bfa", "name": "\u5999\u6cd5\u5bfa", "name:en": "Myohoji", "name:ja": "\u5999\u6cd5\u5bfa", "name:ko": "\ubb18\ud638\uc9c0", "note": "National-Land Numerical Information (Railway) 2007, MLIT Japan", "note:ja": "\u56fd\u571f\u6570\u5024\u60c5\u5831\uff08\u9244\u9053\u30c7\u30fc\u30bf\uff09\u5e73\u621019\u5e74\u3000\u56fd\u571f\u4ea4\u901a\u7701", "railway": "station", "source": "KSJ2", "source_ref": "http://nlftp.mlit.go.jp/ksj/jpgis/datalist/KsjTmplt-N02-v1_1.html", "wikidata": "Q6949384", "wikipedia": "ja:\u5999\u6cd5\u5bfa\u99c5 (\u65b0\u6f5f\u770c)"}}, {"type": "node", "id": 264414323, "lat": 37.5745691, "lon": 138.7713399, "tags": {"KSJ2:LIN": "\u8d8a\u5f8c\u7dda", "KSJ2:STN": "\u5c0f\u5cf6\u8c37", "name": "\u5c0f\u5cf6\u8c37", "name:en": "Ojumaya", "name:ja": "\u5c0f\u5cf6\u8c37", "name:ko": "\uc624\uc9c0\ub9c8\uc57c", "note": "National-Land Numerical Information (Railway) 2007, MLIT Japan", "note:ja": "\u56fd\u571f\u6570\u5024\u60c5\u5831\uff08\u9244\u9053\u30c7\u30fc\u30bf\uff09\u5e73\u621019\u5e74\u3000\u56fd\u571f\u4ea4\u901a\u7701", "railway": "station", "source": "KSJ2", "source_ref": "http://nlftp.mlit.go.jp/ksj/jpgis/datalist/KsjTmplt-N02-v1_1.html", "wikidata": "Q7081632", "wikipedia": "ja:\u5c0f\u5cf6\u8c37\u99c5"}}, {"type": "node", "id": 264414331, "lat": 37.629561, "lon": 138.840155, "tags": {"KSJ2:LIN": "\u8d8a\u5f8c\u7dda", "KSJ2:STN": "\u5206\u6c34", "name": "\u5206\u6c34", "name:en": "Bunsui", "name:ja": "\u5206\u6c34", "name:ko": "\ubd84\uc2a4\uc774", "note": "National-Land Numerical Information (Railway) 2007, MLIT Japan", "note:ja": "\u56fd\u571f\u6570\u5024\u60c5\u5831\uff08\u9244\u9053\u30c7\u30fc\u30bf\uff09\u5e73\u621019\u5e74\u3000\u56fd\u571f\u4ea4\u901a\u7701", "railway": "station", "source": "KSJ2", "source_ref": "http://nlftp.mlit.go.jp/ksj/jpgis/datalist/KsjTmplt-N02-v1_1.html", "wikidata": "Q4997919", "wikipedia": "ja:\u5206\u6c34\u99c5"}}, {"type": "node", "id": 264414442, "lat": 37.6202989, "lon": 138.8139358, "tags": {"KSJ2:LIN": "\u8d8a\u5f8c\u7dda", "KSJ2:STN": "\u5bfa\u6cca", "name": "\u5bfa\u6cca", "name:en": "Teradomari", "name:ja": "\u5bfa\u6cca", "name:ko": "\ub370\ub77c\ub3c4\ub9c8\ub9ac", "note": "National-Land Numerical Information (Railway) 2007, MLIT Japan", "note:ja": "\u56fd\u571f\u6570\u5024\u60c5\u5831\uff08\u9244\u9053\u30c7\u30fc\u30bf\uff09\u5e73\u621019\u5e74\u3000\u56fd\u571f\u4ea4\u901a\u7701", "railway": "station", "source": "KSJ2", "source_ref": "http://nlftp.mlit.go.jp/ksj/jpgis/datalist/KsjTmplt-N02-v1_1.html", "wikidata": "Q7701514", "wikipedia": "ja:\u5bfa\u6cca\u99c5"}}, {"type": "node", "id": 264414676, "lat": 37.601876, "lon": 138.792562, "tags": {"KSJ2:LIN": "\u8d8a\u5f8c\u7dda", "KSJ2:STN": "\u6850\u539f", "name": "\u6850\u539f", "name:en": "Kirihara", "name:ja": "\u6850\u539f", "name:ko": "\uae30\ub9ac\ud558\ub77c", "note": "National-Land Numerical Information (Railway) 2007, MLIT Japan", "note:ja": "\u56fd\u571f\u6570\u5024\u60c5\u5831\uff08\u9244\u9053\u30c7\u30fc\u30bf\uff09\u5e73\u621019\u5e74\u3000\u56fd\u571f\u4ea4\u901a\u7701", "railway": "station", "source": "KSJ2", "source_ref": "http://nlftp.mlit.go.jp/ksj/jpgis/datalist/KsjTmplt-N02-v1_1.html", "wikidata": "Q6415154", "wikipedia": "ja:\u6850\u539f\u99c5 (\u65b0\u6f5f\u770c)"}}, {"type": "node", "id": 264414738, "lat": 37.429733, "lon": 138.619387, "tags": {"KSJ2:LIN": "\u8d8a\u5f8c\u7dda", "KSJ2:STN": "\u5208\u7fbd", "name": "\u5208\u7fbd", "name:en": "Kariwa", "name:ja": "\u5208\u7fbd", "name:ko": "\uac00\ub9ac\uc640", "note": "National-Land Numerical Information (Railway) 2007, MLIT Japan", "note:ja": "\u56fd\u571f\u6570\u5024\u60c5\u5831\uff08\u9244\u9053\u30c7\u30fc\u30bf\uff09\u5e73\u621019\u5e74\u3000\u56fd\u571f\u4ea4\u901a\u7701", "railway": "station", "source": "KSJ2", "source_ref": "http://nlftp.mlit.go.jp/ksj/jpgis/datalist/KsjTmplt-N02-v1_1.html", "wikidata": "Q6371115", "wikipedia": "ja:\u5208\u7fbd\u99c5"}}, {"type": "node", "id": 264414743, "lat": 37.531531, "lon": 138.716067, "tags": {"KSJ2:LIN": "\u8d8a\u5f8c\u7dda", "KSJ2:STN": "\u51fa\u96f2\u5d0e", "name": "\u51fa\u96f2\u5d0e", "name:en": "Izumozaki", "name:ja": "\u51fa\u96f2\u5d0e", "name:ko": "\uc774\uc988\ubaa8\uc790\ud0a4", "note": "National-Land Numerical Information (Railway) 2007, MLIT Japan", "note:ja": "\u56fd\u571f\u6570\u5024\u60c5\u5831\uff08\u9244\u9053\u30c7\u30fc\u30bf\uff09\u5e73\u621019\u5e74\u3000\u56fd\u571f\u4ea4\u901a\u7701", "railway": "station", "source": "KSJ2", "source_ref": "http://nlftp.mlit.go.jp/ksj/jpgis/datalist/KsjTmplt-N02-v1_1.html", "wikidata": "Q6102426", "wikipedia": "ja:\u51fa\u96f2\u5d0e\u99c5"}}, {"type": "node", "id": 264414832, "lat": 37.392797, "lon": 138.593724, "tags": {"KSJ2:LIN": "\u8d8a\u5f8c\u7dda", "KSJ2:STN": "\u897f\u4e2d\u901a", "name": "\u897f\u4e2d\u901a", "name:en": "Nishi-Nakadori", "name:ja": "\u897f\u4e2d\u901a", "name:ko": "\ub2c8\uc2dc\ub098\uce74\ub3c4\ub9ac", "note": "National-Land Numerical Information (Railway) 2007, MLIT Japan", "note:ja": "\u56fd\u571f\u6570\u5024\u60c5\u5831\uff08\u9244\u9053\u30c7\u30fc\u30bf\uff09\u5e73\u621019\u5e74\u3000\u56fd\u571f\u4ea4\u901a\u7701", "railway": "station", "source": "KSJ2", "source_ref": "http://nlftp.mlit.go.jp/ksj/jpgis/datalist/KsjTmplt-N02-v1_1.html", "wikidata": "Q7040382", "wikipedia": "ja:\u897f\u4e2d\u901a\u99c5"}}, {"type": "node", "id": 264414839, "lat": 37.515791, "lon": 138.704363, "tags": {"KSJ2:LIN": "\u8d8a\u5f8c\u7dda", "KSJ2:STN": "\u5c0f\u6728\u30ce\u57ce", "name": "\u5c0f\u6728\u30ce\u57ce", "name:en": "Oginojo", "name:ja": "\u5c0f\u6728\u30ce\u57ce", "name:ko": "\uc624\uae30\ub178\uc870", "note": "National-Land Numerical Information (Railway) 2007, MLIT Japan", "note:ja": "\u56fd\u571f\u6570\u5024\u60c5\u5831\uff08\u9244\u9053\u30c7\u30fc\u30bf\uff09\u5e73\u621019\u5e74\u3000\u56fd\u571f\u4ea4\u901a\u7701", "railway": "station", "source": "KSJ2", "source_ref": "http://nlftp.mlit.go.jp/ksj/jpgis/datalist/KsjTmplt-N02-v1_1.html", "wikidata": "Q7080070", "wikipedia": "ja:\u5c0f\u6728\u30ce\u57ce\u99c5"}}, {"type": "node", "id": 264414895, "lat": 37.3735629, "lon": 138.5656453, "tags": {"KSJ2:LIN": "\u8d8a\u5f8c\u7dda", "KSJ2:STN": "\u6771\u67cf\u5d0e", "name": "\u6771\u67cf\u5d0e", "name:en": "Higashi-Kashiwazaki", "name:ja": "\u6771\u67cf\u5d0e", "name:ko": "\ud788\uac00\uc2dc\uce74\uc2dc\uc640\uc790\ud0a4", "note": "National-Land Numerical Information (Railway) 2007, MLIT Japan", "note:ja": "\u56fd\u571f\u6570\u5024\u60c5\u5831\uff08\u9244\u9053\u30c7\u30fc\u30bf\uff09\u5e73\u621019\u5e74\u3000\u56fd\u571f\u4ea4\u901a\u7701", "railway": "station", "source": "KSJ2", "source_ref": "http://nlftp.mlit.go.jp/ksj/jpgis/datalist/KsjTmplt-N02-v1_1.html", "wikidata": "Q5753600", "wikipedia": "ja:\u6771\u67cf\u5d0e\u99c5"}}, {"type": "node", "id": 264414901, "lat": 37.448673, "lon": 138.642702, "tags": {"KSJ2:LIN": "\u8d8a\u5f8c\u7dda", "KSJ2:STN": "\u897f\u5c71", "name": "\u897f\u5c71", "name:en": "Nishiyama", "name:ja": "\u897f\u5c71", "name:ja-Hira": "\u306b\u3057\u3084\u307e", "name:ko": "\ub2c8\uc2dc\uc57c\ub9c8", "note": "National-Land Numerical Information (Railway) 2007, MLIT Japan", "note:ja": "\u56fd\u571f\u6570\u5024\u60c5\u5831\uff08\u9244\u9053\u30c7\u30fc\u30bf\uff09\u5e73\u621019\u5e74\u3000\u56fd\u571f\u4ea4\u901a\u7701", "railway": "station", "source": "KSJ2", "source_ref": "http://nlftp.mlit.go.jp/ksj/jpgis/datalist/KsjTmplt-N02-v1_1.html", "wikidata": "Q11627916", "wikipedia": "ja:\u897f\u5c71\u99c5 (\u65b0\u6f5f\u770c)"}}, {"type": "node", "id": 264414991, "lat": 37.459509, "lon": 138.664558, "tags": {"KSJ2:LIN": "\u8d8a\u5f8c\u7dda", "KSJ2:STN": "\u793c\u62dd", "name": "\u793c\u62dd", "name:en": "Raihai", "name:ja": "\u793c\u62dd", "name:ko": "\ub77c\uc774\ud558\uc774", "note": "National-Land Numerical Information (Railway) 2007, MLIT Japan", "note:ja": "\u56fd\u571f\u6570\u5024\u60c5\u5831\uff08\u9244\u9053\u30c7\u30fc\u30bf\uff09\u5e73\u621019\u5e74\u3000\u56fd\u571f\u4ea4\u901a\u7701", "railway": "station", "source": "KSJ2", "source_ref": "http://nlftp.mlit.go.jp/ksj/jpgis/datalist/KsjTmplt-N02-v1_1.html", "wikidata": "Q7283837", "wikipedia": "ja:\u793c\u62dd\u99c5"}}, {"type": "node", "id": 264415142, "lat": 37.484959, "lon": 138.688463, "tags": {"KSJ2:LIN": "\u8d8a\u5f8c\u7dda", "KSJ2:STN": "\u77f3\u5730", "name": "\u77f3\u5730", "name:en": "Ishiji", "name:ja": "\u77f3\u5730", "name:ja-Hira": "\u3044\u3057\u3058", "name:ko": "\uc774\uc2dc\uc9c0", "note": "National-Land Numerical Information (Railway) 2007, MLIT Japan", "note:ja": "\u56fd\u571f\u6570\u5024\u60c5\u5831\uff08\u9244\u9053\u30c7\u30fc\u30bf\uff09\u5e73\u621019\u5e74\u3000\u56fd\u571f\u4ea4\u901a\u7701", "public_transport": "station", "railway": "station", "source": "KSJ2", "source_ref": "http://nlftp.mlit.go.jp/ksj/jpgis/datalist/KsjTmplt-N02-v1_1.html", "wikidata": "Q11585339", "wikipedia": "ja:\u77f3\u5730\u99c5"}}, {"type": "node", "id": 264415268, "lat": 37.40541, "lon": 138.602076, "tags": {"KSJ2:LIN": "\u8d8a\u5f8c\u7dda", "KSJ2:STN": "\u8352\u6d5c", "name": "\u8352\u6d5c", "name:en": "Arahama", "name:ja": "\u8352\u6d5c", "name:ko": "\uc544\ub77c\ud558\ub9c8", "note": "National-Land Numerical Information (Railway) 2007, MLIT Japan", "note:ja": "\u56fd\u571f\u6570\u5024\u60c5\u5831\uff08\u9244\u9053\u30c7\u30fc\u30bf\uff09\u5e73\u621019\u5e74\u3000\u56fd\u571f\u4ea4\u901a\u7701", "railway": "station", "source": "KSJ2", "source_ref": "http://nlftp.mlit.go.jp/ksj/jpgis/datalist/KsjTmplt-N02-v1_1.html", "wikidata": "Q4783750", "wikipedia": "ja:\u8352\u6d5c\u99c5"}}, {"type": "node", "id": 264801765, "lat": 37.3551519, "lon": 138.7294996, "tags": {"name": "\u585a\u5c71", "name:de": "Tsukayama", "name:en": "Tsukayama", "name:ja": "\u585a\u5c71", "name:ja_rm": "Tsukayama", "name:ko": "\uc4f0\uce74\uc57c\ub9c8", "name:ru": "\u0426\u0443\u043a\u0430\u044f\u043c\u0430", "note": "National-Land Numerical Information (Railway) 2007, MLIT Japan", "railway": "station", "source": "KSJ2", "wikidata": "Q4778780", "wikipedia": "ja:\u585a\u5c71\u99c5"}}, {"type": "node", "id": 264802123, "lat": 37.4017969, "lon": 138.8240703, "tags": {"name": "\u524d\u5ddd", "name:en": "Maekawa", "name:ja": "\u524d\u5ddd", "name:ja_rm": "Maekawa", "name:ko": "\ub9c8\uc5d0\uce74\uc640", "name:ru": "\u041c\u0430\u044d\u043a\u0430\u0432\u0430", "note": "National-Land Numerical Information (Railway) 2007, MLIT Japan", "railway": "station", "source": "KSJ2", "wikidata": "Q11397211", "wikipedia": "ja:\u524d\u5ddd\u99c5 (\u65b0\u6f5f\u770c)"}}, {"type": "node", "id": 264802308, "lat": 37.3971375, "lon": 138.7835364, "tags": {"name": "\u6765\u8fce\u5bfa", "name:en": "Raikoji", "name:ja": "\u6765\u8fce\u5bfa", "name:ja_rm": "Raikoji", "name:ko": "\ub77c\uc774\ucf54\uc9c0", "name:ru": "\u0420\u0430\u0439\u043a\u043e\u0434\u0437\u0438", "note": "National-Land Numerical Information (Railway) 2007, MLIT Japan", "railway": "station", "source": "KSJ2", "wikidata": "Q7283860", "wikipedia": "ja:\u6765\u8fce\u5bfa\u99c5"}}, {"type": "node", "id": 264802401, "lat": 37.3867808, "lon": 138.7564877, "tags": {"name": "\u8d8a\u5f8c\u5ca9\u585a", "name:en": "Echigo-Iwatsuka", "name:ja": "\u8d8a\u5f8c\u5ca9\u585a", "name:ja_rm": "Echigo-Iwatsuka", "name:ko": "\uc5d0\uce58\uace0\uc774\uc640\uc4f0\uce74", "name:ru": "\u042d\u0442\u0438\u0433\u043e-\u0418\u0432\u0430\u0446\u0443\u043a\u0430", "note": "National-Land Numerical Information (Railway) 2007, MLIT Japan", "railway": "station", "source": "KSJ2", "wikidata": "Q5332412", "wikipedia": "ja:\u8d8a\u5f8c\u5ca9\u585a\u99c5"}}, {"type": "node", "id": 264802840, "lat": 37.3558698, "lon": 138.5179947, "tags": {"name": "\u9be8\u6ce2", "name:en": "Kujiranami", "name:ja": "\u9be8\u6ce2", "name:ja_rm": "Kujiranami", "name:ko": "\uad6c\uc9c0\ub77c\ub098\ubbf8", "name:ru": "\u041a\u0443\u0434\u0437\u0438\u0440\u0430\u043d\u0430\u043c\u0438", "note": "National-Land Numerical Information (Railway) 2007, MLIT Japan", "public_transport": "station", "railway": "station", "source": "KSJ2", "wikidata": "Q4348283", "wikipedia": "ja:\u9be8\u6ce2\u99c5"}}, {"type": "node", "id": 264802969, "lat": 37.3462398, "lon": 138.486395, "tags": {"name": "\u9752\u6d77\u5ddd", "name:en": "Omigawa", "name:ja": "\u9752\u6d77\u5ddd", "name:ja-Hira": "\u304a\u3046\u307f\u304c\u308f", "name:ja_rm": "\u014cmigawa", "name:ko": "\uc624\ubbf8\uac00\uc640", "name:ru": "\u041e\u043c\u0438\u0433\u0430\u0432\u0430", "note": "National-Land Numerical Information (Railway) 2007, MLIT Japan", "public_transport": "station", "railway": "station", "source": "KSJ2", "wikidata": "Q4347815", "wikipedia": "ja:\u9752\u6d77\u5ddd\u99c5"}}, {"type": "node", "id": 264803365, "lat": 37.3571537, "lon": 138.6608947, "tags": {"name": "\u8d8a\u5f8c\u5e83\u7530", "name:en": "Echigo-Hirota", "name:ja": "\u8d8a\u5f8c\u5e83\u7530", "name:ja_rm": "Echigo-Hirota", "name:ko": "\uc5d0\uce58\uace0\ud788\ub85c\ud0c0", "name:ru": "\u042d\u0442\u0438\u0433\u043e-\u0425\u0438\u0440\u043e\u0442\u0430", "note": "National-Land Numerical Information (Railway) 2007, MLIT Japan", "railway": "station", "source": "KSJ2", "wikidata": "Q4702824", "wikipedia": "ja:\u8d8a\u5f8c\u5e83\u7530\u99c5"}}, {"type": "node", "id": 264803402, "lat": 37.3382879, "lon": 138.6367985, "tags": {"name": "\u5317\u6761", "name:en": "Kitajo", "name:ja": "\u5317\u6761", "name:ja_rm": "Kitajo", "name:ko": "\uae30\ud0c0\uc870", "name:ru": "\u041a\u0438\u0442\u0430\u0434\u0437\u0451", "note": "National-Land Numerical Information (Railway) 2007, MLIT Japan", "railway": "station", "source": "KSJ2", "wikidata": "Q4347765", "wikipedia": "ja:\u5317\u6761\u99c5"}}, {"type": "node", "id": 264803555, "lat": 37.3358877, "lon": 138.4675779, "tags": {"name": "\u7b20\u5cf6", "name:en": "Kasashima", "name:ja": "\u7b20\u5cf6", "name:ja_rm": "Kasashima", "name:ko": "\uac00\uc0ac\uc2dc\ub9c8", "name:ru": "\u041a\u0430\u0441\u0430\u0441\u0438\u043c\u0430", "note": "National-Land Numerical Information (Railway) 2007, MLIT Japan", "public_transport": "station", "railway": "station", "source": "KSJ2", "wikidata": "Q5353385", "wikipedia": "ja:\u7b20\u5cf6\u99c5"}}, {"type": "node", "id": 264803559, "lat": 37.3633912, "lon": 138.5558473, "tags": {"KSJ2:LIN": "\u8d8a\u5f8c\u7dda", "KSJ2:STN": "\u67cf\u5d0e", "name": "\u67cf\u5d0e", "name:en": "Kashiwazaki", "name:ja": "\u67cf\u5d0e", "name:ja_rm": "Kashiwazaki", "name:ko": "\uac00\uc2dc\uc640\uc790\ud0a4", "name:ru": "\u041a\u0430\u0441\u0438\u0432\u0430\u0434\u0437\u0430\u043a\u0438", "note": "National-Land Numerical Information (Railway) 2007, MLIT Japan", "note:ja": "\u56fd\u571f\u6570\u5024\u60c5\u5831\uff08\u9244\u9053\u30c7\u30fc\u30bf\uff09\u5e73\u621019\u5e74\u3000\u56fd\u571f\u4ea4\u901a\u7701", "railway": "station", "source": "KSJ2", "source_ref": "http://nlftp.mlit.go.jp/ksj/jpgis/datalist/KsjTmplt-N02-v1_1.html", "wikidata": "Q5353481", "wikipedia": "ja:\u67cf\u5d0e\u99c5"}}, {"type": "node", "id": 264803569, "lat": 37.2343536, "lon": 138.3404221, "tags": {"name": "\u6f5f\u753a", "name:en": "Katamachi", "name:ja": "\u6f5f\u753a", "name:ja_rm": "Katamachi", "name:ko": "\uac00\ud0c0\ub9c8\uce58", "name:ru": "\u041a\u0430\u0442\u0430\u043c\u0430\u0442\u0438", "note": "National-Land Numerical Information (Railway) 2007, MLIT Japan", "public_transport": "station", "railway": "station", "source": "KSJ2", "wikidata": "Q5367552", "wikipedia": "ja:\u6f5f\u753a\u99c5"}}, {"type": "node", "id": 264803756, "lat": 37.341032, "lon": 138.6124834, "tags": {"name": "\u5b89\u7530", "name:en": "Yasuda", "name:ja": "\u5b89\u7530", "name:ja_rm": "Yasuda", "name:ko": "\uc57c\uc2a4\ub2e4", "name:ru": "\u042f\u0441\u0443\u0434\u0430", "note": "National-Land Numerical Information (Railway) 2007, MLIT Japan", "railway": "station", "source": "KSJ2", "wikidata": "Q5353546", "wikipedia": "ja:\u5b89\u7530\u99c5 (\u65b0\u6f5f\u770c)"}}, {"type": "node", "id": 264803872, "lat": 37.3169356, "lon": 138.4315432, "tags": {"name": "\u7c73\u5c71", "name:en": "Yoneyama", "name:ja": "\u7c73\u5c71", "name:ja_rm": "Yoneyama", "name:ko": "\uc694\ub124\uc57c\ub9c8", "name:ru": "\u0419\u043e\u043d\u0435\u044f\u043c\u0430", "note": "National-Land Numerical Information (Railway) 2007, MLIT Japan", "public_transport": "station", "railway": "station", "source": "KSJ2", "wikidata": "Q4348293", "wikipedia": "ja:\u7c73\u5c71\u99c5"}}, {"type": "node", "id": 264804401, "lat": 37.2779587, "lon": 138.3862188, "tags": {"name": "\u67ff\u5d0e", "name:en": "Kakizaki", "name:ja": "\u67ff\u5d0e", "name:ja_rm": "Kakizaki", "name:ko": "\uac00\ud0a4\uc790\ud0a4", "name:ru": "\u041a\u0430\u043a\u0438\u0434\u0437\u0430\u043a\u0438", "note": "National-Land Numerical Information (Railway) 2007, MLIT Japan", "public_transport": "station", "railway": "station", "source": "KSJ2", "wikidata": "Q3701392", "wikipedia": "ja:\u67ff\u5d0e\u99c5"}}, {"type": "node", "id": 264805947, "lat": 37.365977, "lon": 138.684609, "tags": {"name": "\u9577\u9ce5", "name:en": "Nagatori", "name:ja": "\u9577\u9ce5", "name:ja_rm": "Nagatori", "name:ko": "\ub098\uac00\ud1a0\ub9ac", "name:ru": "\u041d\u0430\u0433\u0430\u0442\u043e\u0440\u0438", "note": "National-Land Numerical Information (Railway) 2007, MLIT Japan", "railway": "station", "source": "KSJ2", "wikidata": "Q4778749", "wikipedia": "ja:\u9577\u9ce5\u99c5"}}, {"type": "node", "id": 264813349, "lat": 37.3691078, "lon": 138.8350129, "tags": {"KSJ2:LIN": "\u4e0a\u8d8a\u7dda", "KSJ2:STN": "\u8d8a\u5f8c\u6edd\u8c37", "name": "\u8d8a\u5f8c\u6edd\u8c37", "name:en": "Echigo-Takiya", "name:ja": "\u8d8a\u5f8c\u6edd\u8c37", "name:ja_rm": "Echigo-Takiya", "name:ko": "\uc5d0\uce58\uace0\ud0c0\ud0a4\uc57c", "note": "National-Land Numerical Information (Railway) 2007, MLIT Japan", "note:ja": "\u56fd\u571f\u6570\u5024\u60c5\u5831\uff08\u9244\u9053\u30c7\u30fc\u30bf\uff09\u5e73\u621019\u5e74\u3000\u56fd\u571f\u4ea4\u901a\u7701", "public_transport": "station", "railway": "station", "source": "KSJ2", "source_ref": "http://nlftp.mlit.go.jp/ksj/jpgis/datalist/KsjTmplt-N02-v1_1.html", "wikidata": "Q3698858", "wikipedia": "ja:\u8d8a\u5f8c\u6edd\u8c37\u99c5"}}, {"type": "node", "id": 264813490, "lat": 37.3098255, "lon": 138.8133463, "tags": {"KSJ2:LIN": "\u4e0a\u8d8a\u7dda", "KSJ2:STN": "\u5c0f\u5343\u8c37", "name": "\u5c0f\u5343\u8c37", "name:en": "Ojiya", "name:ja": "\u5c0f\u5343\u8c37", "name:ja_kana": "\u304a\u3062\u3084", "name:ja_rm": "Ojiya", "name:ko": "\uc624\uc9c0\uc57c", "note": "National-Land Numerical Information (Railway) 2007, MLIT Japan", "note:ja": "\u56fd\u571f\u6570\u5024\u60c5\u5831\uff08\u9244\u9053\u30c7\u30fc\u30bf\uff09\u5e73\u621019\u5e74\u3000\u56fd\u571f\u4ea4\u901a\u7701", "public_transport": "station", "railway": "station", "source": "KSJ2", "source_ref": "http://nlftp.mlit.go.jp/ksj/jpgis/datalist/KsjTmplt-N02-v1_1.html", "wikidata": "Q3698840", "wikipedia": "ja:\u5c0f\u5343\u8c37\u99c5"}}, {"type": "node", "id": 1445190627, "lat": 37.2406621, "lon": 138.7968932, "tags": {"KSJ2:LIN": "\u98ef\u5c71\u7dda", "KSJ2:STN": "\u8d8a\u5f8c\u5ca9\u6ca2", "name": "\u8d8a\u5f8c\u5ca9\u6ca2", "name:en": "Echigo-Iwasawa", "name:ja": "\u8d8a\u5f8c\u5ca9\u6ca2", "name:ko": "\uc5d0\uce58\uace0\uc774\uc640\uc0ac\uc640", "network": "JR\u98ef\u5c71\u7dda", "note": "National-Land Numerical Information (Railway) 2007, MLIT Japan", "note:ja": "\u56fd\u571f\u6570\u5024\u60c5\u5831\uff08\u9244\u9053\u30c7\u30fc\u30bf\uff09\u5e73\u621019\u5e74\u3000\u56fd\u571f\u4ea4\u901a\u7701", "operator": "\u6771\u65e5\u672c\u65c5\u5ba2\u9244\u9053", "railway": "station", "source": "KSJ2", "source_ref": "http://nlftp.mlit.go.jp/ksj/jpgis/datalist/KsjTmplt-N02-v1_1.html", "wikidata": "Q5332410", "wikipedia": "ja:\u8d8a\u5f8c\u5ca9\u6ca2\u99c5"}}, {"type": "node", "id": 1445190889, "lat": 37.2500109, "lon": 138.8521443, "tags": {"KSJ2:LIN": "\u98ef\u5c71\u7dda", "KSJ2:STN": "\u5185\u30f6\u5dfb", "name": "\u5185\u30f6\u5dfb", "name:en": "Uchigamaki", "name:ja": "\u5185\u30f6\u5dfb", "name:ko": "\uc6b0\uce58\uac00\ub9c8\ud0a4", "note": "National-Land Numerical Information (Railway) 2007, MLIT Japan", "note:ja": "\u56fd\u571f\u6570\u5024\u60c5\u5831\uff08\u9244\u9053\u30c7\u30fc\u30bf\uff09\u5e73\u621019\u5e74\u3000\u56fd\u571f\u4ea4\u901a\u7701", "railway": "station", "source": "KSJ2", "source_ref": "http://nlftp.mlit.go.jp/ksj/jpgis/datalist/KsjTmplt-N02-v1_1.html", "wikidata": "Q7876715", "wikipedia": "ja:\u5185\u30f6\u5dfb\u99c5"}}, {"type": "node", "id": 3548915149, "lat": 37.2729129, "lon": 138.8619611, "tags": {"KSJ2:LIN": "\u4e0a\u8d8a\u7dda;\u98ef\u5c71\u7dda", "KSJ2:STN": "\u8d8a\u5f8c\u5ddd\u53e3", "name": "\u8d8a\u5f8c\u5ddd\u53e3", "name:en": "Echigo-Kawaguchi", "name:ja": "\u8d8a\u5f8c\u5ddd\u53e3", "name:ja_rm": "Echigo-Kawaguchi", "name:ko": "\uc5d0\uce58\uace0\uce74\uc640\uad6c\uce58", "note": "National-Land Numerical Information (Railway) 2007, MLIT Japan", "note:ja": "\u56fd\u571f\u6570\u5024\u60c5\u5831\uff08\u9244\u9053\u30c7\u30fc\u30bf\uff09\u5e73\u621019\u5e74\u3000\u56fd\u571f\u4ea4\u901a\u7701", "public_transport": "station", "railway": "station", "source": "KSJ2", "source_ref": "http://nlftp.mlit.go.jp/ksj/jpgis/datalist/KsjTmplt-N02-v1_1.html", "wikidata": "Q3698863", "wikipedia": "ja:\u8d8a\u5f8c\u5ddd\u53e3\u99c5"}}, {"type": "node", "id": 4042543915, "lat": 37.4693617, "lon": 138.8626894, "tags": {"KSJ2:LIN": "\u4fe1\u8d8a\u7dda", "KSJ2:STN": "\u5317\u9577\u5ca1", "name": "\u5317\u9577\u5ca1", "name:en": "Kita-Nagaoka", "name:ja": "\u5317\u9577\u5ca1", "name:ja_rm": "Kita-Nagaoka", "name:ko": "\uae30\ud0c0\ub098\uac00\uc624\uce74", "name:ru": "\u041a\u0438\u0442\u0430-\u041d\u0430\u0433\u0430\u043e\u043a\u0430", "note": "National-Land Numerical Information (Railway) 2007, MLIT Japan", "note:ja": "\u56fd\u571f\u6570\u5024\u60c5\u5831\uff08\u9244\u9053\u30c7\u30fc\u30bf\uff09\u5e73\u621019\u5e74\u3000\u56fd\u571f\u4ea4\u901a\u7701", "railway": "station", "source": "KSJ2", "source_ref": "http://nlftp.mlit.go.jp/ksj/jpgis/datalist/KsjTmplt-N02-v1_1.html", "wikidata": "Q6417573", "wikipedia": "ja:\u5317\u9577\u5ca1\u99c5"}}, {"type": "node", "id": 5574111714, "lat": 37.3570412, "lon": 138.5866512, "tags": {"name": "\u8328\u76ee", "name:en": "Ibarame", "name:ja": "\u8328\u76ee", "name:ja_rm": "Ibarame", "name:ko": "\uc774\ubc14\ub77c\uba54", "note": "National-Land Numerical Information (Railway) 2007, MLIT Japan", "railway": "station", "source": "KSJ2", "wikidata": "Q4347750", "wikipedia": "ja:\u8328\u76ee\u99c5"}}, {"type": "node", "id": 5574488950, "lat": 37.4220724, "lon": 138.8400378, "tags": {"name": "\u5bae\u5185", "name:en": "Miyauchi", "name:ja": "\u5bae\u5185", "name:ja_rm": "Miyauchi", "name:ko": "\ubbf8\uc57c\uc6b0\uce58", "note": "National-Land Numerical Information (Railway) 2007, MLIT Japan", "public_transport": "station", "railway": "station", "source": "KSJ2", "wikidata": "Q6884429", "wikipedia": "ja:\u5bae\u5185\u99c5 (\u65b0\u6f5f\u770c)"}}, {"type": "node", "id": 5574679639, "lat": 37.4478778, "lon": 138.8541667, "tags": {"name": "\u9577\u5ca1", "name:de": "Nagaoka", "name:en": "Nagaoka", "name:ja": "\u9577\u5ca1", "name:ja_rm": "Nagaoka", "railway": "station", "wikidata": "Q1138252", "wikipedia": "ja:\u9577\u5ca1\u99c5"}}, {"type": "node", "id": 7255080073, "lat": 37.2522757, "lon": 138.3615978, "tags": {"name": "\u4e0a\u4e0b\u6d5c", "name:en": "Jogehama", "name:ja": "\u4e0a\u4e0b\u6d5c", "name:ja_rm": "J\u014dgehama", "name:ko": "\uc870\uac8c\ud558\ub9c8", "name:ru": "\u0414\u0437\u0451\u0433\u0435\u0445\u0430\u043c\u0430", "note": "National-Land Numerical Information (Railway) 2007, MLIT Japan", "railway": "station", "source": "KSJ2", "wikidata": "Q6322194", "wikipedia": "ja:\u4e0a\u4e0b\u6d5c\u99c5"}}, {"type": "node", "id": 11192584095, "lat": 37.3571022, "lon": 138.5868782}, {"type": "node", "id": 11192584096, "lat": 37.357046, "lon": 138.5868447}, {"type": "node", "id": 11192584097, "lat": 37.3570918, "lon": 138.5867149}, {"type": "node", "id": 11192584098, "lat": 37.3571504, "lon": 138.5867495}, {"type": "way", "id": 1207951054, "nodes": [11192584098, 11192584097, 11192584096, 11192584095, 11192584098], "tags": {"amenity": "toilets", "public_transport": "station", "railway": "station"}}]}