{"version": 0.6, "generator": "Overpass API 0.7.62.4 2390de5a", "osm3s": {"timestamp_osm_base": "2024-12-30T15:00:11Z", "copyright": "The data included in this document is from www.openstreetmap.org. The data is made available under ODbL."}, "elements": [{"type": "node", "id": 264455147, "lat": 43.155162, "lon": 141.3985947, "tags": {"KSJ2:LIN": "\u672d\u6cbc\u7dda", "KSJ2:STN": "\u3042\u3044\u306e\u91cc\u6559\u80b2\u5927", "name": "\u3042\u3044\u306e\u91cc\u6559\u80b2\u5927", "name:en": "Ainosato-Ky\u014dikudai", "name:ja": "\u3042\u3044\u306e\u91cc\u6559\u80b2\u5927", "name:ko": "\uc544\uc774\ub178\uc0ac\ud1a0\ucfc4\uc774\ucfe0\ub2e4\uc774", "note": "National-Land Numerical Information (Railway) 2007, MLIT Japan", "note:ja": "\u56fd\u571f\u6570\u5024\u60c5\u5831\uff08\u9244\u9053\u30c7\u30fc\u30bf\uff09\u5e73\u621019\u5e74\u3000\u56fd\u571f\u4ea4\u901a\u7701", "public_transport": "station", "railway": "station", "source": "KSJ2", "source_ref": "http://nlftp.mlit.go.jp/ksj/jpgis/datalist/KsjTmplt-N02-v1_1.html", "wheelchair": "yes", "wikidata": "Q2490286", "wikipedia": "ja:\u3042\u3044\u306e\u91cc\u6559\u80b2\u5927\u99c5"}}, {"type": "node", "id": 264455204, "lat": 43.2307938, "lon": 141.5497653, "tags": {"KSJ2:LIN": "\u672d\u6cbc\u7dda", "KSJ2:STN": "\u5317\u6d77\u9053\u533b\u7642\u5927\u5b66", "alt_name:ko": "\ud64b\uce74\uc774\ub3c4\uc774\ub8cc\ub2e4\uc774\uac00\ucfe0", "name": "\u5317\u6d77\u9053\u533b\u7642\u5927\u5b66", "name:en": "Hokkaid\u014d-Iry\u014ddaigaku", "name:ja": "\u5317\u6d77\u9053\u533b\u7642\u5927\u5b66", "name:ko": "\ud64b\uce74\uc774\ub3c4\uc758\ub8cc\ub300\ud559", "note": "National-Land Numerical Information (Railway) 2007, MLIT Japan", "note:ja": "\u56fd\u571f\u6570\u5024\u60c5\u5831\uff08\u9244\u9053\u30c7\u30fc\u30bf\uff09\u5e73\u621019\u5e74\u3000\u56fd\u571f\u4ea4\u901a\u7701", "public_transport": "station", "railway": "station", "source": "KSJ2", "source_ref": "http://nlftp.mlit.go.jp/ksj/jpgis/datalist/KsjTmplt-N02-v1_1.html", "wikidata": "Q2490271", "wikipedia": "ja:\u5317\u6d77\u9053\u533b\u7642\u5927\u5b66\u99c5"}}, {"type": "node", "id": 264455329, "lat": 43.1611369, "lon": 141.413318, "tags": {"KSJ2:LIN": "\u672d\u6cbc\u7dda", "KSJ2:STN": "\u3042\u3044\u306e\u91cc\u516c\u5712", "alt_name:ko": "\uc544\uc774\ub178\uc0ac\ud1a0\ucf54\uc5d4", "name": "\u3042\u3044\u306e\u91cc\u516c\u5712", "name:en": "Ainosato-K\u014den", "name:ja": "\u3042\u3044\u306e\u91cc\u516c\u5712", "name:ja_rm": "Ainosato K\u014den", "name:ko": "\uc544\uc774\ub178\uc0ac\ud1a0\uacf5\uc6d0", "note": "National-Land Numerical Information (Railway) 2007, MLIT Japan", "note:ja": "\u56fd\u571f\u6570\u5024\u60c5\u5831\uff08\u9244\u9053\u30c7\u30fc\u30bf\uff09\u5e73\u621019\u5e74\u3000\u56fd\u571f\u4ea4\u901a\u7701", "public_transport": "station", "railway": "station", "source": "KSJ2", "source_ref": "http://nlftp.mlit.go.jp/ksj/jpgis/datalist/KsjTmplt-N02-v1_1.html", "wikidata": "Q2490245", "wikipedia": "ja:\u3042\u3044\u306e\u91cc\u516c\u5712\u99c5"}}, {"type": "node", "id": 264455352, "lat": 43.1451371, "lon": 141.3642544, "tags": {"KSJ2:LIN": "\u672d\u6cbc\u7dda", "KSJ2:STN": "\u7be0\u8def", "name": "\u7be0\u8def", "name:en": "Shinoro", "name:ja": "\u7be0\u8def", "name:ko": "\uc2dc\ub178\ub85c", "note": "National-Land Numerical Information (Railway) 2007, MLIT Japan", "note:ja": "\u56fd\u571f\u6570\u5024\u60c5\u5831\uff08\u9244\u9053\u30c7\u30fc\u30bf\uff09\u5e73\u621019\u5e74\u3000\u56fd\u571f\u4ea4\u901a\u7701", "public_transport": "station", "railway": "station", "source": "KSJ2", "source_ref": "http://nlftp.mlit.go.jp/ksj/jpgis/datalist/KsjTmplt-N02-v1_1.html", "wikidata": "Q2491059", "wikipedia": "ja:\u7be0\u8def\u99c5"}}, {"type": "node", "id": 264455516, "lat": 43.1554863, "lon": 141.38122, "tags": {"KSJ2:LIN": "\u672d\u6cbc\u7dda", "KSJ2:STN": "\u62d3\u5317", "name": "\u62d3\u5317", "name:en": "Takuhoku", "name:ja": "\u62d3\u5317", "name:ja_rm": "Takuhoku", "name:ko": "\ub2e4\ucfe0\ud638\ucfe0", "name:zh": "\u62d3\u5317\u8eca\u7ad9", "note": "National-Land Numerical Information (Railway) 2007, MLIT Japan", "note:ja": "\u56fd\u571f\u6570\u5024\u60c5\u5831\uff08\u9244\u9053\u30c7\u30fc\u30bf\uff09\u5e73\u621019\u5e74\u3000\u56fd\u571f\u4ea4\u901a\u7701", "public_transport": "station", "railway": "station", "source": "KSJ2", "source_ref": "http://nlftp.mlit.go.jp/ksj/jpgis/datalist/KsjTmplt-N02-v1_1.html", "wikidata": "Q2490360", "wikipedia": "ja:\u62d3\u5317\u99c5"}}, {"type": "node", "id": 264456369, "lat": 43.0864712, "lon": 141.3190886, "tags": {"KSJ2:LIN": "\u672d\u6cbc\u7dda", "KSJ2:STN": "\u516b\u8ed2", "name": "\u516b\u8ed2", "name:en": "Hachiken", "name:ja": "\u516b\u8ed2", "name:ko": "\ud558\uce58\ucf04", "note": "National-Land Numerical Information (Railway) 2007, MLIT Japan", "note:ja": "\u56fd\u571f\u6570\u5024\u60c5\u5831\uff08\u9244\u9053\u30c7\u30fc\u30bf\uff09\u5e73\u621019\u5e74\u3000\u56fd\u571f\u4ea4\u901a\u7701", "public_transport": "station", "railway": "station", "source": "KSJ2", "source_ref": "http://nlftp.mlit.go.jp/ksj/jpgis/datalist/KsjTmplt-N02-v1_1.html", "wikidata": "Q128199", "wikipedia": "ja:\u516b\u8ed2\u99c5"}}, {"type": "node", "id": 264456657, "lat": 43.2221778, "lon": 141.5142395, "tags": {"KSJ2:LIN": "\u672d\u6cbc\u7dda", "KSJ2:STN": "\u5f53\u5225", "name": "\u5f53\u5225", "name:en": "T\u014dbetsu", "name:ja": "\u5f53\u5225", "name:ko": "\uc774\uc2dc\uce74\ub9ac\ud1a0\ubca0\uc4f0", "note": "National-Land Numerical Information (Railway) 2007, MLIT Japan", "note:ja": "\u56fd\u571f\u6570\u5024\u60c5\u5831\uff08\u9244\u9053\u30c7\u30fc\u30bf\uff09\u5e73\u621019\u5e74\u3000\u56fd\u571f\u4ea4\u901a\u7701", "public_transport": "station", "railway": "station", "source": "KSJ2", "source_ref": "http://nlftp.mlit.go.jp/ksj/jpgis/datalist/KsjTmplt-N02-v1_1.html", "wikidata": "Q2490291", "wikipedia": "ja:\u5f53\u5225\u99c5"}}, {"type": "node", "id": 4086807433, "lat": 43.0450416, "lon": 141.4629181, "tags": {"KSJ2:LIN": "\u51fd\u9928\u7dda", "KSJ2:STN": "\u539a\u5225", "name": "\u539a\u5225", "name:en": "Atsubetsu", "name:ja": "\u539a\u5225", "name:ko": "\uc544\uc4f0\ubca0\uc4f0", "note": "National-Land Numerical Information (Railway) 2007, MLIT Japan", "note:ja": "\u56fd\u571f\u6570\u5024\u60c5\u5831\uff08\u9244\u9053\u30c7\u30fc\u30bf\uff09\u5e73\u621019\u5e74\u3000\u56fd\u571f\u4ea4\u901a\u7701", "railway": "station", "source": "KSJ2", "source_ref": "http://nlftp.mlit.go.jp/ksj/jpgis/datalist/KsjTmplt-N02-v1_1.html", "wikidata": "Q128528", "wikipedia": "ja:\u539a\u5225\u99c5"}}, {"type": "node", "id": 4086807435, "lat": 43.038799, "lon": 141.4725057, "tags": {"KSJ2:LIN": "\u5343\u6b73\u7dda", "KSJ2:STN": "\u65b0\u672d\u5e4c", "layer": "1", "name": "\u65b0\u672d\u5e4c", "name:en": "Shin-Sapporo", "name:ja": "\u65b0\u672d\u5e4c", "name:ko": "\uc2e0\uc0bf\ud3ec\ub85c", "note": "National-Land Numerical Information (Railway) 2007, MLIT Japan", "note:ja": "\u56fd\u571f\u6570\u5024\u60c5\u5831\uff08\u9244\u9053\u30c7\u30fc\u30bf\uff09\u5e73\u621019\u5e74\u3000\u56fd\u571f\u4ea4\u901a\u7701", "operator": "JR\u5317\u6d77\u9053", "public_transport": "station", "railway": "station", "source": "KSJ2", "source_ref": "http://nlftp.mlit.go.jp/ksj/jpgis/datalist/KsjTmplt-N02-v1_1.html", "train": "yes", "wheelchair": "yes", "wikidata": "Q17217417", "wikipedia": "ja:\u65b0\u672d\u5e4c\u99c5"}}, {"type": "node", "id": 4086807436, "lat": 43.0548516, "lon": 141.4138176, "tags": {"KSJ2:LIN": "\u51fd\u9928\u7dda;\u5343\u6b73\u7dda", "KSJ2:STN": "\u767d\u77f3", "name": "\u767d\u77f3", "name:de": "Shiroishi", "name:en": "Shiroishi", "name:ja": "\u767d\u77f3", "name:ko": "\uc2dc\ub85c\uc774\uc2dc", "note": "National-Land Numerical Information (Railway) 2007, MLIT Japan", "note:ja": "\u56fd\u571f\u6570\u5024\u60c5\u5831\uff08\u9244\u9053\u30c7\u30fc\u30bf\uff09\u5e73\u621019\u5e74\u3000\u56fd\u571f\u4ea4\u901a\u7701", "operator": "\u5317\u6d77\u9053\u65c5\u5ba2\u9244\u9053", "operator:en": "Hokkaido Railway Company", "public_transport": "station", "railway": "station", "source": "KSJ2", "source_ref": "http://nlftp.mlit.go.jp/ksj/jpgis/datalist/KsjTmplt-N02-v1_1.html", "wheelchair": "yes", "wikidata": "Q1055580", "wikipedia": "ja:\u767d\u77f3\u99c5 (JR\u5317\u6d77\u9053)"}}, {"type": "node", "id": 4086807437, "lat": 43.0685322, "lon": 141.3737562, "tags": {"KSJ2:LIN": "\u51fd\u9928\u7dda", "KSJ2:STN": "\u82d7\u7a42", "name": "\u82d7\u7a42", "name:en": "Naebo", "name:ja": "\u82d7\u7a42", "name:ko": "\ub098\uc5d0\ubcf4", "note": "National-Land Numerical Information (Railway) 2007, MLIT Japan. This station relocated on November 17, 2018.", "note:ja": "\u56fd\u571f\u6570\u5024\u60c5\u5831\uff08\u9244\u9053\u30c7\u30fc\u30bf\uff09\u5e73\u621019\u5e74\u3000\u56fd\u571f\u4ea4\u901a\u7701", "operator": "\u5317\u6d77\u9053\u65c5\u5ba2\u9244\u9053", "operator:en": "Hokkaido Railway Company", "public_transport": "station", "railway": "station", "source": "KSJ2", "source_ref": "http://nlftp.mlit.go.jp/ksj/jpgis/datalist/KsjTmplt-N02-v1_1.html", "wikidata": "Q1055345", "wikipedia": "ja:\u82d7\u7a42\u99c5"}}, {"type": "node", "id": 4086852685, "lat": 43.0686365, "lon": 141.3509218, "tags": {"KSJ2:LIN": "\u51fd\u9928\u7dda", "KSJ2:STN": "\u672d\u5e4c", "name": "\u672d\u5e4c", "name:de": "Sapporo", "name:en": "Sapporo", "name:ja": "\u672d\u5e4c", "name:ko": "\uc0bf\ud3ec\ub85c \uc5ed", "note": "National-Land Numerical Information (Railway) 2007, MLIT Japan", "note:ja": "\u56fd\u571f\u6570\u5024\u60c5\u5831\uff08\u9244\u9053\u30c7\u30fc\u30bf\uff09\u5e73\u621019\u5e74\u3000\u56fd\u571f\u4ea4\u901a\u7701", "operator": "\u5317\u6d77\u9053\u65c5\u5ba2\u9244\u9053", "operator:en": "Hokkaido Railway Company", "operator:ja": "\u5317\u6d77\u9053\u65c5\u5ba2\u9244\u9053", "public_transport": "station", "railway": "station", "ref": "01", "source": "KSJ2", "source_ref": "http://nlftp.mlit.go.jp/ksj/jpgis/datalist/KsjTmplt-N02-v1_1.html", "train": "yes", "wheelchair": "limited", "wikidata": "Q801404", "wikipedia": "ja:\u672d\u5e4c\u99c5"}}, {"type": "node", "id": 5907903344, "lat": 43.0562939, "lon": 141.4813946, "tags": {"KSJ2:LIN": "\u51fd\u9928\u7dda", "KSJ2:STN": "\u68ee\u6797\u516c\u5712", "alt_name:ko": "\uc2e0\ub9b0\ucf54\uc5d4", "name": "\u68ee\u6797\u516c\u5712", "name:en": "Shinrin-K\u014den", "name:ja": "\u68ee\u6797\u516c\u5712", "name:ko": "\uc0bc\ub9bc\uacf5\uc6d0", "note": "National-Land Numerical Information (Railway) 2007, MLIT Japan", "note:ja": "\u56fd\u571f\u6570\u5024\u60c5\u5831\uff08\u6e56\u6cbc\u30c7\u30fc\u30bf\uff09\u5e73\u621017\u5e74\u3000\u56fd\u571f\u4ea4\u901a\u7701", "public_transport": "station", "railway": "station", "source": "KSJ2", "source_ref": "http://nlftp.mlit.go.jp/ksj/jpgis/datalist/KsjTmplt-N02-v1_1.html", "wikidata": "Q128527", "wikipedia": "ja:\u68ee\u6797\u516c\u5712\u99c5 (\u5317\u6d77\u9053)"}}, {"type": "node", "id": 6060517713, "lat": 43.0707355, "lon": 141.3319857, "tags": {"KSJ2:LIN": "\u51fd\u9928\u7dda;\u672d\u6cbc\u7dda", "KSJ2:STN": "\u6851\u5712", "name": "\u6851\u5712", "name:de": "S\u014den", "name:en": "S\u014den", "name:ja": "\u6851\u5712", "name:ko": "\uc18c\uc5d4", "note": "National-Land Numerical Information (Railway) 2007, MLIT Japan", "note:ja": "\u56fd\u571f\u6570\u5024\u60c5\u5831\uff08\u9244\u9053\u30c7\u30fc\u30bf\uff09\u5e73\u621019\u5e74\u3000\u56fd\u571f\u4ea4\u901a\u7701", "operator": "\u5317\u6d77\u9053\u65c5\u5ba2\u9244\u9053", "operator:en": "Hokkaido Railway Company", "public_transport": "station", "railway": "station", "ref": "S02", "source": "KSJ2", "source_ref": "http://nlftp.mlit.go.jp/ksj/jpgis/datalist/KsjTmplt-N02-v1_1.html", "wikidata": "Q589441", "wikipedia": "ja:\u6851\u5712\u99c5"}}, {"type": "node", "id": 7393535592, "lat": 43.1898065, "lon": 141.4489129, "tags": {"KSJ2:LIN": "\u672d\u6cbc\u7dda", "KSJ2:STN": "\u592a\u7f8e", "name": "\u592a\u7f8e", "name:en": "Futomi", "name:ja": "\u592a\u7f8e", "name:ko": "\uc774\uc2dc\uce74\ub9ac\ud6c4\ud1a0\ubbf8", "note": "National-Land Numerical Information (Railway) 2007, MLIT Japan", "note:ja": "\u56fd\u571f\u6570\u5024\u60c5\u5831\uff08\u9244\u9053\u30c7\u30fc\u30bf\uff09\u5e73\u621019\u5e74\u3000\u56fd\u571f\u4ea4\u901a\u7701", "public_transport": "station", "railway": "station", "source": "KSJ2", "source_ref": "http://nlftp.mlit.go.jp/ksj/jpgis/datalist/KsjTmplt-N02-v1_1.html", "wikidata": "Q2490277", "wikipedia": "ja:\u592a\u7f8e\u99c5"}}, {"type": "node", "id": 7805229110, "lat": 43.0483303, "lon": 141.355121, "tags": {"name": "\u4e2d\u5cf6\u516c\u5712", "name:en": "Nakajima-Koen", "name:ja": "\u4e2d\u5cf6\u516c\u5712", "name:ja-Hira": "\u306a\u304b\u3058\u307e\u3053\u3046\u3048\u3093", "name:ja-Latn": "Nakajima-Koen", "name:ko": "\ub098\uce74\uc9c0\ub9c8\uacf5\uc6d0", "public_transport": "station", "railway": "station", "ref": "N09", "source": "KSJ2", "station": "subway", "subway": "yes", "wheelchair": "yes", "wikidata": "Q4793313", "wikipedia": "ja:\u4e2d\u5cf6\u516c\u5712\u99c5"}}, {"type": "node", "id": 7805229111, "lat": 43.0553612, "lon": 141.3533762, "tags": {"name": "\u3059\u3059\u304d\u306e", "name:en": "Susukino", "name:ja": "\u3059\u3059\u304d\u306e", "name:ja_rm": "Susukino", "name:ko": "\uc2a4\uc2a4\ud0a4\ub178", "name:zh": "\u8584\u91ce\u8eca\u7ad9", "public_transport": "station", "railway": "station", "ref": "N08", "source": "KSJ2", "station": "subway", "subway": "yes", "wheelchair": "yes", "wheelchair:description": "\u30e9\u30d5\u30a3\u30e9\u5165\u308a\u53e3\u306e\u53f3\u5965\u306b\u30a8\u30ec\u30d9\u30fc\u30bf\u30fc\u304c\u3042\u308a\u307e\u3059\u3002", "wikidata": "Q3563658", "wikipedia": "ja:\u3059\u3059\u304d\u306e\u99c5"}}, {"type": "node", "id": 7805229112, "lat": 43.0602455, "lon": 141.3521469, "tags": {"name": "\u5927\u901a", "name:en": "Odori", "name:ja": "\u5927\u901a", "name:ja-Hira": "\u304a\u304a\u3069\u304a\u308a", "name:ja-Latn": "\u014cd\u014dri", "name:ko": "\uc624\ub3c4\ub9ac \uc5ed", "public_transport": "station", "railway": "station", "ref": "N07", "source": "KSJ2", "station": "subway", "subway": "yes", "toilets:wheelchair": "yes", "wheelchair": "yes", "wikidata": "Q2365150", "wikipedia": "ja:\u5927\u901a\u99c5"}}, {"type": "node", "id": 7805229113, "lat": 43.0659497, "lon": 141.3506993, "tags": {"name": "\u3055\u3063\u307d\u308d", "name:en": "Sapporo", "name:ja": "\u3055\u3063\u307d\u308d", "name:ja-Hira": "\u3055\u3063\u307d\u308d", "name:ja-Latn": "Sapporo", "name:ko": "\uc0bf\ud3ec\ub85c", "public_transport": "station", "railway": "station", "ref": "N06", "source": "KSJ2", "station": "subway", "subway": "yes", "wikidata": "Q7421111", "wikipedia": "ja:\u3055\u3063\u307d\u308d\u99c5"}}, {"type": "node", "id": 7805229114, "lat": 43.07477, "lon": 141.348474, "tags": {"name": "\u531712\u6761", "name:en": "Kita juni jo", "name:ja": "\u531712\u6761", "name:ja-Hira": "\u304d\u305f\u3058\u3085\u3046\u306b\u3058\u3087\u3046", "name:ja-Latn": "Kita-J\u016bni-J\u014d", "name:ko": "\uae30\ud0c012\uc870", "public_transport": "station", "railway": "station", "ref": "N05", "source": "KSJ2", "source_ref": "http://nlftp.mlit.go.jp/ksj/jpgis/datalist/KsjTmplt-N02-v1_1.html", "station": "subway", "subway": "yes", "wheelchair": "yes", "wikidata": "Q3563640", "wikipedia": "ja:\u531712\u6761\u99c5"}}, {"type": "node", "id": 7805229115, "lat": 43.0815747, "lon": 141.3467756, "tags": {"name": "\u531718\u6761", "name:en": "Kita juhachi jo", "name:ja": "\u531718\u6761", "name:ja-Hira": "\u304d\u305f\u3058\u3085\u3046\u306f\u3061\u3058\u3087\u3046", "name:ja-Latn": "Kita-J\u016bhachi-J\u014d", "name:ko": "\uae30\ud0c018\uc870", "platforms": "1", "public_transport": "station", "railway": "station", "ref": "N04", "source": "KSJ2", "source_ref": "http://nlftp.mlit.go.jp/ksj/jpgis/datalist/KsjTmplt-N02-v1_1.html", "station": "subway", "subway": "yes", "wheelchair": "yes", "wikidata": "Q3563837", "wikipedia": "ja:\u531718\u6761\u99c5"}}, {"type": "node", "id": 7805229116, "lat": 43.0894913, "lon": 141.3447646, "tags": {"name": "\u531724\u6761", "name:en": "Kita nijuyo jo", "name:ja": "\u531724\u6761", "name:ja-Hira": "\u304d\u305f\u306b\u3058\u3085\u3046\u3088\u3058\u3087\u3046", "name:ja-Latn": "Kita-Nij\u016byo-J\u014d", "name:ko": "\uae30\ud0c024\uc870", "public_transport": "station", "railway": "station", "ref": "N03", "source": "KSJ2", "source_ref": "http://nlftp.mlit.go.jp/ksj/jpgis/datalist/KsjTmplt-N02-v1_1.html", "station": "subway", "subway": "yes", "wikidata": "Q6417579", "wikipedia": "ja:\u531724\u6761\u99c5"}}, {"type": "node", "id": 7805229117, "lat": 43.1002108, "lon": 141.3420504, "tags": {"name": "\u531734\u6761", "name:en": "Kita sanjuyo jo", "name:ja": "\u531734\u6761", "name:ja-Hira": "\u304d\u305f\u3055\u3093\u3058\u3085\u3046\u3088\u3058\u3087\u3046", "name:ja-Latn": "Kita-Sanj\u016byo-J\u014d", "name:ko": "\uae30\ud0c034\uc870", "public_transport": "station", "railway": "station", "ref": "N02", "source": "KSJ2", "source_ref": "http://nlftp.mlit.go.jp/ksj/jpgis/datalist/KsjTmplt-N02-v1_1.html", "station": "subway", "subway": "yes", "wheelchair": "yes", "wikidata": "Q3563872", "wikipedia": "ja:\u531734\u6761\u99c5"}}, {"type": "node", "id": 7805229118, "lat": 43.10835, "lon": 141.3383657, "tags": {"name": "\u9ebb\u751f", "name:en": "Asabu", "name:ja": "\u9ebb\u751f", "name:ja-Hira": "\u3042\u3055\u3076", "name:ja-Latn": "Asabu", "name:ko": "\uc544\uc0ac\ubd80", "public_transport": "station", "railway": "station", "ref": "N01", "source": "KSJ2", "source_ref": "http://nlftp.mlit.go.jp/ksj/jpgis/datalist/KsjTmplt-N02-v1_1.html", "station": "subway", "subway": "yes", "wheelchair": "no", "wikidata": "Q4803200", "wikipedia": "ja:\u9ebb\u751f\u99c5"}}, {"type": "node", "id": 7805229119, "lat": 43.040188, "lon": 141.3559757, "tags": {"name": "\u5e4c\u5e73\u6a4b", "name:en": "Horohira-Bashi", "name:ja": "\u5e4c\u5e73\u6a4b", "name:ja-Hira": "\u307b\u308d\u3072\u3089\u3070\u3057", "name:ja-Latn": "Horohira-Bashi", "name:ko": "\ud638\ub85c\ud788\ub77c\ubc14\uc2dc", "public_transport": "station", "railway": "station", "ref": "N10", "source": "KSJ2", "station": "subway", "subway": "yes", "wheelchair": "yes", "wikidata": "Q3563810", "wikipedia": "ja:\u5e4c\u5e73\u6a4b\u99c5"}}, {"type": "node", "id": 7809372529, "lat": 43.0403678, "lon": 141.4110048, "tags": {"name": "\u5357\u90f77\u4e01\u76ee", "name:en": "Nango nanachome", "name:ja": "\u5357\u90f77\u4e01\u76ee", "name:ja-Hira": "\u306a\u3093\u3054\u3046\u306a\u306a\u3061\u3087\u3046\u3081", "name:ja-Latn": "Nang\u014d-Nana-Ch\u014dme", "name:ko": "\ub09c\uace07\ucd08\uba54", "public_transport": "station", "railway": "station", "ref": "T14", "source": "KSJ2", "source_ref": "http://nlftp.mlit.go.jp/ksj/jpgis/datalist/KsjTmplt-N02-v1_1.html", "station": "subway", "subway": "yes", "wheelchair": "yes", "wikidata": "Q8189775", "wikipedia": "ja:\u5357\u90f77\u4e01\u76ee\u99c5"}}, {"type": "node", "id": 7809372533, "lat": 43.0388569, "lon": 141.4739808, "tags": {"name": "\u65b0\u3055\u3063\u307d\u308d", "name:en": "Shin Sapporo", "name:ja": "\u65b0\u3055\u3063\u307d\u308d", "name:ja-Hira": "\u3057\u3093\u3055\u3063\u307d\u308d", "name:ja-Latn": "Shin-Sapporo", "name:ko": "\uc2e0\uc0bf\ud3ec\ub85c", "public_transport": "station", "railway": "station", "ref": "T19", "source": "KSJ2", "source_ref": "http://nlftp.mlit.go.jp/ksj/jpgis/datalist/KsjTmplt-N02-v1_1.html", "station": "subway", "subway": "yes", "toilets:wheelchair": "yes", "wheelchair": "yes", "wikidata": "Q3563818", "wikipedia": "ja:\u65b0\u3055\u3063\u307d\u308d\u99c5"}}, {"type": "node", "id": 7809387937, "lat": 43.0573613, "lon": 141.3727984, "tags": {"addr:street": "\u5317\u6d77\u9053\u672d\u5e4c\u5e02\u767d\u77f3\u533a\u83ca\u6c342\u67612\u4e01\u76ee", "name": "\u83ca\u6c34", "name:en": "Kikusui", "name:ja-Hira": "\u304d\u304f\u3059\u3044", "name:ja-Latn": "Kikusui", "public_transport": "station", "railway": "station", "ref": "T11", "station": "subway", "subway": "yes", "toilets:wheelchair": "yes", "wheelchair": "yes", "wheelchair:description": "\u8eca\u3044\u3059\u30c8\u30a4\u30ec\u3042\u308a\u3002\u30aa\u30b9\u30c8\u30e1\u30a4\u30c8\u8a2d\u7f6e\u3002", "wikidata": "Q3563846", "wikipedia": "ja:\u83ca\u6c34\u99c5"}}, {"type": "node", "id": 7809387938, "lat": 43.0518604, "lon": 141.3847501, "tags": {"name": "\u6771\u672d\u5e4c", "name:en": "Higashi Sapporo", "name:ja": "\u6771\u672d\u5e4c", "name:ja-Hira": "\u3072\u304c\u3057\u3055\u3063\u307d\u308d", "name:ja-Latn": "Higashi-Sapporo", "name:ko": "\ud788\uac00\uc2dc\uc0bf\ud3ec\ub85c", "public_transport": "station", "railway": "station", "ref": "T12", "source": "KSJ2", "source_ref": "http://nlftp.mlit.go.jp/ksj/jpgis/datalist/KsjTmplt-N02-v1_1.html", "station": "subway", "subway": "yes", "wheelchair": "yes", "wikidata": "Q3563705", "wikipedia": "ja:\u6771\u672d\u5e4c\u99c5"}}, {"type": "node", "id": 7809387939, "lat": 43.0464407, "lon": 141.3956562, "tags": {"name": "\u767d\u77f3", "name:en": "Shiroishi", "name:ja": "\u767d\u77f3", "name:ja-Hira": "\u3057\u308d\u3044\u3057", "name:ja-Latn": "Shiroishi", "name:ko": "\uc2dc\ub85c\uc774\uc2dc", "public_transport": "station", "railway": "station", "ref": "T13", "source": "KSJ2", "source_ref": "http://nlftp.mlit.go.jp/ksj/jpgis/datalist/KsjTmplt-N02-v1_1.html", "station": "subway", "subway": "yes", "wheelchair": "yes", "wikidata": "Q3563585", "wikipedia": "ja:\u767d\u77f3\u99c5 (\u672d\u5e4c\u5e02\u55b6\u5730\u4e0b\u9244)"}}, {"type": "node", "id": 7809484246, "lat": 43.0754562, "lon": 141.3044451, "tags": {"name": "\u7434\u4f3c", "name:en": "Kotoni", "name:ja": "\u7434\u4f3c", "name:ja-Hira": "\u3053\u3068\u306b", "name:ja-Latn": "Kotoni", "name:ko": "\uace0\ud1a0\ub2c8", "public_transport": "station", "railway": "station", "ref": "T03", "source": "KSJ2", "source_ref": "http://nlftp.mlit.go.jp/ksj/jpgis/datalist/KsjTmplt-N02-v1_1.html", "station": "subway", "toilets:wheelchair": "yes", "wheelchair": "yes", "wikidata": "Q3563783", "wikipedia": "ja:\u7434\u4f3c\u99c5 (\u672d\u5e4c\u5e02\u55b6\u5730\u4e0b\u9244)"}}, {"type": "node", "id": 7809484247, "lat": 43.0704837, "lon": 141.3136177, "tags": {"name": "\u4e8c\u5341\u56db\u8ed2", "name:en": "Nijuyonken", "name:ja": "\u4e8c\u5341\u56db\u8ed2", "name:ja-Hira": "\u306b\u3058\u3085\u3046\u3088\u3093\u3051\u3093", "name:ja-Latn": "Nij\u016byon-Ken", "name:ko": "\ub2c8\uc8fc\uc698\ucf04", "public_transport": "station", "railway": "station", "ref": "T04", "source": "KSJ2", "source_ref": "http://nlftp.mlit.go.jp/ksj/jpgis/datalist/KsjTmplt-N02-v1_1.html", "station": "subway", "subway": "yes", "wheelchair": "yes", "wikidata": "Q3563766", "wikipedia": "ja:\u4e8c\u5341\u56db\u8ed2\u99c5"}}, {"type": "node", "id": 7809484248, "lat": 43.0610033, "lon": 141.3146519, "tags": {"name": "\u897f28\u4e01\u76ee", "name:en": "Nishi nijuhatchome", "name:ja": "\u897f28\u4e01\u76ee", "name:ja-Hira": "\u306b\u3057\u306b\u3058\u3085\u3046\u306f\u3063\u3061\u3087\u3046\u3081", "name:ja-Latn": "Nishi-Nij\u016bhatch\u014dme", "name:ko": "\ub2c8\uc2dc28\ucd08\uba54", "public_transport": "station", "railway": "station", "ref": "T05", "source": "KSJ2", "source_ref": "http://nlftp.mlit.go.jp/ksj/jpgis/datalist/KsjTmplt-N02-v1_1.html", "station": "subway", "wheelchair": "yes", "wikidata": "Q3563683", "wikipedia": "ja:\u897f28\u4e01\u76ee\u99c5"}}, {"type": "node", "id": 7809484249, "lat": 43.0557606, "lon": 141.3194466, "tags": {"alt_name:ko": "\ub9c8\ub8e8\uc57c\ub9c8\ucf54\uc5d4", "name": "\u5186\u5c71\u516c\u5712", "name:en": "Maruyama koen", "name:ja": "\u5186\u5c71\u516c\u5712", "name:ja-Hira": "\u307e\u308b\u3084\u307e\u3053\u3046\u3048\u3093", "name:ja-Latn": "Maruyama-K\u014den", "name:ko": "\ub9c8\ub8e8\uc57c\ub9c8\uacf5\uc6d0", "public_transport": "station", "railway": "station", "ref": "T06", "source": "KSJ2", "source_ref": "http://nlftp.mlit.go.jp/ksj/jpgis/datalist/KsjTmplt-N02-v1_1.html", "station": "subway", "toilets:wheelchair": "yes", "wheelchair": "yes", "wikidata": "Q6778049", "wikipedia": "ja:\u5186\u5c71\u516c\u5712\u99c5"}}, {"type": "node", "id": 7809484250, "lat": 43.0572345, "lon": 141.3303519, "tags": {"name": "\u897f18\u4e01\u76ee", "name:en": "Nishi juhatchome", "name:ja": "\u897f18\u4e01\u76ee", "name:ja-Hira": "\u306b\u3057\u3058\u3085\u3046\u306f\u3063\u3061\u3087\u3046\u3081", "name:ja-Latn": "Nishi-J\u016bhatch\u014dme", "name:ko": "\ub2c8\uc2dc18\ucd08\uba54", "public_transport": "station", "railway": "station", "ref": "T07", "source": "KSJ2", "source_ref": "http://nlftp.mlit.go.jp/ksj/jpgis/datalist/KsjTmplt-N02-v1_1.html", "station": "subway", "wheelchair": "yes", "wikidata": "Q6130389", "wikipedia": "ja:\u897f18\u4e01\u76ee\u99c5"}}, {"type": "node", "id": 7809484251, "lat": 43.0587183, "lon": 141.3413893, "tags": {"name": "\u897f11\u4e01\u76ee", "name:en": "Nishi juitchome", "name:ja": "\u897f11\u4e01\u76ee", "name:ja-Hira": "\u306b\u3057\u3058\u3085\u3046\u3044\u3063\u3061\u3087\u3046\u3081", "name:ja-Latn": "Nishi-J\u016bitch\u014dme", "name:ko": "\ub2c8\uc2dc11\ucd08\uba54", "public_transport": "station", "railway": "station", "ref": "T08", "source": "KSJ2", "source_ref": "http://nlftp.mlit.go.jp/ksj/jpgis/datalist/KsjTmplt-N02-v1_1.html", "station": "subway", "subway": "yes", "toilets:wheelchair": "yes", "wheelchair": "yes", "wikidata": "Q3563700", "wikipedia": "ja:\u897f11\u4e01\u76ee\u99c5"}}, {"type": "node", "id": 7809484252, "lat": 43.0601674, "lon": 141.3520002, "tags": {"name": "\u5927\u901a", "name:en": "Odori", "name:ja": "\u5927\u901a", "name:ja-Hira": "\u304a\u304a\u3069\u304a\u308a", "name:ja-Latn": "\u014cd\u014dri", "name:ko": "\uc624\ub3c4\ub9ac \uc5ed", "public_transport": "station", "railway": "station", "ref": "T09", "source": "KSJ2", "station": "subway", "subway": "yes", "toilets:wheelchair": "yes", "wheelchair": "yes", "wikidata": "Q2365150", "wikipedia": "ja:\u5927\u901a\u99c5"}}, {"type": "node", "id": 7809484253, "lat": 43.0615553, "lon": 141.3619632, "tags": {"alt_name:ko": "\ubc84\uc2a4\uc13c\ud130\ub9c8\uc5d0", "name": "\u30d0\u30b9\u30bb\u30f3\u30bf\u30fc\u524d", "name:en": "Bus Center-Mae", "name:ja": "\u30d0\u30b9\u30bb\u30f3\u30bf\u30fc\u524d", "name:ja-Hira": "\u3070\u3059\u305b\u3093\u305f\u30fc\u307e\u3048", "name:ja-Latn": "Basusenta-mae", "name:ko": "\ubc84\uc2a4\uc13c\ud130\uc55e", "public_transport": "station", "railway": "station", "ref": "T10", "source": "KSJ2", "source_ref": "http://nlftp.mlit.go.jp/ksj/jpgis/datalist/KsjTmplt-N02-v1_1.html", "station": "subway", "subway": "yes", "wheelchair": "yes", "wikidata": "Q5001181", "wikipedia": "ja:\u30d0\u30b9\u30bb\u30f3\u30bf\u30fc\u524d\u99c5"}}, {"type": "node", "id": 7809581297, "lat": 43.0895027, "lon": 141.2779708, "tags": {"name": "\u5bae\u306e\u6ca2", "name:en": "Miyanosawa", "name:ja": "\u5bae\u306e\u6ca2", "name:ja-Hira": "\u307f\u3084\u306e\u3055\u308f", "name:ja-Latn": "Miyanosawa", "name:ko": "\ubbf8\uc57c\ub178\uc0ac\uc640", "public_transport": "station", "railway": "station", "ref": "T01", "source": "KSJ2", "source_ref": "http://nlftp.mlit.go.jp/ksj/jpgis/datalist/KsjTmplt-N02-v1_1.html", "station": "subway", "subway": "yes", "wheelchair": "yes", "wikidata": "Q3563711", "wikipedia": "ja:\u5bae\u306e\u6ca2\u99c5"}}, {"type": "node", "id": 7809581298, "lat": 43.0816113, "lon": 141.2902111, "tags": {"name": "\u767a\u5bd2\u5357", "name:en": "Hassamu-Minami", "name:ja": "\u767a\u5bd2\u5357", "name:ja-Hira": "\u306f\u3063\u3055\u3080\u307f\u306a\u307f", "name:ja-Latn": "Hassamu-Minami", "name:ko": "\ud56b\uc0ac\ubb34\ubbf8\ub098\ubbf8", "public_transport": "station", "railway": "station", "ref": "T02", "source": "KSJ2", "source_ref": "http://nlftp.mlit.go.jp/ksj/jpgis/datalist/KsjTmplt-N02-v1_1.html", "station": "subway", "wheelchair": "yes", "wikidata": "Q3563886", "wikipedia": "ja:\u767a\u5bd2\u5357\u99c5"}}, {"type": "node", "id": 8082693158, "lat": 43.1434795, "lon": 141.1597171, "tags": {"KSJ2:LIN": "\u51fd\u9928\u7dda", "KSJ2:STN": "\u92ad\u51fd", "name": "\u92ad\u51fd", "name:en": "Zenibako", "name:ja": "\u92ad\u51fd", "name:ko": "\uc81c\ub2c8\ubc14\ucf54", "note": "National-Land Numerical Information (Railway) 2007, MLIT Japan", "note:ja": "\u56fd\u571f\u6570\u5024\u60c5\u5831\uff08\u9244\u9053\u30c7\u30fc\u30bf\uff09\u5e73\u621019\u5e74\u3000\u56fd\u571f\u4ea4\u901a\u7701", "public_transport": "station", "railway": "station", "ref": "S11", "source": "KSJ2", "source_ref": "http://nlftp.mlit.go.jp/ksj/jpgis/datalist/KsjTmplt-N02-v1_1.html", "wikidata": "Q1044908", "wikipedia": "ja:\u92ad\u51fd\u99c5"}}, {"type": "node", "id": 8082693161, "lat": 43.1335231, "lon": 141.192141, "tags": {"KSJ2:LIN": "\u51fd\u9928\u7dda", "KSJ2:STN": "\u307b\u3057\u307f", "name": "\u307b\u3057\u307f", "name:en": "Hoshimi", "name:ja": "\u307b\u3057\u307f", "name:ko": "\ud638\uc2dc\ubbf8", "note": "National-Land Numerical Information (Railway) 2007, MLIT Japan", "note:ja": "\u56fd\u571f\u6570\u5024\u60c5\u5831\uff08\u9244\u9053\u30c7\u30fc\u30bf\uff09\u5e73\u621019\u5e74\u3000\u56fd\u571f\u4ea4\u901a\u7701", "public_transport": "station", "railway": "station", "ref": "S10", "source": "KSJ2", "source_ref": "http://nlftp.mlit.go.jp/ksj/jpgis/datalist/KsjTmplt-N02-v1_1.html", "wikidata": "Q1044979", "wikipedia": "ja:\u307b\u3057\u307f\u99c5"}}, {"type": "node", "id": 8082693162, "lat": 43.1323389, "lon": 141.2109701, "tags": {"KSJ2:LIN": "\u51fd\u9928\u7dda", "KSJ2:STN": "\u661f\u7f6e", "name": "\u661f\u7f6e", "name:en": "Hoshioki", "name:ja": "\u661f\u7f6e", "name:ko": "\ud638\uc2dc\uc624\ud0a4", "note": "National-Land Numerical Information (Railway) 2007, MLIT Japan", "note:ja": "\u56fd\u571f\u6570\u5024\u60c5\u5831\uff08\u9244\u9053\u30c7\u30fc\u30bf\uff09\u5e73\u621019\u5e74\u3000\u56fd\u571f\u4ea4\u901a\u7701", "public_transport": "station", "railway": "station", "ref": "S09", "source": "KSJ2", "source_ref": "http://nlftp.mlit.go.jp/ksj/jpgis/datalist/KsjTmplt-N02-v1_1.html", "wikidata": "Q1045506", "wikipedia": "ja:\u661f\u7f6e\u99c5"}}, {"type": "node", "id": 8082693164, "lat": 43.1281254, "lon": 141.2229744, "tags": {"KSJ2:LIN": "\u51fd\u9928\u7dda", "KSJ2:STN": "\u7a32\u7a42", "name": "\u7a32\u7a42", "name:en": "Inaho", "name:ja": "\u7a32\u7a42", "name:ko": "\uc774\ub098\ud638", "note": "National-Land Numerical Information (Railway) 2007, MLIT Japan", "note:ja": "\u56fd\u571f\u6570\u5024\u60c5\u5831\uff08\u9244\u9053\u30c7\u30fc\u30bf\uff09\u5e73\u621019\u5e74\u3000\u56fd\u571f\u4ea4\u901a\u7701", "public_transport": "station", "railway": "station", "ref": "S08", "source": "KSJ2", "source_ref": "http://nlftp.mlit.go.jp/ksj/jpgis/datalist/KsjTmplt-N02-v1_1.html", "wikidata": "Q1044946", "wikipedia": "ja:\u7a32\u7a42\u99c5"}}, {"type": "node", "id": 8082693166, "lat": 43.1202634, "lon": 141.2436126, "tags": {"KSJ2:LIN": "\u51fd\u9928\u7dda", "KSJ2:STN": "\u624b\u7a32", "name": "\u624b\u7a32", "name:en": "Teine", "name:ja": "\u624b\u7a32", "name:ja_rm": "Teine", "name:ko": "\ub370\uc774\ub124", "name:zh": "\u624b\u7a3b\u8eca\u7ad9", "note": "National-Land Numerical Information (Railway) 2007, MLIT Japan", "note:ja": "\u56fd\u571f\u6570\u5024\u60c5\u5831\uff08\u9244\u9053\u30c7\u30fc\u30bf\uff09\u5e73\u621019\u5e74\u3000\u56fd\u571f\u4ea4\u901a\u7701", "public_transport": "station", "railway": "station", "ref": "S07", "source": "KSJ2", "source_ref": "http://nlftp.mlit.go.jp/ksj/jpgis/datalist/KsjTmplt-N02-v1_1.html", "wikidata": "Q1039025", "wikipedia": "ja:\u624b\u7a32\u99c5"}}, {"type": "node", "id": 8082693170, "lat": 43.1122574, "lon": 141.2567984, "tags": {"KSJ2:LIN": "\u51fd\u9928\u7dda", "KSJ2:STN": "\u7a32\u7a4d\u516c\u5712", "alt_name:ko": "\uc774\ub098\uc988\ubbf8\ucf54\uc5d4", "name": "\u7a32\u7a4d\u516c\u5712", "name:en": "Inazumi-K\u014den", "name:ja": "\u7a32\u7a4d\u516c\u5712", "name:ko": "\uc774\ub098\uc988\ubbf8\uacf5\uc6d0", "note": "National-Land Numerical Information (Railway) 2007, MLIT Japan", "note:ja": "\u56fd\u571f\u6570\u5024\u60c5\u5831\uff08\u9244\u9053\u30c7\u30fc\u30bf\uff09\u5e73\u621019\u5e74\u3000\u56fd\u571f\u4ea4\u901a\u7701", "public_transport": "station", "railway": "station", "ref": "S06", "source": "KSJ2", "source_ref": "http://nlftp.mlit.go.jp/ksj/jpgis/datalist/KsjTmplt-N02-v1_1.html", "wikidata": "Q1045473", "wikipedia": "ja:\u7a32\u7a4d\u516c\u5712\u99c5"}}, {"type": "node", "id": 8082693172, "lat": 43.0998019, "lon": 141.2772918, "tags": {"KSJ2:LIN": "\u51fd\u9928\u7dda", "KSJ2:STN": "\u767a\u5bd2", "name": "\u767a\u5bd2", "name:en": "Hassamu", "name:ja": "\u767a\u5bd2", "name:ko": "\ud56b\uc0ac\ubb34", "note": "National-Land Numerical Information (Railway) 2007, MLIT Japan", "note:ja": "\u56fd\u571f\u6570\u5024\u60c5\u5831\uff08\u9244\u9053\u30c7\u30fc\u30bf\uff09\u5e73\u621019\u5e74\u3000\u56fd\u571f\u4ea4\u901a\u7701", "public_transport": "station", "railway": "station", "ref": "S05", "source": "KSJ2", "source_ref": "http://nlftp.mlit.go.jp/ksj/jpgis/datalist/KsjTmplt-N02-v1_1.html", "wheelchair": "yes", "wikidata": "Q1044922", "wikipedia": "ja:\u767a\u5bd2\u99c5"}}, {"type": "node", "id": 8082693174, "lat": 43.0894771, "lon": 141.2942366, "tags": {"KSJ2:LIN": "\u51fd\u9928\u7dda", "KSJ2:STN": "\u767a\u5bd2\u4e2d\u592e", "name": "\u767a\u5bd2\u4e2d\u592e", "name:en": "Hassamu-Ch\u016b\u014d", "name:ja": "\u767a\u5bd2\u4e2d\u592e", "name:ko": "\ud56b\uc0ac\ubb34\ucd94\uc624", "note": "National-Land Numerical Information (Railway) 2007, MLIT Japan", "note:ja": "\u56fd\u571f\u6570\u5024\u60c5\u5831\uff08\u9244\u9053\u30c7\u30fc\u30bf\uff09\u5e73\u621019\u5e74\u3000\u56fd\u571f\u4ea4\u901a\u7701", "public_transport": "station", "railway": "station", "ref": "S04", "source": "KSJ2", "source_ref": "http://nlftp.mlit.go.jp/ksj/jpgis/datalist/KsjTmplt-N02-v1_1.html", "wikidata": "Q1044918", "wikipedia": "ja:\u767a\u5bd2\u4e2d\u592e\u99c5"}}, {"type": "node", "id": 8082693177, "lat": 43.0815347, "lon": 141.3074331, "tags": {"KSJ2:LIN": "\u51fd\u9928\u7dda", "KSJ2:STN": "\u7434\u4f3c", "name": "\u7434\u4f3c", "name:en": "Kotoni", "name:ja": "\u7434\u4f3c", "name:ko": "\uace0\ud1a0\ub2c8", "note": "National-Land Numerical Information (Railway) 2007, MLIT Japan", "note:ja": "\u56fd\u571f\u6570\u5024\u60c5\u5831\uff08\u9244\u9053\u30c7\u30fc\u30bf\uff09\u5e73\u621019\u5e74\u3000\u56fd\u571f\u4ea4\u901a\u7701", "public_transport": "station", "railway": "station", "ref": "S03", "source": "KSJ2", "source_ref": "http://nlftp.mlit.go.jp/ksj/jpgis/datalist/KsjTmplt-N02-v1_1.html", "wheelchair": "limited", "wikidata": "Q859789", "wikipedia": "ja:\u7434\u4f3c\u99c5 (JR\u5317\u6d77\u9053)"}}, {"type": "node", "id": 8082693200, "lat": 43.0723353, "lon": 141.4970197, "tags": {"KSJ2:LIN": "\u51fd\u9928\u7dda", "KSJ2:STN": "\u5927\u9ebb", "name": "\u5927\u9ebb", "name:en": "\u014casa", "name:ja": "\u5927\u9ebb", "name:ko": "\uc624\uc544\uc0ac", "note": "National-Land Numerical Information (Railway) 2007, MLIT Japan", "note:ja": "\u56fd\u571f\u6570\u5024\u60c5\u5831\uff08\u9244\u9053\u30c7\u30fc\u30bf\uff09\u5e73\u621019\u5e74\u3000\u56fd\u571f\u4ea4\u901a\u7701", "public_transport": "station", "railway": "station", "source": "KSJ2", "source_ref": "http://nlftp.mlit.go.jp/ksj/jpgis/datalist/KsjTmplt-N02-v1_1.html", "toilets:wheelchair": "yes", "wheelchair": "limited", "wheelchair:description": "\u7dda\u8def\u3092\u8de8\u3044\u3067\u3001\u53cd\u5bfe\u5074\u306e\u30db\u30fc\u30e0\u306b\u3044\u304f\u5834\u5408\u3001\u30a8\u30ec\u30d9\u30fc\u30bf\u30fc\u306f\u306a\u304f\u3001\u8eca\u30a4\u30b9\u6607\u964d\u6a5f\u80fd\u3064\u304d\u30a8\u30b9\u30ab\u30ec\u30fc\u30bf\u30fc\u3092\u4f7f\u7528\u3002\u6642\u9593\u3092\u8981\u3059\u308b\u3002", "wikidata": "Q872634", "wikipedia": "ja:\u5927\u9ebb\u99c5"}}, {"type": "node", "id": 8082693201, "lat": 43.0923486, "lon": 141.5296903, "tags": {"KSJ2:LIN": "\u51fd\u9928\u7dda", "KSJ2:STN": "\u91ce\u5e4c", "name": "\u91ce\u5e4c", "name:en": "Nopporo", "name:ja": "\u91ce\u5e4c", "name:ko": "\ub18b\ud3ec\ub85c", "note": "National-Land Numerical Information (Railway) 2007, MLIT Japan", "note:ja": "\u56fd\u571f\u6570\u5024\u60c5\u5831\uff08\u9244\u9053\u30c7\u30fc\u30bf\uff09\u5e73\u621019\u5e74\u3000\u56fd\u571f\u4ea4\u901a\u7701", "public_transport": "station", "railway": "station", "source": "KSJ2", "source_ref": "http://nlftp.mlit.go.jp/ksj/jpgis/datalist/KsjTmplt-N02-v1_1.html", "wikidata": "Q872593", "wikipedia": "ja:\u91ce\u5e4c\u99c5"}}, {"type": "node", "id": 8082693202, "lat": 43.1001515, "lon": 141.540788, "tags": {"KSJ2:LIN": "\u51fd\u9928\u7dda", "KSJ2:STN": "\u9ad8\u7802", "name": "\u9ad8\u7802", "name:en": "Takasago", "name:ja": "\u9ad8\u7802", "name:ja_rm": "Takasago", "name:ko": "\ub2e4\uce74\uc0ac\uace0", "note": "National-Land Numerical Information (Railway) 2007, MLIT Japan", "note:ja": "\u56fd\u571f\u6570\u5024\u60c5\u5831\uff08\u9244\u9053\u30c7\u30fc\u30bf\uff09\u5e73\u621019\u5e74\u3000\u56fd\u571f\u4ea4\u901a\u7701", "public_transport": "station", "railway": "station", "source": "KSJ2", "source_ref": "http://nlftp.mlit.go.jp/ksj/jpgis/datalist/KsjTmplt-N02-v1_1.html", "wikidata": "Q872616", "wikipedia": "ja:\u9ad8\u7802\u99c5 (\u5317\u6d77\u9053)"}}, {"type": "node", "id": 8082693204, "lat": 43.110455, "lon": 141.5572956, "tags": {"KSJ2:LIN": "\u51fd\u9928\u7dda", "KSJ2:STN": "\u6c5f\u5225", "name": "\u6c5f\u5225", "name:en": "Ebetsu", "name:ja": "\u6c5f\u5225", "name:ko": "\uc5d0\ubca0\uc4f0", "note": "National-Land Numerical Information (Railway) 2007, MLIT Japan", "note:ja": "\u56fd\u571f\u6570\u5024\u60c5\u5831\uff08\u9244\u9053\u30c7\u30fc\u30bf\uff09\u5e73\u621019\u5e74\u3000\u56fd\u571f\u4ea4\u901a\u7701", "public_transport": "station", "railway": "station", "source": "KSJ2", "source_ref": "http://nlftp.mlit.go.jp/ksj/jpgis/datalist/KsjTmplt-N02-v1_1.html", "wikidata": "Q872626", "wikipedia": "ja:\u6c5f\u5225\u99c5"}}, {"type": "node", "id": 8082693207, "lat": 43.1360226, "lon": 141.6239525, "tags": {"KSJ2:LIN": "\u51fd\u9928\u7dda", "KSJ2:STN": "\u8c4a\u5e4c", "name": "\u8c4a\u5e4c", "name:en": "Toyohoro", "name:ja": "\u8c4a\u5e4c", "name:ko": "\ub3c4\uc694\ud638\ub85c", "note": "National-Land Numerical Information (Railway) 2007, MLIT Japan", "note:ja": "\u56fd\u571f\u6570\u5024\u60c5\u5831\uff08\u9244\u9053\u30c7\u30fc\u30bf\uff09\u5e73\u621019\u5e74\u3000\u56fd\u571f\u4ea4\u901a\u7701", "public_transport": "station", "railway": "station", "source": "KSJ2", "source_ref": "http://nlftp.mlit.go.jp/ksj/jpgis/datalist/KsjTmplt-N02-v1_1.html", "wikidata": "Q872671", "wikipedia": "ja:\u8c4a\u5e4c\u99c5"}}, {"type": "node", "id": 8082693208, "lat": 43.1514461, "lon": 141.6554135, "tags": {"KSJ2:LIN": "\u51fd\u9928\u7dda", "KSJ2:STN": "\u5e4c\u5411", "name": "\u5e4c\u5411", "name:en": "Horomui", "name:ja": "\u5e4c\u5411", "name:ko": "\ud638\ub85c\ubb34\uc774", "note": "National-Land Numerical Information (Railway) 2007, MLIT Japan", "note:ja": "\u56fd\u571f\u6570\u5024\u60c5\u5831\uff08\u9244\u9053\u30c7\u30fc\u30bf\uff09\u5e73\u621019\u5e74\u3000\u56fd\u571f\u4ea4\u901a\u7701", "public_transport": "station", "railway": "station", "source": "KSJ2", "source_ref": "http://nlftp.mlit.go.jp/ksj/jpgis/datalist/KsjTmplt-N02-v1_1.html", "wikidata": "Q872850", "wikipedia": "ja:\u5e4c\u5411\u99c5"}}, {"type": "node", "id": 8082693210, "lat": 43.1812595, "lon": 141.7140453, "tags": {"KSJ2:LIN": "\u51fd\u9928\u7dda", "KSJ2:STN": "\u4e0a\u5e4c\u5411", "name": "\u4e0a\u5e4c\u5411", "name:en": "Kami-Horomui", "name:ja": "\u4e0a\u5e4c\u5411", "name:ja_kana": "\u304b\u307f\u307b\u308d\u3080\u3044", "name:ja_rm": "Kami-Horomui", "name:ko": "\uac00\ubbf8\ud638\ub85c\ubb34\uc774", "note": "National-Land Numerical Information (Railway) 2007, MLIT Japan", "note:ja": "\u56fd\u571f\u6570\u5024\u60c5\u5831\uff08\u9244\u9053\u30c7\u30fc\u30bf\uff09\u5e73\u621019\u5e74\u3000\u56fd\u571f\u4ea4\u901a\u7701", "public_transport": "station", "railway": "station", "source": "KSJ2", "source_ref": "http://nlftp.mlit.go.jp/ksj/jpgis/datalist/KsjTmplt-N02-v1_1.html", "wikidata": "Q872837", "wikipedia": "ja:\u4e0a\u5e4c\u5411\u99c5"}}, {"type": "node", "id": 8088244998, "lat": 43.1313014, "lon": 141.3606159, "tags": {"KSJ2:LIN": "\u672d\u6cbc\u7dda", "KSJ2:STN": "\u767e\u5408\u304c\u539f", "name": "\u767e\u5408\u304c\u539f", "name:en": "Yurigahara", "name:ja": "\u767e\u5408\u304c\u539f", "name:ko": "\uc720\ub9ac\uac00\ud558\ub77c", "note": "National-Land Numerical Information (Railway) 2007, MLIT Japan", "note:ja": "\u56fd\u571f\u6570\u5024\u60c5\u5831\uff08\u9244\u9053\u30c7\u30fc\u30bf\uff09\u5e73\u621019\u5e74\u3000\u56fd\u571f\u4ea4\u901a\u7701", "public_transport": "station", "railway": "station", "source": "KSJ2", "source_ref": "http://nlftp.mlit.go.jp/ksj/jpgis/datalist/KsjTmplt-N02-v1_1.html", "toilets:wheelchair": "no", "wheelchair": "no", "wheelchair:description": "\u7121\u4eba\u99c5\u3002\u6539\u672d\u53e3\u3001\u30db\u30fc\u30e0\u3078\u306f\u968e\u6bb5\u306e\u307f\u3002", "wikidata": "Q2490240", "wikipedia": "ja:\u767e\u5408\u304c\u539f\u99c5"}}, {"type": "node", "id": 8088245000, "lat": 43.1239909, "lon": 141.3494821, "tags": {"KSJ2:LIN": "\u672d\u6cbc\u7dda", "KSJ2:STN": "\u592a\u5e73", "name": "\u592a\u5e73", "name:en": "Taihei", "name:ja": "\u592a\u5e73", "name:ko": "\ub2e4\uc774\ud5e4\uc774", "note": "National-Land Numerical Information (Railway) 2007, MLIT Japan", "note:ja": "\u56fd\u571f\u6570\u5024\u60c5\u5831\uff08\u9244\u9053\u30c7\u30fc\u30bf\uff09\u5e73\u621019\u5e74\u3000\u56fd\u571f\u4ea4\u901a\u7701", "public_transport": "station", "railway": "station", "source": "KSJ2", "source_ref": "http://nlftp.mlit.go.jp/ksj/jpgis/datalist/KsjTmplt-N02-v1_1.html", "wikidata": "Q429490", "wikipedia": "ja:\u592a\u5e73\u99c5"}}, {"type": "node", "id": 8088245001, "lat": 43.1128233, "lon": 141.3350236, "tags": {"KSJ2:LIN": "\u672d\u6cbc\u7dda", "KSJ2:STN": "\u65b0\u7434\u4f3c", "name": "\u65b0\u7434\u4f3c", "name:en": "Shin-Kotoni", "name:ja": "\u65b0\u7434\u4f3c", "name:ko": "\uc2e0\ucf54\ud1a0\ub2c8", "note": "National-Land Numerical Information (Railway) 2007, MLIT Japan", "note:ja": "\u56fd\u571f\u6570\u5024\u60c5\u5831\uff08\u9244\u9053\u30c7\u30fc\u30bf\uff09\u5e73\u621019\u5e74\u3000\u56fd\u571f\u4ea4\u901a\u7701", "public_transport": "station", "railway": "station", "source": "KSJ2", "source_ref": "http://nlftp.mlit.go.jp/ksj/jpgis/datalist/KsjTmplt-N02-v1_1.html", "wheelchair": "yes", "wikidata": "Q128201", "wikipedia": "ja:\u65b0\u7434\u4f3c\u99c5"}}, {"type": "node", "id": 8088245002, "lat": 43.0983928, "lon": 141.3236645, "tags": {"KSJ2:LIN": "\u672d\u6cbc\u7dda", "KSJ2:STN": "\u65b0\u5ddd", "name": "\u65b0\u5ddd", "name:en": "Shinkawa", "name:ja": "\u65b0\u5ddd", "name:ko": "\uc2e0\uce74\uc640", "note": "National-Land Numerical Information (Railway) 2007, MLIT Japan", "note:ja": "\u56fd\u571f\u6570\u5024\u60c5\u5831\uff08\u9244\u9053\u30c7\u30fc\u30bf\uff09\u5e73\u621019\u5e74\u3000\u56fd\u571f\u4ea4\u901a\u7701", "public_transport": "station", "railway": "station", "source": "KSJ2", "source_ref": "http://nlftp.mlit.go.jp/ksj/jpgis/datalist/KsjTmplt-N02-v1_1.html", "wikidata": "Q128203", "wikipedia": "ja:\u65b0\u5ddd\u99c5 (\u5317\u6d77\u9053)"}}, {"type": "node", "id": 9278767770, "lat": 43.046891, "lon": 141.4385636, "tags": {"name": "\u5e73\u548c", "name:en": "Heiwa", "name:ja": "\u5e73\u548c", "name:ko": "\ud5e4\uc774\uc640", "name:zh": "\u5e73\u548c", "public_transport": "station", "railway": "station", "train": "yes", "wikidata": "Q3969779", "wikipedia": "ja:\u5e73\u548c\u99c5"}}, {"type": "node", "id": 9572091024, "lat": 43.1798344, "lon": 141.4365238, "tags": {"name": "\u30ed\u30a4\u30ba\u30bf\u30a6\u30f3", "name:en": "ROYCE' Town", "public_transport": "station", "railway": "station", "train": "yes", "wikidata": "Q106491365", "wikipedia": "ja:\u30ed\u30a4\u30ba\u30bf\u30a6\u30f3\u99c5"}}, {"type": "node", "id": 10255638445, "lat": 43.1130049, "lon": 141.3671293, "tags": {"name": "\u6804\u753a", "name:en": "Sakaemachi", "name:ja": "\u6804\u753a", "name:ja-Hira": "\u3055\u304b\u3048\u307e\u3061", "name:ja-Latn": "Sakaemachi", "public_transport": "station", "railway": "station", "ref": "H01", "station": "subway", "subway": "yes", "wikidata": "Q7402753", "wikipedia": "ja:\u6804\u753a\u99c5 (\u5317\u6d77\u9053)"}}, {"type": "node", "id": 10255638446, "lat": 43.1047351, "lon": 141.3690944, "tags": {"name": "\u65b0\u9053\u6771", "name:en": "Shindo higashi", "name:ja": "\u65b0\u9053\u6771", "name:ja-Hira": "\u3057\u3093\u3069\u3046\u3072\u304c\u3057", "name:ja-Latn": "Shind\u014d-Higashi", "name:ko": "\uc2e0\ub3c4\ud788\uac00\uc2dc", "public_transport": "station", "railway": "station", "ref": "H02", "station": "subway", "subway": "yes", "wikidata": "Q3563612", "wikipedia": "ja:\u65b0\u9053\u6771\u99c5"}}, {"type": "node", "id": 10255638447, "lat": 43.0940846, "lon": 141.3717109, "tags": {"name": "\u5143\u753a", "name:en": "Motomachi", "name:ja": "\u5143\u753a", "name:ja-Hira": "\u3082\u3068\u307e\u3061", "name:ja-Latn": "Motomachi", "name:ko": "\ubaa8\ud1a0\ub9c8\uce58", "public_transport": "station", "railway": "station", "ref": "H03", "station": "subway", "subway": "yes", "wheelchair": "yes", "wikidata": "Q3563691", "wikipedia": "ja:\u5143\u753a\u99c5 (\u5317\u6d77\u9053)"}}, {"type": "node", "id": 10255638448, "lat": 43.0824253, "lon": 141.3744736, "tags": {"name": "\u74b0\u72b6\u901a\u6771", "name:en": "Kanjo dori higashi", "name:ja": "\u74b0\u72b6\u901a\u6771", "name:ja-Hira": "\u304b\u3093\u3058\u3087\u3046\u3069\u304a\u308a\u3072\u304c\u3057", "name:ja-Latn": "Kanj\u014d-D\u014dri-Higashi", "name:ko": "\uac04\uc870\ub3c4\ub9ac\ud788\uac00\uc2dc", "public_transport": "station", "railway": "station", "ref": "H04", "station": "subway", "subway": "yes", "toilets:wheelchair": "yes", "wheelchair": "yes", "wikidata": "Q3563591", "wikipedia": "ja:\u74b0\u72b6\u901a\u6771\u99c5"}}, {"type": "node", "id": 10255638449, "lat": 43.078262, "lon": 141.3653588, "tags": {"alt_name:ko": "\ud788\uac00\uc2dc\ucfe0\uc57c\ucfe0\uc1fc\ub9c8\uc5d0", "name": "\u6771\u533a\u5f79\u6240\u524d", "name:en": "Higashi kuyakusho mae", "name:ja": "\u6771\u533a\u5f79\u6240\u524d", "name:ja-Hira": "\u3072\u304c\u3057\u304f\u3084\u304f\u3057\u3087\u307e\u3048", "name:ja-Latn": "Higashi-Kuyakusho-Mae", "name:ko": "\ud788\uac00\uc2dc\uad6c\uccad\uc55e", "public_transport": "station", "railway": "station", "ref": "H05", "station": "subway", "subway": "yes", "toilets:wheelchair": "yes", "wikidata": "Q3563670", "wikipedia": "ja:\u6771\u533a\u5f79\u6240\u524d\u99c5"}}, {"type": "node", "id": 10255638450, "lat": 43.0768485, "lon": 141.3549659, "tags": {"name": "\u531713\u6761\u6771", "name:en": "Kita-13-Jo-Higashi", "name:ja": "\u531713\u6761\u6771", "name:ja-Hira": "\u304d\u305f\u3058\u3085\u3046\u3055\u3093\u3058\u3087\u3046\u3072\u304c\u3057", "name:ja-Latn": "Kita-J\u016bsan-J\u014d-Higashi", "name:ko": "\uae30\ud0c013\uc870\ud788\uac00\uc2dc", "public_transport": "station", "railway": "station", "ref": "H06", "station": "subway", "subway": "yes", "wikidata": "Q6417552", "wikipedia": "ja:\u531713\u6761\u6771\u99c5"}}, {"type": "node", "id": 10255638451, "lat": 43.0662545, "lon": 141.3539084, "tags": {"name": "\u3055\u3063\u307d\u308d", "name:en": "Sapporo", "name:ja": "\u3055\u3063\u307d\u308d", "name:ja-Hira": "\u3055\u3063\u307d\u308d", "name:ja-Latn": "Sapporo", "public_transport": "station", "railway": "station", "ref": "H07", "station": "subway", "subway": "yes"}}, {"type": "node", "id": 10255638452, "lat": 43.0607232, "lon": 141.3553152, "tags": {"name": "\u5927\u901a", "name:en": "Odori", "name:ja": "\u5927\u901a", "name:ja-Hira": "\u304a\u304a\u3069\u304a\u308a", "name:ja-Latn": "\u014cd\u014dri", "name:ko": "\uc624\ub3c4\ub9ac", "public_transport": "station", "railway": "station", "ref": "H08", "station": "subway", "subway": "yes", "wheelchair": "yes", "wikidata": "Q2365150", "wikipedia": "ja:\u5927\u901a\u99c5"}}, {"type": "node", "id": 10255638453, "lat": 43.0541601, "lon": 141.3570077, "tags": {"name": "\u8c4a\u6c34\u3059\u3059\u304d\u306e", "name:en": "Hosui Susukino", "name:ja": "\u8c4a\u6c34\u3059\u3059\u304d\u306e", "name:ja-Hira": "\u307b\u3046\u3059\u3044\u3059\u3059\u304d\u306e", "name:ja_rm": "H\u014dsui-Susukino", "name:ko": "\ud638\uc2a4\uc774\uc2a4\uc2a4\ud0a4\ub178", "name:zh": "\u8c50\u6c34\u8584\u91ce\u8eca\u7ad9", "public_transport": "station", "railway": "station", "ref": "H09", "station": "subway", "subway": "yes", "wheelchair": "yes", "wikidata": "Q3563790", "wikipedia": "ja:\u8c4a\u6c34\u3059\u3059\u304d\u306e\u99c5"}}, {"type": "node", "id": 10255638454, "lat": 43.0477726, "lon": 141.3689744, "tags": {"alt_name:ko": "\uac00\ucfe0\uc5d4\ub9c8\uc5d0", "name": "\u5b66\u5712\u524d", "name:en": "Gakuen-Mae", "name:ja": "\u5b66\u5712\u524d", "name:ja-Hira": "\u304c\u304f\u3048\u3093\u307e\u3048", "name:ja-Latn": "Gakuen-mae", "name:ko": "\ud559\uc6d0\uc55e", "public_transport": "station", "railway": "station", "ref": "H10", "station": "subway", "subway": "yes", "wheelchair": "yes", "wheelchair:description": "\uff12\u756a\u3068\uff14\u756a\u51fa\u53e3\u306bEV\u3042\u308a", "wikidata": "Q3563775", "wikipedia": "ja:\u5b66\u5712\u524d\u99c5 (\u5317\u6d77\u9053)"}}, {"type": "node", "id": 10255638455, "lat": 43.0421169, "lon": 141.3761634, "tags": {"alt_name:ko": "\ub3c4\uc694\ud788\ub77c\ucf54\uc5d4", "name": "\u8c4a\u5e73\u516c\u5712", "name:en": "Toyohira koen", "name:ja": "\u8c4a\u5e73\u516c\u5712", "name:ja-Hira": "\u3068\u3088\u3072\u3089\u3053\u3046\u3048\u3093", "name:ja-Latn": "Toyohira-K\u014den", "name:ko": "\ub3c4\uc694\ud788\ub77c\uacf5\uc6d0", "public_transport": "station", "railway": "station", "ref": "H11", "station": "subway", "subway": "yes", "wheelchair": "yes", "wikidata": "Q3563753", "wikipedia": "ja:\u8c4a\u5e73\u516c\u5712\u99c5"}}]}