{"version": 0.6, "generator": "Overpass API 0.7.62.4 2390de5a", "osm3s": {"timestamp_osm_base": "2024-12-30T15:07:30Z", "copyright": "The data included in this document is from www.openstreetmap.org. The data is made available under ODbL."}, "elements": [{"type": "node", "id": 267297188, "lat": 34.3908597, "lon": 135.3313204, "tags": {"KSJ2:LIN": "\u95a2\u897f\u7a7a\u6e2f\u7dda;\u962a\u548c\u7dda", "KSJ2:STN": "\u65e5\u6839\u91ce", "name": "\u65e5\u6839\u91ce", "name:en": "Hineno", "name:ja": "\u65e5\u6839\u91ce", "name:ko": "\ud788\ub124\ub178", "name:zh": "\u65e5\u91ce\u6839", "note": "National-Land Numerical Information (Railway) 2007, MLIT Japan", "note:ja": "\u56fd\u571f\u6570\u5024\u60c5\u5831\uff08\u9244\u9053\u30c7\u30fc\u30bf\uff09\u5e73\u621019\u5e74\u3000\u56fd\u571f\u4ea4\u901a\u7701", "public_transport": "station", "railway": "station", "ref": "R45", "source": "KSJ2", "source_ref": "http://nlftp.mlit.go.jp/ksj/jpgis/datalist/KsjTmplt-N02-v1_1.html", "wikidata": "Q856937", "wikipedia": "ja:\u65e5\u6839\u91ce\u99c5"}}, {"type": "node", "id": 267323852, "lat": 34.1542935, "lon": 135.2144039, "tags": {"KSJ2:LIN": "\u7d00\u52e2\u7dda", "KSJ2:STN": "\u6d77\u5357", "name": "\u6d77\u5357", "name:en": "Kainan", "name:ja": "\u6d77\u5357", "name:ko": "\uac00\uc774\ub09c", "note": "National-Land Numerical Information (Railway) 2007, MLIT Japan", "note:ja": "\u56fd\u571f\u6570\u5024\u60c5\u5831\uff08\u9244\u9053\u30c7\u30fc\u30bf\uff09\u5e73\u621019\u5e74\u3000\u56fd\u571f\u4ea4\u901a\u7701", "public_transport": "station", "railway": "station", "source": "KSJ2", "source_ref": "http://nlftp.mlit.go.jp/ksj/jpgis/datalist/KsjTmplt-N02-v1_1.html", "train": "yes", "wikidata": "Q3381856", "wikipedia": "ja:\u6d77\u5357\u99c5"}}, {"type": "node", "id": 267323853, "lat": 34.1418596, "lon": 135.1941732, "tags": {"KSJ2:LIN": "\u7d00\u52e2\u7dda", "KSJ2:STN": "\u51b7\u6c34\u6d66", "name": "\u51b7\u6c34\u6d66", "name:en": "Shimizuura", "name:ja": "\u51b7\u6c34\u6d66", "name:ko": "\uc2dc\ubbf8\uc988\uc6b0\ub77c", "note": "National-Land Numerical Information (Railway) 2007, MLIT Japan", "note:ja": "\u56fd\u571f\u6570\u5024\u60c5\u5831\uff08\u9244\u9053\u30c7\u30fc\u30bf\uff09\u5e73\u621019\u5e74\u3000\u56fd\u571f\u4ea4\u901a\u7701", "railway": "station", "source": "KSJ2", "source_ref": "http://nlftp.mlit.go.jp/ksj/jpgis/datalist/KsjTmplt-N02-v1_1.html", "wikidata": "Q3381845", "wikipedia": "ja:\u51b7\u6c34\u6d66\u99c5"}}, {"type": "node", "id": 267324123, "lat": 34.1700802, "lon": 135.210291, "tags": {"KSJ2:LIN": "\u7d00\u52e2\u7dda", "KSJ2:STN": "\u9ed2\u6c5f", "name": "\u9ed2\u6c5f", "name:en": "Kuroe", "name:ja": "\u9ed2\u6c5f", "name:ko": "\uad6c\ub85c\uc5d0", "note": "National-Land Numerical Information (Railway) 2007, MLIT Japan", "note:ja": "\u56fd\u571f\u6570\u5024\u60c5\u5831\uff08\u9244\u9053\u30c7\u30fc\u30bf\uff09\u5e73\u621019\u5e74\u3000\u56fd\u571f\u4ea4\u901a\u7701", "public_transport": "station", "railway": "station", "source": "KSJ2", "source_ref": "http://nlftp.mlit.go.jp/ksj/jpgis/datalist/KsjTmplt-N02-v1_1.html", "train": "yes", "wikidata": "Q3455712", "wikipedia": "ja:\u9ed2\u6c5f\u99c5"}}, {"type": "node", "id": 267332906, "lat": 34.3227167, "lon": 135.6348055, "tags": {"KSJ2:LIN": "\u548c\u6b4c\u5c71\u7dda", "KSJ2:STN": "\u4e0b\u5175\u5eab", "name": "\u4e0b\u5175\u5eab", "name:en": "Shimo-Hyogo", "name:ja": "\u4e0b\u5175\u5eab", "name:ja_rm": "Shimo-Hy\u014dgo", "note": "National-Land Numerical Information (Railway) 2007, MLIT Japan", "note:ja": "\u56fd\u571f\u6570\u5024\u60c5\u5831\uff08\u9244\u9053\u30c7\u30fc\u30bf\uff09\u5e73\u621019\u5e74\u3000\u56fd\u571f\u4ea4\u901a\u7701", "railway": "station", "source": "KSJ2", "source_ref": "http://nlftp.mlit.go.jp/ksj/jpgis/datalist/KsjTmplt-N02-v1_1.html", "url": "http://www.jr-odekake.net/eki/top.php?id=0621837", "wikidata": "Q3557822", "wikipedia": "ja:\u4e0b\u5175\u5eab\u99c5 (\u548c\u6b4c\u5c71\u770c)"}}, {"type": "node", "id": 267333241, "lat": 34.3280865, "lon": 135.6556441, "tags": {"KSJ2:LIN": "\u548c\u6b4c\u5c71\u7dda", "KSJ2:STN": "\u9685\u7530", "name": "\u9685\u7530", "name:en": "Suda", "name:ja": "\u9685\u7530", "name:ja-Hira": "\u3059\u3060", "name:ja_rm": "Suda", "name:ko": "\uc2a4\ub2e4", "note": "National-Land Numerical Information (Railway) 2007, MLIT Japan", "note:ja": "\u56fd\u571f\u6570\u5024\u60c5\u5831\uff08\u9244\u9053\u30c7\u30fc\u30bf\uff09\u5e73\u621019\u5e74\u3000\u56fd\u571f\u4ea4\u901a\u7701", "railway": "station", "source": "KSJ2", "source_ref": "http://nlftp.mlit.go.jp/ksj/jpgis/datalist/KsjTmplt-N02-v1_1.html", "url": "http://www.jr-odekake.net/eki/top.php?id=0621813", "wikidata": "Q3557713", "wikipedia": "ja:\u9685\u7530\u99c5"}}, {"type": "node", "id": 267333258, "lat": 34.3181869, "lon": 135.6147658, "tags": {"KSJ2:LIN": "\u548c\u6b4c\u5c71\u7dda", "KSJ2:STN": "\u6a4b\u672c", "name": "\u6a4b\u672c", "name:en": "Hashimoto", "name:ja": "\u6a4b\u672c", "name:ja_rm": "Hashimoto", "name:ko": "\ud558\uc2dc\ubaa8\ud1a0", "note": "National-Land Numerical Information (Railway) 2007, MLIT Japan", "note:ja": "\u56fd\u571f\u6570\u5024\u60c5\u5831\uff08\u9244\u9053\u30c7\u30fc\u30bf\uff09\u5e73\u621019\u5e74\u3000\u56fd\u571f\u4ea4\u901a\u7701", "public_transport": "station", "railway": "station", "source": "KSJ2", "source_ref": "http://nlftp.mlit.go.jp/ksj/jpgis/datalist/KsjTmplt-N02-v1_1.html", "wikidata": "Q3558008", "wikipedia": "ja:\u6a4b\u672c\u99c5 (\u548c\u6b4c\u5c71\u770c)"}}, {"type": "node", "id": 267333545, "lat": 34.304649, "lon": 135.532813, "tags": {"KSJ2:LIN": "\u548c\u6b4c\u5c71\u7dda", "KSJ2:STN": "\u4e2d\u98ef\u964d", "name": "\u4e2d\u98ef\u964d", "name:en": "Nakaiburi", "name:ja": "\u4e2d\u98ef\u964d", "name:ko": "\ub098\uce74\uc774\ubd80\ub9ac", "note": "National-Land Numerical Information (Railway) 2007, MLIT Japan", "note:ja": "\u56fd\u571f\u6570\u5024\u60c5\u5831\uff08\u9244\u9053\u30c7\u30fc\u30bf\uff09\u5e73\u621019\u5e74\u3000\u56fd\u571f\u4ea4\u901a\u7701", "railway": "station", "source": "KSJ2", "source_ref": "http://nlftp.mlit.go.jp/ksj/jpgis/datalist/KsjTmplt-N02-v1_1.html", "wikidata": "Q3525399", "wikipedia": "ja:\u4e2d\u98ef\u964d\u99c5"}}, {"type": "node", "id": 267333554, "lat": 34.2730501, "lon": 135.4338482, "tags": {"KSJ2:LIN": "\u548c\u6b4c\u5c71\u7dda", "KSJ2:STN": "\u540d\u624b", "name": "\u540d\u624b", "name:en": "Nate", "name:ja": "\u540d\u624b", "name:ko": "\ub098\ud14c", "note": "National-Land Numerical Information (Railway) 2007, MLIT Japan", "note:ja": "\u56fd\u571f\u6570\u5024\u60c5\u5831\uff08\u9244\u9053\u30c7\u30fc\u30bf\uff09\u5e73\u621019\u5e74\u3000\u56fd\u571f\u4ea4\u901a\u7701", "public_transport": "station", "railway": "station", "source": "KSJ2", "source_ref": "http://nlftp.mlit.go.jp/ksj/jpgis/datalist/KsjTmplt-N02-v1_1.html", "wikidata": "Q3467367", "wikipedia": "ja:\u540d\u624b\u99c5"}}, {"type": "node", "id": 267333678, "lat": 34.298594, "lon": 135.5174624, "tags": {"KSJ2:LIN": "\u548c\u6b4c\u5c71\u7dda", "KSJ2:STN": "\u5999\u5bfa", "name": "\u5999\u5bfa", "name:en": "My\u014dji", "name:ja": "\u5999\u5bfa", "name:ko": "\ubb18\uc9c0", "note": "National-Land Numerical Information (Railway) 2007, MLIT Japan", "note:ja": "\u56fd\u571f\u6570\u5024\u60c5\u5831\uff08\u9244\u9053\u30c7\u30fc\u30bf\uff09\u5e73\u621019\u5e74\u3000\u56fd\u571f\u4ea4\u901a\u7701", "railway": "station", "source": "KSJ2", "source_ref": "http://nlftp.mlit.go.jp/ksj/jpgis/datalist/KsjTmplt-N02-v1_1.html", "wikidata": "Q3467375", "wikipedia": "ja:\u5999\u5bfa\u99c5"}}, {"type": "node", "id": 267333705, "lat": 34.2987495, "lon": 135.4942703, "tags": {"KSJ2:LIN": "\u548c\u6b4c\u5c71\u7dda", "KSJ2:STN": "\u5927\u8c37", "name": "\u5927\u8c37", "name:en": "\u014ctani", "name:ja": "\u5927\u8c37", "name:ko": "\uc624\ud0c0\ub2c8", "note": "National-Land Numerical Information (Railway) 2007, MLIT Japan", "note:ja": "\u56fd\u571f\u6570\u5024\u60c5\u5831\uff08\u9244\u9053\u30c7\u30fc\u30bf\uff09\u5e73\u621019\u5e74\u3000\u56fd\u571f\u4ea4\u901a\u7701", "railway": "station", "source": "KSJ2", "source_ref": "http://nlftp.mlit.go.jp/ksj/jpgis/datalist/KsjTmplt-N02-v1_1.html", "wikidata": "Q3467525", "wikipedia": "ja:\u5927\u8c37\u99c5 (\u548c\u6b4c\u5c71\u770c)"}}, {"type": "node", "id": 267333814, "lat": 34.2652244, "lon": 135.3642494, "tags": {"KSJ2:LIN": "\u548c\u6b4c\u5c71\u7dda", "KSJ2:STN": "\u6253\u7530", "name": "\u6253\u7530", "name:en": "Uchita", "name:ja": "\u6253\u7530", "name:ko": "\uc6b0\uce58\ud0c0", "note": "National-Land Numerical Information (Railway) 2007, MLIT Japan", "note:ja": "\u56fd\u571f\u6570\u5024\u60c5\u5831\uff08\u9244\u9053\u30c7\u30fc\u30bf\uff09\u5e73\u621019\u5e74\u3000\u56fd\u571f\u4ea4\u901a\u7701", "public_transport": "station", "railway": "station", "source": "KSJ2", "source_ref": "http://nlftp.mlit.go.jp/ksj/jpgis/datalist/KsjTmplt-N02-v1_1.html", "wikidata": "Q3193482", "wikipedia": "ja:\u6253\u7530\u99c5"}}, {"type": "node", "id": 267333826, "lat": 34.2707749, "lon": 135.4043711, "tags": {"KSJ2:LIN": "\u548c\u6b4c\u5c71\u7dda", "KSJ2:STN": "\u7c89\u6cb3", "name": "\u7c89\u6cb3", "name:en": "Kokawa", "name:ja": "\u7c89\u6cb3", "name:ko": "\uace0\uce74\uc640", "note": "National-Land Numerical Information (Railway) 2007, MLIT Japan", "note:ja": "\u56fd\u571f\u6570\u5024\u60c5\u5831\uff08\u9244\u9053\u30c7\u30fc\u30bf\uff09\u5e73\u621019\u5e74\u3000\u56fd\u571f\u4ea4\u901a\u7701", "public_transport": "station", "railway": "station", "source": "KSJ2", "source_ref": "http://nlftp.mlit.go.jp/ksj/jpgis/datalist/KsjTmplt-N02-v1_1.html", "train": "yes", "wikidata": "Q3467694", "wikipedia": "ja:\u7c89\u6cb3\u99c5"}}, {"type": "node", "id": 267333828, "lat": 34.2682087, "lon": 135.3912206, "tags": {"KSJ2:LIN": "\u548c\u6b4c\u5c71\u7dda", "KSJ2:STN": "\u7d00\u4f0a\u9577\u7530", "name": "\u7d00\u4f0a\u9577\u7530", "name:en": "Kii-Nagata", "name:ja": "\u7d00\u4f0a\u9577\u7530", "name:ko": "\uae30\uc774\ub098\uac00\ud0c0", "note": "National-Land Numerical Information (Railway) 2007, MLIT Japan", "note:ja": "\u56fd\u571f\u6570\u5024\u60c5\u5831\uff08\u9244\u9053\u30c7\u30fc\u30bf\uff09\u5e73\u621019\u5e74\u3000\u56fd\u571f\u4ea4\u901a\u7701", "public_transport": "station", "railway": "station", "source": "KSJ2", "source_ref": "http://nlftp.mlit.go.jp/ksj/jpgis/datalist/KsjTmplt-N02-v1_1.html", "train": "yes", "wikidata": "Q3176389", "wikipedia": "ja:\u7d00\u4f0a\u9577\u7530\u99c5"}}, {"type": "node", "id": 267333875, "lat": 34.3076627, "lon": 135.5572281, "tags": {"KSJ2:LIN": "\u548c\u6b4c\u5c71\u7dda", "KSJ2:STN": "\u9ad8\u91ce\u53e3", "name": "\u9ad8\u91ce\u53e3", "name:en": "K\u014dyaguchi", "name:ja": "\u9ad8\u91ce\u53e3", "name:ko": "\uace0\uc57c\uad6c\uce58", "note": "National-Land Numerical Information (Railway) 2007, MLIT Japan", "note:ja": "\u56fd\u571f\u6570\u5024\u60c5\u5831\uff08\u9244\u9053\u30c7\u30fc\u30bf\uff09\u5e73\u621019\u5e74\u3000\u56fd\u571f\u4ea4\u901a\u7701", "railway": "station", "source": "KSJ2", "source_ref": "http://nlftp.mlit.go.jp/ksj/jpgis/datalist/KsjTmplt-N02-v1_1.html", "wikidata": "Q3525531", "wikipedia": "ja:\u9ad8\u91ce\u53e3\u99c5"}}, {"type": "node", "id": 267333889, "lat": 34.3129914, "lon": 135.5839223, "tags": {"KSJ2:LIN": "\u548c\u6b4c\u5c71\u7dda", "KSJ2:STN": "\u7d00\u4f0a\u5c71\u7530", "name": "\u7d00\u4f0a\u5c71\u7530", "name:en": "Kii-Yamada", "name:ja": "\u7d00\u4f0a\u5c71\u7530", "name:ko": "\uae30\uc774\uc57c\ub9c8\ub2e4", "note": "National-Land Numerical Information (Railway) 2007, MLIT Japan", "note:ja": "\u56fd\u571f\u6570\u5024\u60c5\u5831\uff08\u9244\u9053\u30c7\u30fc\u30bf\uff09\u5e73\u621019\u5e74\u3000\u56fd\u571f\u4ea4\u901a\u7701", "railway": "station", "source": "KSJ2", "source_ref": "http://nlftp.mlit.go.jp/ksj/jpgis/datalist/KsjTmplt-N02-v1_1.html", "wikidata": "Q3525524", "wikipedia": "ja:\u7d00\u4f0a\u5c71\u7530\u99c5"}}, {"type": "node", "id": 267333891, "lat": 34.2620322, "lon": 135.3405451, "tags": {"KSJ2:LIN": "\u548c\u6b4c\u5c71\u7dda", "KSJ2:STN": "\u4e0b\u4e95\u962a", "name": "\u4e0b\u4e95\u962a", "name:en": "Shimoisaka", "name:ja": "\u4e0b\u4e95\u962a", "name:ko": "\uc2dc\ubaa8\uc774\uc0ac\uce74", "note": "National-Land Numerical Information (Railway) 2007, MLIT Japan", "note:ja": "\u56fd\u571f\u6570\u5024\u60c5\u5831\uff08\u9244\u9053\u30c7\u30fc\u30bf\uff09\u5e73\u621019\u5e74\u3000\u56fd\u571f\u4ea4\u901a\u7701", "public_transport": "station", "railway": "station", "source": "KSJ2", "source_ref": "http://nlftp.mlit.go.jp/ksj/jpgis/datalist/KsjTmplt-N02-v1_1.html", "wikidata": "Q3079175", "wikipedia": "ja:\u4e0b\u4e95\u962a\u99c5"}}, {"type": "node", "id": 267333990, "lat": 34.2923778, "lon": 135.4804501, "tags": {"KSJ2:LIN": "\u548c\u6b4c\u5c71\u7dda", "KSJ2:STN": "\u7b20\u7530", "name": "\u7b20\u7530", "name:en": "Kaseda", "name:ja": "\u7b20\u7530", "name:ko": "\uac00\uc138\ub2e4", "note": "National-Land Numerical Information (Railway) 2007, MLIT Japan", "note:ja": "\u56fd\u571f\u6570\u5024\u60c5\u5831\uff08\u9244\u9053\u30c7\u30fc\u30bf\uff09\u5e73\u621019\u5e74\u3000\u56fd\u571f\u4ea4\u901a\u7701", "public_transport": "station", "railway": "station", "source": "KSJ2", "source_ref": "http://nlftp.mlit.go.jp/ksj/jpgis/datalist/KsjTmplt-N02-v1_1.html", "wikidata": "Q3467378", "wikipedia": "ja:\u7b20\u7530\u99c5"}}, {"type": "node", "id": 267333996, "lat": 34.2801334, "lon": 135.4530566, "tags": {"KSJ2:LIN": "\u548c\u6b4c\u5c71\u7dda", "KSJ2:STN": "\u897f\u7b20\u7530", "name": "\u897f\u7b20\u7530", "name:en": "Nishi-Kaseda", "name:ja": "\u897f\u7b20\u7530", "name:ko": "\ub2c8\uc2dc\uce74\uc138\ub2e4", "note": "National-Land Numerical Information (Railway) 2007, MLIT Japan", "note:ja": "\u56fd\u571f\u6570\u5024\u60c5\u5831\uff08\u9244\u9053\u30c7\u30fc\u30bf\uff09\u5e73\u621019\u5e74\u3000\u56fd\u571f\u4ea4\u901a\u7701", "public_transport": "station", "railway": "station", "source": "KSJ2", "source_ref": "http://nlftp.mlit.go.jp/ksj/jpgis/datalist/KsjTmplt-N02-v1_1.html", "wikidata": "Q3431859", "wikipedia": "ja:\u897f\u7b20\u7530\u99c5"}}, {"type": "node", "id": 267334191, "lat": 34.2553896, "lon": 135.3214036, "tags": {"KSJ2:LIN": "\u548c\u6b4c\u5c71\u7dda", "KSJ2:STN": "\u5ca9\u51fa", "name": "\u5ca9\u51fa", "name:en": "Iwade", "name:ja": "\u5ca9\u51fa", "name:ko": "\uc774\uc640\ub370", "note": "National-Land Numerical Information (Railway) 2007, MLIT Japan", "note:ja": "\u56fd\u571f\u6570\u5024\u60c5\u5831\uff08\u9244\u9053\u30c7\u30fc\u30bf\uff09\u5e73\u621019\u5e74\u3000\u56fd\u571f\u4ea4\u901a\u7701", "public_transport": "station", "railway": "station", "source": "KSJ2", "source_ref": "http://nlftp.mlit.go.jp/ksj/jpgis/datalist/KsjTmplt-N02-v1_1.html", "wikidata": "Q2681167", "wikipedia": "ja:\u5ca9\u51fa\u99c5"}}, {"type": "node", "id": 267334273, "lat": 34.2483918, "lon": 135.3115448, "tags": {"KSJ2:LIN": "\u548c\u6b4c\u5c71\u7dda", "KSJ2:STN": "\u8239\u6238", "name": "\u8239\u6238", "name:en": "Funato", "name:ja": "\u8239\u6238", "name:ko": "\ud6c4\ub098\ud1a0", "note": "National-Land Numerical Information (Railway) 2007, MLIT Japan", "note:ja": "\u56fd\u571f\u6570\u5024\u60c5\u5831\uff08\u9244\u9053\u30c7\u30fc\u30bf\uff09\u5e73\u621019\u5e74\u3000\u56fd\u571f\u4ea4\u901a\u7701", "public_transport": "station", "railway": "station", "source": "KSJ2", "source_ref": "http://nlftp.mlit.go.jp/ksj/jpgis/datalist/KsjTmplt-N02-v1_1.html", "wikidata": "Q2646859", "wikipedia": "ja:\u8239\u6238\u99c5"}}, {"type": "node", "id": 267334319, "lat": 34.2463983, "lon": 135.287555, "tags": {"KSJ2:LIN": "\u548c\u6b4c\u5c71\u7dda", "KSJ2:STN": "\u7d00\u4f0a\u5c0f\u5009", "name": "\u7d00\u4f0a\u5c0f\u5009", "name:en": "Kii-Ogura", "name:ja": "\u7d00\u4f0a\u5c0f\u5009", "name:ko": "\uae30\uc774\uc624\uad6c\ub77c", "note": "National-Land Numerical Information (Railway) 2007, MLIT Japan", "note:ja": "\u56fd\u571f\u6570\u5024\u60c5\u5831\uff08\u9244\u9053\u30c7\u30fc\u30bf\uff09\u5e73\u621019\u5e74\u3000\u56fd\u571f\u4ea4\u901a\u7701", "railway": "station", "source": "KSJ2", "source_ref": "http://nlftp.mlit.go.jp/ksj/jpgis/datalist/KsjTmplt-N02-v1_1.html", "wikidata": "Q2646881", "wikipedia": "ja:\u7d00\u4f0a\u5c0f\u5009\u99c5"}}, {"type": "node", "id": 267334372, "lat": 34.2417512, "lon": 135.2456722, "tags": {"KSJ2:LIN": "\u548c\u6b4c\u5c71\u7dda", "KSJ2:STN": "\u5343\u65e6", "name": "\u5343\u65e6", "name:en": "Senda", "name:ja": "\u5343\u65e6", "name:ko": "\uc13c\ub2e4", "note": "National-Land Numerical Information (Railway) 2007, MLIT Japan", "note:ja": "\u56fd\u571f\u6570\u5024\u60c5\u5831\uff08\u9244\u9053\u30c7\u30fc\u30bf\uff09\u5e73\u621019\u5e74\u3000\u56fd\u571f\u4ea4\u901a\u7701", "railway": "station", "source": "KSJ2", "source_ref": "http://nlftp.mlit.go.jp/ksj/jpgis/datalist/KsjTmplt-N02-v1_1.html", "wikidata": "Q2646894", "wikipedia": "ja:\u5343\u65e6\u99c5"}}, {"type": "node", "id": 267334373, "lat": 34.2446084, "lon": 135.262348, "tags": {"KSJ2:LIN": "\u548c\u6b4c\u5c71\u7dda", "KSJ2:STN": "\u5e03\u65bd\u5c4b", "name": "\u5e03\u65bd\u5c4b", "name:en": "Hoshiya", "name:ja": "\u5e03\u65bd\u5c4b", "name:ko": "\ud638\uc2dc\uc57c", "note": "National-Land Numerical Information (Railway) 2007, MLIT Japan", "note:ja": "\u56fd\u571f\u6570\u5024\u60c5\u5831\uff08\u9244\u9053\u30c7\u30fc\u30bf\uff09\u5e73\u621019\u5e74\u3000\u56fd\u571f\u4ea4\u901a\u7701", "railway": "station", "source": "KSJ2", "source_ref": "http://nlftp.mlit.go.jp/ksj/jpgis/datalist/KsjTmplt-N02-v1_1.html", "wikidata": "Q2646872", "wikipedia": "ja:\u5e03\u65bd\u5c4b\u99c5"}}, {"type": "node", "id": 267335686, "lat": 34.4063314, "lon": 135.3412207, "tags": {"KSJ2:LIN": "\u962a\u548c\u7dda", "KSJ2:STN": "\u718a\u53d6", "name": "\u718a\u53d6", "name:en": "Kumatori", "name:ja": "\u718a\u53d6", "name:ko": "\uad6c\ub9c8\ud1a0\ub9ac", "note": "National-Land Numerical Information (Railway) 2007, MLIT Japan", "note:ja": "\u56fd\u571f\u6570\u5024\u60c5\u5831\uff08\u9244\u9053\u30c7\u30fc\u30bf\uff09\u5e73\u621019\u5e74\u3000\u56fd\u571f\u4ea4\u901a\u7701", "public_transport": "station", "railway": "station", "ref": "R44", "source": "KSJ2", "source_ref": "http://nlftp.mlit.go.jp/ksj/jpgis/datalist/KsjTmplt-N02-v1_1.html", "wheelchair": "yes", "wikidata": "Q857013", "wikipedia": "ja:\u718a\u53d6\u99c5"}}, {"type": "node", "id": 267336295, "lat": 34.2692946, "lon": 135.246368, "tags": {"KSJ2:LIN": "\u962a\u548c\u7dda", "KSJ2:STN": "\u7d00\u4f0a", "name": "\u7d00\u4f0a", "name:en": "Kii", "name:ja": "\u7d00\u4f0a", "name:ko": "\uae30\uc774", "note": "National-Land Numerical Information (Railway) 2007, MLIT Japan", "note:ja": "\u56fd\u571f\u6570\u5024\u60c5\u5831\uff08\u9244\u9053\u30c7\u30fc\u30bf\uff09\u5e73\u621019\u5e74\u3000\u56fd\u571f\u4ea4\u901a\u7701", "public_transport": "station", "railway": "station", "ref": "R51", "source": "KSJ2", "source_ref": "http://nlftp.mlit.go.jp/ksj/jpgis/datalist/KsjTmplt-N02-v1_1.html", "wikidata": "Q857023", "wikipedia": "ja:\u7d00\u4f0a\u99c5"}}, {"type": "node", "id": 267336301, "lat": 34.3605283, "lon": 135.2814777, "tags": {"KSJ2:LIN": "\u962a\u548c\u7dda", "KSJ2:STN": "\u548c\u6cc9\u7802\u5ddd", "name": "\u548c\u6cc9\u7802\u5ddd", "name:en": "Izumi-sunagawa", "name:ja": "\u548c\u6cc9\u7802\u5ddd", "name:ko": "\uc774\uc988\ubbf8\uc2a4\ub098\uac00\uc640", "note": "National-Land Numerical Information (Railway) 2007, MLIT Japan", "note:ja": "\u56fd\u571f\u6570\u5024\u60c5\u5831\uff08\u9244\u9053\u30c7\u30fc\u30bf\uff09\u5e73\u621019\u5e74\u3000\u56fd\u571f\u4ea4\u901a\u7701", "public_transport": "station", "railway": "station", "ref": "R48", "source": "KSJ2", "source_ref": "http://nlftp.mlit.go.jp/ksj/jpgis/datalist/KsjTmplt-N02-v1_1.html", "wikidata": "Q857378", "wikipedia": "ja:\u548c\u6cc9\u7802\u5ddd\u99c5"}}, {"type": "node", "id": 267336452, "lat": 34.26242, "lon": 135.2072124, "tags": {"KSJ2:LIN": "\u962a\u548c\u7dda", "KSJ2:STN": "\u516d\u5341\u8c37", "name": "\u516d\u5341\u8c37", "name:en": "Musota", "name:ja": "\u516d\u5341\u8c37", "name:ko": "\ubb34\uc18c\ud0c0", "note": "National-Land Numerical Information (Railway) 2007, MLIT Japan", "note:ja": "\u56fd\u571f\u6570\u5024\u60c5\u5831\uff08\u9244\u9053\u30c7\u30fc\u30bf\uff09\u5e73\u621019\u5e74\u3000\u56fd\u571f\u4ea4\u901a\u7701", "public_transport": "station", "railway": "station", "ref": "R52", "source": "KSJ2", "source_ref": "http://nlftp.mlit.go.jp/ksj/jpgis/datalist/KsjTmplt-N02-v1_1.html", "wikidata": "Q857433", "wikipedia": "ja:\u516d\u5341\u8c37\u99c5"}}, {"type": "node", "id": 267336455, "lat": 34.3723477, "lon": 135.2989628, "tags": {"KSJ2:LIN": "\u962a\u548c\u7dda", "KSJ2:STN": "\u65b0\u5bb6", "name": "\u65b0\u5bb6", "name:en": "Shinge", "name:ja": "\u65b0\u5bb6", "name:ko": "\uc2e0\uac8c", "note": "National-Land Numerical Information (Railway) 2007, MLIT Japan", "note:ja": "\u56fd\u571f\u6570\u5024\u60c5\u5831\uff08\u9244\u9053\u30c7\u30fc\u30bf\uff09\u5e73\u621019\u5e74\u3000\u56fd\u571f\u4ea4\u901a\u7701", "public_transport": "station", "railway": "station", "ref": "R47", "source": "KSJ2", "source_ref": "http://nlftp.mlit.go.jp/ksj/jpgis/datalist/KsjTmplt-N02-v1_1.html", "wikidata": "Q857033", "wikipedia": "ja:\u65b0\u5bb6\u99c5"}}, {"type": "node", "id": 267336637, "lat": 34.3257891, "lon": 135.2697913, "tags": {"KSJ2:LIN": "\u962a\u548c\u7dda", "KSJ2:STN": "\u5c71\u4e2d\u6e13", "name": "\u5c71\u4e2d\u6e13", "name:en": "Yamanakadani", "name:ja": "\u5c71\u4e2d\u6e13", "name:ko": "\uc57c\ub9c8\ub098\uce74\ub2e4\ub2c8", "note": "National-Land Numerical Information (Railway) 2007, MLIT Japan", "note:ja": "\u56fd\u571f\u6570\u5024\u60c5\u5831\uff08\u9244\u9053\u30c7\u30fc\u30bf\uff09\u5e73\u621019\u5e74\u3000\u56fd\u571f\u4ea4\u901a\u7701", "public_transport": "station", "railway": "station", "ref": "R50", "source": "KSJ2", "source_ref": "http://nlftp.mlit.go.jp/ksj/jpgis/datalist/KsjTmplt-N02-v1_1.html", "wikidata": "Q857428", "wikipedia": "ja:\u5c71\u4e2d\u6e13\u99c5"}}, {"type": "node", "id": 267336650, "lat": 34.3819871, "lon": 135.320077, "tags": {"KSJ2:LIN": "\u962a\u548c\u7dda", "KSJ2:STN": "\u9577\u6edd", "name": "\u9577\u6edd", "name:en": "Nagataki", "name:ja": "\u9577\u6edd", "name:ko": "\ub098\uac00\ud0c0\ud0a4", "note": "National-Land Numerical Information (Railway) 2007, MLIT Japan", "note:ja": "\u56fd\u571f\u6570\u5024\u60c5\u5831\uff08\u9244\u9053\u30c7\u30fc\u30bf\uff09\u5e73\u621019\u5e74\u3000\u56fd\u571f\u4ea4\u901a\u7701", "public_transport": "station", "railway": "station", "ref": "R46", "source": "KSJ2", "source_ref": "http://nlftp.mlit.go.jp/ksj/jpgis/datalist/KsjTmplt-N02-v1_1.html", "wikidata": "Q857423", "wikipedia": "ja:\u9577\u6edd\u99c5"}}, {"type": "node", "id": 267336655, "lat": 34.3425624, "lon": 135.2632028, "tags": {"KSJ2:LIN": "\u962a\u548c\u7dda", "KSJ2:STN": "\u548c\u6cc9\u9ce5\u53d6", "name": "\u548c\u6cc9\u9ce5\u53d6", "name:en": "Izumi-tottori", "name:ja": "\u548c\u6cc9\u9ce5\u53d6", "name:ko": "\uc774\uc988\ubbf8\ud1b3\ud1a0\ub9ac", "note": "National-Land Numerical Information (Railway) 2007, MLIT Japan", "note:ja": "\u56fd\u571f\u6570\u5024\u60c5\u5831\uff08\u9244\u9053\u30c7\u30fc\u30bf\uff09\u5e73\u621019\u5e74\u3000\u56fd\u571f\u4ea4\u901a\u7701", "public_transport": "station", "railway": "station", "ref": "R49", "source": "KSJ2", "source_ref": "http://nlftp.mlit.go.jp/ksj/jpgis/datalist/KsjTmplt-N02-v1_1.html", "wikidata": "Q856960", "wikipedia": "ja:\u548c\u6cc9\u9ce5\u53d6\u99c5"}}, {"type": "node", "id": 270866822, "lat": 34.4072449, "lon": 135.3849849, "tags": {"KSJ2:LIN": "\u6c34\u9593\u7dda", "KSJ2:STN": "\u4e09\u30f6\u5c71\u53e3", "name": "\u4e09\u30f6\u5c71\u53e3", "name:en": "Mikeyamaguchi", "name:ja": "\u4e09\u30f6\u5c71\u53e3", "name:ja_rm": "Mikeyamaguchi", "name:ko": "\ubbf8\uce74\uc57c\ub9c8\uad6c\uce58", "note": "National-Land Numerical Information (Railway) 2007, MLIT Japan", "note:ja": "\u56fd\u571f\u6570\u5024\u60c5\u5831\uff08\u9244\u9053\u30c7\u30fc\u30bf\uff09\u5e73\u621019\u5e74\u3000\u56fd\u571f\u4ea4\u901a\u7701", "public_transport": "station", "railway": "station", "source": "KSJ2", "source_ref": "http://nlftp.mlit.go.jp/ksj/jpgis/datalist/KsjTmplt-N02-v1_1.html", "wikidata": "Q6845768", "wikipedia": "ja:\u4e09\u30f6\u5c71\u53e3\u99c5"}}, {"type": "node", "id": 270866824, "lat": 34.4143337, "lon": 135.3818075, "tags": {"KSJ2:LIN": "\u6c34\u9593\u7dda", "KSJ2:STN": "\u68ee", "name": "\u68ee", "name:en": "Mori", "name:ja": "\u68ee", "name:ja_rm": "Mori", "name:ko": "\ubaa8\ub9ac", "note": "National-Land Numerical Information (Railway) 2007, MLIT Japan", "note:ja": "\u56fd\u571f\u6570\u5024\u60c5\u5831\uff08\u9244\u9053\u30c7\u30fc\u30bf\uff09\u5e73\u621019\u5e74\u3000\u56fd\u571f\u4ea4\u901a\u7701", "public_transport": "station", "railway": "station", "source": "KSJ2", "source_ref": "http://nlftp.mlit.go.jp/ksj/jpgis/datalist/KsjTmplt-N02-v1_1.html", "wikidata": "Q257426", "wikipedia": "ja:\u68ee\u99c5 (\u5927\u962a\u5e9c)"}}, {"type": "node", "id": 270866828, "lat": 34.4248705, "lon": 135.372233, "tags": {"KSJ2:LIN": "\u6c34\u9593\u7dda", "KSJ2:STN": "\u6e05\u5150", "name": "\u6e05\u5150", "name:en": "Sechigo", "name:ja": "\u6e05\u5150", "name:ja_rm": "Sechigo", "name:ko": "\uc138\uce58\uace0", "note": "National-Land Numerical Information (Railway) 2007, MLIT Japan", "note:ja": "\u56fd\u571f\u6570\u5024\u60c5\u5831\uff08\u9244\u9053\u30c7\u30fc\u30bf\uff09\u5e73\u621019\u5e74\u3000\u56fd\u571f\u4ea4\u901a\u7701", "public_transport": "station", "railway": "station", "source": "KSJ2", "source_ref": "http://nlftp.mlit.go.jp/ksj/jpgis/datalist/KsjTmplt-N02-v1_1.html", "wikidata": "Q11172222", "wikipedia": "ja:\u6e05\u5150\u99c5"}}, {"type": "node", "id": 270866830, "lat": 34.4214658, "lon": 135.3750074, "tags": {"KSJ2:LIN": "\u6c34\u9593\u7dda", "KSJ2:STN": "\u540d\u8d8a", "name": "\u540d\u8d8a", "name:en": "Nagose", "name:ja": "\u540d\u8d8a", "name:ja_rm": "Nagose", "name:ko": "\ub098\uace0\uc138", "note": "National-Land Numerical Information (Railway) 2007, MLIT Japan", "note:ja": "\u56fd\u571f\u6570\u5024\u60c5\u5831\uff08\u9244\u9053\u30c7\u30fc\u30bf\uff09\u5e73\u621019\u5e74\u3000\u56fd\u571f\u4ea4\u901a\u7701", "public_transport": "station", "railway": "station", "source": "KSJ2", "source_ref": "http://nlftp.mlit.go.jp/ksj/jpgis/datalist/KsjTmplt-N02-v1_1.html", "wikidata": "Q6958928", "wikipedia": "ja:\u540d\u8d8a\u99c5"}}, {"type": "node", "id": 270866845, "lat": 34.4108953, "lon": 135.3833246, "tags": {"KSJ2:LIN": "\u6c34\u9593\u7dda", "KSJ2:STN": "\u4e09\u30c4\u677e", "name": "\u4e09\u30c4\u677e", "name:en": "Mitsumatsu", "name:ja": "\u4e09\u30c4\u677e", "name:ja_rm": "Mitsumatsu", "name:ko": "\ubbf8\uc4f0\ub9c8\uc4f0", "note": "National-Land Numerical Information (Railway) 2007, MLIT Japan", "note:ja": "\u56fd\u571f\u6570\u5024\u60c5\u5831\uff08\u9244\u9053\u30c7\u30fc\u30bf\uff09\u5e73\u621019\u5e74\u3000\u56fd\u571f\u4ea4\u901a\u7701", "public_transport": "station", "railway": "station", "source": "KSJ2", "source_ref": "http://nlftp.mlit.go.jp/ksj/jpgis/datalist/KsjTmplt-N02-v1_1.html", "wikidata": "Q6883300", "wikipedia": "ja:\u4e09\u30c4\u677e\u99c5"}}, {"type": "node", "id": 270866851, "lat": 34.4307979, "lon": 135.3680317, "tags": {"KSJ2:LIN": "\u6c34\u9593\u7dda", "KSJ2:STN": "\u77f3\u624d", "name": "\u77f3\u624d", "name:en": "Ishizai", "name:ja": "\u77f3\u624d", "name:ja_rm": "Ishizai", "name:ko": "\uc774\uc2dc\uc790\uc774", "note": "National-Land Numerical Information (Railway) 2007, MLIT Japan", "note:ja": "\u56fd\u571f\u6570\u5024\u60c5\u5831\uff08\u9244\u9053\u30c7\u30fc\u30bf\uff09\u5e73\u621019\u5e74\u3000\u56fd\u571f\u4ea4\u901a\u7701", "public_transport": "station", "railway": "station", "source": "KSJ2", "source_ref": "http://nlftp.mlit.go.jp/ksj/jpgis/datalist/KsjTmplt-N02-v1_1.html", "wikidata": "Q6080445", "wikipedia": "ja:\u77f3\u624d\u99c5"}}, {"type": "node", "id": 270866868, "lat": 34.4370683, "lon": 135.3627071, "tags": {"KSJ2:LIN": "\u6c34\u9593\u7dda", "KSJ2:STN": "\u8fd1\u7fa9\u306e\u91cc", "name": "\u8fd1\u7fa9\u306e\u91cc", "name:en": "Koginosato", "name:ja": "\u8fd1\u7fa9\u306e\u91cc", "name:ja_rm": "Koginosato", "name:ko": "\uace0\uae30\ub178\uc0ac\ud1a0", "note": "National-Land Numerical Information (Railway) 2007, MLIT Japan", "note:ja": "\u56fd\u571f\u6570\u5024\u60c5\u5831\uff08\u9244\u9053\u30c7\u30fc\u30bf\uff09\u5e73\u621019\u5e74\u3000\u56fd\u571f\u4ea4\u901a\u7701", "public_transport": "station", "railway": "station", "source": "KSJ2", "source_ref": "http://nlftp.mlit.go.jp/ksj/jpgis/datalist/KsjTmplt-N02-v1_1.html", "wikidata": "Q6425803", "wikipedia": "ja:\u8fd1\u7fa9\u306e\u91cc\u99c5"}}, {"type": "node", "id": 280489193, "lat": 34.3513109, "lon": 135.2317053, "tags": {"KSJ2:LIN": "\u5357\u6d77\u672c\u7dda", "KSJ2:STN": "\u9ce5\u53d6\u30ce\u8358", "name": "\u9ce5\u53d6\u30ce\u8358", "name:en": "Tottorinosh\u014d", "name:ja": "\u9ce5\u53d6\u30ce\u8358", "name:ja_rm": "Tottorinosh\u014d", "name:ko": "\ub3d7\ud1a0\ub9ac\ub178\uc1fc", "note": "National-Land Numerical Information (Railway) 2007, MLIT Japan", "note:ja": "\u56fd\u571f\u6570\u5024\u60c5\u5831\uff08\u9244\u9053\u30c7\u30fc\u30bf\uff09\u5e73\u621019\u5e74\u3000\u56fd\u571f\u4ea4\u901a\u7701", "railway": "station", "source": "KSJ2", "source_ref": "http://nlftp.mlit.go.jp/ksj/jpgis/datalist/KsjTmplt-N02-v1_1.html", "wikidata": "Q7828507", "wikipedia": "ja:\u9ce5\u53d6\u30ce\u8358\u99c5"}}, {"type": "node", "id": 280489390, "lat": 34.3742671, "lon": 135.2615056, "tags": {"KSJ2:LIN": "\u5357\u6d77\u672c\u7dda", "KSJ2:STN": "\u6a3d\u4e95", "name": "\u6a3d\u4e95", "name:en": "Tarui", "name:ja": "\u6a3d\u4e95", "name:ja_rm": "Tarui", "name:ko": "\ub2e4\ub8e8\uc774", "note": "National-Land Numerical Information (Railway) 2007, MLIT Japan", "note:ja": "\u56fd\u571f\u6570\u5024\u60c5\u5831\uff08\u9244\u9053\u30c7\u30fc\u30bf\uff09\u5e73\u621019\u5e74\u3000\u56fd\u571f\u4ea4\u901a\u7701", "public_transport": "station", "railway": "station", "source": "KSJ2", "source_ref": "http://nlftp.mlit.go.jp/ksj/jpgis/datalist/KsjTmplt-N02-v1_1.html", "wikidata": "Q11543694", "wikipedia": "ja:\u6a3d\u4e95\u99c5"}}, {"type": "node", "id": 360076791, "lat": 34.2336955, "lon": 135.5819168, "tags": {"KSJ2:LIN": "\u92fc\u7d22\u7dda", "KSJ2:STN": "\u6975\u697d\u6a4b", "funicular": "yes", "name": "\u6975\u697d\u6a4b", "name:en": "Gokurakubashi", "name:es": "Gokurakubashi", "name:fr": "Gokurakubashi", "name:ja": "\u6975\u697d\u6a4b", "name:ko": "\uace0\ucfe0\ub77c\ucfe0\ubc14\uc2dc\uc5ed", "note": "National-Land Numerical Information (Railway) 2007, MLIT Japan", "note:ja": "\u56fd\u571f\u6570\u5024\u60c5\u5831\uff08\u9244\u9053\u30c7\u30fc\u30bf\uff09\u5e73\u621019\u5e74\u3000\u56fd\u571f\u4ea4\u901a\u7701", "public_transport": "stop_position", "railway": "station", "source": "KSJ2", "source_ref": "http://nlftp.mlit.go.jp/ksj/jpgis/datalist/KsjTmplt-N02-v1_1.html", "wikidata": "Q5578128", "wikipedia": "ja:\u6975\u697d\u6a4b\u99c5"}}, {"type": "node", "id": 360076795, "lat": 34.2276, "lon": 135.577305, "tags": {"KSJ2:LIN": "\u92fc\u7d22\u7dda", "KSJ2:STN": "\u9ad8\u91ce\u5c71", "funicular": "yes", "name": "\u9ad8\u91ce\u5c71", "name:en": "Koyasan", "name:es": "Koyasan", "name:fr": "Koyasan", "name:ja": "\u9ad8\u91ce\u5c71", "name:ko": "\uace0\uc57c\uc0b0\uc5ed", "note": "National-Land Numerical Information (Railway) 2007, MLIT Japan", "note:ja": "\u56fd\u571f\u6570\u5024\u60c5\u5831\uff08\u9244\u9053\u30c7\u30fc\u30bf\uff09\u5e73\u621019\u5e74\u3000\u56fd\u571f\u4ea4\u901a\u7701", "public_transport": "stop_position", "railway": "station", "source": "KSJ2", "source_ref": "http://nlftp.mlit.go.jp/ksj/jpgis/datalist/KsjTmplt-N02-v1_1.html", "wikidata": "Q6455335", "wikipedia": "ja:\u9ad8\u91ce\u5c71\u99c5"}}, {"type": "node", "id": 2277099389, "lat": 34.2322107, "lon": 135.19158, "tags": {"covered": "yes", "name": "\u548c\u6b4c\u5c71", "name:en": "Wakayama", "name:ja": "\u548c\u6b4c\u5c71", "name:ko": "\uc640\uce74\uc57c\ub9c8", "public_transport": "station", "railway": "station", "ref": "R54", "source": "survey", "website": "https://www.jr-odekake.net/eki/top.php?id=0622091", "wikidata": "Q1044107", "wikipedia": "ja:\u548c\u6b4c\u5c71\u99c5"}}, {"type": "node", "id": 3700589563, "lat": 34.4033394, "lon": 135.3855272, "tags": {"KSJ2:LIN": "\u6c34\u9593\u7dda", "name": "\u6c34\u9593\u89b3\u97f3", "name:en": "Mizumakannon", "name:ja": "\u6c34\u9593\u89b3\u97f3", "name:ja_rm": "Mizumakannon", "name:ko": "\ubbf8\uc988\ub9c8\uce78\ub17c", "note": "National-Land Numerical Information (Railway) 2007, MLIT Japan", "note:ja": "\u56fd\u571f\u6570\u5024\u60c5\u5831\uff08\u9244\u9053\u30c7\u30fc\u30bf\uff09\u5e73\u621019\u5e74\u3000\u56fd\u571f\u4ea4\u901a\u7701", "railway": "station", "source": "KSJ2", "source_ref": "http://nlftp.mlit.go.jp/ksj/jpgis/datalist/KsjTmplt-N02-v1_1.html", "wikidata": "Q6884850", "wikipedia": "ja:\u6c34\u9593\u89b3\u97f3\u99c5"}}, {"type": "node", "id": 3864449557, "lat": 34.4394834, "lon": 135.3604748, "tags": {"KSJ2:LIN": "\u6c34\u9593\u7dda", "KSJ2:STN": "\u8c9d\u585a\u5e02\u5f79\u6240\u524d", "alt_name:ko": "\uac00\uc774\uc988\uce74\uc2dc\uc57c\ucfe0\uc1fc\ub9c8\uc5d0", "name": "\u8c9d\u585a\u5e02\u5f79\u6240\u524d", "name:en": "Kaizuka Shiyakusho-mae", "name:ja": "\u8c9d\u585a\u5e02\u5f79\u6240\u524d", "name:ja_rm": "Kaizuka shiyakushomae", "name:ko": "\uac00\uc774\uc988\uce74\uc2dc\uccad\uc55e", "note": "National-Land Numerical Information (Railway) 2007, MLIT Japan", "note:ja": "\u56fd\u571f\u6570\u5024\u60c5\u5831\uff08\u9244\u9053\u30c7\u30fc\u30bf\uff09\u5e73\u621019\u5e74\u3000\u56fd\u571f\u4ea4\u901a\u7701", "public_transport": "station", "railway": "station", "source": "KSJ2", "source_ref": "http://nlftp.mlit.go.jp/ksj/jpgis/datalist/KsjTmplt-N02-v1_1.html", "wikidata": "Q6348756", "wikipedia": "ja:\u8c9d\u585a\u5e02\u5f79\u6240\u524d\u99c5"}}, {"type": "node", "id": 3978818100, "lat": 34.4111901, "lon": 135.3169821, "tags": {"KSJ2:LIN": "\u5357\u6d77\u672c\u7dda", "KSJ2:STN": "\u6cc9\u4f50\u91ce", "contact:website": "http://www.nankai.co.jp/traffic/station/izumisano.html", "name": "\u6cc9\u4f50\u91ce", "name:en": "Izumisano", "name:ja": "\u6cc9\u4f50\u91ce", "name:ja-Latn": "Izumisano", "name:ko": "\uc774\uc988\ubbf8\uc0ac\ub178", "name:zh": "\u6cc9\u4f50\u91ce", "note": "National-Land Numerical Information (Railway) 2007, MLIT Japan", "note:ja": "\u56fd\u571f\u6570\u5024\u60c5\u5831\uff08\u9244\u9053\u30c7\u30fc\u30bf\uff09\u5e73\u621019\u5e74\u3000\u56fd\u571f\u4ea4\u901a\u7701", "operator": "\u5357\u6d77\u96fb\u6c17\u9244\u9053", "operator:en": "Nankai Electric Railway", "public_transport": "station", "railway": "station", "ref": "NK30", "source": "KSJ2", "source_ref": "http://nlftp.mlit.go.jp/ksj/jpgis/datalist/KsjTmplt-N02-v1_1.html", "wikidata": "Q6102374", "wikipedia": "ja:\u6cc9\u4f50\u91ce\u99c5"}}, {"type": "node", "id": 3978841588, "lat": 34.4107517, "lon": 135.2996565, "tags": {"KSJ2:LIN": "\u95a2\u897f\u7a7a\u6e2f\u7dda", "KSJ2:STN": "\u308a\u3093\u304f\u3046\u30bf\u30a6\u30f3", "name": "\u308a\u3093\u304f\u3046\u30bf\u30a6\u30f3", "name:en": "Rink\u016b Town", "name:ja": "\u308a\u3093\u304f\u3046\u30bf\u30a6\u30f3", "name:ja-Latn": "Rink\u016b-taun", "name:ko": "\ub9b0\ucfe0\ud0c0\uc6b4", "name:zh": "\u4e34\u7a7a\u9547\u7ad9", "note": "National-Land Numerical Information (Railway) 2007, MLIT Japan", "note:ja": "\u56fd\u571f\u6570\u5024\u60c5\u5831\uff08\u9244\u9053\u30c7\u30fc\u30bf\uff09\u5e73\u621019\u5e74\u3000\u56fd\u571f\u4ea4\u901a\u7701", "platforms": "1", "public_transport": "station", "railway": "station", "source": "KSJ2", "source_ref": "http://nlftp.mlit.go.jp/ksj/jpgis/datalist/KsjTmplt-N02-v1_1.html", "wikidata": "Q856990", "wikipedia": "ja:\u308a\u3093\u304f\u3046\u30bf\u30a6\u30f3\u99c5"}}, {"type": "node", "id": 4456440230, "lat": 34.4366198, "lon": 135.5713025, "tags": {"KSJ2:LIN": "\u9ad8\u91ce\u7dda", "KSJ2:STN": "\u4e09\u65e5\u5e02\u753a", "name": "\u4e09\u65e5\u5e02\u753a", "name:bg": "\u041c\u0438\u043a\u0430\u0438\u0447\u0438-\u0447\u043e\u0443", "name:en": "Mikkaichich\u014d", "name:ja": "\u4e09\u65e5\u5e02\u753a", "name:ja_rm": "Mikkaichich\u014d", "name:ko": "\ubc0b\uce74\uc774\uce58\ucd08", "name:ru": "\u041c\u0438\u043a\u043a\u0430\u0438\u0442\u0438-\u0442\u0451", "note": "National-Land Numerical Information (Railway) 2007, MLIT Japan", "note:ja": "\u56fd\u571f\u6570\u5024\u60c5\u5831\uff08\u9244\u9053\u30c7\u30fc\u30bf\uff09\u5e73\u621019\u5e74\u3000\u56fd\u571f\u4ea4\u901a\u7701", "public_transport": "station", "railway": "station", "source": "KSJ2", "source_ref": "http://nlftp.mlit.go.jp/ksj/jpgis/datalist/KsjTmplt-N02-v1_1.html", "wikidata": "Q6849920", "wikipedia": "ja:\u4e09\u65e5\u5e02\u753a\u99c5"}}, {"type": "node", "id": 4457649790, "lat": 34.2430012, "lon": 135.1902613, "tags": {"KSJ2:LIN": "\u962a\u548c\u7dda", "KSJ2:STN": "\u7d00\u4f0a\u4e2d\u30ce\u5cf6", "name": "\u7d00\u4f0a\u4e2d\u30ce\u5cf6", "name:en": "Kii-nakanoshima", "name:ja": "\u7d00\u4f0a\u4e2d\u30ce\u5cf6", "name:ko": "\uae30\uc774\ub098\uce74\ub178\uc2dc\ub9c8", "note": "National-Land Numerical Information (Railway) 2007, MLIT Japan", "note:ja": "\u56fd\u571f\u6570\u5024\u60c5\u5831\uff08\u9244\u9053\u30c7\u30fc\u30bf\uff09\u5e73\u621019\u5e74\u3000\u56fd\u571f\u4ea4\u901a\u7701", "public_transport": "station", "railway": "station", "ref": "R53", "source": "KSJ2", "source_ref": "http://nlftp.mlit.go.jp/ksj/jpgis/datalist/KsjTmplt-N02-v1_1.html", "wikidata": "Q857454", "wikipedia": "ja:\u7d00\u4f0a\u4e2d\u30ce\u5cf6\u99c5"}}, {"type": "node", "id": 4457784167, "lat": 34.2132217, "lon": 135.1887578, "tags": {"KSJ2:LIN": "\u7d00\u52e2\u7dda", "KSJ2:STN": "\u5bae\u524d", "name": "\u5bae\u524d", "name:en": "Miyamae", "name:ja": "\u5bae\u524d", "name:ko": "\ubbf8\uc57c\ub9c8\uc5d0", "note": "National-Land Numerical Information (Railway) 2007, MLIT Japan", "note:ja": "\u56fd\u571f\u6570\u5024\u60c5\u5831\uff08\u9244\u9053\u30c7\u30fc\u30bf\uff09\u5e73\u621019\u5e74\u3000\u56fd\u571f\u4ea4\u901a\u7701", "railway": "station", "source": "KSJ2", "source_ref": "http://nlftp.mlit.go.jp/ksj/jpgis/datalist/KsjTmplt-N02-v1_1.html", "wikidata": "Q3455703", "wikipedia": "ja:\u5bae\u524d\u99c5"}}, {"type": "node", "id": 4457804655, "lat": 34.2422268, "lon": 135.2296931, "tags": {"KSJ2:LIN": "\u548c\u6b4c\u5c71\u7dda", "KSJ2:STN": "\u7530\u4e95\u30ce\u702c", "name": "\u7530\u4e95\u30ce\u702c", "name:en": "Tainose", "name:ja": "\u7530\u4e95\u30ce\u702c", "name:ko": "\ub2e4\uc774\ub178\uc138", "note": "National-Land Numerical Information (Railway) 2007, MLIT Japan", "note:ja": "\u56fd\u571f\u6570\u5024\u60c5\u5831\uff08\u9244\u9053\u30c7\u30fc\u30bf\uff09\u5e73\u621019\u5e74\u3000\u56fd\u571f\u4ea4\u901a\u7701", "public_transport": "station", "railway": "station", "source": "KSJ2", "source_ref": "http://nlftp.mlit.go.jp/ksj/jpgis/datalist/KsjTmplt-N02-v1_1.html", "wikidata": "Q2646850", "wikipedia": "ja:\u7530\u4e95\u30ce\u702c\u99c5"}}, {"type": "node", "id": 7819494477, "lat": 34.3414146, "lon": 135.2127589, "tags": {"KSJ2:LIN": "\u5357\u6d77\u672c\u7dda", "KSJ2:STN": "\u7bb1\u4f5c", "name": "\u7bb1\u4f5c", "name:en": "Hakotsukuri", "name:ja": "\u7bb1\u4f5c", "name:ja_rm": "Hakotsukuri", "name:ko": "\ud558\ucf54\uc4f0\ucfe0\ub9ac", "note": "National-Land Numerical Information (Railway) 2007, MLIT Japan", "note:ja": "\u56fd\u571f\u6570\u5024\u60c5\u5831\uff08\u9244\u9053\u30c7\u30fc\u30bf\uff09\u5e73\u621019\u5e74\u3000\u56fd\u571f\u4ea4\u901a\u7701", "railway": "station", "source": "KSJ2", "source_ref": "http://nlftp.mlit.go.jp/ksj/jpgis/datalist/KsjTmplt-N02-v1_1.html", "wikidata": "Q5640602", "wikipedia": "ja:\u7bb1\u4f5c\u99c5"}}, {"type": "node", "id": 7829401262, "lat": 34.4165095, "lon": 135.3499784, "tags": {"KSJ2:LIN": "\u962a\u548c\u7dda", "KSJ2:STN": "\u6771\u4f50\u91ce", "name": "\u6771\u4f50\u91ce", "name:en": "Higashi-Sano", "name:ja": "\u6771\u4f50\u91ce", "name:ko": "\ud788\uac00\uc2dc\uc0ac\ub178", "note": "National-Land Numerical Information (Railway) 2007, MLIT Japan", "note:ja": "\u56fd\u571f\u6570\u5024\u60c5\u5831\uff08\u9244\u9053\u30c7\u30fc\u30bf\uff09\u5e73\u621019\u5e74\u3000\u56fd\u571f\u4ea4\u901a\u7701", "public_transport": "station", "railway": "station", "ref": "R43", "source": "KSJ2", "source_ref": "http://nlftp.mlit.go.jp/ksj/jpgis/datalist/KsjTmplt-N02-v1_1.html", "wikidata": "Q856969", "wikipedia": "ja:\u6771\u4f50\u91ce\u99c5"}}, {"type": "node", "id": 7829401264, "lat": 34.4275505, "lon": 135.3589104, "tags": {"KSJ2:LIN": "\u962a\u548c\u7dda", "KSJ2:STN": "\u548c\u6cc9\u6a4b\u672c", "name": "\u548c\u6cc9\u6a4b\u672c", "name:en": "Izumi-Hashimoto", "name:ja": "\u548c\u6cc9\u6a4b\u672c", "name:ko": "\uc774\uc988\ubbf8\ud558\uc2dc\ubaa8\ud1a0", "note": "National-Land Numerical Information (Railway) 2007, MLIT Japan", "note:ja": "\u56fd\u571f\u6570\u5024\u60c5\u5831\uff08\u9244\u9053\u30c7\u30fc\u30bf\uff09\u5e73\u621019\u5e74\u3000\u56fd\u571f\u4ea4\u901a\u7701", "public_transport": "station", "railway": "station", "ref": "R42", "source": "KSJ2", "source_ref": "http://nlftp.mlit.go.jp/ksj/jpgis/datalist/KsjTmplt-N02-v1_1.html", "train": "yes", "wikidata": "Q898395", "wikipedia": "ja:\u548c\u6cc9\u6a4b\u672c\u99c5"}}, {"type": "node", "id": 7829401270, "lat": 34.4397367, "lon": 135.3724757, "tags": {"KSJ2:LIN": "\u962a\u548c\u7dda", "KSJ2:STN": "\u6771\u8c9d\u585a", "name": "\u6771\u8c9d\u585a", "name:en": "Higashi-Kaizuka", "name:ja": "\u6771\u8c9d\u585a", "name:ko": "\ud788\uac00\uc2dc\uce74\uc774\uc988\uce74", "note": "National-Land Numerical Information (Railway) 2007, MLIT Japan", "note:ja": "\u56fd\u571f\u6570\u5024\u60c5\u5831\uff08\u9244\u9053\u30c7\u30fc\u30bf\uff09\u5e73\u621019\u5e74\u3000\u56fd\u571f\u4ea4\u901a\u7701", "public_transport": "station", "railway": "station", "ref": "R41", "source": "KSJ2", "source_ref": "http://nlftp.mlit.go.jp/ksj/jpgis/datalist/KsjTmplt-N02-v1_1.html", "wikidata": "Q857412", "wikipedia": "ja:\u6771\u8c9d\u585a\u99c5"}}, {"type": "node", "id": 7836850382, "lat": 34.3513739, "lon": 135.2314026}, {"type": "node", "id": 7836850383, "lat": 34.3512699, "lon": 135.2312198}, {"type": "node", "id": 7836850384, "lat": 34.3512632, "lon": 135.2311991}, {"type": "node", "id": 7836850385, "lat": 34.3514221, "lon": 135.2313457}, {"type": "node", "id": 7836850386, "lat": 34.3514013, "lon": 135.2314946}, {"type": "node", "id": 7836850387, "lat": 34.3513399, "lon": 135.2312604}, {"type": "node", "id": 7836850388, "lat": 34.3512325, "lon": 135.2312147}, {"type": "node", "id": 7836850389, "lat": 34.3513332, "lon": 135.2315287}, {"type": "node", "id": 8024753023, "lat": 34.3818288, "lon": 135.7145217, "tags": {"Numerical": "Information", "name": "\u5317\u5b87\u667a", "name:en": "Kita-Uchi", "name:ja": "\u5317\u5b87\u667a", "name:ja_rm": "Kita-Uchi", "name:ko": "\uae30\ud0c0\uc6b0\uce58", "public_transport": "station", "railway": "station", "source": "survey", "url": "http://www.jr-odekake.net/eki/top.php?id=0621810", "wikidata": "Q3615850", "wikipedia": "ja:\u5317\u5b87\u667a\u99c5"}}, {"type": "node", "id": 8024753029, "lat": 34.3558348, "lon": 135.6988469, "tags": {"KSJ2:LIN": "\u548c\u6b4c\u5c71\u7dda", "KSJ2:STN": "\u4e94\u6761", "name": "\u4e94\u6761", "name:en": "Gojo", "name:ja": "\u4e94\u6761", "name:ja_rm": "Goj\u014d", "name:ko": "\uace0\uc870", "note": "National-Land Numerical Information (Railway) 2007, MLIT Japan", "note:ja": "\u56fd\u571f\u6570\u5024\u60c5\u5831\uff08\u9244\u9053\u30c7\u30fc\u30bf\uff09\u5e73\u621019\u5e74\u3000\u56fd\u571f\u4ea4\u901a\u7701", "public_transport": "station", "railway": "station", "source": "KSJ2", "source_ref": "http://nlftp.mlit.go.jp/ksj/jpgis/datalist/KsjTmplt-N02-v1_1.html", "url": "http://www.jr-odekake.net/eki/top.php?id=0621811", "wikidata": "Q3615545", "wikipedia": "ja:\u4e94\u6761\u99c5 (\u5948\u826f\u770c)"}}, {"type": "node", "id": 8024787174, "lat": 34.346304, "lon": 135.6848082, "tags": {"KSJ2:LIN": "\u548c\u6b4c\u5c71\u7dda", "KSJ2:STN": "\u5927\u548c\u4e8c\u898b", "name": "\u5927\u548c\u4e8c\u898b", "name:en": "Yamato-Futami", "name:ja": "\u5927\u548c\u4e8c\u898b", "name:ja_rm": "Yamato-Futami", "name:ko": "\uc57c\ub9c8\ud1a0\ud6c4\ud0c0\ubbf8", "note": "National-Land Numerical Information (Railway) 2007, MLIT Japan", "note:ja": "\u56fd\u571f\u6570\u5024\u60c5\u5831\uff08\u9244\u9053\u30c7\u30fc\u30bf\uff09\u5e73\u621019\u5e74\u3000\u56fd\u571f\u4ea4\u901a\u7701", "public_transport": "station", "railway": "station", "source": "KSJ2", "source_ref": "http://nlftp.mlit.go.jp/ksj/jpgis/datalist/KsjTmplt-N02-v1_1.html", "toilets:wheelchair": "no", "url": "http://www.jr-odekake.net/eki/top.php?id=0621812", "wheelchair": "no", "wikidata": "Q3615301", "wikipedia": "ja:\u5927\u548c\u4e8c\u898b\u99c5"}}, {"type": "node", "id": 8156160926, "lat": 34.3843711, "lon": 135.2765813, "tags": {"KSJ2:LIN": "\u5357\u6d77\u672c\u7dda", "KSJ2:STN": "\u5ca1\u7530\u6d66", "name": "\u5ca1\u7530\u6d66", "name:en": "Okadaura", "name:ja": "\u5ca1\u7530\u6d66", "name:ja_rm": "Okadaura", "name:ko": "\uc624\uce74\ub2e4\uc6b0\ub77c", "note": "National-Land Numerical Information (Railway) 2007, MLIT Japan", "note:ja": "\u56fd\u571f\u6570\u5024\u60c5\u5831\uff08\u9244\u9053\u30c7\u30fc\u30bf\uff09\u5e73\u621019\u5e74\u3000\u56fd\u571f\u4ea4\u901a\u7701", "public_transport": "station", "railway": "station", "source": "KSJ2", "source_ref": "http://nlftp.mlit.go.jp/ksj/jpgis/datalist/KsjTmplt-N02-v1_1.html", "wikidata": "Q7081723", "wikipedia": "ja:\u5ca1\u7530\u6d66\u99c5"}}, {"type": "node", "id": 8156160928, "lat": 34.3911952, "lon": 135.289472, "tags": {"KSJ2:LIN": "\u5357\u6d77\u672c\u7dda", "KSJ2:STN": "\u5409\u898b\u30ce\u91cc", "name": "\u5409\u898b\u30ce\u91cc", "name:en": "Yoshiminosato", "name:ja": "\u5409\u898b\u30ce\u91cc", "name:ja_rm": "Yoshiminosato", "name:ko": "\uc694\uc2dc\ubbf8\ub178\uc0ac\ud1a0", "note": "National-Land Numerical Information (Railway) 2007, MLIT Japan", "note:ja": "\u56fd\u571f\u6570\u5024\u60c5\u5831\uff08\u9244\u9053\u30c7\u30fc\u30bf\uff09\u5e73\u621019\u5e74\u3000\u56fd\u571f\u4ea4\u901a\u7701", "public_transport": "station", "railway": "station", "source": "KSJ2", "source_ref": "http://nlftp.mlit.go.jp/ksj/jpgis/datalist/KsjTmplt-N02-v1_1.html", "wikidata": "Q8056171", "wikipedia": "ja:\u5409\u898b\u30ce\u91cc\u99c5"}}, {"type": "node", "id": 8156160930, "lat": 34.4196398, "lon": 135.3307204, "tags": {"KSJ2:LIN": "\u5357\u6d77\u672c\u7dda", "KSJ2:STN": "\u4e95\u539f\u91cc", "name": "\u4e95\u539f\u91cc", "name:en": "Iharanosato", "name:ja": "\u4e95\u539f\u91cc", "name:ja_rm": "Iharanosato", "name:ko": "\uc774\ud558\ub77c\ub178\uc0ac\ud1a0", "name:zh": "\u4e95\u539f\u91cc", "note": "National-Land Numerical Information (Railway) 2007, MLIT Japan", "note:ja": "\u56fd\u571f\u6570\u5024\u60c5\u5831\uff08\u9244\u9053\u30c7\u30fc\u30bf\uff09\u5e73\u621019\u5e74\u3000\u56fd\u571f\u4ea4\u901a\u7701", "public_transport": "station", "railway": "station", "source": "KSJ2", "source_ref": "http://nlftp.mlit.go.jp/ksj/jpgis/datalist/KsjTmplt-N02-v1_1.html", "wikidata": "Q11373396", "wikipedia": "ja:\u4e95\u539f\u91cc\u99c5"}}, {"type": "node", "id": 8156160931, "lat": 34.4267143, "lon": 135.3386074, "tags": {"KSJ2:LIN": "\u5357\u6d77\u672c\u7dda", "KSJ2:STN": "\u9db4\u539f", "name": "\u9db4\u539f", "name:en": "Tsuruhara", "name:ja": "\u9db4\u539f", "name:ja_rm": "Tsuruhara", "name:ko": "\uc4f0\ub8e8\ud558\ub77c", "name:zh": "\u9e64\u539f", "note": "National-Land Numerical Information (Railway) 2007, MLIT Japan", "note:ja": "\u56fd\u571f\u6570\u5024\u60c5\u5831\uff08\u9244\u9053\u30c7\u30fc\u30bf\uff09\u5e73\u621019\u5e74\u3000\u56fd\u571f\u4ea4\u901a\u7701", "public_transport": "station", "railway": "station", "source": "KSJ2", "source_ref": "http://nlftp.mlit.go.jp/ksj/jpgis/datalist/KsjTmplt-N02-v1_1.html", "wikidata": "Q7850278", "wikipedia": "ja:\u9db4\u539f\u99c5"}}, {"type": "node", "id": 8156160933, "lat": 34.4325228, "lon": 135.3451051, "tags": {"KSJ2:LIN": "\u5357\u6d77\u672c\u7dda", "KSJ2:STN": "\u4e8c\u8272\u6d5c", "name": "\u4e8c\u8272\u6d5c", "name:en": "Nishikinohama", "name:ja": "\u4e8c\u8272\u6d5c", "name:ja_rm": "Nishikinohama", "name:ko": "\ub2c8\uc2dc\ud0a4\ub178\ud558\ub9c8", "name:zh": "\u4e8c\u8272\u6d5c", "note": "National-Land Numerical Information (Railway) 2007, MLIT Japan", "note:ja": "\u56fd\u571f\u6570\u5024\u60c5\u5831\uff08\u9244\u9053\u30c7\u30fc\u30bf\uff09\u5e73\u621019\u5e74\u3000\u56fd\u571f\u4ea4\u901a\u7701", "public_transport": "station", "railway": "station", "source": "KSJ2", "source_ref": "http://nlftp.mlit.go.jp/ksj/jpgis/datalist/KsjTmplt-N02-v1_1.html", "wheelchair": "yes", "wikidata": "Q11371769", "wikipedia": "ja:\u4e8c\u8272\u6d5c\u99c5"}}, {"type": "node", "id": 8157672507, "lat": 34.3993964, "lon": 135.299877, "tags": {"KSJ2:LIN": "\u5357\u6d77\u672c\u7dda", "KSJ2:STN": "\u7fbd\u5009\u5d0e", "name": "\u7fbd\u5009\u5d0e", "name:en": "Hagurazaki", "name:ja": "\u7fbd\u5009\u5d0e", "name:ja_rm": "Hagurazaki", "name:ko": "\ud558\uad6c\ub77c\uc790\ud0a4", "note": "National-Land Numerical Information (Railway) 2007, MLIT Japan", "note:ja": "\u56fd\u571f\u6570\u5024\u60c5\u5831\uff08\u9244\u9053\u30c7\u30fc\u30bf\uff09\u5e73\u621019\u5e74\u3000\u56fd\u571f\u4ea4\u901a\u7701", "public_transport": "station", "railway": "station", "source": "KSJ2", "source_ref": "http://nlftp.mlit.go.jp/ksj/jpgis/datalist/KsjTmplt-N02-v1_1.html", "wikidata": "Q5638841", "wikipedia": "ja:\u7fbd\u5009\u5d0e\u99c5"}}, {"type": "node", "id": 8157672509, "lat": 34.3615973, "lon": 135.2406692, "tags": {"name": "\u5c3e\u5d0e", "name:en": "Ozaki", "name:ja": "\u5c3e\u5d0e", "name:ja-Hira": "\u304a\u3056\u304d", "public_transport": "station", "railway": "station", "wikidata": "Q7116438", "wikipedia": "ja:\u5c3e\u5d0e\u99c5"}}, {"type": "node", "id": 8163291230, "lat": 34.2665086, "lon": 135.553091, "tags": {"KSJ2:LIN": "\u9ad8\u91ce\u7dda", "KSJ2:STN": "\u4e0b\u53e4\u6ca2", "name": "\u4e0b\u53e4\u6ca2", "name:en": "Shimo-Kosawa", "name:ja": "\u4e0b\u53e4\u6ca2", "name:ko": "\uc2dc\ubaa8\ucf54\uc0ac\uc640", "note": "National-Land Numerical Information (Railway) 2007, MLIT Japan", "note:ja": "\u56fd\u571f\u6570\u5024\u60c5\u5831\uff08\u9244\u9053\u30c7\u30fc\u30bf\uff09\u5e73\u621019\u5e74\u3000\u56fd\u571f\u4ea4\u901a\u7701", "public_transport": "station", "railway": "station", "source": "KSJ2", "source_ref": "http://nlftp.mlit.go.jp/ksj/jpgis/datalist/KsjTmplt-N02-v1_1.html", "wikidata": "Q7496926", "wikipedia": "ja:\u4e0b\u53e4\u6ca2\u99c5"}}, {"type": "node", "id": 8163291241, "lat": 34.2575002, "lon": 135.5479954, "tags": {"KSJ2:LIN": "\u9ad8\u91ce\u7dda", "KSJ2:STN": "\u4e0a\u53e4\u6ca2", "name": "\u4e0a\u53e4\u6ca2", "name:en": "Kami-Kosawa", "name:ja": "\u4e0a\u53e4\u6ca2", "name:ko": "\uac00\ubbf8\ucf54\uc0ac\uc640", "note": "National-Land Numerical Information (Railway) 2007, MLIT Japan", "note:ja": "\u56fd\u571f\u6570\u5024\u60c5\u5831\uff08\u9244\u9053\u30c7\u30fc\u30bf\uff09\u5e73\u621019\u5e74\u3000\u56fd\u571f\u4ea4\u901a\u7701", "public_transport": "station", "railway": "station", "source": "KSJ2", "source_ref": "http://nlftp.mlit.go.jp/ksj/jpgis/datalist/KsjTmplt-N02-v1_1.html", "wikidata": "Q11358653", "wikipedia": "ja:\u4e0a\u53e4\u6ca2\u99c5"}}, {"type": "node", "id": 8163291242, "lat": 34.2358697, "lon": 135.5537617, "tags": {"KSJ2:LIN": "\u9ad8\u91ce\u7dda", "KSJ2:STN": "\u7d00\u4f0a\u7d30\u5ddd", "name": "\u7d00\u4f0a\u7d30\u5ddd", "name:en": "Kii-Hosokawa", "name:ja": "\u7d00\u4f0a\u7d30\u5ddd", "name:ko": "\uae30\uc774\ud638\uc18c\uce74\uc640", "note": "National-Land Numerical Information (Railway) 2007, MLIT Japan", "note:ja": "\u56fd\u571f\u6570\u5024\u60c5\u5831\uff08\u9244\u9053\u30c7\u30fc\u30bf\uff09\u5e73\u621019\u5e74\u3000\u56fd\u571f\u4ea4\u901a\u7701", "public_transport": "station", "railway": "station", "source": "KSJ2", "source_ref": "http://nlftp.mlit.go.jp/ksj/jpgis/datalist/KsjTmplt-N02-v1_1.html", "wikidata": "Q6406043", "wikipedia": "ja:\u7d00\u4f0a\u7d30\u5ddd\u99c5"}}, {"type": "node", "id": 8163291249, "lat": 34.2427221, "lon": 135.5711613, "tags": {"KSJ2:LIN": "\u9ad8\u91ce\u7dda", "KSJ2:STN": "\u7d00\u4f0a\u795e\u8c37", "name": "\u7d00\u4f0a\u795e\u8c37", "name:en": "Kii-Kamiya", "name:ja": "\u7d00\u4f0a\u795e\u8c37", "name:ko": "\uae30\uc774\uce74\ubbf8\uc57c", "note": "National-Land Numerical Information (Railway) 2007, MLIT Japan", "note:ja": "\u56fd\u571f\u6570\u5024\u60c5\u5831\uff08\u9244\u9053\u30c7\u30fc\u30bf\uff09\u5e73\u621019\u5e74\u3000\u56fd\u571f\u4ea4\u901a\u7701", "public_transport": "station", "railway": "station", "source": "KSJ2", "source_ref": "http://nlftp.mlit.go.jp/ksj/jpgis/datalist/KsjTmplt-N02-v1_1.html", "wikidata": "Q6406045", "wikipedia": "ja:\u7d00\u4f0a\u795e\u8c37\u99c5"}}, {"type": "node", "id": 8163291255, "lat": 34.2342574, "lon": 135.5819759, "tags": {"KSJ2:LIN": "\u9ad8\u91ce\u7dda", "KSJ2:STN": "\u6975\u697d\u6a4b", "name": "\u6975\u697d\u6a4b", "name:en": "Gokurakubashi", "name:fr": "Gokurakubashi", "name:ja": "\u6975\u697d\u6a4b", "name:ko": "\uace0\ucfe0\ub77c\ucfe0\ubc14\uc2dc\uc5ed", "note": "National-Land Numerical Information (Railway) 2007, MLIT Japan", "note:ja": "\u56fd\u571f\u6570\u5024\u60c5\u5831\uff08\u9244\u9053\u30c7\u30fc\u30bf\uff09\u5e73\u621019\u5e74\u3000\u56fd\u571f\u4ea4\u901a\u7701", "public_transport": "station", "railway": "station", "source": "KSJ2", "source_ref": "http://nlftp.mlit.go.jp/ksj/jpgis/datalist/KsjTmplt-N02-v1_1.html", "wikidata": "Q5578128", "wikipedia": "ja:\u6975\u697d\u6a4b\u99c5"}}, {"type": "node", "id": 8163291268, "lat": 34.3184138, "lon": 135.6146094, "tags": {"KSJ2:LIN": "\u9ad8\u91ce\u7dda", "KSJ2:STN": "\u6a4b\u672c", "name": "\u6a4b\u672c", "name:en": "Hashimoto", "name:ja": "\u6a4b\u672c", "name:ja_rm": "Hashimoto", "name:ko": "\ud558\uc2dc\ubaa8\ud1a0", "note": "National-Land Numerical Information (Railway) 2007, MLIT Japan", "note:ja": "\u56fd\u571f\u6570\u5024\u60c5\u5831\uff08\u9244\u9053\u30c7\u30fc\u30bf\uff09\u5e73\u621019\u5e74\u3000\u56fd\u571f\u4ea4\u901a\u7701", "public_transport": "station", "railway": "station", "source": "KSJ2", "source_ref": "http://nlftp.mlit.go.jp/ksj/jpgis/datalist/KsjTmplt-N02-v1_1.html", "wikidata": "Q3558008", "wikipedia": "ja:\u6a4b\u672c\u99c5 (\u548c\u6b4c\u5c71\u770c)"}}, {"type": "node", "id": 8185667040, "lat": 34.2716971, "lon": 135.5663685, "tags": {"name": "\u9ad8\u91ce\u4e0b", "name:en": "K\u014dyashita", "name:ja": "\u9ad8\u91ce\u4e0b", "name:ko": "\uace0\uc57c\uc2dc\ud0c0", "note": "National-Land Numerical Information (Railway) 2007, MLIT Japan", "note:ja": "\u56fd\u571f\u6570\u5024\u60c5\u5831\uff08\u9244\u9053\u30c7\u30fc\u30bf\uff09\u5e73\u621019\u5e74\u3000\u56fd\u571f\u4ea4\u901a\u7701", "public_transport": "station", "railway": "station", "source": "KSJ2", "source_ref": "http://nlftp.mlit.go.jp/ksj/jpgis/datalist/KsjTmplt-N02-v1_1.html", "wikidata": "Q6455338", "wikipedia": "ja:\u9ad8\u91ce\u4e0b\u99c5"}}, {"type": "node", "id": 8185667051, "lat": 34.2965572, "lon": 135.5800628, "tags": {"name": "\u5b66\u6587\u8def", "name:en": "Kamuro", "name:ja": "\u5b66\u6587\u8def", "name:ko": "\uac00\ubb34\ub85c", "note": "National-Land Numerical Information (Railway) 2007, MLIT Japan", "note:ja": "\u56fd\u571f\u6570\u5024\u60c5\u5831\uff08\u9244\u9053\u30c7\u30fc\u30bf\uff09\u5e73\u621019\u5e74\u3000\u56fd\u571f\u4ea4\u901a\u7701", "public_transport": "station", "railway": "station", "source": "KSJ2", "source_ref": "http://nlftp.mlit.go.jp/ksj/jpgis/datalist/KsjTmplt-N02-v1_1.html", "wikidata": "Q6359870", "wikipedia": "ja:\u5b66\u6587\u8def\u99c5"}}, {"type": "node", "id": 8185667060, "lat": 34.3074429, "lon": 135.6046161, "tags": {"name": "\u7d00\u4f0a\u6e05\u6c34", "name:en": "Kii-Shimizu", "name:ja": "\u7d00\u4f0a\u6e05\u6c34", "name:ko": "\uae30\uc774\uc2dc\ubbf8\uc988", "note": "National-Land Numerical Information (Railway) 2007, MLIT Japan", "note:ja": "\u56fd\u571f\u6570\u5024\u60c5\u5831\uff08\u9244\u9053\u30c7\u30fc\u30bf\uff09\u5e73\u621019\u5e74\u3000\u56fd\u571f\u4ea4\u901a\u7701", "public_transport": "station", "railway": "station", "source": "KSJ2", "source_ref": "http://nlftp.mlit.go.jp/ksj/jpgis/datalist/KsjTmplt-N02-v1_1.html", "wikidata": "Q6406048", "wikipedia": "ja:\u7d00\u4f0a\u6e05\u6c34\u99c5"}}, {"type": "node", "id": 8185667070, "lat": 34.3378833, "lon": 135.6020976, "tags": {"name": "\u5fa1\u5e78\u8fbb", "name:en": "Miyukitsuji", "name:ja": "\u5fa1\u5e78\u8fbb", "name:ja_rm": "Miyukitsuji", "name:ko": "\ubbf8\uc720\ud0a4\uc4f0\uc9c0", "network": "\u9ad8\u91ce\u7dda", "note": "National-Land Numerical Information (Railway) 2007, MLIT Japan", "note:ja": "\u56fd\u571f\u6570\u5024\u60c5\u5831\uff08\u9244\u9053\u30c7\u30fc\u30bf\uff09\u5e73\u621019\u5e74\u3000\u56fd\u571f\u4ea4\u901a\u7701", "operator": "\u5357\u6d77\u9244\u9053", "public_transport": "station", "railway": "station", "source": "KSJ2", "source_ref": "http://nlftp.mlit.go.jp/ksj/jpgis/datalist/KsjTmplt-N02-v1_1.html", "wikidata": "Q6884576", "wikipedia": "ja:\u5fa1\u5e78\u8fbb\u99c5"}}, {"type": "node", "id": 8185667071, "lat": 34.3555065, "lon": 135.6033421, "tags": {"name": "\u6797\u9593\u7530\u5712\u90fd\u5e02", "name:en": "Rinkanden-Entoshi", "name:ja": "\u6797\u9593\u7530\u5712\u90fd\u5e02", "name:ja_rm": "Rinkanden-Entoshi", "name:ko": "\ub9b0\uce78\ub374\uc5d4\ud1a0\uc2dc", "note": "National-Land Numerical Information (Railway) 2007, MLIT Japan", "note:ja": "\u56fd\u571f\u6570\u5024\u60c5\u5831\uff08\u9244\u9053\u30c7\u30fc\u30bf\uff09\u5e73\u621019\u5e74\u3000\u56fd\u571f\u4ea4\u901a\u7701", "operator": "\u5357\u6d77\u9244\u9053", "public_transport": "station", "railway": "station", "source": "KSJ2", "source_ref": "http://nlftp.mlit.go.jp/ksj/jpgis/datalist/KsjTmplt-N02-v1_1.html", "wheelchair": "limited", "wikidata": "Q7335047", "wikipedia": "ja:\u6797\u9593\u7530\u5712\u90fd\u5e02\u99c5"}}, {"type": "node", "id": 8185667074, "lat": 34.3661019, "lon": 135.6001349, "tags": {"name": "\u7d00\u898b\u5ce0", "name:en": "Kimit\u014dge", "name:ja": "\u7d00\u898b\u5ce0", "name:ja_rm": "Kimit\u014dge", "name:ko": "\uae30\ubbf8\ud1a0\uac8c", "note": "National-Land Numerical Information (Railway) 2007, MLIT Japan", "note:ja": "\u56fd\u571f\u6570\u5024\u60c5\u5831\uff08\u9244\u9053\u30c7\u30fc\u30bf\uff09\u5e73\u621019\u5e74\u3000\u56fd\u571f\u4ea4\u901a\u7701", "operator": "\u5357\u6d77\u9244\u9053", "public_transport": "station", "railway": "station", "source": "KSJ2", "source_ref": "http://nlftp.mlit.go.jp/ksj/jpgis/datalist/KsjTmplt-N02-v1_1.html", "wikidata": "Q6410156", "wikipedia": "ja:\u7d00\u898b\u5ce0\u99c5"}}, {"type": "node", "id": 8185667075, "lat": 34.3971716, "lon": 135.5955342, "tags": {"name": "\u5929\u898b", "name:bg": "\u0410\u043c\u0430\u043c\u0438", "name:en": "Amami", "name:ja": "\u5929\u898b", "name:ja_rm": "Amami", "name:ko": "\uc544\ub9c8\ubbf8", "name:ru": "\u0410\u043c\u0430\u043c\u0438", "note": "National-Land Numerical Information (Railway) 2007, MLIT Japan", "note:ja": "\u56fd\u571f\u6570\u5024\u60c5\u5831\uff08\u9244\u9053\u30c7\u30fc\u30bf\uff09\u5e73\u621019\u5e74\u3000\u56fd\u571f\u4ea4\u901a\u7701", "public_transport": "station", "railway": "station", "source": "KSJ2", "source_ref": "http://nlftp.mlit.go.jp/ksj/jpgis/datalist/KsjTmplt-N02-v1_1.html", "wikidata": "Q4739460", "wikipedia": "ja:\u5929\u898b\u99c5"}}, {"type": "node", "id": 8185667076, "lat": 34.4117216, "lon": 135.5901047, "tags": {"name": "\u5343\u65e9\u53e3", "name:bg": "\u0427\u0438\u0445\u0430\u044f-\u0433\u0443\u0447\u0438", "name:en": "Chihayaguchi", "name:ja": "\u5343\u65e9\u53e3", "name:ja_rm": "Chihayaguchi", "name:ko": "\uc9c0\ud558\uc57c\uad6c\uce58", "name:ru": "\u0422\u0438\u0445\u0430\u044f-\u0433\u0443\u0442\u0438", "note": "National-Land Numerical Information (Railway) 2007, MLIT Japan", "note:ja": "\u56fd\u571f\u6570\u5024\u60c5\u5831\uff08\u9244\u9053\u30c7\u30fc\u30bf\uff09\u5e73\u621019\u5e74\u3000\u56fd\u571f\u4ea4\u901a\u7701", "public_transport": "station", "railway": "station", "source": "KSJ2", "source_ref": "http://nlftp.mlit.go.jp/ksj/jpgis/datalist/KsjTmplt-N02-v1_1.html", "wikidata": "Q5097284", "wikipedia": "ja:\u5343\u65e9\u53e3\u99c5"}}, {"type": "node", "id": 8185667078, "lat": 34.4243686, "lon": 135.5775949, "tags": {"name": "\u7f8e\u52a0\u306e\u53f0", "name:bg": "\u041c\u0438\u043a\u0430\u043d\u043e\u0434\u0430\u0439", "name:en": "Mikanodai", "name:ja": "\u7f8e\u52a0\u306e\u53f0", "name:ja_rm": "Mikanodai", "name:ko": "\ubbf8\uce74\ub178\ub2e4\uc774", "name:ru": "\u041c\u0438\u043a\u0430\u043d\u043e\u0434\u0430\u0439", "note": "National-Land Numerical Information (Railway) 2007, MLIT Japan", "note:ja": "\u56fd\u571f\u6570\u5024\u60c5\u5831\uff08\u9244\u9053\u30c7\u30fc\u30bf\uff09\u5e73\u621019\u5e74\u3000\u56fd\u571f\u4ea4\u901a\u7701", "public_transport": "station", "railway": "station", "source": "KSJ2", "source_ref": "http://nlftp.mlit.go.jp/ksj/jpgis/datalist/KsjTmplt-N02-v1_1.html", "wikidata": "Q6845717", "wikipedia": "ja:\u7f8e\u52a0\u306e\u53f0\u99c5"}}, {"type": "node", "id": 8187169371, "lat": 34.288069, "lon": 135.564599, "tags": {"name": "\u4e5d\u5ea6\u5c71", "name:en": "Kudoyama", "name:ja": "\u4e5d\u5ea6\u5c71", "name:ko": "\uad6c\ub3c4\uc57c\ub9c8", "note": "National-Land Numerical Information (Railway) 2007, MLIT Japan", "note:ja": "\u56fd\u571f\u6570\u5024\u60c5\u5831\uff08\u9244\u9053\u30c7\u30fc\u30bf\uff09\u5e73\u621019\u5e74\u3000\u56fd\u571f\u4ea4\u901a\u7701", "public_transport": "station", "railway": "station", "source": "KSJ2", "source_ref": "http://nlftp.mlit.go.jp/ksj/jpgis/datalist/KsjTmplt-N02-v1_1.html", "wikidata": "Q289187", "wikipedia": "ja:\u4e5d\u5ea6\u5c71\u99c5"}}, {"type": "node", "id": 9523919518, "lat": 34.1700888, "lon": 135.2103209, "tags": {"name": "\u9ed2\u6c5f", "public_transport": "station", "railway": "station", "train": "yes"}}, {"type": "node", "id": 11152224452, "lat": 34.1702746, "lon": 135.2101139}, {"type": "node", "id": 11152224453, "lat": 34.170032, "lon": 135.2102193}, {"type": "node", "id": 11152224454, "lat": 34.17009, "lon": 135.2104119}, {"type": "node", "id": 11152224455, "lat": 34.1703345, "lon": 135.2102819}, {"type": "node", "id": 11851380803, "lat": 34.2093678, "lon": 135.3120093, "tags": {"name": "\u8cb4\u5fd7", "name:en": "Kishi", "name:ja": "\u8cb4\u5fd7", "name:ko": "\uae30\uc2dc", "public_transport": "station", "railway": "station", "ref": "14", "wikidata": "Q11634778", "wikipedia": "ja:\u8cb4\u5fd7\u99c5"}}, {"type": "node", "id": 11851380804, "lat": 34.2133432, "lon": 135.3014595, "tags": {"name": "\u7518\u9732\u5bfa\u524d", "name:en": "Kanroji-mae", "name:ja": "\u7518\u9732\u5bfa\u524d", "name:ko": "\uac04\ub85c\uc9c0\uc55e", "public_transport": "station", "railway": "station", "ref": "13", "wikidata": "Q11574308", "wikipedia": "ja:\u7518\u9732\u5bfa\u524d\u99c5"}}, {"type": "node", "id": 11851380812, "lat": 34.209767, "lon": 135.2912577, "tags": {"name": "\u897f\u5c71\u53e3", "name:en": "Nishi-Yamaguchi", "name:ja": "\u897f\u5c71\u53e3", "name:ko": "\ub2c8\uc2dc\uc57c\ub9c8\uad6c\uce58", "public_transport": "station", "railway": "station", "ref": "12", "wikidata": "Q11627816", "wikipedia": "ja:\u897f\u5c71\u53e3\u99c5"}}, {"type": "node", "id": 11851380818, "lat": 34.2047433, "lon": 135.2855808, "tags": {"name": "\u5927\u6c60\u904a\u5712", "name:en": "\u014cike-Y\u016ben", "name:ja": "\u5927\u6c60\u904a\u5712", "name:ko": "\uc624\uc774\ucf00\uc720\uc6d0", "public_transport": "station", "railway": "station", "ref": "11", "wikidata": "Q11436914", "wikipedia": "ja:\u5927\u6c60\u904a\u5712\u99c5"}}, {"type": "node", "id": 11851380833, "lat": 34.2058375, "lon": 135.2625118, "tags": {"name": "\u5c71\u6771", "name:en": "Sand\u014d", "name:ja": "\u5c71\u6771", "name:ko": "\uc0b0\ub3c4", "public_transport": "station", "railway": "station", "ref": "10", "wikidata": "Q11469515", "wikipedia": "ja:\u5c71\u6771\u99c5"}}, {"type": "node", "id": 11851380838, "lat": 34.2042143, "lon": 135.2513431, "tags": {"name": "\u4f0a\u592a\u7941\u66fd", "name:en": "Idakiso", "name:ja": "\u4f0a\u592a\u7941\u66fd", "name:ja-Hira": "\u3044\u3060\u304d\u305d", "name:ko": "\uc774\ub2e4\ud0a4\uc18c", "public_transport": "station", "railway": "station", "ref": "09", "wikidata": "Q11379273", "wikipedia": "ja:\u4f0a\u592a\u7948\u66fd\u99c5"}}, {"type": "node", "id": 11851380839, "lat": 34.203393, "lon": 135.2361269, "tags": {"name": "\u5409\u793c", "name:en": "Kire", "name:ja": "\u5409\u793c", "name:ko": "\uae30\ub808", "public_transport": "station", "railway": "station", "ref": "08", "wikidata": "Q11414176", "wikipedia": "ja:\u5409\u793c\u99c5"}}, {"type": "node", "id": 11851380852, "lat": 34.2034606, "lon": 135.2249958, "tags": {"name": "\u5ca1\u5d0e\u524d", "name:en": "Okazaki-mae", "name:ja": "\u5ca1\u5d0e\u524d", "name:ko": "\uc624\uce74\uc790\ud0a4\ub9c8\uc5d0", "public_transport": "station", "railway": "station", "ref": "07", "wikidata": "Q11472822", "wikipedia": "ja:\u5ca1\u5d0e\u524d\u99c5"}}, {"type": "node", "id": 11851380862, "lat": 34.2038239, "lon": 135.2181729, "tags": {"name": "\u4ea4\u901a\u30bb\u30f3\u30bf\u30fc\u524d", "name:en": "K\u014dts\u016b-Center-mae", "name:ja": "\u4ea4\u901a\u30bb\u30f3\u30bf\u30fc\u524d", "name:ko": "\uad50\ud1b5\uc13c\ud130\uc55e", "public_transport": "station", "railway": "station", "ref": "06", "wikidata": "Q11373972", "wikipedia": "ja:\u4ea4\u901a\u30bb\u30f3\u30bf\u30fc\u524d\u99c5"}}, {"type": "node", "id": 11851380867, "lat": 34.2072439, "lon": 135.2072214, "tags": {"name": "\u7ac8\u5c71", "name:en": "Kamayama", "name:ja": "\u7ac8\u5c71", "name:ko": "\uac00\ub9c8\uc57c\ub9c8", "public_transport": "station", "railway": "station", "ref": "05", "wikidata": "Q11597742", "wikipedia": "ja:\u7ac8\u5c71\u99c5"}}, {"type": "node", "id": 11851380868, "lat": 34.2131524, "lon": 135.2051635, "tags": {"name": "\u795e\u524d", "name:en": "K\u014dzaki", "name:ja": "\u795e\u524d", "name:ko": "\uace0\uc790\ud0a4", "public_transport": "station", "railway": "station", "ref": "04", "wikidata": "Q11588776", "wikipedia": "ja:\u795e\u524d\u99c5 (\u548c\u6b4c\u5c71\u770c)"}}, {"type": "node", "id": 11851400973, "lat": 34.2264669, "lon": 135.2018537, "tags": {"name": "\u65e5\u524d\u5bae", "name:en": "Nichizeng\u016b", "name:ja": "\u65e5\u524d\u5bae", "name:ko": "\ub2c8\uce58\uc820\uad6c", "public_transport": "station", "railway": "station", "ref": "03", "wikidata": "Q11504968", "wikipedia": "ja:\u65e5\u524d\u5bae\u99c5"}}, {"type": "node", "id": 11851400981, "lat": 34.2270169, "lon": 135.1931338, "tags": {"name": "\u7530\u4e2d\u53e3", "name:en": "Tanakaguchi", "name:ja": "\u7530\u4e2d\u53e3", "name:ko": "\ub2e4\ub098\uce74\uad6c\uce58", "public_transport": "station", "railway": "station", "ref": "02", "wikidata": "Q11575385", "wikipedia": "ja:\u7530\u4e2d\u53e3\u99c5"}}, {"type": "node", "id": 12326237119, "lat": 34.3513289, "lon": 135.23123}, {"type": "node", "id": 12326237120, "lat": 34.3513074, "lon": 135.231203}, {"type": "node", "id": 12326237121, "lat": 34.3513173, "lon": 135.2312356}, {"type": "node", "id": 12326237125, "lat": 34.3512587, "lon": 135.2312962}, {"type": "node", "id": 12326237130, "lat": 34.3511898, "lon": 135.2316037}, {"type": "node", "id": 12326237131, "lat": 34.351124, "lon": 135.2316528}, {"type": "node", "id": 12326237132, "lat": 34.3510982, "lon": 135.2315687}, {"type": "node", "id": 12326237133, "lat": 34.3511699, "lon": 135.2315384}, {"type": "node", "id": 12326237134, "lat": 34.3513516, "lon": 135.2312597}, {"type": "node", "id": 12326237135, "lat": 34.3513448, "lon": 135.2312665}, {"type": "way", "id": 839823718, "nodes": [7836850389, 12326237125, 7836850388, 7836850384, 7836850383, 12326237120, 12326237121, 12326237119, 7836850387, 12326237135, 12326237134, 7836850385, 7836850382, 7836850386, 7836850389], "tags": {"addr:block_number": "665", "addr:city": "\u962a\u5357\u5e02", "addr:postcode": "599-0204", "addr:province": "\u5927\u962a\u5e9c", "addr:quarter": "\u9ce5\u53d6", "building": "yes", "name": "\u9ce5\u53d6\u30ce\u8358", "public_transport": "station", "railway": "station", "train": "yes"}}, {"type": "way", "id": 1203020463, "nodes": [11152224452, 11152224453, 11152224454, 11152224455, 11152224452], "tags": {"name": "\u9ed2\u6c5f\u99c5", "operator": "JR\u897f\u65e5\u672c", "public_transport": "station", "railway": "station", "train": "yes"}}, {"type": "way", "id": 1332302457, "nodes": [12326237130, 12326237131, 12326237132, 12326237133, 12326237130], "tags": {"name": "\u9ce5\u53d6\u30ce\u8358", "public_transport": "station", "railway": "station", "train": "yes"}}]}