{"version": 0.6, "generator": "Overpass API 0.7.62.4 2390de5a", "osm3s": {"timestamp_osm_base": "2024-12-30T15:09:27Z", "copyright": "The data included in this document is from www.openstreetmap.org. The data is made available under ODbL."}, "elements": [{"type": "node", "id": 264864952, "lat": 35.273846, "lon": 137.8538052, "tags": {"KSJ2:LIN": "\u98ef\u7530\u7dda", "KSJ2:STN": "\u5e73\u5ca1", "name": "\u5e73\u5ca1", "name:en": "Hiraoka", "name:ja": "\u5e73\u5ca1", "name:ja_rm": "Hiraoka", "name:ko": "\ud788\ub77c\uc624\uce74", "note": "National-Land Numerical Information (Railway) 2007, MLIT Japan", "note:ja": "\u56fd\u571f\u6570\u5024\u60c5\u5831\uff08\u9244\u9053\u30c7\u30fc\u30bf\uff09\u5e73\u621019\u5e74\u3000\u56fd\u571f\u4ea4\u901a\u7701", "public_transport": "station", "railway": "station", "source": "KSJ2", "source_ref": "http://nlftp.mlit.go.jp/ksj/jpgis/datalist/KsjTmplt-N02-v1_1.html", "wikidata": "Q894483", "wikipedia": "ja:\u5e73\u5ca1\u99c5"}}, {"type": "node", "id": 264868597, "lat": 35.1150532, "lon": 137.8543561, "tags": {"KSJ2:LIN": "\u98ef\u7530\u7dda", "KSJ2:STN": "\u76f8\u6708", "name": "\u76f8\u6708", "name:en": "Aizuki", "name:ja": "\u76f8\u6708", "name:ko": "\uc544\uc774\uc988\ud0a4", "note": "National-Land Numerical Information (Railway) 2007, MLIT Japan", "note:ja": "\u56fd\u571f\u6570\u5024\u60c5\u5831\uff08\u9244\u9053\u30c7\u30fc\u30bf\uff09\u5e73\u621019\u5e74\u3000\u56fd\u571f\u4ea4\u901a\u7701", "railway": "station", "source": "KSJ2", "source_ref": "http://nlftp.mlit.go.jp/ksj/jpgis/datalist/KsjTmplt-N02-v1_1.html", "wikidata": "Q776777", "wikipedia": "ja:\u76f8\u6708\u99c5"}}, {"type": "node", "id": 264871379, "lat": 35.1540259, "lon": 137.8694311, "tags": {"KSJ2:LIN": "\u98ef\u7530\u7dda", "KSJ2:STN": "\u5411\u5e02\u5834", "name": "\u5411\u5e02\u5834", "name:en": "Mukaichiba", "name:ja": "\u5411\u5e02\u5834", "name:ko": "\ubb34\uce74\uc774\uce58\ubc14", "note": "National-Land Numerical Information (Railway) 2007, MLIT Japan", "note:ja": "\u56fd\u571f\u6570\u5024\u60c5\u5831\uff08\u9244\u9053\u30c7\u30fc\u30bf\uff09\u5e73\u621019\u5e74\u3000\u56fd\u571f\u4ea4\u901a\u7701", "railway": "station", "source": "KSJ2", "source_ref": "http://nlftp.mlit.go.jp/ksj/jpgis/datalist/KsjTmplt-N02-v1_1.html", "wikidata": "Q777155", "wikipedia": "ja:\u5411\u5e02\u5834\u99c5"}}, {"type": "node", "id": 264871381, "lat": 35.131728, "lon": 137.8621702, "tags": {"KSJ2:LIN": "\u98ef\u7530\u7dda", "KSJ2:STN": "\u57ce\u897f", "name": "\u57ce\u897f", "name:en": "Shironishi", "name:ja": "\u57ce\u897f", "name:ko": "\uc2dc\ub85c\ub2c8\uc2dc", "note": "National-Land Numerical Information (Railway) 2007, MLIT Japan", "note:ja": "\u56fd\u571f\u6570\u5024\u60c5\u5831\uff08\u9244\u9053\u30c7\u30fc\u30bf\uff09\u5e73\u621019\u5e74\u3000\u56fd\u571f\u4ea4\u901a\u7701", "railway": "station", "source": "KSJ2", "source_ref": "http://nlftp.mlit.go.jp/ksj/jpgis/datalist/KsjTmplt-N02-v1_1.html", "wikidata": "Q776937", "wikipedia": "ja:\u57ce\u897f\u99c5"}}, {"type": "node", "id": 264871993, "lat": 35.3365501, "lon": 137.8415351, "tags": {"KSJ2:LIN": "\u98ef\u7530\u7dda", "KSJ2:STN": "\u6e29\u7530", "name": "\u6e29\u7530", "name:en": "Nukuta", "name:ja": "\u6e29\u7530", "name:ko": "\ub204\ucfe0\ud0c0", "note": "National-Land Numerical Information (Railway) 2007, MLIT Japan", "note:ja": "\u56fd\u571f\u6570\u5024\u60c5\u5831\uff08\u9244\u9053\u30c7\u30fc\u30bf\uff09\u5e73\u621019\u5e74\u3000\u56fd\u571f\u4ea4\u901a\u7701", "public_transport": "station", "railway": "station", "source": "KSJ2", "source_ref": "http://nlftp.mlit.go.jp/ksj/jpgis/datalist/KsjTmplt-N02-v1_1.html", "wikidata": "Q894584", "wikipedia": "ja:\u6e29\u7530\u99c5"}}, {"type": "node", "id": 264873522, "lat": 35.1636085, "lon": 137.8704606, "tags": {"KSJ2:LIN": "\u98ef\u7530\u7dda", "KSJ2:STN": "\u6c34\u7aaa", "name": "\u6c34\u7aaa", "name:en": "Misakubo", "name:ja": "\u6c34\u7aaa", "name:ko": "\ubbf8\uc0ac\ucfe0\ubcf4", "note": "National-Land Numerical Information (Railway) 2007, MLIT Japan", "note:ja": "\u56fd\u571f\u6570\u5024\u60c5\u5831\uff08\u9244\u9053\u30c7\u30fc\u30bf\uff09\u5e73\u621019\u5e74\u3000\u56fd\u571f\u4ea4\u901a\u7701", "railway": "station", "source": "KSJ2", "source_ref": "http://nlftp.mlit.go.jp/ksj/jpgis/datalist/KsjTmplt-N02-v1_1.html", "wikidata": "Q777378", "wikipedia": "ja:\u6c34\u7aaa\u99c5"}}, {"type": "node", "id": 264874011, "lat": 35.3489572, "lon": 137.8379058, "tags": {"KSJ2:LIN": "\u98ef\u7530\u7dda", "KSJ2:STN": "\u7530\u672c", "name": "\u7530\u672c", "name:en": "Tamoto", "name:ja": "\u7530\u672c", "name:ko": "\ub2e4\ubaa8\ud1a0", "note": "National-Land Numerical Information (Railway) 2007, MLIT Japan", "note:ja": "\u56fd\u571f\u6570\u5024\u60c5\u5831\uff08\u9244\u9053\u30c7\u30fc\u30bf\uff09\u5e73\u621019\u5e74\u3000\u56fd\u571f\u4ea4\u901a\u7701", "public_transport": "station", "railway": "station", "source": "KSJ2", "source_ref": "http://nlftp.mlit.go.jp/ksj/jpgis/datalist/KsjTmplt-N02-v1_1.html", "wikidata": "Q894662", "wikipedia": "ja:\u7530\u672c\u99c5"}}, {"type": "node", "id": 264874605, "lat": 35.3117984, "lon": 137.8485784, "tags": {"KSJ2:LIN": "\u98ef\u7530\u7dda", "KSJ2:STN": "\u70ba\u6817", "name": "\u70ba\u6817", "name:en": "Shiteguri", "name:ja": "\u70ba\u6817", "name:ko": "\uc2dc\ud14c\uad6c\ub9ac", "note": "National-Land Numerical Information (Railway) 2007, MLIT Japan", "note:ja": "\u56fd\u571f\u6570\u5024\u60c5\u5831\uff08\u9244\u9053\u30c7\u30fc\u30bf\uff09\u5e73\u621019\u5e74\u3000\u56fd\u571f\u4ea4\u901a\u7701", "public_transport": "station", "railway": "station", "source": "KSJ2", "source_ref": "http://nlftp.mlit.go.jp/ksj/jpgis/datalist/KsjTmplt-N02-v1_1.html", "wikidata": "Q894498", "wikipedia": "ja:\u70ba\u6817\u99c5"}}, {"type": "node", "id": 823290701, "lat": 35.074368, "lon": 138.1105711, "tags": {"KSJ2:LIN": "\u5927\u4e95\u5ddd\u672c\u7dda", "KSJ2:RAS": "eb03_5138", "KSJ2:STN": "\u99ff\u6cb3\u5fb3\u5c71", "KSJ2:segment": "eb02_10665", "name": "\u99ff\u6cb3\u5fb3\u5c71", "name:en": "Suruga-Tokuyama", "name:ja": "\u99ff\u6cb3\u5fb3\u5c71", "name:ko": "\uc2a4\ub8e8\uac00\ud1a0\ucfe0\uc57c\ub9c8", "note": "National-Land Numerical Information (Railway) 2007, MLIT Japan", "note:ja": "\u56fd\u571f\u6570\u5024\u60c5\u5831\uff08\u9244\u9053\u30c7\u30fc\u30bf\uff09\u5e73\u621019\u5e74\u3000\u56fd\u571f\u4ea4\u901a\u7701", "operator": "\u5927\u4e95\u5ddd\u9435\u9053", "public_transport": "station", "railway": "station", "source": "KSJ2", "source_ref": "http://nlftp.mlit.go.jp/ksj/jpgis/datalist/KsjTmplt-N02-v1_1.html", "wikidata": "Q7646979", "wikipedia": "ja:\u99ff\u6cb3\u5fb3\u5c71\u99c5"}}, {"type": "node", "id": 823291723, "lat": 35.0514235, "lon": 138.0954368, "tags": {"KSJ2:LIN": "\u5927\u4e95\u5ddd\u672c\u7dda", "KSJ2:RAS": "eb03_5133", "KSJ2:STN": "\u7530\u91ce\u53e3", "KSJ2:segment": "eb02_10658", "name": "\u7530\u91ce\u53e3", "name:en": "Tanokuchi", "name:ja": "\u7530\u91ce\u53e3", "name:ko": "\ub2e4\ub178\ucfe0\uce58", "note": "National-Land Numerical Information (Railway) 2007, MLIT Japan", "note:ja": "\u56fd\u571f\u6570\u5024\u60c5\u5831\uff08\u9244\u9053\u30c7\u30fc\u30bf\uff09\u5e73\u621019\u5e74\u3000\u56fd\u571f\u4ea4\u901a\u7701", "operator": "\u5927\u4e95\u5ddd\u9435\u9053", "public_transport": "station", "railway": "station", "source": "KSJ2", "source_ref": "http://nlftp.mlit.go.jp/ksj/jpgis/datalist/KsjTmplt-N02-v1_1.html", "wikidata": "Q7683726", "wikipedia": "ja:\u7530\u91ce\u53e3\u99c5"}}, {"type": "node", "id": 823291769, "lat": 35.0895921, "lon": 138.1157459, "tags": {"KSJ2:LIN": "\u5927\u4e95\u5ddd\u672c\u7dda", "KSJ2:RAS": "eb03_5139", "KSJ2:STN": "\u9752\u90e8", "KSJ2:segment": "eb02_10668", "name": "\u9752\u90e8", "name:en": "Aobe", "name:ja": "\u9752\u90e8", "name:ko": "\uc544\uc624\ubca0", "note": "National-Land Numerical Information (Railway) 2007, MLIT Japan", "note:ja": "\u56fd\u571f\u6570\u5024\u60c5\u5831\uff08\u9244\u9053\u30c7\u30fc\u30bf\uff09\u5e73\u621019\u5e74\u3000\u56fd\u571f\u4ea4\u901a\u7701", "operator": "\u5927\u4e95\u5ddd\u9435\u9053", "public_transport": "station", "railway": "station", "source": "KSJ2", "source_ref": "http://nlftp.mlit.go.jp/ksj/jpgis/datalist/KsjTmplt-N02-v1_1.html", "wikidata": "Q4778577", "wikipedia": "ja:\u9752\u90e8\u99c5"}}, {"type": "node", "id": 823292408, "lat": 34.9972672, "lon": 138.0906978, "tags": {"KSJ2:LIN": "\u5927\u4e95\u5ddd\u672c\u7dda", "KSJ2:RAS": "eb03_5141", "KSJ2:STN": "\u5869\u90f7", "KSJ2:segment": "eb02_10653", "name": "\u5869\u90f7", "name:en": "Shiog\u014d", "name:ja": "\u5869\u90f7", "name:ko": "\uc2dc\uc624\uace0", "note": "National-Land Numerical Information (Railway) 2007, MLIT Japan", "note:ja": "\u56fd\u571f\u6570\u5024\u60c5\u5831\uff08\u9244\u9053\u30c7\u30fc\u30bf\uff09\u5e73\u621019\u5e74\u3000\u56fd\u571f\u4ea4\u901a\u7701", "operator": "\u5927\u4e95\u5ddd\u9435\u9053", "public_transport": "station", "railway": "station", "source": "KSJ2", "source_ref": "http://nlftp.mlit.go.jp/ksj/jpgis/datalist/KsjTmplt-N02-v1_1.html", "wikidata": "Q7497868", "wikipedia": "ja:\u5869\u90f7\u99c5"}}, {"type": "node", "id": 823292942, "lat": 34.9861199, "lon": 138.0872386, "tags": {"KSJ2:LIN": "\u5927\u4e95\u5ddd\u672c\u7dda", "KSJ2:RAS": "eb03_5142", "KSJ2:STN": "\u5730\u540d", "KSJ2:segment": "eb02_10671", "name": "\u5730\u540d", "name:en": "Jina", "name:ja": "\u5730\u540d", "name:ko": "\uc9c0\ub098", "note": "National-Land Numerical Information (Railway) 2007, MLIT Japan", "note:ja": "\u56fd\u571f\u6570\u5024\u60c5\u5831\uff08\u9244\u9053\u30c7\u30fc\u30bf\uff09\u5e73\u621019\u5e74\u3000\u56fd\u571f\u4ea4\u901a\u7701", "operator": "\u5927\u4e95\u5ddd\u9435\u9053", "public_transport": "station", "railway": "station", "source": "KSJ2", "source_ref": "http://nlftp.mlit.go.jp/ksj/jpgis/datalist/KsjTmplt-N02-v1_1.html", "wikidata": "Q6201974", "wikipedia": "ja:\u5730\u540d\u99c5"}}, {"type": "node", "id": 823293038, "lat": 35.0915866, "lon": 138.127241, "tags": {"KSJ2:LIN": "\u5927\u4e95\u5ddd\u672c\u7dda", "KSJ2:RAS": "eb03_5132", "KSJ2:STN": "\u5d0e\u5e73", "KSJ2:segment": "eb02_10656", "name": "\u5d0e\u5e73", "name:en": "Sakidaira", "name:ja": "\u5d0e\u5e73", "name:ko": "\uc0ac\ud0a4\ub2e4\uc774\ub77c", "note": "National-Land Numerical Information (Railway) 2007, MLIT Japan", "note:ja": "\u56fd\u571f\u6570\u5024\u60c5\u5831\uff08\u9244\u9053\u30c7\u30fc\u30bf\uff09\u5e73\u621019\u5e74\u3000\u56fd\u571f\u4ea4\u901a\u7701", "operator": "\u5927\u4e95\u5ddd\u9435\u9053", "public_transport": "station", "railway": "station", "source": "KSJ2", "source_ref": "http://nlftp.mlit.go.jp/ksj/jpgis/datalist/KsjTmplt-N02-v1_1.html", "wikidata": "Q7402977", "wikipedia": "ja:\u5d0e\u5e73\u99c5"}}, {"type": "node", "id": 823293507, "lat": 35.0219767, "lon": 138.0900492, "tags": {"KSJ2:LIN": "\u5927\u4e95\u5ddd\u672c\u7dda", "KSJ2:RAS": "eb03_5144", "KSJ2:STN": "\u4e0b\u6cc9", "KSJ2:segment": "eb02_10674", "name": "\u4e0b\u6cc9", "name:en": "Shimoizumi", "name:ja": "\u4e0b\u6cc9", "name:ko": "\uc2dc\ubaa8\uc774\uc988\ubbf8", "note": "National-Land Numerical Information (Railway) 2007, MLIT Japan", "note:ja": "\u56fd\u571f\u6570\u5024\u60c5\u5831\uff08\u9244\u9053\u30c7\u30fc\u30bf\uff09\u5e73\u621019\u5e74\u3000\u56fd\u571f\u4ea4\u901a\u7701", "operator": "\u5927\u4e95\u5ddd\u9435\u9053", "public_transport": "station", "railway": "station", "source": "KSJ2", "source_ref": "http://nlftp.mlit.go.jp/ksj/jpgis/datalist/KsjTmplt-N02-v1_1.html", "wikidata": "Q7496968", "wikipedia": "ja:\u4e0b\u6cc9\u99c5"}}, {"type": "node", "id": 11699754234, "lat": 35.1916815, "lon": 138.1943446, "tags": {"KSJ2:LIN": "\u4e95\u5ddd\u7dda", "KSJ2:RAS": "eb03_5124", "KSJ2:STN": "\u9591\u8535", "KSJ2:segment": "eb02_10642", "name": "\u9591\u8535", "name:en": "Kanz\u014d", "name:ja": "\u9591\u8535", "name:ko": "\uac04\uc870", "note": "National-Land Numerical Information (Railway) 2007, MLIT Japan", "note:ja": "\u56fd\u571f\u6570\u5024\u60c5\u5831\uff08\u9244\u9053\u30c7\u30fc\u30bf\uff09\u5e73\u621019\u5e74\u3000\u56fd\u571f\u4ea4\u901a\u7701", "public_transport": "station", "railway": "station", "source": "KSJ2", "source_ref": "http://nlftp.mlit.go.jp/ksj/jpgis/datalist/KsjTmplt-N02-v1_1.html", "wikidata": "Q6365972", "wikipedia": "ja:\u9591\u8535\u99c5"}}, {"type": "node", "id": 11699754235, "lat": 35.1925977, "lon": 138.1742381, "tags": {"KSJ2:LIN": "\u4e95\u5ddd\u7dda", "KSJ2:RAS": "eb03_5117", "KSJ2:STN": "\u5c3e\u76db", "KSJ2:segment": "eb02_10636", "name": "\u5c3e\u76db", "name:en": "Omori", "name:ja": "\u5c3e\u76db", "name:ko": "\uc624\ubaa8\ub9ac", "note": "National-Land Numerical Information (Railway) 2007, MLIT Japan", "note:ja": "\u56fd\u571f\u6570\u5024\u60c5\u5831\uff08\u9244\u9053\u30c7\u30fc\u30bf\uff09\u5e73\u621019\u5e74\u3000\u56fd\u571f\u4ea4\u901a\u7701", "public_transport": "station", "railway": "station", "source": "KSJ2", "source_ref": "http://nlftp.mlit.go.jp/ksj/jpgis/datalist/KsjTmplt-N02-v1_1.html", "wikidata": "Q6129759", "wikipedia": "ja:\u5c3e\u76db\u99c5"}}, {"type": "node", "id": 11699754236, "lat": 35.1795694, "lon": 138.1851601, "tags": {"KSJ2:LIN": "\u4e95\u5ddd\u7dda", "KSJ2:RAS": "eb03_5125", "KSJ2:STN": "\u63a5\u5ca8\u5ce1\u6e29\u6cc9", "KSJ2:segment": "eb02_10641", "name": "\u63a5\u5ca8\u5ce1\u6e29\u6cc9", "name:en": "Sessoky\u014d-Onsen", "note": "National-Land Numerical Information (Railway) 2007, MLIT Japan", "note:ja": "\u56fd\u571f\u6570\u5024\u60c5\u5831\uff08\u9244\u9053\u30c7\u30fc\u30bf\uff09\u5e73\u621019\u5e74\u3000\u56fd\u571f\u4ea4\u901a\u7701", "public_transport": "station", "railway": "station", "source": "KSJ2", "source_ref": "http://nlftp.mlit.go.jp/ksj/jpgis/datalist/KsjTmplt-N02-v1_1.html", "wikidata": "Q7456175", "wikipedia": "ja:\u63a5\u5ca8\u5ce1\u6e29\u6cc9\u99c5"}}, {"type": "node", "id": 11699754239, "lat": 35.1680288, "lon": 138.1810469, "tags": {"KSJ2:LIN": "\u4e95\u5ddd\u7dda", "KSJ2:RAS": "eb03_5121", "KSJ2:STN": "\u5965\u5927\u4e95\u6e56\u4e0a", "KSJ2:segment": "eb02_10637", "alt_name:fr": "Sur le lac Oku\u014di", "name": "\u5965\u5927\u4e95\u6e56\u4e0a", "name:en": "Oku\u014dikoj\u014d", "name:fr": "Oku\u014dikoj\u014d", "name:ja-Hira": "\u304a\u304f \u304a\u304a\u3044 \u3053\u3058\u3087\u3046", "name:ja-Latn": "Oku\u014dikoj\u014d", "note:ja": "\u56fd\u571f\u6570\u5024\u60c5\u5831\uff08\u9244\u9053\u30c7\u30fc\u30bf\uff09\u5e73\u621019\u5e74\u3000\u56fd\u571f\u4ea4\u901a\u7701", "public_transport": "station", "railway": "station", "source": "KSJ2", "source_ref": "http://nlftp.mlit.go.jp/ksj/jpgis/datalist/KsjTmplt-N02-v1_1.html", "wikidata": "Q7082786", "wikipedia": "ja:\u5965\u5927\u4e95\u6e56\u4e0a\u99c5"}}, {"type": "node", "id": 11699754240, "lat": 35.1649404, "lon": 138.1684848, "tags": {"KSJ2:LIN": "\u4e95\u5ddd\u7dda", "KSJ2:RAS": "eb03_5115", "KSJ2:STN": "\u3072\u3089\u3093\u3060", "KSJ2:segment": "eb02_10626", "name": "\u3072\u3089\u3093\u3060", "name:en": "Hiranda", "name:ja": "\u3072\u3089\u3093\u3060", "name:ko": "\ud788\ub780\ub2e4", "note": "National-Land Numerical Information (Railway) 2007, MLIT Japan", "note:ja": "\u56fd\u571f\u6570\u5024\u60c5\u5831\uff08\u9244\u9053\u30c7\u30fc\u30bf\uff09\u5e73\u621019\u5e74\u3000\u56fd\u571f\u4ea4\u901a\u7701", "public_transport": "station", "railway": "station", "source": "KSJ2", "source_ref": "http://nlftp.mlit.go.jp/ksj/jpgis/datalist/KsjTmplt-N02-v1_1.html", "wikidata": "Q5769417", "wikipedia": "ja:\u3072\u3089\u3093\u3060\u99c5"}}, {"type": "node", "id": 11699754241, "lat": 35.1691953, "lon": 138.1568621, "tags": {"name": "\u9577\u5cf6\u30c0\u30e0", "name:en": "Nagashima Dam", "name:fr": "Barrage de Nagashima", "name:ja-Hira": "\u306a\u304c\u3057\u307e\u30c0\u30e0", "name:ja-Latn": "Nagashima-damu", "name:ko": "\ub098\uac00\uc2dc\ub9c8\ub310", "public_transport": "station", "railway": "station", "source": "KSJ2", "wikidata": "Q6958644", "wikipedia": "ja:\u9577\u5cf6\u30c0\u30e0\u99c5"}}, {"type": "node", "id": 11699754243, "lat": 35.1673085, "lon": 138.1448136, "tags": {"name": "\u30a2\u30d7\u30c8\u3044\u3061\u3057\u308d", "name:en": "Abt Ichishiro", "name:ja": "\u30a2\u30d7\u30c8\u3044\u3061\u3057\u308d", "name:ja-Kana": "\u30a2\u30d7\u30c8\u3044\u3061\u3057\u308d", "name:ko": "\uc544\ud504\ud2b8\uc774\uce58\uc2dc\ub85c", "public_transport": "station", "railway": "station", "source": "KSJ2", "wikidata": "Q4669999", "wikipedia": "ja:\u30a2\u30d7\u30c8\u3044\u3061\u3057\u308d\u99c5"}}, {"type": "node", "id": 11699754252, "lat": 35.1507301, "lon": 138.1484772, "tags": {"KSJ2:LIN": "\u4e95\u5ddd\u7dda", "KSJ2:RAS": "eb03_5120", "KSJ2:STN": "\u5965\u6cc9", "KSJ2:segment": "eb02_10631", "name": "\u5965\u6cc9", "name:en": "Okuizumi", "name:ja": "\u5965\u6cc9", "name:ko": "\uc624\ucfe0\uc774\uc988\ubbf8", "note": "National-Land Numerical Information (Railway) 2007, MLIT Japan", "note:ja": "\u56fd\u571f\u6570\u5024\u60c5\u5831\uff08\u9244\u9053\u30c7\u30fc\u30bf\uff09\u5e73\u621019\u5e74\u3000\u56fd\u571f\u4ea4\u901a\u7701", "public_transport": "station", "railway": "station", "source": "KSJ2", "source_ref": "http://nlftp.mlit.go.jp/ksj/jpgis/datalist/KsjTmplt-N02-v1_1.html", "wikidata": "Q7082727", "wikipedia": "ja:\u5965\u6cc9\u99c5"}}, {"type": "node", "id": 11699754258, "lat": 35.1415157, "lon": 138.1411035, "tags": {"name": "\u5ddd\u6839\u5c0f\u5c71", "name:en": "Kawane-Koyama", "name:ja": "\u5ddd\u6839\u5c0f\u5c71", "name:ko": "\uac00\uc640\ub124\ucf54\uc57c\ub9c8", "public_transport": "station", "railway": "station", "wikidata": "Q6379647", "wikipedia": "ja:\u5ddd\u6839\u5c0f\u5c71\u99c5"}}, {"type": "node", "id": 11699754260, "lat": 35.1359653, "lon": 138.1391233, "tags": {"KSJ2:LIN": "\u4e95\u5ddd\u7dda", "KSJ2:RAS": "eb03_5116", "KSJ2:STN": "\u571f\u672c", "KSJ2:segment": "eb02_10640", "name": "\u571f\u672c", "name:en": "Domoto", "name:ja": "\u571f\u672c", "name:ko": "\ub3c4\ubaa8\ud1a0", "note": "National-Land Numerical Information (Railway) 2007, MLIT Japan", "note:ja": "\u56fd\u571f\u6570\u5024\u60c5\u5831\uff08\u9244\u9053\u30c7\u30fc\u30bf\uff09\u5e73\u621019\u5e74\u3000\u56fd\u571f\u4ea4\u901a\u7701", "public_transport": "station", "railway": "station", "source": "KSJ2", "source_ref": "http://nlftp.mlit.go.jp/ksj/jpgis/datalist/KsjTmplt-N02-v1_1.html", "wikidata": "Q5291349", "wikipedia": "ja:\u571f\u672c\u99c5"}}, {"type": "node", "id": 11699754261, "lat": 35.124491, "lon": 138.1338716, "tags": {"KSJ2:LIN": "\u4e95\u5ddd\u7dda", "KSJ2:RAS": "eb03_5122", "KSJ2:STN": "\u6ca2\u9593", "KSJ2:segment": "eb02_10638", "name": "\u6ca2\u9593", "name:en": "Sawama", "name:ja": "\u6ca2\u9593", "name:ko": "\uc0ac\uc640\ub9c8", "note": "National-Land Numerical Information (Railway) 2007, MLIT Japan", "note:ja": "\u56fd\u571f\u6570\u5024\u60c5\u5831\uff08\u9244\u9053\u30c7\u30fc\u30bf\uff09\u5e73\u621019\u5e74\u3000\u56fd\u571f\u4ea4\u901a\u7701", "public_transport": "station", "railway": "station", "source": "KSJ2", "source_ref": "http://nlftp.mlit.go.jp/ksj/jpgis/datalist/KsjTmplt-N02-v1_1.html", "wikidata": "Q7428562", "wikipedia": "ja:\u6ca2\u9593\u99c5"}}, {"type": "node", "id": 11699754262, "lat": 35.1170795, "lon": 138.1405362, "tags": {"KSJ2:LIN": "\u4e95\u5ddd\u7dda", "KSJ2:RAS": "eb03_5123", "KSJ2:STN": "\u5ddd\u6839\u4e21\u56fd", "KSJ2:segment": "eb02_10639", "name": "\u5ddd\u6839\u4e21\u56fd", "name:en": "Kawane-Ry\u014dgoku", "name:ja": "\u5ddd\u6839\u4e21\u56fd", "name:ko": "\uac00\uc640\ub124\ub8cc\uace0\ucfe0", "note": "National-Land Numerical Information (Railway) 2007, MLIT Japan", "note:ja": "\u56fd\u571f\u6570\u5024\u60c5\u5831\uff08\u9244\u9053\u30c7\u30fc\u30bf\uff09\u5e73\u621019\u5e74\u3000\u56fd\u571f\u4ea4\u901a\u7701", "public_transport": "station", "railway": "station", "source": "KSJ2", "source_ref": "http://nlftp.mlit.go.jp/ksj/jpgis/datalist/KsjTmplt-N02-v1_1.html", "wikidata": "Q6379648", "wikipedia": "ja:\u5ddd\u6839\u4e21\u56fd\u99c5"}}, {"type": "node", "id": 11699754265, "lat": 35.2124343, "lon": 138.2213164, "tags": {"KSJ2:LIN": "\u4e95\u5ddd\u7dda", "KSJ2:RAS": "eb03_5127", "KSJ2:STN": "\u4e95\u5ddd", "KSJ2:segment": "eb02_10647", "addr:city": "\u9759\u5ca1\u770c\u9759\u5ca1\u5e02", "addr:housenumber": "\u8475\u533a\u4e95\u5ddd", "name": "\u4e95\u5ddd", "name:en": "Ikawa", "name:ja": "\u4e95\u5ddd", "name:ko": "\uc774\uce74\uc640", "note": "National-Land Numerical Information (Railway) 2007, MLIT Japan", "note:ja": "\u56fd\u571f\u6570\u5024\u60c5\u5831\uff08\u9244\u9053\u30c7\u30fc\u30bf\uff09\u5e73\u621019\u5e74\u3000\u56fd\u571f\u4ea4\u901a\u7701", "operator": "\u5927\u4e95\u5ddd\u9435\u9053", "public_transport": "station", "railway": "station", "source": "KSJ2", "source_ref": "http://nlftp.mlit.go.jp/ksj/jpgis/datalist/KsjTmplt-N02-v1_1.html", "wikidata": "Q5995514", "wikipedia": "ja:\u4e95\u5ddd\u99c5"}}, {"type": "node", "id": 11699754266, "lat": 35.1081241, "lon": 138.1377815, "tags": {"name": "\u5343\u982d", "name:en": "Senzu", "name:fr": "Senzu", "name:ja-Hira": "\u305b\u3093\u305a", "name:ja-Latn": "Senzu", "operator": "\u5927\u4e95\u5ddd\u9435\u9053", "operator:wikidata": "Q842075", "public_transport": "station", "railway": "station", "start_date": "1931-12-01", "wikidata": "Q7451446", "wikipedia": "ja:\u5343\u982d\u99c5"}}]}