{"version": 0.6, "generator": "Overpass API 0.7.62.4 2390de5a", "osm3s": {"timestamp_osm_base": "2024-12-30T14:59:15Z", "copyright": "The data included in this document is from www.openstreetmap.org. The data is made available under ODbL."}, "elements": [{"type": "node", "id": 264170299, "lat": 38.5961483, "lon": 141.0588401, "tags": {"addr:block_number": "66", "addr:city": "\u5927\u5d0e\u5e02", "addr:housenumber": "3", "addr:neighbourhood": "\u5869\u52a0\u826f", "addr:postcode": "989-4308", "addr:province": "\u5bae\u57ce\u770c", "addr:quarter": "\u7530\u5c3b\u6cbc\u90e8", "name": "\u7530\u5c3b", "name:en": "Tajiri", "name:ja-Hira": "\u305f\u3058\u308a", "name:ja-Latn": "Tajiri", "name:ru": "\u0422\u0430\u0434\u0437\u0438\u0440\u0438", "public_transport": "station", "railway": "station", "source": "KSJ2", "train": "yes", "wikidata": "Q899148", "wikipedia": "ja:\u7530\u5c3b\u99c5"}}, {"type": "node", "id": 264173718, "lat": 38.6816912, "lon": 141.0855599, "tags": {"name": "\u6885\u30f6\u6ca2", "name:en": "Umegasawa", "name:ja-Hira": "\u3046\u3081\u304c\u3055\u308f", "name:ja-Latn": "Umegasawa", "name:ru": "\u0423\u043c\u0435\u0433\u0430\u0441\u0430\u0432\u0430", "public_transport": "station", "railway": "station", "source": "KSJ2", "train": "yes", "wikidata": "Q899259", "wikipedia": "ja:\u6885\u30f6\u6ca2\u99c5"}}, {"type": "node", "id": 264400447, "lat": 38.6523452, "lon": 140.8717017, "tags": {"name": "\u5ca9\u51fa\u5c71", "name:en": "Iwadeyama", "name:ja": "\u5ca9\u51fa\u5c71", "name:ja_rm": "Iwadeyama", "name:ko": "\uc774\uc640\ub370\uc57c\ub9c8", "note": "National-Land Numerical Information (Railway) 2007, MLIT Japan", "note:ja": "\u56fd\u571f\u6570\u5024\u60c5\u5831\uff08\u9244\u9053\u30c7\u30fc\u30bf\uff09\u5e73\u621019\u5e74\u3000\u56fd\u571f\u4ea4\u901a\u7701", "public_transport": "station", "railway": "station", "source": "KSJ2", "source_ref": "http://nlftp.mlit.go.jp/ksj/jpgis/datalist/KsjTmplt-N02-v1_1.html", "wikidata": "Q247559", "wikipedia": "ja:\u5ca9\u51fa\u5c71\u99c5"}}, {"type": "node", "id": 264400676, "lat": 38.7091634, "lon": 140.8355215, "tags": {"name": "\u6c60\u6708", "name:en": "Ikezuki", "name:ja": "\u6c60\u6708", "name:ja_rm": "Ikezuki", "name:ko": "\uc774\ucf00\uc988\ud0a4", "note": "National-Land Numerical Information (Railway) 2007, MLIT Japan", "note:ja": "\u56fd\u571f\u6570\u5024\u60c5\u5831\uff08\u9244\u9053\u30c7\u30fc\u30bf\uff09\u5e73\u621019\u5e74\u3000\u56fd\u571f\u4ea4\u901a\u7701", "public_transport": "station", "railway": "station", "source": "KSJ2", "source_ref": "http://nlftp.mlit.go.jp/ksj/jpgis/datalist/KsjTmplt-N02-v1_1.html", "wikidata": "Q642558", "wikipedia": "ja:\u6c60\u6708\u99c5"}}, {"type": "node", "id": 264400764, "lat": 38.6803172, "lon": 140.8593878, "tags": {"name": "\u4e0a\u91ce\u76ee", "name:en": "Kaminome", "name:ja": "\u4e0a\u91ce\u76ee", "name:ja_kana": "\u304b\u307f\u306e\u3081", "name:ja_rm": "Kaminome", "name:ko": "\uac00\ubbf8\ub178\uba54", "note": "National-Land Numerical Information (Railway) 2007, MLIT Japan", "note:ja": "\u56fd\u571f\u6570\u5024\u60c5\u5831\uff08\u9244\u9053\u30c7\u30fc\u30bf\uff09\u5e73\u621019\u5e74\u3000\u56fd\u571f\u4ea4\u901a\u7701", "public_transport": "station", "railway": "station", "source": "KSJ2", "source_ref": "http://nlftp.mlit.go.jp/ksj/jpgis/datalist/KsjTmplt-N02-v1_1.html", "wikidata": "Q642242", "wikipedia": "ja:\u4e0a\u91ce\u76ee\u99c5"}}, {"type": "node", "id": 264400765, "lat": 38.6059529, "lon": 140.897232, "tags": {"name": "\u6771\u5927\u5d0e", "name:en": "Higashi-Osaki", "name:ja": "\u6771\u5927\u5d0e", "name:ja_rm": "Higashi-\u014csaki", "name:ko": "\ud788\uac00\uc2dc\uc624\uc0ac\ud0a4", "note": "National-Land Numerical Information (Railway) 2007, MLIT Japan", "note:ja": "\u56fd\u571f\u6570\u5024\u60c5\u5831\uff08\u9244\u9053\u30c7\u30fc\u30bf\uff09\u5e73\u621019\u5e74\u3000\u56fd\u571f\u4ea4\u901a\u7701", "public_transport": "station", "railway": "station", "source": "KSJ2", "source_ref": "http://nlftp.mlit.go.jp/ksj/jpgis/datalist/KsjTmplt-N02-v1_1.html", "wikidata": "Q247576", "wikipedia": "ja:\u6771\u5927\u5d0e\u99c5"}}, {"type": "node", "id": 264400820, "lat": 38.743466, "lon": 140.716093, "tags": {"KSJ2:LIN": "\u9678\u7fbd\u6771\u7dda", "KSJ2:STN": "\u9cf4\u5b50\u6e29\u6cc9", "alt_name:ko": "\ub098\ub8e8\ucf54\uc628\uc13c", "name": "\u9cf4\u5b50\u6e29\u6cc9", "name:en": "Naruko-Onsen", "name:ja": "\u9cf4\u5b50\u6e29\u6cc9", "name:ja_rm": "Naruko-Onsen", "name:ko": "\ub098\ub8e8\ucf54\uc628\ucc9c", "note": "National-Land Numerical Information (Railway) 2007, MLIT Japan", "note:ja": "\u56fd\u571f\u6570\u5024\u60c5\u5831\uff08\u9244\u9053\u30c7\u30fc\u30bf\uff09\u5e73\u621019\u5e74\u3000\u56fd\u571f\u4ea4\u901a\u7701", "public_transport": "station", "railway": "station", "source_ref": "http://nlftp.mlit.go.jp/ksj/jpgis/datalist/KsjTmplt-N02-v1_1.html", "train": "yes", "wikidata": "Q6966446", "wikipedia": "ja:\u9cf4\u5b50\u6e29\u6cc9\u99c5"}}, {"type": "node", "id": 264400864, "lat": 38.6582256, "lon": 140.8638948, "tags": {"name": "\u6709\u5099\u9928", "name:en": "Yubikan", "name:ja": "\u6709\u5099\u9928", "name:ja_rm": "Y\u016bbikan", "name:ko": "\uc720\ube44\uce78", "note": "National-Land Numerical Information (Railway) 2007, MLIT Japan", "note:ja": "\u56fd\u571f\u6570\u5024\u60c5\u5831\uff08\u9244\u9053\u30c7\u30fc\u30bf\uff09\u5e73\u621019\u5e74\u3000\u56fd\u571f\u4ea4\u901a\u7701", "public_transport": "station", "railway": "station", "source": "KSJ2", "source_ref": "http://nlftp.mlit.go.jp/ksj/jpgis/datalist/KsjTmplt-N02-v1_1.html", "wikidata": "Q247618", "wikipedia": "ja:\u6709\u5099\u9928\u99c5"}}, {"type": "node", "id": 264400919, "lat": 38.7367402, "lon": 140.7801528, "tags": {"alt_name:ko": "\uac00\uc640\ud0c0\ube44\uc628\uc13c", "name": "\u5ddd\u6e21\u6e29\u6cc9", "name:en": "Kawatabi-Onsen", "name:ja": "\u5ddd\u6e21\u6e29\u6cc9", "name:ja_rm": "Kawatabi-Onsen", "name:ko": "\uac00\uc640\ud0c0\ube44\uc628\ucc9c", "note": "National-Land Numerical Information (Railway) 2007, MLIT Japan", "note:ja": "\u56fd\u571f\u6570\u5024\u60c5\u5831\uff08\u9244\u9053\u30c7\u30fc\u30bf\uff09\u5e73\u621019\u5e74\u3000\u56fd\u571f\u4ea4\u901a\u7701", "public_transport": "station", "railway": "station", "source": "KSJ2", "source_ref": "http://nlftp.mlit.go.jp/ksj/jpgis/datalist/KsjTmplt-N02-v1_1.html", "wikidata": "Q642583", "wikipedia": "ja:\u5ddd\u6e21\u6e29\u6cc9\u99c5"}}, {"type": "node", "id": 264400959, "lat": 38.7305706, "lon": 140.5537397, "tags": {"KSJ2:LIN": "\u9678\u7fbd\u6771\u7dda", "KSJ2:STN": "\u8d64\u5009\u6e29\u6cc9", "alt_name:ko": "\uc544\uce74\ucfe0\ub77c\uc628\uc13c", "name": "\u8d64\u5009\u6e29\u6cc9", "name:en": "Akakura-Onsen", "name:ja": "\u8d64\u5009\u6e29\u6cc9", "name:ja_rm": "Akakura-Onsen", "name:ko": "\uc544\uce74\ucfe0\ub77c\uc628\ucc9c", "note": "National-Land Numerical Information (Railway) 2007, MLIT Japan", "note:ja": "\u56fd\u571f\u6570\u5024\u60c5\u5831\uff08\u9244\u9053\u30c7\u30fc\u30bf\uff09\u5e73\u621019\u5e74\u3000\u56fd\u571f\u4ea4\u901a\u7701", "public_transport": "station", "railway": "station", "source": "KSJ2", "source_ref": "http://nlftp.mlit.go.jp/ksj/jpgis/datalist/KsjTmplt-N02-v1_1.html", "wikidata": "Q1756866", "wikipedia": "ja:\u8d64\u5009\u6e29\u6cc9\u99c5"}}, {"type": "node", "id": 264400962, "lat": 38.6303048, "lon": 140.8896365, "tags": {"name": "\u897f\u5927\u5d0e", "name:en": "Nishi-Osaki", "name:ja": "\u897f\u5927\u5d0e", "name:ja_rm": "Nishi-\u014csaki", "name:ko": "\ub2c8\uc2dc\uc624\uc0ac\ud0a4", "note": "National-Land Numerical Information (Railway) 2007, MLIT Japan", "note:ja": "\u56fd\u571f\u6570\u5024\u60c5\u5831\uff08\u9244\u9053\u30c7\u30fc\u30bf\uff09\u5e73\u621019\u5e74\u3000\u56fd\u571f\u4ea4\u901a\u7701", "public_transport": "station", "railway": "station", "source": "KSJ2", "source_ref": "http://nlftp.mlit.go.jp/ksj/jpgis/datalist/KsjTmplt-N02-v1_1.html", "wikidata": "Q247570", "wikipedia": "ja:\u897f\u5927\u5d0e\u99c5"}}, {"type": "node", "id": 264400966, "lat": 38.7445129, "lon": 140.7373203, "tags": {"KSJ2:LIN": "\u9678\u7fbd\u6771\u7dda", "KSJ2:STN": "\u9cf4\u5b50\u5fa1\u6bbf\u6e6f", "name": "\u9cf4\u5b50\u5fa1\u6bbf\u6e6f", "name:en": "Naruko-Gotenyu", "name:ja": "\u9cf4\u5b50\u5fa1\u6bbf\u6e6f", "name:ja_rm": "Naruko-Gotenyu", "name:ko": "\ub098\ub8e8\ucf54\uace0\ud150\uc720", "note": "National-Land Numerical Information (Railway) 2007, MLIT Japan", "note:ja": "\u56fd\u571f\u6570\u5024\u60c5\u5831\uff08\u9244\u9053\u30c7\u30fc\u30bf\uff09\u5e73\u621019\u5e74\u3000\u56fd\u571f\u4ea4\u901a\u7701", "public_transport": "station", "railway": "station", "source": "KSJ2", "source_ref": "http://nlftp.mlit.go.jp/ksj/jpgis/datalist/KsjTmplt-N02-v1_1.html", "wikidata": "Q1092587", "wikipedia": "ja:\u9cf4\u5b50\u5fa1\u6bbf\u6e6f\u99c5"}}, {"type": "node", "id": 264401245, "lat": 38.7352699, "lon": 140.6134414, "tags": {"KSJ2:LIN": "\u9678\u7fbd\u6771\u7dda", "KSJ2:STN": "\u583a\u7530", "name": "\u583a\u7530", "name:en": "Sakaida", "name:ja": "\u583a\u7530", "name:ja_rm": "Sakaida", "name:ko": "\uc0ac\uce74\uc774\ub2e4", "note": "National-Land Numerical Information (Railway) 2007, MLIT Japan", "note:ja": "\u56fd\u571f\u6570\u5024\u60c5\u5831\uff08\u9244\u9053\u30c7\u30fc\u30bf\uff09\u5e73\u621019\u5e74\u3000\u56fd\u571f\u4ea4\u901a\u7701", "public_transport": "station", "railway": "station", "source": "KSJ2", "source_ref": "http://nlftp.mlit.go.jp/ksj/jpgis/datalist/KsjTmplt-N02-v1_1.html", "wikidata": "Q1151505", "wikipedia": "ja:\u583a\u7530\u99c5"}}, {"type": "node", "id": 264401569, "lat": 38.7420882, "lon": 140.5427453, "tags": {"KSJ2:LIN": "\u9678\u7fbd\u6771\u7dda", "KSJ2:STN": "\u7acb\u5c0f\u8def", "name": "\u7acb\u5c0f\u8def", "name:en": "Tachikoji", "name:ja": "\u7acb\u5c0f\u8def", "name:ja_rm": "Tachik\u014dji", "name:ko": "\ub2e4\uce58\ucf54\uc9c0", "note": "National-Land Numerical Information (Railway) 2007, MLIT Japan", "note:ja": "\u56fd\u571f\u6570\u5024\u60c5\u5831\uff08\u9244\u9053\u30c7\u30fc\u30bf\uff09\u5e73\u621019\u5e74\u3000\u56fd\u571f\u4ea4\u901a\u7701", "public_transport": "station", "railway": "station", "source": "KSJ2", "source_ref": "http://nlftp.mlit.go.jp/ksj/jpgis/datalist/KsjTmplt-N02-v1_1.html", "wikidata": "Q1826273", "wikipedia": "ja:\u7acb\u5c0f\u8def\u99c5"}}, {"type": "node", "id": 265031015, "lat": 38.7487399, "lon": 141.0716092, "tags": {"addr:block_number": "284", "addr:city": "\u6817\u539f\u5e02", "addr:postcode": "989-5612", "addr:province": "\u5bae\u57ce\u770c", "addr:quarter": "\u5fd7\u6ce2\u59eb\u65b0\u718a\u8c37", "highspeed": "yes", "name": "\u304f\u308a\u3053\u307e\u9ad8\u539f", "name:de": "Kurikoma-Kogen Gleis 1", "name:en": "Kurikoma-Kogen", "name:ja": "\u304f\u308a\u3053\u307e\u9ad8\u539f", "name:ja_rm": "Kurikoma-K\u014dgen", "name:ko": "\uad6c\ub9ac\ucf54\ub9c8\ucf54\uac90", "name:ru": "\u041a\u0443\u0440\u0438\u043a\u043e\u043c\u0430-\u041a\u043e\u0433\u0435\u043d", "public_transport": "station", "railway": "station", "source": "KSJ2", "train": "yes", "wikidata": "Q1136550", "wikipedia": "ja:\u304f\u308a\u3053\u307e\u9ad8\u539f\u99c5"}}, {"type": "node", "id": 5784245062, "lat": 38.6551991, "lon": 141.0737336, "tags": {"name": "\u702c\u5cf0", "name:en": "Semine", "name:ja-Hira": "\u305b\u307f\u306d", "name:ja-Latn": "Semine", "name:ru": "\u0421\u0435\u043c\u0438\u043d\u0435", "public_transport": "station", "railway": "station", "source": "KSJ2", "train": "yes", "wikidata": "Q899164", "wikipedia": "ja:\u702c\u5cf0\u99c5"}}, {"type": "node", "id": 11282257041, "lat": 38.7265345, "lon": 140.6678724, "tags": {"KSJ2:LIN": "\u9678\u7fbd\u6771\u7dda", "KSJ2:STN": "\u4e2d\u5c71\u5e73\u6e29\u6cc9", "alt_name:ko": "\ub098\uce74\uc57c\ub9c8\ub2e4\uc774\ub77c\uc628\uc13c", "name": "\u4e2d\u5c71\u5e73\u6e29\u6cc9", "name:en": "Nakayamadaira-Onsen", "name:ja": "\u4e2d\u5c71\u5e73\u6e29\u6cc9", "name:ja_rm": "Nakayamadaira-Onsen", "name:ko": "\ub098\uce74\uc57c\ub9c8\ub2e4\uc774\ub77c\uc628\ucc9c", "note": "National-Land Numerical Information (Railway) 2007, MLIT Japan", "note:ja": "\u56fd\u571f\u6570\u5024\u60c5\u5831\uff08\u9244\u9053\u30c7\u30fc\u30bf\uff09\u5e73\u621019\u5e74\u3000\u56fd\u571f\u4ea4\u901a\u7701", "public_transport": "station", "railway": "station", "source": "KSJ2", "source_ref": "http://nlftp.mlit.go.jp/ksj/jpgis/datalist/KsjTmplt-N02-v1_1.html", "wikidata": "Q1092594", "wikipedia": "ja:\u4e2d\u5c71\u5e73\u6e29\u6cc9\u99c5"}}]}