{"version": 0.6, "generator": "Overpass API 0.7.62.4 2390de5a", "osm3s": {"timestamp_osm_base": "2024-12-30T14:58:07Z", "copyright": "The data included in this document is from www.openstreetmap.org. The data is made available under ODbL."}, "elements": [{"type": "node", "id": 263250474, "lat": 37.1802773, "lon": 139.7509855, "tags": {"KSJ2:LIN": "\u4f1a\u6d25\u7dda", "KSJ2:STN": "\u4e2d\u8352\u4e95", "mapillary": "301684964853417", "name": "\u4e2d\u8352\u4e95", "name:en": "Nakaarai", "name:ja": "\u4e2d\u8352\u4e95", "name:ja_rm": "Nakaarai", "name:ko": "\ub098\uce74\uc544\ub77c\uc774", "note": "National-Land Numerical Information (Railway) 2007, MLIT Japan", "note:ja": "\u56fd\u571f\u6570\u5024\u60c5\u5831\uff08\u9244\u9053\u30c7\u30fc\u30bf\uff09\u5e73\u621019\u5e74\u3000\u56fd\u571f\u4ea4\u901a\u7701", "public_transport": "station", "railway": "station", "source": "KSJ2", "source_ref": "http://nlftp.mlit.go.jp/ksj/jpgis/datalist/KsjTmplt-N02-v1_1.html", "website": "http://www.aizutetsudo.jp/station/nakaarai/", "wikidata": "Q11366929", "wikipedia": "ja:\u4e2d\u8352\u4e95\u99c5"}}, {"type": "node", "id": 263250475, "lat": 37.2152818, "lon": 139.8238294, "tags": {"KSJ2:LIN": "\u4f1a\u6d25\u7dda", "KSJ2:STN": "\u4f1a\u6d25\u9577\u91ce", "mapillary": "474280787137878", "name": "\u4f1a\u6d25\u9577\u91ce", "name:en": "Aizu-Nagano", "name:ja": "\u4f1a\u6d25\u9577\u91ce", "name:ja_rm": "Aizu-Nagano", "name:ko": "\uc544\uc774\uc988\ub098\uac00\ub178", "note": "National-Land Numerical Information (Railway) 2007, MLIT Japan", "note:ja": "\u56fd\u571f\u6570\u5024\u60c5\u5831\uff08\u9244\u9053\u30c7\u30fc\u30bf\uff09\u5e73\u621019\u5e74\u3000\u56fd\u571f\u4ea4\u901a\u7701", "public_transport": "station", "railway": "station", "source": "KSJ2", "source_ref": "http://nlftp.mlit.go.jp/ksj/jpgis/datalist/KsjTmplt-N02-v1_1.html", "website": "http://www.aizutetsudo.jp/station/aizunagano/", "wikidata": "Q4699451", "wikipedia": "ja:\u4f1a\u6d25\u9577\u91ce\u99c5"}}, {"type": "node", "id": 263250746, "lat": 37.1446142, "lon": 139.7318281, "tags": {"KSJ2:LIN": "\u4f1a\u6d25\u7dda", "KSJ2:STN": "\u4f1a\u6d25\u5c71\u6751\u9053\u5834", "mapillary": "380636336664884", "name": "\u4f1a\u6d25\u5c71\u6751\u9053\u5834", "name:en": "Aizu-Sanson-Dojo", "name:ja": "\u4f1a\u6d25\u5c71\u6751\u9053\u5834", "name:ja_rm": "Aizu-Sanson-D\u014dj\u014d", "name:ko": "\uc544\uc774\uc988\uc0b0\uc190\ub3c4\uc870", "note": "National-Land Numerical Information (Railway) 2007, MLIT Japan", "note:ja": "\u56fd\u571f\u6570\u5024\u60c5\u5831\uff08\u9244\u9053\u30c7\u30fc\u30bf\uff09\u5e73\u621019\u5e74\u3000\u56fd\u571f\u4ea4\u901a\u7701", "public_transport": "station", "railway": "station", "source": "KSJ2", "source_ref": "http://nlftp.mlit.go.jp/ksj/jpgis/datalist/KsjTmplt-N02-v1_1.html", "website": "http://www.aizutetsudo.jp/station/aizusansondoujo/", "wikidata": "Q4699454", "wikipedia": "ja:\u4f1a\u6d25\u5c71\u6751\u9053\u5834\u99c5"}}, {"type": "node", "id": 263251764, "lat": 37.2245209, "lon": 139.8418182, "tags": {"KSJ2:LIN": "\u4f1a\u6d25\u7dda", "KSJ2:STN": "\u990a\u9c52\u516c\u5712", "mapillary": "862036074349403", "name": "\u990a\u9c52\u516c\u5712", "name:en": "Yoson-Koen", "name:ja": "\u990a\u9c52\u516c\u5712", "name:ja_rm": "Y\u014dson-K\u014den", "name:ko": "\uc694\uc190\ucf54\uc5d4", "note": "National-Land Numerical Information (Railway) 2007, MLIT Japan", "note:ja": "\u56fd\u571f\u6570\u5024\u60c5\u5831\uff08\u9244\u9053\u30c7\u30fc\u30bf\uff09\u5e73\u621019\u5e74\u3000\u56fd\u571f\u4ea4\u901a\u7701", "public_transport": "station", "railway": "station", "source": "KSJ2", "source_ref": "http://nlftp.mlit.go.jp/ksj/jpgis/datalist/KsjTmplt-N02-v1_1.html", "website": "http://www.aizutetsudo.jp/station/yousonkouen/", "wikidata": "Q8062674", "wikipedia": "ja:\u990a\u9c52\u516c\u5712\u99c5"}}, {"type": "node", "id": 263252259, "lat": 37.153567, "lon": 139.7338499, "tags": {"KSJ2:LIN": "\u4f1a\u6d25\u7dda", "KSJ2:STN": "\u4f1a\u6d25\u8352\u6d77", "mapillary": "944630159688073", "name": "\u4f1a\u6d25\u8352\u6d77", "name:en": "Aizu-Arakai", "name:ja": "\u4f1a\u6d25\u8352\u6d77", "name:ja_rm": "Aizu-Arakai", "name:ko": "\uc544\uc774\uc988\uc544\ub77c\uce74\uc774", "note": "National-Land Numerical Information (Railway) 2007, MLIT Japan", "note:ja": "\u56fd\u571f\u6570\u5024\u60c5\u5831\uff08\u9244\u9053\u30c7\u30fc\u30bf\uff09\u5e73\u621019\u5e74\u3000\u56fd\u571f\u4ea4\u901a\u7701", "public_transport": "station", "railway": "station", "source": "KSJ2", "source_ref": "http://nlftp.mlit.go.jp/ksj/jpgis/datalist/KsjTmplt-N02-v1_1.html", "website": "http://www.aizutetsudo.jp/station/aizuarakai/", "wikidata": "Q4699442", "wikipedia": "ja:\u4f1a\u6d25\u8352\u6d77\u99c5"}}, {"type": "node", "id": 263252396, "lat": 37.2095771, "lon": 139.8007145, "tags": {"KSJ2:LIN": "\u4f1a\u6d25\u7dda", "KSJ2:STN": "\u7530\u5cf6\u9ad8\u6821\u524d", "alt_name:ko": "\ub2e4\uc9c0\ub9c8\ucf54\ucf54\ub9c8\uc5d0", "name": "\u7530\u5cf6\u9ad8\u6821\u524d", "name:en": "Tajimakoko-mae", "name:ja": "\u7530\u5cf6\u9ad8\u6821\u524d", "name:ja_rm": "Tajimak\u014dk\u014dmae", "name:ko": "\ub2e4\uc9c0\ub9c8\uace0\uad50\uc55e", "note": "National-Land Numerical Information (Railway) 2007, MLIT Japan", "note:ja": "\u56fd\u571f\u6570\u5024\u60c5\u5831\uff08\u9244\u9053\u30c7\u30fc\u30bf\uff09\u5e73\u621019\u5e74\u3000\u56fd\u571f\u4ea4\u901a\u7701", "public_transport": "station", "railway": "station", "source": "KSJ2", "source_ref": "http://nlftp.mlit.go.jp/ksj/jpgis/datalist/KsjTmplt-N02-v1_1.html", "website": "http://www.aizutetsudo.jp/station/tajimakoukoumae/", "wikidata": "Q7676862", "wikipedia": "ja:\u7530\u5cf6\u9ad8\u6821\u524d\u99c5"}}, {"type": "node", "id": 263253724, "lat": 37.1241101, "lon": 139.7172976, "tags": {"mapillary": "628329248563078", "name": "\u4e03\u30f6\u5cb3\u767b\u5c71\u53e3", "name:en": "Nanatsugatake-Tozanguchi", "name:ja": "\u4e03\u30f6\u5cb3\u767b\u5c71\u53e3", "name:ja_rm": "Nanatsugatake-Tozanguchi", "name:ko": "\ub098\ub098\uc4f0\uac00\ud0c0\ucf00\ud1a0\uc794\uad6c\uce58", "public_transport": "station", "railway": "station", "source": "KSJ2", "website": "http://www.aizutetsudo.jp/station/nanatsugatake/", "wikidata": "Q6962439", "wikipedia": "ja:\u4e03\u30f6\u5cb3\u767b\u5c71\u53e3\u99c5"}}, {"type": "node", "id": 264183498, "lat": 36.8437535, "lon": 139.9579832, "tags": {"name": "\u91ce\u5d0e", "name:de": "Nozaki", "name:en": "Nozaki", "name:ja-Hira": "\u306e\u3056\u304d", "name:ja-Latn": "Nozaki", "name:ru": "\u041d\u043e\u0434\u0437\u0430\u043a\u0438", "public_transport": "station", "railway": "station", "source": "KSJ2", "train": "yes", "wikidata": "Q872751", "wikipedia": "ja:\u91ce\u5d0e\u99c5 (\u6803\u6728\u770c)"}}, {"type": "node", "id": 264223680, "lat": 37.0476111, "lon": 139.7242453, "tags": {"KSJ2:LIN": "\u4f1a\u6d25\u9b3c\u6012\u5ddd\u7dda", "KSJ2:STN": "\u7537\u9e7f\u9ad8\u539f", "name": "\u7537\u9e7f\u9ad8\u539f", "name:en": "Ojika-Kogen", "name:ja": "\u7537\u9e7f\u9ad8\u539f", "name:ja_rm": "Ojika-K\u014dgen", "name:ko": "\uc624\uc9c0\uce74\ucf54\uac90", "note": "National-Land Numerical Information (Railway) 2007, MLIT Japan", "note:ja": "\u56fd\u571f\u6570\u5024\u60c5\u5831\uff08\u9244\u9053\u30c7\u30fc\u30bf\uff09\u5e73\u621019\u5e74\u3000\u56fd\u571f\u4ea4\u901a\u7701", "public_transport": "station", "railway": "station", "source": "KSJ2", "source_ref": "http://nlftp.mlit.go.jp/ksj/jpgis/datalist/KsjTmplt-N02-v1_1.html", "wikidata": "Q7081627", "wikipedia": "ja:\u7537\u9e7f\u9ad8\u539f\u99c5"}}, {"type": "node", "id": 264224142, "lat": 36.9298348, "lon": 139.6884914, "tags": {"KSJ2:LIN": "\u4f1a\u6d25\u9b3c\u6012\u5ddd\u7dda", "KSJ2:STN": "\u6e6f\u897f\u5ddd\u6e29\u6cc9", "alt_name:ko": "\uc720\ub2c8\uc2dc\uac00\uc640\uc628\uc13c", "name": "\u6e6f\u897f\u5ddd\u6e29\u6cc9", "name:en": "Yunishigawa-Onsen", "name:ja": "\u6e6f\u897f\u5ddd\u6e29\u6cc9", "name:ja_rm": "Yunishigawa-Onsen", "name:ko": "\uc720\ub2c8\uc2dc\uac00\uc640\uc628\ucc9c", "note": "National-Land Numerical Information (Railway) 2007, MLIT Japan", "note:ja": "\u56fd\u571f\u6570\u5024\u60c5\u5831\uff08\u9244\u9053\u30c7\u30fc\u30bf\uff09\u5e73\u621019\u5e74\u3000\u56fd\u571f\u4ea4\u901a\u7701", "public_transport": "station", "railway": "station", "source": "KSJ2", "source_ref": "http://nlftp.mlit.go.jp/ksj/jpgis/datalist/KsjTmplt-N02-v1_1.html", "wikidata": "Q8061299", "wikipedia": "ja:\u6e6f\u897f\u5ddd\u6e29\u6cc9\u99c5"}}, {"type": "node", "id": 264224261, "lat": 36.8844617, "lon": 139.7038831, "tags": {"KSJ2:LIN": "\u4f1a\u6d25\u9b3c\u6012\u5ddd\u7dda", "KSJ2:STN": "\u5ddd\u6cbb\u6e29\u6cc9", "alt_name:ko": "\uac00\uc640\uc9c0\uc628\uc13c", "name": "\u5ddd\u6cbb\u6e29\u6cc9", "name:en": "Kawaji-Onsen", "name:ja": "\u5ddd\u6cbb\u6e29\u6cc9", "name:ja_rm": "Kawaji-Onsen", "name:ko": "\uac00\uc640\uc9c0\uc628\ucc9c", "public_transport": "station", "railway": "station", "source": "KSJ2", "train": "yes", "wikidata": "Q6379551", "wikipedia": "ja:\u5ddd\u6cbb\u6e29\u6cc9\u99c5"}}, {"type": "node", "id": 264224451, "lat": 36.8528343, "lon": 139.7327706, "tags": {"name": "\u65b0\u85e4\u539f", "name:en": "Shinfujiwara", "name:ja": "\u65b0\u85e4\u539f", "name:ja_rm": "Shinfujiwara", "name:ko": "\uc2e0\ud6c4\uc9c0\uc640\ub77c", "note": "National-Land Numerical Information (Railway) 2007, MLIT Japan", "note:ja": "\u56fd\u571f\u6570\u5024\u60c5\u5831\uff08\u9244\u9053\u30c7\u30fc\u30bf\uff09\u5e73\u621019\u5e74\u3000\u56fd\u571f\u4ea4\u901a\u7701", "public_transport": "station", "railway": "station", "ref": "TN58", "source": "KSJ2", "source_ref": "http://nlftp.mlit.go.jp/ksj/jpgis/datalist/KsjTmplt-N02-v1_1.html", "wikidata": "Q7497085", "wikipedia": "ja:\u65b0\u85e4\u539f\u99c5"}}, {"type": "node", "id": 264224643, "lat": 36.8953088, "lon": 139.7027779, "tags": {"KSJ2:LIN": "\u4f1a\u6d25\u9b3c\u6012\u5ddd\u7dda", "KSJ2:STN": "\u5ddd\u6cbb\u6e6f\u5143", "name": "\u5ddd\u6cbb\u6e6f\u5143", "name:en": "Kawaji-Yumoto", "name:ja": "\u5ddd\u6cbb\u6e6f\u5143", "name:ja_rm": "Kawaji-Yumoto", "name:ko": "\uac00\uc640\uc9c0\uc720\ubaa8\ud1a0", "note": "National-Land Numerical Information (Railway) 2007, MLIT Japan", "note:ja": "\u56fd\u571f\u6570\u5024\u60c5\u5831\uff08\u9244\u9053\u30c7\u30fc\u30bf\uff09\u5e73\u621019\u5e74\u3000\u56fd\u571f\u4ea4\u901a\u7701", "public_transport": "station", "railway": "station", "source": "KSJ2", "source_ref": "http://nlftp.mlit.go.jp/ksj/jpgis/datalist/KsjTmplt-N02-v1_1.html", "wikidata": "Q6379552", "wikipedia": "ja:\u5ddd\u6cbb\u6e6f\u5143\u99c5"}}, {"type": "node", "id": 264224990, "lat": 36.8611042, "lon": 139.7185535, "tags": {"KSJ2:LIN": "\u4f1a\u6d25\u9b3c\u6012\u5ddd\u7dda", "KSJ2:STN": "\u9f8d\u738b\u5ce1", "name": "\u9f8d\u738b\u5ce1", "name:en": "Ryuokyo", "name:ja": "\u9f8d\u738b\u5ce1", "name:ja_rm": "Ry\u016b\u014dky\u014d", "name:ko": "\ub958\uc624\ucfc4", "note": "National-Land Numerical Information (Railway) 2007, MLIT Japan", "note:ja": "\u56fd\u571f\u6570\u5024\u60c5\u5831\uff08\u9244\u9053\u30c7\u30fc\u30bf\uff09\u5e73\u621019\u5e74\u3000\u56fd\u571f\u4ea4\u901a\u7701", "public_transport": "station", "railway": "station", "source": "KSJ2", "source_ref": "http://nlftp.mlit.go.jp/ksj/jpgis/datalist/KsjTmplt-N02-v1_1.html", "wikidata": "Q7385662", "wikipedia": "ja:\u9f8d\u738b\u5ce1\u99c5"}}, {"type": "node", "id": 925345920, "lat": 36.8409402, "lon": 139.722832, "tags": {"alt_name:ko": "\uae30\ub204\uac00\uc640\ucf54\uc5d4", "name": "\u9b3c\u6012\u5ddd\u516c\u5712", "name:en": "Kinugawa-Koen", "name:ja": "\u9b3c\u6012\u5ddd\u516c\u5712", "name:ja_kana": "\u304d\u306c\u304c\u308f\u3053\u3046\u3048\u3093", "name:ja_rm": "Kinugawa-Koen", "name:ko": "\uae30\ub204\uac00\uc640\uacf5\uc6d0", "note": "National-Land Numerical Information (Railway) 2007, MLIT Japan", "note:ja": "\u56fd\u571f\u6570\u5024\u60c5\u5831\uff08\u9244\u9053\u30c7\u30fc\u30bf\uff09\u5e73\u621019\u5e74\u3000\u56fd\u571f\u4ea4\u901a\u7701", "public_transport": "station", "railway": "station", "ref": "TN57", "source": "KSJ2", "source_ref": "http://nlftp.mlit.go.jp/ksj/jpgis/datalist/KsjTmplt-N02-v1_1.html", "wikidata": "Q6414416", "wikipedia": "ja:\u9b3c\u6012\u5ddd\u516c\u5712\u99c5"}}, {"type": "node", "id": 925346278, "lat": 36.8023132, "lon": 139.706617, "tags": {"name": "\u5c0f\u4f50\u8d8a", "name:en": "Kosagoe", "name:ja": "\u5c0f\u4f50\u8d8a", "name:ja_rm": "Kosagoe", "name:ko": "\uace0\uc0ac\uace0\uc5d0", "public_transport": "station", "railway": "station", "source": "KSJ2", "train": "yes", "wikidata": "Q6432945", "wikipedia": "ja:\u5c0f\u4f50\u8d8a\u99c5"}}, {"type": "node", "id": 3730128015, "lat": 36.8226329, "lon": 139.7165045, "tags": {"alt_name:ko": "\uae30\ub204\uac00\uc640\uc628\uc13c", "name": "\u9b3c\u6012\u5ddd\u6e29\u6cc9", "name:en": "Kinugawa-onsen", "name:ja": "\u9b3c\u6012\u5ddd\u6e29\u6cc9", "name:ja_rm": "Kinugawa-Onsen", "name:ko": "\uae30\ub204\uac00\uc640\uc628\ucc9c", "operator": "\u6771\u6b66\u9244\u9053", "platforms": "2", "public_transport": "station", "railway": "station", "ref": "TN56", "source": "KSJ2", "wikidata": "Q6414419", "wikipedia": "ja:\u9b3c\u6012\u5ddd\u6e29\u6cc9\u99c5"}}, {"type": "node", "id": 3736313340, "lat": 37.2033259, "lon": 139.7737611, "tags": {"KSJ2:LIN": "\u4f1a\u6d25\u7dda", "KSJ2:STN": "\u4f1a\u6d25\u7530\u5cf6", "internet_access": "wlan", "internet_access:fee": "no", "internet_access:ssid": "Aizu_tetsudo_Free_Wi-Fi", "mapillary": "859249141327237", "name": "\u4f1a\u6d25\u7530\u5cf6", "name:en": "Aizu-Tajima", "name:ja": "\u4f1a\u6d25\u7530\u5cf6", "name:ja_rm": "Aizu-Tajima", "name:ko": "\uc544\uc774\uc988\ud0c0\uc9c0\ub9c8", "note": "National-Land Numerical Information (Railway) 2007, MLIT Japan", "note:ja": "\u56fd\u571f\u6570\u5024\u60c5\u5831\uff08\u9244\u9053\u30c7\u30fc\u30bf\uff09\u5e73\u621019\u5e74\u3000\u56fd\u571f\u4ea4\u901a\u7701", "public_transport": "station", "railway": "station", "source": "KSJ2", "source_ref": "http://nlftp.mlit.go.jp/ksj/jpgis/datalist/KsjTmplt-N02-v1_1.html", "website": "http://www.aizutetsudo.jp/station/aizutajima/", "wikidata": "Q4699458", "wikipedia": "ja:\u4f1a\u6d25\u7530\u5cf6\u99c5"}}, {"type": "node", "id": 5729357318, "lat": 37.0897835, "lon": 139.7050278, "tags": {"KSJ2:LIN": "\u4f1a\u6d25\u7dda;\u4f1a\u6d25\u9b3c\u6012\u5ddd\u7dda", "KSJ2:STN": "\u4f1a\u6d25\u9ad8\u539f;\u4f1a\u6d25\u9ad8\u539f\u5c3e\u702c\u53e3", "internet_access": "wlan", "internet_access:fee": "no", "internet_access:ssid": "Aizu_tetsudo_Free_Wi-Fi", "mapillary": "155332373131797", "name": "\u4f1a\u6d25\u9ad8\u539f\u5c3e\u702c\u53e3", "name:en": "Aizukogen-Ozeguchi", "name:ja": "\u4f1a\u6d25\u9ad8\u539f\u5c3e\u702c\u53e3", "name:ja-Latn": "Aizuk\u014dgen-Ozeguchi", "name:ko": "\uc544\uc774\uc988\ucf54\uac90\uc624\uc81c\uad6c\uce58", "note": "National-Land Numerical Information (Railway) 2007, MLIT Japan", "note:ja": "\u56fd\u571f\u6570\u5024\u60c5\u5831\uff08\u9244\u9053\u30c7\u30fc\u30bf\uff09\u5e73\u621019\u5e74\u3000\u56fd\u571f\u4ea4\u901a\u7701", "opening_hours": "09:05-17:10", "phone": "+81 0241-66-2329", "public_transport": "station", "railway": "station", "source": "KSJ2", "source_ref": "http://nlftp.mlit.go.jp/ksj/jpgis/datalist/KsjTmplt-N02-v1_1.html", "website": "http://www.aizutetsudo.jp/station/aizukougenozeguchi/", "wikidata": "Q4699473", "wikipedia": "ja:\u4f1a\u6d25\u9ad8\u539f\u5c3e\u702c\u53e3\u99c5"}}, {"type": "node", "id": 5729363569, "lat": 36.9852804, "lon": 139.6992817, "tags": {"alt_name:ko": "\ub098\uce74\ubbf8\uc694\ub9ac\uc628\uc13c", "name": "\u4e2d\u4e09\u4f9d\u6e29\u6cc9", "name:en": "Nakamiyori-Onsen", "name:ja": "\u4e2d\u4e09\u4f9d\u6e29\u6cc9", "name:ja_rm": "Nakamiyori-Onsen", "name:ko": "\ub098\uce74\ubbf8\uc694\ub9ac\uc628\ucc9c", "note": "National-Land Numerical Information (Railway) 2007, MLIT Japan", "note:ja": "\u56fd\u571f\u6570\u5024\u60c5\u5831\uff08\u9244\u9053\u30c7\u30fc\u30bf\uff09\u5e73\u621019\u5e74\u3000\u56fd\u571f\u4ea4\u901a\u7701", "public_transport": "station", "railway": "station", "source": "KSJ2", "source_ref": "http://nlftp.mlit.go.jp/ksj/jpgis/datalist/KsjTmplt-N02-v1_1.html", "wikidata": "Q6960218", "wikipedia": "ja:\u4e2d\u4e09\u4f9d\u6e29\u6cc9\u99c5"}}, {"type": "node", "id": 5826641576, "lat": 36.8844145, "lon": 139.9867128, "tags": {"name": "\u897f\u90a3\u9808\u91ce", "name:de": "Nishi-Nasuno", "name:en": "Nishi-Nasuno", "name:ja": "\u897f\u90a3\u9808\u91ce", "name:ja-Hira": "\u306b\u3057\u306a\u3059\u306e", "name:ja-Latn": "Nishinasuno", "name:ko": "\ub2c8\uc2dc\ub098\uc2a4\ub178", "name:ru": "\u041d\u0438\u0441\u0438-\u041d\u0430\u0441\u0443\u043d\u043e", "public_transport": "station", "railway": "station", "source": "KSJ2", "train": "yes", "wikidata": "Q872877", "wikipedia": "ja:\u897f\u90a3\u9808\u91ce\u99c5"}}, {"type": "node", "id": 6095556272, "lat": 36.8067528, "lon": 139.9328265, "tags": {"name": "\u77e2\u677f", "name:de": "Yaita", "name:en": "Yaita", "name:ja-Hira": "\u3084\u3044\u305f", "name:ja-Latn": "Yaita", "name:ru": "\u042f\u0438\u0442\u0430", "public_transport": "station", "railway": "station", "source": "KSJ2", "train": "yes", "wikidata": "Q872871", "wikipedia": "ja:\u77e2\u677f\u99c5"}}, {"type": "node", "id": 8053974913, "lat": 36.8086594, "lon": 139.7093088, "tags": {"name": "\u6771\u6b66\u30ef\u30fc\u30eb\u30c9\u30b9\u30af\u30a6\u30a7\u30a2", "name:en": "Tobu World Square", "name:ja": "\u6771\u6b66\u30ef\u30fc\u30eb\u30c9\u30b9\u30af\u30a6\u30a7\u30a2", "network": "\u6771\u6b66\u9244\u9053", "network:en": "Tobu Railway", "network:ja": "\u6771\u6b66\u9244\u9053", "network:wikidata": "Q1321914", "operator": "\u6771\u6b66\u9244\u9053", "public_transport": "station", "railway": "station", "ref": "TN55", "train": "yes", "wikidata": "Q27923776", "wikipedia": "ja:\u6771\u6b66\u30ef\u30fc\u30eb\u30c9\u30b9\u30af\u30a6\u30a7\u30a2\u99c5"}}, {"type": "node", "id": 11240185368, "lat": 37.013896, "lon": 139.7275289, "tags": {"name": "\u4e0a\u4e09\u4f9d\u5869\u539f\u6e29\u6cc9\u53e3", "name:en": "Kamimiyori-Shiobara-Onsenguchi", "name:ja": "\u4e0a\u4e09\u4f9d\u5869\u539f\u6e29\u6cc9\u53e3", "name:ja_rm": "Kamimiyori-Shiobara-Onsenguchi", "name:ko": "\uac00\ubbf8\ubbf8\uc694\ub9ac\uc2dc\uc624\ubc14\ub77c\uc628\uc13c\uad6c\uce58", "note": "National-Land Numerical Information (Railway) 2007, MLIT Japan", "note:ja": "\u56fd\u571f\u6570\u5024\u60c5\u5831\uff08\u9244\u9053\u30c7\u30fc\u30bf\uff09\u5e73\u621019\u5e74\u3000\u56fd\u571f\u4ea4\u901a\u7701", "public_transport": "station", "railway": "station", "source": "KSJ2", "source_ref": "http://nlftp.mlit.go.jp/ksj/jpgis/datalist/KsjTmplt-N02-v1_1.html", "wikidata": "Q6358122", "wikipedia": "ja:\u4e0a\u4e09\u4f9d\u5869\u539f\u6e29\u6cc9\u53e3\u99c5"}}]}