{"version": 0.6, "generator": "Overpass API 0.7.62.4 2390de5a", "osm3s": {"timestamp_osm_base": "2024-12-30T15:07:30Z", "copyright": "The data included in this document is from www.openstreetmap.org. The data is made available under ODbL."}, "elements": [{"type": "node", "id": 267297584, "lat": 35.616819, "lon": 136.028376, "tags": {"KSJ2:LIN": "\u5c0f\u6d5c\u7dda", "KSJ2:STN": "\u7c9f\u91ce", "name": "\u7c9f\u91ce", "name:en": "Awano", "name:ja": "\u7c9f\u91ce", "name:ko": "\uc544\uc640\ub178", "note": "National-Land Numerical Information (Railway) 2007, MLIT Japan", "note:ja": "\u56fd\u571f\u6570\u5024\u60c5\u5831\uff08\u9244\u9053\u30c7\u30fc\u30bf\uff09\u5e73\u621019\u5e74\u3000\u56fd\u571f\u4ea4\u901a\u7701", "railway": "station", "source": "KSJ2", "source_ref": "http://nlftp.mlit.go.jp/ksj/jpgis/datalist/KsjTmplt-N02-v1_1.html", "wikidata": "Q4829804", "wikipedia": "ja:\u7c9f\u91ce\u99c5"}}, {"type": "node", "id": 267297624, "lat": 35.6184334, "lon": 136.0680396, "tags": {"KSJ2:LIN": "\u5c0f\u6d5c\u7dda", "KSJ2:STN": "\u897f\u6566\u8cc0", "name": "\u897f\u6566\u8cc0", "name:en": "Nishi-Tsuruga", "name:ja": "\u897f\u6566\u8cc0", "name:ko": "\ub2c8\uc2dc\uc4f0\ub8e8\uac00", "note": "National-Land Numerical Information (Railway) 2007, MLIT Japan", "note:ja": "\u56fd\u571f\u6570\u5024\u60c5\u5831\uff08\u9244\u9053\u30c7\u30fc\u30bf\uff09\u5e73\u621019\u5e74\u3000\u56fd\u571f\u4ea4\u901a\u7701", "railway": "station", "source": "KSJ2", "source_ref": "http://nlftp.mlit.go.jp/ksj/jpgis/datalist/KsjTmplt-N02-v1_1.html", "wikidata": "Q7040437", "wikipedia": "ja:\u897f\u6566\u8cc0\u99c5"}}, {"type": "node", "id": 267297697, "lat": 35.6141374, "lon": 135.9859248, "tags": {"KSJ2:LIN": "\u5c0f\u6d5c\u7dda", "KSJ2:STN": "\u6771\u7f8e\u6d5c", "name": "\u6771\u7f8e\u6d5c", "name:en": "Higashi-Mihama", "name:ja": "\u6771\u7f8e\u6d5c", "name:ko": "\ud788\uac00\uc2dc\ubbf8\ud558\ub9c8", "note": "National-Land Numerical Information (Railway) 2007, MLIT Japan", "note:ja": "\u56fd\u571f\u6570\u5024\u60c5\u5831\uff08\u9244\u9053\u30c7\u30fc\u30bf\uff09\u5e73\u621019\u5e74\u3000\u56fd\u571f\u4ea4\u901a\u7701", "public_transport": "station", "railway": "station", "source": "KSJ2", "source_ref": "http://nlftp.mlit.go.jp/ksj/jpgis/datalist/KsjTmplt-N02-v1_1.html", "wheelchair": "yes", "wikidata": "Q5753699", "wikipedia": "ja:\u6771\u7f8e\u6d5c\u99c5"}}, {"type": "node", "id": 267297714, "lat": 35.5043759, "lon": 135.86719, "tags": {"KSJ2:LIN": "\u5c0f\u6d5c\u7dda", "KSJ2:STN": "\u5927\u9ce5\u7fbd", "name": "\u5927\u9ce5\u7fbd", "name:en": "Otaba", "name:ja": "\u5927\u9ce5\u7fbd", "name:ja_kana": "\u304a\u304a\u3068\u3070", "name:ja_rm": "\u014ctoba", "name:ko": "\uc624\ud1a0\ubc14", "note": "National-Land Numerical Information (Railway) 2007, MLIT Japan", "note:ja": "\u56fd\u571f\u6570\u5024\u60c5\u5831\uff08\u9244\u9053\u30c7\u30fc\u30bf\uff09\u5e73\u621019\u5e74\u3000\u56fd\u571f\u4ea4\u901a\u7701", "railway": "station", "source": "KSJ2", "source_ref": "http://nlftp.mlit.go.jp/ksj/jpgis/datalist/KsjTmplt-N02-v1_1.html", "wikidata": "Q8081764", "wikipedia": "ja:\u5927\u9ce5\u7fbd\u99c5"}}, {"type": "node", "id": 267297808, "lat": 35.5163129, "lon": 135.8969601, "tags": {"KSJ2:LIN": "\u5c0f\u6d5c\u7dda", "KSJ2:STN": "\u5341\u6751", "name": "\u5341\u6751", "name:en": "Tomura", "name:ja": "\u5341\u6751", "name:ja_kana": "\u3068\u3080\u3089", "name:ja_rm": "Tomura", "name:ko": "\ub3c4\ubb34\ub77c", "note": "National-Land Numerical Information (Railway) 2007, MLIT Japan", "note:ja": "\u56fd\u571f\u6570\u5024\u60c5\u5831\uff08\u9244\u9053\u30c7\u30fc\u30bf\uff09\u5e73\u621019\u5e74\u3000\u56fd\u571f\u4ea4\u901a\u7701", "public_transport": "station", "railway": "station", "source": "KSJ2", "source_ref": "http://nlftp.mlit.go.jp/ksj/jpgis/datalist/KsjTmplt-N02-v1_1.html", "wikidata": "Q7820418", "wikipedia": "ja:\u5341\u6751\u99c5"}}, {"type": "node", "id": 267297868, "lat": 35.5845091, "lon": 135.9095032, "tags": {"KSJ2:LIN": "\u5c0f\u6d5c\u7dda", "KSJ2:STN": "\u6c17\u5c71", "name": "\u6c17\u5c71", "name:en": "Kiyama", "name:ja": "\u6c17\u5c71", "name:ja_kana": "\u304d\u3084\u307e", "name:ko": "\uae30\uc57c\ub9c8", "note": "National-Land Numerical Information (Railway) 2007, MLIT Japan", "note:ja": "\u56fd\u571f\u6570\u5024\u60c5\u5831\uff08\u9244\u9053\u30c7\u30fc\u30bf\uff09\u5e73\u621019\u5e74\u3000\u56fd\u571f\u4ea4\u901a\u7701", "railway": "station", "source": "KSJ2", "source_ref": "http://nlftp.mlit.go.jp/ksj/jpgis/datalist/KsjTmplt-N02-v1_1.html", "wikidata": "Q6418955", "wikipedia": "ja:\u6c17\u5c71\u99c5"}}, {"type": "node", "id": 267297923, "lat": 35.5557398, "lon": 135.9093925, "tags": {"KSJ2:LIN": "\u5c0f\u6d5c\u7dda", "KSJ2:STN": "\u4e09\u65b9", "name": "\u4e09\u65b9", "name:en": "Mikata", "name:ja": "\u4e09\u65b9", "name:ja_kana": "\u307f\u304b\u305f", "name:ja_rm": "Mikata", "name:ko": "\ubbf8\uce74\ud0c0", "note": "National-Land Numerical Information (Railway) 2007, MLIT Japan", "note:ja": "\u56fd\u571f\u6570\u5024\u60c5\u5831\uff08\u9244\u9053\u30c7\u30fc\u30bf\uff09\u5e73\u621019\u5e74\u3000\u56fd\u571f\u4ea4\u901a\u7701", "public_transport": "station", "railway": "station", "source": "KSJ2", "source_ref": "http://nlftp.mlit.go.jp/ksj/jpgis/datalist/KsjTmplt-N02-v1_1.html", "train": "yes", "wikidata": "Q6845725", "wikipedia": "ja:\u4e09\u65b9\u99c5"}}, {"type": "node", "id": 267297956, "lat": 35.4852387, "lon": 135.7812237, "tags": {"KSJ2:LIN": "\u5c0f\u6d5c\u7dda", "KSJ2:STN": "\u6771\u5c0f\u6d5c", "name": "\u6771\u5c0f\u6d5c", "name:en": "Higashi-Obama", "name:ja": "\u6771\u5c0f\u6d5c", "name:ko": "\ud788\uac00\uc2dc\uc624\ubc14\ub9c8", "note": "National-Land Numerical Information (Railway) 2007, MLIT Japan", "note:ja": "\u56fd\u571f\u6570\u5024\u60c5\u5831\uff08\u9244\u9053\u30c7\u30fc\u30bf\uff09\u5e73\u621019\u5e74\u3000\u56fd\u571f\u4ea4\u901a\u7701", "public_transport": "station", "railway": "station", "source": "KSJ2", "source_ref": "http://nlftp.mlit.go.jp/ksj/jpgis/datalist/KsjTmplt-N02-v1_1.html", "wikidata": "Q11526659", "wikipedia": "ja:\u6771\u5c0f\u6d5c\u99c5"}}, {"type": "node", "id": 267298109, "lat": 35.4857086, "lon": 135.8684255, "tags": {"KSJ2:LIN": "\u5c0f\u6d5c\u7dda", "KSJ2:STN": "\u82e5\u72ed\u6709\u7530", "name": "\u82e5\u72ed\u6709\u7530", "name:en": "Wakasa-Arita", "name:ja": "\u82e5\u72ed\u6709\u7530", "name:ja_kana": "\u308f\u304b\u3055\u3042\u308a\u305f", "name:ja_rm": "Wakasa-Arita", "name:ko": "\uc640\uce74\uc0ac\uc544\ub9ac\ud0c0", "note": "National-Land Numerical Information (Railway) 2007, MLIT Japan", "note:ja": "\u56fd\u571f\u6570\u5024\u60c5\u5831\uff08\u9244\u9053\u30c7\u30fc\u30bf\uff09\u5e73\u621019\u5e74\u3000\u56fd\u571f\u4ea4\u901a\u7701", "railway": "station", "source": "KSJ2", "source_ref": "http://nlftp.mlit.go.jp/ksj/jpgis/datalist/KsjTmplt-N02-v1_1.html", "wikidata": "Q4982270", "wikipedia": "ja:\u82e5\u72ed\u6709\u7530\u99c5"}}, {"type": "node", "id": 267298110, "lat": 35.5322047, "lon": 135.906366, "tags": {"KSJ2:LIN": "\u5c0f\u6d5c\u7dda", "KSJ2:STN": "\u85e4\u4e95", "name": "\u85e4\u4e95", "name:en": "Fujii", "name:ja": "\u85e4\u4e95", "name:ja_kana": "\u3075\u3058\u3044", "name:ja_rm": "Fujii", "name:ko": "\ud6c4\uc9c0\uc774", "note": "National-Land Numerical Information (Railway) 2007, MLIT Japan", "note:ja": "\u56fd\u571f\u6570\u5024\u60c5\u5831\uff08\u9244\u9053\u30c7\u30fc\u30bf\uff09\u5e73\u621019\u5e74\u3000\u56fd\u571f\u4ea4\u901a\u7701", "public_transport": "station", "railway": "station", "source": "KSJ2", "source_ref": "http://nlftp.mlit.go.jp/ksj/jpgis/datalist/KsjTmplt-N02-v1_1.html", "wheelchair": "yes", "wikidata": "Q5507417", "wikipedia": "ja:\u85e4\u4e95\u99c5"}}, {"type": "node", "id": 267298112, "lat": 35.4916804, "lon": 135.7454354, "tags": {"KSJ2:LIN": "\u5c0f\u6d5c\u7dda", "KSJ2:STN": "\u5c0f\u6d5c", "name": "\u5c0f\u6d5c", "name:en": "Obama", "name:ja": "\u5c0f\u6d5c", "name:ja_kana": "\u304a\u3070\u307e", "name:ja_rm": "Obama", "name:ko": "\uc624\ubc14\ub9c8", "note": "National-Land Numerical Information (Railway) 2007, MLIT Japan", "note:ja": "\u56fd\u571f\u6570\u5024\u60c5\u5831\uff08\u9244\u9053\u30c7\u30fc\u30bf\uff09\u5e73\u621019\u5e74\u3000\u56fd\u571f\u4ea4\u901a\u7701", "railway": "station", "source": "KSJ2", "source_ref": "http://nlftp.mlit.go.jp/ksj/jpgis/datalist/KsjTmplt-N02-v1_1.html", "wikidata": "Q7074612", "wikipedia": "ja:\u5c0f\u6d5c\u99c5"}}, {"type": "node", "id": 267298119, "lat": 35.6052219, "lon": 135.9366266, "tags": {"KSJ2:LIN": "\u5c0f\u6d5c\u7dda", "KSJ2:STN": "\u7f8e\u6d5c", "name": "\u7f8e\u6d5c", "name:en": "Mihama", "name:ja": "\u7f8e\u6d5c", "name:ja_kana": "\u307f\u306f\u307e", "name:ja_rm": "Mihama", "name:ko": "\ubbf8\ud558\ub9c8", "note": "National-Land Numerical Information (Railway) 2007, MLIT Japan", "note:ja": "\u56fd\u571f\u6570\u5024\u60c5\u5831\uff08\u9244\u9053\u30c7\u30fc\u30bf\uff09\u5e73\u621019\u5e74\u3000\u56fd\u571f\u4ea4\u901a\u7701", "public_transport": "station", "railway": "station", "source": "KSJ2", "source_ref": "http://nlftp.mlit.go.jp/ksj/jpgis/datalist/KsjTmplt-N02-v1_1.html", "wikidata": "Q6845246", "wikipedia": "ja:\u7f8e\u6d5c\u99c5"}}, {"type": "node", "id": 267298254, "lat": 35.4731307, "lon": 135.8075581, "tags": {"KSJ2:LIN": "\u5c0f\u6d5c\u7dda", "KSJ2:STN": "\u65b0\u5e73\u91ce", "name": "\u65b0\u5e73\u91ce", "name:en": "Shin-Hirano", "name:ja": "\u65b0\u5e73\u91ce", "name:ko": "\uc2e0\ud788\ub77c\ub178", "note": "National-Land Numerical Information (Railway) 2007, MLIT Japan", "note:ja": "\u56fd\u571f\u6570\u5024\u60c5\u5831\uff08\u9244\u9053\u30c7\u30fc\u30bf\uff09\u5e73\u621019\u5e74\u3000\u56fd\u571f\u4ea4\u901a\u7701", "railway": "station", "source": "KSJ2", "source_ref": "http://nlftp.mlit.go.jp/ksj/jpgis/datalist/KsjTmplt-N02-v1_1.html", "wikidata": "Q7497091", "wikipedia": "ja:\u65b0\u5e73\u91ce\u99c5"}}, {"type": "node", "id": 267298425, "lat": 35.4805887, "lon": 135.6660895, "tags": {"KSJ2:LIN": "\u5c0f\u6d5c\u7dda", "KSJ2:STN": "\u52a0\u6597", "name": "\u52a0\u6597", "name:en": "Kato", "name:ja": "\u52a0\u6597", "name:ko": "\uac00\ud1a0", "note": "National-Land Numerical Information (Railway) 2007, MLIT Japan", "note:ja": "\u56fd\u571f\u6570\u5024\u60c5\u5831\uff08\u9244\u9053\u30c7\u30fc\u30bf\uff09\u5e73\u621019\u5e74\u3000\u56fd\u571f\u4ea4\u901a\u7701", "public_transport": "station", "railway": "station", "source": "KSJ2", "source_ref": "http://nlftp.mlit.go.jp/ksj/jpgis/datalist/KsjTmplt-N02-v1_1.html", "wikidata": "Q6377755", "wikipedia": "ja:\u52a0\u6597\u99c5"}}, {"type": "node", "id": 267298429, "lat": 35.4811038, "lon": 135.7082867, "tags": {"KSJ2:LIN": "\u5c0f\u6d5c\u7dda", "KSJ2:STN": "\u52e2\u6d5c", "name": "\u52e2\u6d5c", "name:en": "Seihama", "name:ja": "\u52e2\u6d5c", "name:ko": "\uc138\uc774\ud558\ub9c8", "note": "National-Land Numerical Information (Railway) 2007, MLIT Japan", "note:ja": "\u56fd\u571f\u6570\u5024\u60c5\u5831\uff08\u9244\u9053\u30c7\u30fc\u30bf\uff09\u5e73\u621019\u5e74\u3000\u56fd\u571f\u4ea4\u901a\u7701", "public_transport": "station", "railway": "station", "source": "KSJ2", "source_ref": "http://nlftp.mlit.go.jp/ksj/jpgis/datalist/KsjTmplt-N02-v1_1.html", "wikidata": "Q7446696", "wikipedia": "ja:\u52e2\u6d5c\u99c5"}}, {"type": "node", "id": 267301279, "lat": 35.463838, "lon": 135.8550686, "tags": {"KSJ2:LIN": "\u5c0f\u6d5c\u7dda", "KSJ2:STN": "\u4e0a\u4e2d", "name": "\u4e0a\u4e2d", "name:en": "Kaminaka", "name:ja": "\u4e0a\u4e2d", "name:ja_kana": "\u304b\u307f\u306a\u304b", "name:ja_rm": "Kaminaka", "name:ko": "\uac00\ubbf8\ub098\uce74", "note": "National-Land Numerical Information (Railway) 2007, MLIT Japan", "note:ja": "\u56fd\u571f\u6570\u5024\u60c5\u5831\uff08\u9244\u9053\u30c7\u30fc\u30bf\uff09\u5e73\u621019\u5e74\u3000\u56fd\u571f\u4ea4\u901a\u7701", "railway": "station", "source": "KSJ2", "source_ref": "http://nlftp.mlit.go.jp/ksj/jpgis/datalist/KsjTmplt-N02-v1_1.html", "wikidata": "Q11358411", "wikipedia": "ja:\u4e0a\u4e2d\u99c5"}}, {"type": "node", "id": 267302251, "lat": 35.3985646, "lon": 136.0323983, "tags": {"KSJ2:LIN": "\u6e56\u897f\u7dda", "KSJ2:STN": "\u8fd1\u6c5f\u4eca\u6d25", "name": "\u8fd1\u6c5f\u4eca\u6d25", "name:en": "\u014cmi-Imazu", "name:ja": "\u8fd1\u6c5f\u4eca\u6d25", "name:ko": "\uc624\ubbf8\uc774\ub9c8\uc988", "note": "National-Land Numerical Information (Railway) 2007, MLIT Japan", "note:ja": "\u56fd\u571f\u6570\u5024\u60c5\u5831\uff08\u9244\u9053\u30c7\u30fc\u30bf\uff09\u5e73\u621019\u5e74\u3000\u56fd\u571f\u4ea4\u901a\u7701", "public_transport": "station", "railway": "station", "source": "KSJ2", "source_ref": "http://nlftp.mlit.go.jp/ksj/jpgis/datalist/KsjTmplt-N02-v1_1.html", "wikidata": "Q1590429", "wikipedia": "ja:\u8fd1\u6c5f\u4eca\u6d25\u99c5"}}, {"type": "node", "id": 4394654074, "lat": 35.6449012, "lon": 136.0765084, "tags": {"name": "\u6566\u8cc0", "name:en": "Tsuruga", "name:ja": "\u6566\u8cc0", "name:ja_kana": "\u3064\u308b\u304c", "name:ja_rm": "Tsuruga", "name:ko": "\uc4f0\ub8e8\uac00", "note": "National-Land Numerical Information (Railway) 2007, MLIT Japan", "railway": "station", "source": "KSJ2", "wikidata": "Q5364670", "wikipedia": "ja:\u6566\u8cc0\u99c5"}}, {"type": "node", "id": 8063979630, "lat": 35.5391604, "lon": 136.1514339, "tags": {"name": "\u8fd1\u6c5f\u5869\u6d25", "name:en": "\u014cmi-Shiotsu", "note": "National-Land Numerical Information (Railway) 2007, MLIT Japan", "operator": "\u897f\u65e5\u672c\u65c5\u5ba2\u9244\u9053", "public_transport": "station", "railway": "station", "ref": "JR-A03;JR-B10", "source": "KSJ2", "wikidata": "Q3611081", "wikipedia": "ja:\u8fd1\u6c5f\u5869\u6d25\u99c5"}}, {"type": "node", "id": 8070050609, "lat": 35.4413702, "lon": 136.0385505, "tags": {"KSJ2:LIN": "\u6e56\u897f\u7dda", "KSJ2:STN": "\u8fd1\u6c5f\u4e2d\u5e84", "name": "\u8fd1\u6c5f\u4e2d\u5e84", "name:en": "\u014cmi-Nakash\u014d", "note": "National-Land Numerical Information (Railway) 2007, MLIT Japan", "note:ja": "\u56fd\u571f\u6570\u5024\u60c5\u5831\uff08\u9244\u9053\u30c7\u30fc\u30bf\uff09\u5e73\u621019\u5e74\u3000\u56fd\u571f\u4ea4\u901a\u7701", "operator": "\u897f\u65e5\u672c\u65c5\u5ba2\u9244\u9053", "public_transport": "station", "railway": "station", "source": "KSJ2", "source_ref": "http://nlftp.mlit.go.jp/ksj/jpgis/datalist/KsjTmplt-N02-v1_1.html", "wikidata": "Q5364773", "wikipedia": "ja:\u8fd1\u6c5f\u4e2d\u5e84\u99c5"}}, {"type": "node", "id": 8070057805, "lat": 35.4613895, "lon": 136.0598606, "tags": {"KSJ2:LIN": "\u6e56\u897f\u7dda", "KSJ2:STN": "\u30de\u30ad\u30ce", "name": "\u30de\u30ad\u30ce", "name:en": "Makino", "note": "National-Land Numerical Information (Railway) 2007, MLIT Japan", "note:ja": "\u56fd\u571f\u6570\u5024\u60c5\u5831\uff08\u9244\u9053\u30c7\u30fc\u30bf\uff09\u5e73\u621019\u5e74\u3000\u56fd\u571f\u4ea4\u901a\u7701", "railway": "station", "source": "KSJ2", "source_ref": "http://nlftp.mlit.go.jp/ksj/jpgis/datalist/KsjTmplt-N02-v1_1.html", "wikidata": "Q5363830", "wikipedia": "ja:\u30de\u30ad\u30ce\u99c5"}}, {"type": "node", "id": 8070064523, "lat": 35.4987618, "lon": 136.122315, "tags": {"KSJ2:LIN": "\u6e56\u897f\u7dda", "KSJ2:STN": "\u6c38\u539f", "name": "\u6c38\u539f", "name:en": "Nagahara", "note": "National-Land Numerical Information (Railway) 2007, MLIT Japan", "note:ja": "\u56fd\u571f\u6570\u5024\u60c5\u5831\uff08\u9244\u9053\u30c7\u30fc\u30bf\uff09\u5e73\u621019\u5e74\u3000\u56fd\u571f\u4ea4\u901a\u7701", "public_transport": "station", "railway": "station", "source": "KSJ2", "source_ref": "http://nlftp.mlit.go.jp/ksj/jpgis/datalist/KsjTmplt-N02-v1_1.html", "wikidata": "Q5363118", "wikipedia": "ja:\u6c38\u539f\u99c5"}}, {"type": "node", "id": 11737552735, "lat": 35.5940343, "lon": 136.1007705, "tags": {"name": "\u65b0\u758b\u7530", "name:en": "Shin-Hikida", "name:ja": "\u65b0\u758b\u7530", "name:ko": "\uc2e0\ud788\ud0a4\ub2e4", "note": "National-Land Numerical Information (Railway) 2007, MLIT Japan", "railway": "station", "source": "KSJ2", "wikidata": "Q5364073", "wikipedia": "ja:\u65b0\u758b\u7530\u99c5"}}]}