{"version": 0.6, "generator": "Overpass API 0.7.62.4 2390de5a", "osm3s": {"timestamp_osm_base": "2024-12-30T14:59:15Z", "copyright": "The data included in this document is from www.openstreetmap.org. The data is made available under ODbL."}, "elements": [{"type": "node", "id": 206431759, "lat": 37.75454, "lon": 140.4592144, "tags": {"highspeed": "yes", "name": "\u798f\u5cf6", "name:de": "Fukushima", "name:en": "Fukushima", "name:ja": "\u798f\u5cf6", "name:ja-Hira": "\u3075\u304f\u3057\u307e", "name:ja-Latn": "Fukushima", "name:ru": "\u0424\u0443\u043a\u0443\u0441\u0438\u043c\u0430", "public_transport": "station", "railway": "station", "source": "KSJ2", "train": "yes", "voltage": "1500", "wikidata": "Q800799", "wikipedia": "ja:\u798f\u5cf6\u99c5 (\u798f\u5cf6\u770c)"}}, {"type": "node", "id": 263239925, "lat": 37.8054388, "lon": 140.4428112, "tags": {"name": "\u5e73\u91ce", "name:en": "Hirano", "name:ja": "\u5e73\u91ce", "name:ja-Hira": "\u3072\u3089\u306e", "name:ja-Latn": "Hirano", "public_transport": "station", "railway": "station", "source": "KSJ2", "train": "yes", "wikidata": "Q5769419", "wikipedia": "ja:\u5e73\u91ce\u99c5 (\u798f\u5cf6\u770c)"}}, {"type": "node", "id": 264408897, "lat": 38.0570157, "lon": 140.0442391, "tags": {"name": "\u4eca\u6cc9", "name:de": "Imaizumi", "name:en": "Imaizumi", "name:ja": "\u4eca\u6cc9", "name:ja-Hira": "\u3044\u307e\u3044\u305a\u307f", "name:ja-Latn": "Imaizumi", "public_transport": "station", "railway": "station", "source": "KSJ2", "train": "yes", "website": "https://www.jreast.co.jp/estation/station/info.aspx?StationCd=157", "wikidata": "Q6002988", "wikipedia": "ja:\u4eca\u6cc9\u99c5"}}, {"type": "node", "id": 264409088, "lat": 37.9173738, "lon": 140.0848469, "tags": {"name": "\u897f\u7c73\u6ca2", "name:en": "Nishi-Yonezawa", "name:ja-Hira": "\u306b\u3057\u3088\u306d\u3056\u308f", "name:ja-Latn": "Nishiyonezawa", "public_transport": "station", "railway": "station", "source": "KSJ2", "train": "yes", "wikidata": "Q11629372", "wikipedia": "ja:\u897f\u7c73\u6ca2\u99c5"}}, {"type": "node", "id": 264409710, "lat": 38.0257779, "lon": 140.0521094, "tags": {"name": "\u72ac\u5ddd", "name:en": "Inukawa", "name:ja-Hira": "\u3044\u306c\u304b\u308f", "name:ja-Latn": "Inukawa", "public_transport": "station", "railway": "station", "source": "KSJ2", "train": "yes", "wikidata": "Q6059280", "wikipedia": "ja:\u72ac\u5ddd\u99c5"}}, {"type": "node", "id": 264409732, "lat": 38.0045995, "lon": 140.0484104, "tags": {"name": "\u7fbd\u524d\u5c0f\u677e", "name:en": "Uzen-Komatsu", "name:ja-Hira": "\u3046\u305c\u3093\u3053\u307e\u3064", "name:ja-Latn": "Uzenkomatsu", "public_transport": "station", "railway": "station", "source": "KSJ2", "train": "yes", "wikidata": "Q7904818", "wikipedia": "ja:\u7fbd\u524d\u5c0f\u677e\u99c5"}}, {"type": "node", "id": 267600466, "lat": 38.1309784, "lon": 140.0351477, "tags": {"mapillary": "331009335118636", "name": "\u7fbd\u524d\u6210\u7530", "name:en": "Uzen-Narita", "name:ja": "\u7fbd\u524d\u6210\u7530", "name:ja-Hira": "\u3046\u305c\u3093\u306a\u308a\u305f", "name:ja-Latn": "Uzennarita", "public_transport": "station", "railway": "station", "source": "KSJ2", "website": "https://flower-liner.jp/result_eki/?josyaeki=6", "wikidata": "Q7904855", "wikipedia": "ja:\u7fbd\u524d\u6210\u7530\u99c5"}}, {"type": "node", "id": 3647437874, "lat": 37.8116595, "lon": 140.2689365, "tags": {"name": "\u677f\u8c37", "name:en": "Itaya", "name:ja-Hira": "\u3044\u305f\u3084", "name:ja-Latn": "Itaya", "public_transport": "station", "railway": "station", "source": "KSJ2", "train": "yes", "wikidata": "Q6094180", "wikipedia": "ja:\u677f\u8c37\u99c5"}}, {"type": "node", "id": 3647437878, "lat": 37.7716676, "lon": 140.390059, "tags": {"name": "\u5ead\u5742", "name:en": "Niwasaka", "name:ja-Hira": "\u306b\u308f\u3055\u304b", "name:ja-Latn": "Niwasaka", "public_transport": "station", "railway": "station", "source": "KSJ2", "train": "yes", "wikidata": "Q7041878", "wikipedia": "ja:\u5ead\u5742\u99c5"}}, {"type": "node", "id": 3647437879, "lat": 37.9542048, "lon": 140.1426729, "tags": {"name": "\u7f6e\u8cdc", "name:en": "Oitama", "name:ja-Hira": "\u304a\u3044\u305f\u307e", "name:ja-Latn": "Oitama", "public_transport": "station", "railway": "station", "source": "KSJ2", "train": "yes", "wikidata": "Q7081554", "wikipedia": "ja:\u7f6e\u8cdc\u99c5"}}, {"type": "node", "id": 3647437880, "lat": 37.837243, "lon": 140.2004877, "tags": {"name": "\u5927\u6ca2", "name:en": "Osawa", "name:ja-Hira": "\u304a\u304a\u3055\u308f", "name:ja-Latn": "\u014csawa", "public_transport": "station", "railway": "station", "source": "KSJ2", "train": "yes", "wikidata": "Q8081694", "wikipedia": "ja:\u5927\u6ca2\u99c5 (\u5c71\u5f62\u770c)"}}, {"type": "node", "id": 3647437881, "lat": 37.7660596, "lon": 140.4252667, "tags": {"name": "\u7b39\u6728\u91ce", "name:en": "Sasakino", "name:ja-Hira": "\u3055\u3055\u306e\u304d", "name:ja-Latn": "Sasakino", "public_transport": "station", "railway": "station", "source": "KSJ2", "train": "yes", "wikidata": "Q7424994", "wikipedia": "ja:\u7b39\u6728\u91ce\u99c5"}}, {"type": "node", "id": 3647437882, "lat": 37.8645587, "lon": 140.1464009, "tags": {"name": "\u95a2\u6839", "name:en": "Sekine", "name:ja-Hira": "\u305b\u304d\u306d", "name:ja-Latn": "Sekine", "public_transport": "station", "railway": "station", "source": "KSJ2", "train": "yes", "wikidata": "Q7447205", "wikipedia": "ja:\u95a2\u6839\u99c5"}}, {"type": "node", "id": 3647437883, "lat": 37.992415, "lon": 140.1531311, "tags": {"name": "\u9ad8\u7560", "name:de": "Takahata", "name:en": "Takahata", "name:ja-Hira": "\u305f\u304b\u306f\u305f", "name:ja-Latn": "Takahata", "public_transport": "station", "railway": "station", "source": "KSJ2", "train": "yes", "wikidata": "Q1137123", "wikipedia": "ja:\u9ad8\u7560\u99c5"}}, {"type": "node", "id": 3647437885, "lat": 37.8123789, "lon": 140.2355137, "tags": {"name": "\u5ce0", "name:en": "Toge", "name:ja-Hira": "\u3068\u3046\u3052", "name:ja-Latn": "T\u014dge", "public_transport": "station", "railway": "station", "source": "KSJ2", "train": "yes", "wikidata": "Q7862650", "wikipedia": "ja:\u5ce0\u99c5"}}, {"type": "node", "id": 3647437886, "lat": 37.9094604, "lon": 140.1284431, "tags": {"name": "\u7c73\u6ca2", "name:de": "Yonezawa", "name:en": "Yonezawa", "name:ja": "\u7c73\u6ca2", "name:ja-Hira": "\u3088\u306d\u3056\u308f", "name:ja-Latn": "Yonezawa", "name:ko": "\uc694\ub124\uc790\uc640", "public_transport": "station", "railway": "station", "source": "KSJ2", "train": "yes", "wikidata": "Q1137040", "wikipedia": "ja:\u7c73\u6ca2\u99c5"}}, {"type": "node", "id": 5777600138, "lat": 37.7670403, "lon": 140.4553275, "tags": {"name": "\u7f8e\u8853\u9928\u56f3\u66f8\u9928\u524d", "name:en": "Bijutsukan-Toshokan-mae", "name:ja": "\u7f8e\u8853\u9928\u56f3\u66f8\u9928\u524d", "name:ja_rm": "Bijutsukan-Toshokan-mae", "public_transport": "station", "railway": "station", "source": "KSJ2", "wikidata": "Q4907293", "wikipedia": "ja:\u7f8e\u8853\u9928\u56f3\u66f8\u9928\u524d\u99c5"}}, {"type": "node", "id": 5779102810, "lat": 37.7603335, "lon": 140.4594125, "tags": {"name": "\u66fd\u6839\u7530", "name:en": "Soneda", "name:ja": "\u66fd\u6839\u7530", "name:ja-Hira": "\u305d\u306d\u3060", "name:ja-Latn": "Soneda", "public_transport": "station", "railway": "station", "source": "KSJ2", "wikidata": "Q7560926", "wikipedia": "ja:\u66fd\u6839\u7530\u99c5"}}, {"type": "node", "id": 5793100367, "lat": 37.7999635, "lon": 140.4775375, "tags": {"name": "\u6771\u798f\u5cf6", "name:en": "Higashi-Fukushima", "name:ja-Hira": "\u3072\u304c\u3057\u3075\u304f\u3057\u307e", "name:ja-Latn": "Higashifukushima", "name:ru": "\u0425\u0438\u0433\u0430\u0441\u0438-\u0424\u0443\u043a\u0443\u0441\u0438\u043c\u0430", "public_transport": "station", "railway": "station", "source": "KSJ2", "train": "yes", "wikidata": "Q874513", "wikipedia": "ja:\u6771\u798f\u5cf6\u99c5"}}, {"type": "node", "id": 5793100368, "lat": 37.72367, "lon": 140.4557566, "tags": {"name": "\u5357\u798f\u5cf6", "name:en": "Minami-Fukushima", "name:ja-Hira": "\u307f\u306a\u307f\u3075\u304f\u3057\u307e", "name:ja-Latn": "Minamifukushima", "name:ru": "\u041c\u0438\u043d\u0430\u043c\u0438-\u0424\u0443\u043a\u0443\u0441\u0438\u043c\u0430", "public_transport": "station", "railway": "station", "source": "KSJ2", "train": "yes", "wikidata": "Q874869", "wikipedia": "ja:\u5357\u798f\u5cf6\u99c5"}}, {"type": "node", "id": 5793614299, "lat": 37.8791618, "lon": 140.5396454, "tags": {"name": "\u85e4\u7530", "name:en": "Fujita", "name:ja-Hira": "\u3075\u3058\u305f", "name:ja-Latn": "Fujita", "name:ru": "\u0424\u0443\u0434\u0437\u0438\u0442\u0430", "public_transport": "station", "railway": "station", "source": "KSJ2", "train": "yes", "wikidata": "Q874847", "wikipedia": "ja:\u85e4\u7530\u99c5"}}, {"type": "node", "id": 5822896401, "lat": 37.8554275, "lon": 140.5174327, "tags": {"name": "\u6851\u6298", "name:en": "Kori", "name:ja-Hira": "\u3053\u304a\u308a", "name:ja-Latn": "K\u014dri", "name:ru": "\u041a\u043e\u043e\u0440\u0438", "public_transport": "station", "railway": "station", "source": "KSJ2", "train": "yes", "wikidata": "Q873996", "wikipedia": "ja:\u6851\u6298\u99c5"}}, {"type": "node", "id": 5822896423, "lat": 37.824098, "lon": 140.4933532, "tags": {"name": "\u4f0a\u9054", "name:en": "Date", "name:ja-Hira": "\u3060\u3066", "name:ja-Latn": "Date", "name:ru": "\u0414\u0430\u0442\u0435", "public_transport": "station", "railway": "station", "source": "KSJ2", "train": "yes", "wikidata": "Q874143", "wikipedia": "ja:\u4f0a\u9054\u99c5"}}, {"type": "node", "id": 5874358662, "lat": 37.8960733, "lon": 140.1081558, "tags": {"name": "\u5357\u7c73\u6ca2", "name:en": "Minami-Yonezawa", "name:ja-Hira": "\u307f\u306a\u307f\u3088\u306d\u3056\u308f", "name:ja-Latn": "Minamiyonezawa", "public_transport": "station", "railway": "station", "source": "KSJ2", "train": "yes", "wikidata": "Q11408340", "wikipedia": "ja:\u5357\u7c73\u6ca2\u99c5"}}, {"type": "node", "id": 5882155432, "lat": 37.943216, "lon": 140.0755388, "tags": {"name": "\u6210\u5cf6", "name:en": "Narushima", "public_transport": "station", "railway": "station", "source": "KSJ2", "train": "yes", "wikidata": "Q6966476", "wikipedia": "ja:\u6210\u5cf6\u99c5 (\u5c71\u5f62\u770c)"}}, {"type": "node", "id": 6110166944, "lat": 37.8163518, "lon": 140.4461771, "tags": {"name": "\u533b\u738b\u5bfa\u524d", "name:en": "Iohji-mae", "name:ja": "\u533b\u738b\u5bfa\u524d", "name:ja-Hira": "\u3044\u304a\u3046\u3058\u307e\u3048", "name:ja-Latn": "Iohjimae", "public_transport": "station", "railway": "station", "source": "KSJ2", "train": "yes", "wikidata": "Q6062374", "wikipedia": "ja:\u533b\u738b\u5bfa\u524d\u99c5"}}, {"type": "node", "id": 6110166957, "lat": 37.8275005, "lon": 140.4507644, "tags": {"name": "\u82b1\u6c34\u5742", "name:en": "Hanamizuzaka", "name:ja": "\u82b1\u6c34\u5742", "name:ja-Hira": "\u306f\u306a\u307f\u305a\u3056\u304b", "name:ja-Latn": "Hanamizuzaka", "public_transport": "station", "railway": "station", "source": "KSJ2", "wikidata": "Q5646894", "wikipedia": "ja:\u82b1\u6c34\u5742\u99c5"}}, {"type": "node", "id": 6110166969, "lat": 37.8298669, "lon": 140.4542848, "tags": {"name": "\u98ef\u5742\u6e29\u6cc9", "name:en": "Iizaka-Onsen", "name:ja": "\u98ef\u5742\u6e29\u6cc9", "name:ja-Hira": "\u3044\u3044\u3056\u304b\u304a\u3093\u305b\u3093", "name:ja-Latn": "Iizaka-Onsen", "public_transport": "station", "railway": "station", "source": "KSJ2", "wikidata": "Q11030802", "wikipedia": "ja:\u98ef\u5742\u6e29\u6cc9\u99c5"}}, {"type": "node", "id": 6110183676, "lat": 37.7760161, "lon": 140.4478924, "tags": {"name": "\u5ca9\u4ee3\u6e05\u6c34", "name:en": "Iwashiro-Shimizu", "name:ja": "\u5ca9\u4ee3\u6e05\u6c34", "name:ja-Hira": "\u3044\u308f\u3057\u308d\u3057\u307f\u305a", "name:ja-Latn": "Iwashiro-Shimizu", "public_transport": "station", "railway": "station", "source": "KSJ2", "wikidata": "Q6100743", "wikipedia": "ja:\u5ca9\u4ee3\u6e05\u6c34\u99c5"}}, {"type": "node", "id": 6110183679, "lat": 37.7783206, "lon": 140.4458747, "tags": {"name": "\u6cc9", "name:en": "Izumi", "name:ja": "\u6cc9", "name:ja-Hira": "\u3044\u305a\u307f", "name:ja-Latn": "Izumi", "public_transport": "station", "railway": "station", "source": "KSJ2", "wikidata": "Q6102329", "wikipedia": "ja:\u6cc9\u99c5 (\u798f\u5cf6\u5e02)"}}, {"type": "node", "id": 6110184487, "lat": 37.7836256, "lon": 140.4409589, "tags": {"name": "\u4e0a\u677e\u5ddd", "name:en": "Kami-Matsukawa", "name:ja": "\u4e0a\u677e\u5ddd", "name:ja-Hira": "\u304b\u307f\u307e\u3064\u304b\u308f", "name:ja-Latn": "Kamimatsukawa", "public_transport": "station", "railway": "station", "source": "KSJ2", "wikidata": "Q6358116", "wikipedia": "ja:\u4e0a\u677e\u5ddd\u99c5"}}, {"type": "node", "id": 6110184497, "lat": 37.7874445, "lon": 140.4396862, "tags": {"name": "\u7b39\u8c37", "name:en": "Sasaya", "name:ja": "\u7b39\u8c37", "name:ja-Hira": "\u3055\u3055\u3084", "name:ja-Latn": "Sasaya", "public_transport": "station", "railway": "station", "source": "KSJ2", "wikidata": "Q7425013", "wikipedia": "ja:\u7b39\u8c37\u99c5"}}, {"type": "node", "id": 6110184508, "lat": 37.7959376, "lon": 140.441093, "tags": {"name": "\u685c\u6c34", "name:en": "Sakuramizu", "name:ja": "\u685c\u6c34", "name:ja-Hira": "\u3055\u304f\u3089\u307f\u305a", "name:ja-Latn": "Sakuramizu", "public_transport": "station", "railway": "station", "source": "KSJ2", "train": "yes", "wikidata": "Q7403219", "wikipedia": "ja:\u685c\u6c34\u99c5"}}, {"type": "node", "id": 6125249153, "lat": 37.9690403, "lon": 140.0671656, "tags": {"name": "\u4e2d\u90e1", "name:en": "Chugun", "name:ja-Hira": "\u3061\u3085\u3046\u3050\u3093", "name:ja-Latn": "Ch\u016bgun", "public_transport": "station", "railway": "station", "source": "KSJ2", "train": "yes", "wikidata": "Q5119017", "wikipedia": "ja:\u4e2d\u90e1\u99c5 (\u5c71\u5f62\u770c)"}}, {"type": "node", "id": 6125953739, "lat": 38.0386277, "lon": 139.9941739, "tags": {"name": "\u7fbd\u524d\u693f", "name:en": "Uzen-Tsubaki", "name:ja-Hira": "\u3046\u305c\u3093\u3064\u3070\u304d", "name:ja-Latn": "Uzentsubaki", "public_transport": "station", "railway": "station", "source": "KSJ2", "train": "yes", "wikidata": "Q7904882", "wikipedia": "ja:\u7fbd\u524d\u693f\u99c5"}}, {"type": "node", "id": 6125953741, "lat": 38.0621577, "lon": 140.0044857, "tags": {"name": "\u8429\u751f", "name:en": "Hagyu", "name:ja-Hira": "\u306f\u304e\u3085\u3046", "name:ja-Latn": "Hagy\u016b", "public_transport": "station", "railway": "station", "source": "KSJ2", "train": "yes", "wikidata": "Q5638863", "wikipedia": "ja:\u8429\u751f\u99c5"}}, {"type": "node", "id": 6126052079, "lat": 38.1065942, "lon": 140.0336548, "tags": {"mapillary": "534259151071611", "name": "\u9577\u4e95", "name:en": "Nagai", "name:ja": "\u9577\u4e95", "name:ja-Hira": "\u306a\u304c\u3044", "name:ja-Latn": "Nagai", "opening_hours": "10:00-17:30", "phone": "+81 0238-84-1529", "public_transport": "station", "railway": "station", "source": "KSJ2", "website": "https://flower-liner.jp/about/station/", "wikidata": "Q6958355", "wikipedia": "ja:\u9577\u4e95\u99c5"}}, {"type": "node", "id": 6126052084, "lat": 38.1140176, "lon": 140.0326945, "tags": {"mapillary": "240281574559553", "name": "\u3042\u3084\u3081\u516c\u5712", "name:en": "Ayame-Koen", "name:ja": "\u3042\u3084\u3081\u516c\u5712", "name:ja-Hira": "\u3042\u3084\u3081\u3053\u3046\u3048\u3093", "name:ja-Latn": "Ayamek\u014den", "public_transport": "station", "railway": "station", "source": "KSJ2", "website": "https://flower-liner.jp/result_eki/?josyaeki=7", "wikidata": "Q4830896", "wikipedia": "ja:\u3042\u3084\u3081\u516c\u5712\u99c5"}}, {"type": "node", "id": 6126052393, "lat": 38.0974434, "lon": 140.0346592, "tags": {"mapillary": "261178342454351", "name": "\u5357\u9577\u4e95", "name:en": "Minami-Nagai", "name:ja": "\u5357\u9577\u4e95", "name:ja-Hira": "\u307f\u306a\u307f\u306a\u304c\u3044", "name:ja-Latn": "Minaminagai", "public_transport": "station", "railway": "station", "source": "KSJ2", "website": "https://flower-liner.jp/result_eki/?josyaeki=9", "wikidata": "Q11408692", "wikipedia": "ja:\u5357\u9577\u4e95\u99c5"}}, {"type": "node", "id": 6126052397, "lat": 38.0768771, "lon": 140.0297508, "tags": {"mapillary": "978904676282386", "name": "\u6642\u5ead", "name:en": "Tokiniwa", "name:ja": "\u6642\u5ead", "name:ja-Hira": "\u3068\u304d\u306b\u308f", "name:ja-Latn": "Tokiniwa", "public_transport": "station", "railway": "station", "source": "KSJ2", "train": "yes", "website": "https://flower-liner.jp/result_eki/?josyaeki=10", "wikidata": "Q7813599", "wikipedia": "ja:\u6642\u5ead\u99c5"}}, {"type": "node", "id": 6126052403, "lat": 38.0477732, "lon": 140.1489173, "tags": {"name": "\u8d64\u6e6f", "name:de": "Akayu", "name:en": "Akayu", "name:ja": "\u8d64\u6e6f", "name:ja-Hira": "\u3042\u304b\u3086", "name:ja-Latn": "Akayu", "opening_hours": "Mo-Sa 10:30-19:00; Su,PH off", "operator": "\u5c71\u5f62\u9244\u9053\u682a\u5f0f\u4f1a\u793e", "operator:website": "https://flower-liner.jp/", "phone": "+81 23-8433-440", "public_transport": "station", "railway": "station", "source": "KSJ2", "train": "yes", "website": "https://flower-liner.jp/about/station/", "wikidata": "Q1137103", "wikipedia": "ja:\u8d64\u6e6f\u99c5"}}, {"type": "node", "id": 6126052408, "lat": 38.0553737, "lon": 140.1491345, "tags": {"name": "\u5357\u967d\u5e02\u5f79\u6240", "name:en": "Nanyo-Shiyakusho", "name:ja": "\u5357\u967d\u5e02\u5f79\u6240", "name:ja-Hira": "\u306a\u3093\u3088\u3046\u3057\u3084\u304f\u3057\u3087", "name:ja-Latn": "Nany\u014dsiyakusho", "public_transport": "station", "railway": "station", "source": "KSJ2", "website": "https://flower-liner.jp/result_eki/?josyaeki=16", "wikidata": "Q6964486", "wikipedia": "ja:\u5357\u967d\u5e02\u5f79\u6240\u99c5"}}, {"type": "node", "id": 6126052419, "lat": 38.0709227, "lon": 140.1350999, "tags": {"name": "\u5bae\u5185", "name:en": "Miyauchi", "name:ja": "\u5bae\u5185", "name:ja-Hira": "\u307f\u3084\u3046\u3061", "name:ja-Latn": "Miyauchi", "opening_hours": "10:20-16:50; Mo,We off", "phone": "+81 0238-40-0560", "public_transport": "station", "railway": "station", "source": "KSJ2", "train": "yes", "website": "https://flower-liner.jp/about/station/", "wikidata": "Q6884431", "wikipedia": "ja:\u5bae\u5185\u99c5 (\u5c71\u5f62\u770c)"}}, {"type": "node", "id": 6126052425, "lat": 38.0664757, "lon": 140.1225351, "tags": {"name": "\u304a\u308a\u306f\u305f", "name:en": "Orihata", "name:ja": "\u304a\u308a\u306f\u305f", "name:ja-Hira": "\u304a\u308a\u306f\u305f", "name:ja-Latn": "Orihata", "public_transport": "station", "railway": "station", "source": "KSJ2", "train": "yes", "website": "https://flower-liner.jp/result_eki/?josyaeki=14", "wikidata": "Q7102656", "wikipedia": "ja:\u304a\u308a\u306f\u305f\u99c5"}}, {"type": "node", "id": 6126052430, "lat": 38.0573441, "lon": 140.0985199, "tags": {"name": "\u68a8\u90f7", "name:en": "Ringo", "name:ja": "\u68a8\u90f7", "name:ja-Hira": "\u308a\u3093\u3054\u3046", "name:ja-Latn": "Ring\u014d", "public_transport": "station", "railway": "station", "source": "KSJ2", "train": "yes", "website": "https://flower-liner.jp/result_eki/?josyaeki=13", "wikidata": "Q7335039", "wikipedia": "ja:\u68a8\u90f7\u99c5"}}, {"type": "node", "id": 6126052442, "lat": 38.0553858, "lon": 140.0643104, "tags": {"name": "\u897f\u5927\u585a", "name:en": "Nishi-Otsuka", "name:ja": "\u897f\u5927\u585a", "name:ja-Hira": "\u306b\u3057\u304a\u304a\u3064\u304b", "name:ja-Latn": "Nishi\u014dtsuka", "name:ko": "\ub2c8\uc2dc\uc624\uc4f0\uce74", "railway": "station", "source": "KSJ2", "train": "yes", "website": "https://flower-liner.jp/result_eki/?josyaeki=12", "wikidata": "Q7040476", "wikipedia": "ja:\u897f\u5927\u585a\u99c5"}}, {"type": "node", "id": 6126065842, "lat": 38.0473771, "lon": 140.1489763, "tags": {"name": "\u8d64\u6e6f", "name:de": "Akayu", "name:en": "Akayu", "name:ja": "\u8d64\u6e6f", "name:ja_kana": "\u3042\u304b\u3086", "name:ja_rm": "Akayu", "name:ko": "\uc544\uce74\uc720", "public_transport": "station", "railway": "station", "website": "https://www.jreast.co.jp/estation/station/info.aspx?StationCd=36", "wikidata": "Q1137103", "wikipedia": "ja:\u8d64\u6e6f\u99c5"}}, {"type": "node", "id": 6126413680, "lat": 38.1245199, "lon": 140.2182537, "tags": {"name": "\u7fbd\u524d\u4e2d\u5c71", "name:en": "Uzen-Nakayama", "name:ja-Hira": "\u3046\u305c\u3093\u306a\u304b\u3084\u307e", "name:ja-Latn": "Uzennakayama", "public_transport": "station", "railway": "station", "source": "KSJ2", "train": "yes", "wikidata": "Q7904848", "wikipedia": "ja:\u7fbd\u524d\u4e2d\u5c71\u99c5"}}, {"type": "node", "id": 6126413702, "lat": 38.0934708, "lon": 140.2038087, "tags": {"name": "\u4e2d\u5ddd", "name:en": "Nakagawa", "name:ja-Hira": "\u306a\u304b\u304c\u308f", "name:ja-Latn": "Nakagawa", "public_transport": "station", "railway": "station", "source": "KSJ2", "train": "yes", "wikidata": "Q6960148", "wikipedia": "ja:\u4e2d\u5ddd\u99c5 (\u5c71\u5f62\u770c)"}}, {"type": "node", "id": 6143048349, "lat": 37.7989917, "lon": 140.4891099, "tags": {"name": "\u798f\u5cf6\u5b66\u9662\u524d", "name:en": "Fukushima Gakuin-mae", "name:ja": "\u798f\u5cf6\u5b66\u9662\u524d", "name:ja-Hira": "\u3075\u304f\u3057\u307e\u304c\u304f\u3044\u3093\u307e\u3048", "name:ja-Latn": "Fukushimagakuinmae", "public_transport": "station", "railway": "station", "source": "KSJ2", "train": "yes", "wikidata": "Q11593074", "wikipedia": "ja:\u798f\u5cf6\u5b66\u9662\u524d\u99c5"}}, {"type": "node", "id": 6143048351, "lat": 37.7955106, "lon": 140.4796256, "tags": {"name": "\u5378\u753a", "name:en": "Oroshimachi", "name:ja-Hira": "\u304a\u308d\u3057\u307e\u3061", "name:ja-Latn": "Oroshimachi", "public_transport": "station", "railway": "station", "source": "KSJ2", "train": "yes", "wikidata": "Q21721160", "wikipedia": "ja:\u5378\u753a\u99c5"}}, {"type": "node", "id": 6143048366, "lat": 37.8022704, "lon": 140.4984534, "tags": {"name": "\u702c\u4e0a", "name:en": "Senoue", "name:ja": "\u702c\u4e0a", "name:ja-Hira": "\u305b\u306e\u3046\u3048", "name:ja-Latn": "Senoue", "public_transport": "station", "railway": "station", "source": "KSJ2", "train": "yes", "wikidata": "Q11566373", "wikipedia": "ja:\u702c\u4e0a\u99c5"}}, {"type": "node", "id": 6143048370, "lat": 37.8065459, "lon": 140.510302, "tags": {"name": "\u5411\u702c\u4e0a", "name:en": "Mukai-Senoue", "name:ja": "\u5411\u702c\u4e0a", "name:ja-Hira": "\u3080\u304b\u3044\u305b\u306e\u3046\u3048", "name:ja-Latn": "Mukaisenoue", "public_transport": "station", "railway": "station", "source": "KSJ2", "train": "yes", "wikidata": "Q11416019", "wikipedia": "ja:\u5411\u702c\u4e0a\u99c5"}}, {"type": "node", "id": 6143048376, "lat": 37.8084373, "lon": 140.5272751, "tags": {"name": "\u9ad8\u5b50", "name:en": "Takako", "name:ja": "\u9ad8\u5b50", "name:ja-Hira": "\u305f\u304b\u3053", "name:ja-Latn": "Takako", "public_transport": "station", "railway": "station", "source": "KSJ2", "train": "yes", "wikidata": "Q11669124", "wikipedia": "ja:\u9ad8\u5b50\u99c5"}}, {"type": "node", "id": 6143049186, "lat": 37.8097055, "lon": 140.5431712, "tags": {"name": "\u4e0a\u4fdd\u539f", "name:en": "Kami-Hobara", "name:ja": "\u4e0a\u4fdd\u539f", "name:ja-Hira": "\u304b\u307f\u307b\u3070\u3089", "name:ja-Latn": "Kamihobara", "public_transport": "station", "railway": "station", "source": "KSJ2", "train": "yes", "wikidata": "Q11358471", "wikipedia": "ja:\u4e0a\u4fdd\u539f\u99c5"}}, {"type": "node", "id": 6448914616, "lat": 37.9926606, "lon": 140.1530252}, {"type": "node", "id": 6448914617, "lat": 37.9926567, "lon": 140.1532323}, {"type": "node", "id": 6448914618, "lat": 37.9918816, "lon": 140.1531895}, {"type": "node", "id": 6448914619, "lat": 37.9918844, "lon": 140.1530428}, {"type": "node", "id": 10106208173, "lat": 37.9923281, "lon": 140.1530897}, {"type": "node", "id": 10106208174, "lat": 37.9922396, "lon": 140.1531192}, {"type": "node", "id": 10106208175, "lat": 37.9921827, "lon": 140.1531174}, {"type": "node", "id": 10106208176, "lat": 37.9922377, "lon": 140.1532196}, {"type": "node", "id": 10106208177, "lat": 37.9921811, "lon": 140.1530852}, {"type": "node", "id": 10106208178, "lat": 37.9921811, "lon": 140.1531986}, {"type": "node", "id": 10106208179, "lat": 37.9921817, "lon": 140.1530519}, {"type": "node", "id": 10106208180, "lat": 37.9923272, "lon": 140.1532223}, {"type": "node", "id": 10106208181, "lat": 37.9923295, "lon": 140.1530151}, {"type": "way", "id": 687885893, "nodes": [6448914616, 6448914617, 10106208180, 10106208176, 10106208174, 10106208175, 10106208178, 6448914618, 6448914619, 10106208179, 10106208177, 10106208173, 10106208181, 6448914616], "tags": {"building": "train_station", "public_transport": "station", "railway": "station", "train": "yes"}}]}