{"version": 0.6, "generator": "Overpass API 0.7.62.4 2390de5a", "osm3s": {"timestamp_osm_base": "2024-12-30T15:15:41Z", "copyright": "The data included in this document is from www.openstreetmap.org. The data is made available under ODbL."}, "elements": [{"type": "node", "id": 264412876, "lat": 36.3282947, "lon": 140.0396924, "tags": {"name": "\u65b0\u6cbb", "name:en": "Niihari", "name:ja-Hira": "\u306b\u3044\u306f\u308a", "name:ja-Latn": "Niihari", "name:ko": "\ub2c8\ud558\ub9ac", "public_transport": "station", "railway": "station", "source": "KSJ2", "train": "yes", "wikidata": "Q7034411", "wikipedia": "ja:\u65b0\u6cbb\u99c5"}}, {"type": "node", "id": 264413093, "lat": 36.3514905, "lon": 140.1871949, "tags": {"name": "\u798f\u539f", "name:en": "Fukuhara", "name:ja": "\u798f\u539f", "name:ja_rm": "Fukuhara", "name:ko": "\ud6c4\ucfe0\ud558\ub77c", "railway": "station", "source": "KSJ2", "wikidata": "Q5507632", "wikipedia": "ja:\u798f\u539f\u99c5"}}, {"type": "node", "id": 264413239, "lat": 36.3454853, "lon": 140.0730363, "tags": {"name": "\u5927\u548c", "name:en": "Yamato", "name:ja-Hira": "\u3084\u307e\u3068", "name:ja-Latn": "Yamato", "name:ko": "\uc57c\ub9c8\ud1a0", "public_transport": "station", "railway": "station", "source": "KSJ2", "train": "yes", "wikidata": "Q8047989", "wikipedia": "ja:\u5927\u548c\u99c5 (\u8328\u57ce\u770c)"}}, {"type": "node", "id": 264413243, "lat": 36.3447069, "lon": 140.288646, "tags": {"name": "\u5b8d\u6238", "name:en": "Shishido", "name:ja": "\u5b8d\u6238", "name:ja_kana": "\u3057\u3057\u3069", "name:ja_rm": "Shishido", "name:ko": "\uc2dc\uc2dc\ub3c4", "note": "National-Land Numerical Information (Railway) 2007, MLIT Japan", "note:ja": "\u56fd\u571f\u6570\u5024\u60c5\u5831\uff08\u9244\u9053\u30c7\u30fc\u30bf\uff09\u5e73\u621019\u5e74\u3000\u56fd\u571f\u4ea4\u901a\u7701", "railway": "station", "source": "KSJ2", "source_ref": "http://nlftp.mlit.go.jp/ksj/jpgis/datalist/KsjTmplt-N02-v1_1.html", "wikidata": "Q7499075", "wikipedia": "ja:\u5b8d\u6238\u99c5"}}, {"type": "node", "id": 389738571, "lat": 36.2258018, "lon": 140.1009255, "tags": {"name": "\u7b51\u6ce2\u5c71\u9802", "name:en": "Tsukubasancho", "name:ja": "\u7b51\u6ce2\u5c71\u9802", "name:ja-Hira": "\u3064\u304f\u3070\u3055\u3093\u3061\u3087\u3046", "name:ja_kana": "\u7b51\u6ce2\u5c71\u9802", "name:ja_rm": "Tsukubasanch\u014d", "name:ko": "\uc4f0\ucfe0\ubc14\uc0b0\ucd08", "public_transport": "station", "railway": "station", "wikidata": "Q80170383", "wikipedia": "ja:\u7b51\u6ce2\u5c71\u9802\u99c5"}}, {"type": "node", "id": 389743340, "lat": 36.2147018, "lon": 140.1001838, "tags": {"name": "\u5bae\u8107", "name:en": "Miyawaki", "name:ja": "\u5bae\u8107", "name:ja_kana": "\u307f\u3084\u308f\u304d", "name:ja_rm": "Miyawaki", "name:ko": "\ubbf8\uc57c\uc640\ud0a4", "public_transport": "station", "railway": "station", "wikidata": "Q80170381"}}, {"type": "node", "id": 452827440, "lat": 35.9084135, "lon": 140.1793295, "tags": {"KSJ2:LIN": "\u7adc\u30f6\u5d0e\u7dda", "KSJ2:RAS": "eb03_611", "KSJ2:STN": "\u7adc\u30f6\u5d0e", "KSJ2:segment": "eb02_1140", "name": "\u7adc\u30f6\u5d0e", "name:en": "Ryugasaki", "name:ja": "\u7adc\u30f6\u5d0e", "name:ja-Hira": "\u308a\u3085\u3046\u304c\u3055\u304d", "name:ja-Latn": "Ry\u016bgasaki", "name:ko": "\ub958\uac00\uc0ac\ud0a4", "note": "National-Land Numerical Information (Railway) 2007, MLIT Japan", "note:ja": "\u56fd\u571f\u6570\u5024\u60c5\u5831\uff08\u9244\u9053\u30c7\u30fc\u30bf\uff09\u5e73\u621019\u5e74\u3000\u56fd\u571f\u4ea4\u901a\u7701", "public_transport": "station", "railway": "station", "source": "KSJ2;survey", "source_ref": "http://nlftp.mlit.go.jp/ksj/jpgis/datalist/KsjTmplt-N02-v1_1.html", "wikidata": "Q7385617", "wikipedia": "ja:\u7adc\u30f6\u5d0e\u99c5"}}, {"type": "node", "id": 452827512, "lat": 35.9191689, "lon": 140.157004, "tags": {"KSJ2:LIN": "\u7adc\u30f6\u5d0e\u7dda", "KSJ2:RAS": "eb03_610", "KSJ2:STN": "\u5165\u5730", "KSJ2:segment": "eb02_1138", "name": "\u5165\u5730", "name:en": "Ireji", "name:ja": "\u5165\u5730", "name:ja-Hira": "\u3044\u308c\u3058", "name:ja-Latn": "Ireji", "name:ko": "\uc774\ub808\uc9c0", "note": "National-Land Numerical Information (Railway) 2007, MLIT Japan", "note:ja": "\u56fd\u571f\u6570\u5024\u60c5\u5831\uff08\u9244\u9053\u30c7\u30fc\u30bf\uff09\u5e73\u621019\u5e74\u3000\u56fd\u571f\u4ea4\u901a\u7701", "public_transport": "station", "railway": "station", "source": "KSJ2", "source_ref": "http://nlftp.mlit.go.jp/ksj/jpgis/datalist/KsjTmplt-N02-v1_1.html", "wikidata": "Q6068466", "wikipedia": "ja:\u5165\u5730\u99c5"}}, {"type": "node", "id": 1668409338, "lat": 35.9210552, "lon": 140.0352172, "tags": {"name": "\u3086\u3081\u307f\u91ce", "name:en": "Yumemino", "name:ja": "\u3086\u3081\u307f\u91ce", "public_transport": "station", "railway": "station", "source": "GSImaps/ort", "wikidata": "Q11280891", "wikipedia": "ja:\u3086\u3081\u307f\u91ce\u99c5"}}, {"type": "node", "id": 2398353607, "lat": 36.1638097, "lon": 140.2946609, "tags": {"name": "\u9ad8\u6d5c", "name:en": "Takahama", "name:ja-Hira": "\u305f\u304b\u306f\u307e", "name:ja-Latn": "Takahama", "public_transport": "station", "railway": "station", "wikidata": "Q5365228", "wikipedia": "ja:\u9ad8\u6d5c\u99c5 (\u8328\u57ce\u770c)"}}, {"type": "node", "id": 2447142753, "lat": 36.1204749, "lon": 140.5368768, "tags": {"name": "\u5317\u6d66\u6e56\u7554", "name:en": "Kitaurakohan", "name:ja": "\u5317\u6d66\u6e56\u7554", "name:ja-Hira": "\u304d\u305f\u3046\u3089\u3053\u306f\u3093", "name:ja-Latn": "Kitaurakohan", "public_transport": "station", "railway": "station", "source": "KSJ2", "wikidata": "Q6417920", "wikipedia": "ja:\u5317\u6d66\u6e56\u7554\u99c5"}}, {"type": "node", "id": 2609141491, "lat": 36.120317, "lon": 140.2484767, "tags": {"name": "\u795e\u7acb", "name:en": "Kandatsu", "name:ja-Hira": "\u304b\u3093\u3060\u3064", "name:ja-Latn": "Kandatsu", "public_transport": "station", "railway": "station", "source": "GSImaps/ort", "wikidata": "Q5363063", "wikipedia": "ja:\u795e\u7acb\u99c5"}}, {"type": "node", "id": 3014683038, "lat": 35.9172538, "lon": 140.545775, "tags": {"name": "\u5341\u4e8c\u6a4b", "name:en": "Junikyo", "name:ja": "\u5341\u4e8c\u6a4b", "name:ja_kana": "\u3058\u3085\u3046\u306b\u304d\u3087\u3046", "name:ja_rm": "J\u016bniky\u014d", "name:ko": "\uc8fc\ub2c8\ucfc4", "operator": "\u6771\u65e5\u672c\u65c5\u5ba2\u9244\u9053", "platforms": "1", "public_transport": "station", "railway": "station", "wheelchair": "yes", "wikidata": "Q6322340", "wikipedia": "ja:\u5341\u4e8c\u6a4b\u99c5"}}, {"type": "node", "id": 3349564686, "lat": 36.0583204, "lon": 140.0594905, "tags": {"alt_name:ko": "\ubc18\ud30c\ucfe0\ud0a4\ub128\ucf54\uc5d4", "name": "\u4e07\u535a\u8a18\u5ff5\u516c\u5712", "name:en": "Bampaku-kinenkoen", "name:ja": "\u4e07\u535a\u8a18\u5ff5\u516c\u5712", "name:ja_kana": "\u3070\u3093\u3071\u304f\u304d\u306d\u3093\u3053\u3046\u3048\u3093", "name:ja_rm": "Bampaku kinen k\u014den", "name:ko": "\ub9cc\ubc15\uae30\ub150\uacf5\uc6d0", "operator": "\u9996\u90fd\u570f\u65b0\u90fd\u5e02\u9244\u9053", "public_transport": "station", "railway": "station", "ref": "18", "toilets:wheelchair": "yes", "train": "yes", "wheelchair": "yes", "wikidata": "Q4853524", "wikipedia": "ja:\u4e07\u535a\u8a18\u5ff5\u516c\u5712\u99c5 (\u8328\u57ce\u770c)"}}, {"type": "node", "id": 3349564689, "lat": 36.0821337, "lon": 140.0824131, "tags": {"name": "\u7814\u7a76\u5b66\u5712", "name:en": "Kenky\u016b-gakuen", "name:ja": "\u7814\u7a76\u5b66\u5712", "name:ja_kana": "\u3051\u3093\u304d\u3085\u3046\u304c\u304f\u3048\u3093", "name:ja_rm": "Kenky\u016b gakuen", "name:ko": "\uc5f0\uad6c\ud559\uc6d0", "operator": "\u9996\u90fd\u570f\u65b0\u90fd\u5e02\u9244\u9053", "public_transport": "station", "railway": "station", "ref": "19", "toilets:wheelchair": "yes", "train": "yes", "wheelchair": "yes", "wikidata": "Q5366720", "wikipedia": "ja:\u7814\u7a76\u5b66\u5712\u99c5"}}, {"type": "node", "id": 3349564690, "lat": 36.0298606, "lon": 140.0563392, "tags": {"name": "\u307f\u3069\u308a\u306e", "name:en": "Midorino", "name:es": "Midorino", "name:ja": "\u307f\u3069\u308a\u306e", "name:ja_kana": "\u307f\u3069\u308a\u306e", "name:ja_rm": "Midorino", "name:ko": "\ubbf8\ub3c4\ub9ac\ub178", "operator": "\u9996\u90fd\u570f\u65b0\u90fd\u5e02\u9244\u9053", "public_transport": "station", "railway": "station", "ref": "17", "toilets:wheelchair": "yes", "wheelchair": "yes", "wikidata": "Q5366321", "wikipedia": "ja:\u307f\u3069\u308a\u306e\u99c5"}}, {"type": "node", "id": 3349564691, "lat": 35.9944506, "lon": 140.038253, "tags": {"name": "\u307f\u3089\u3044\u5e73", "name:en": "Miraidaira", "name:ja": "\u307f\u3089\u3044\u5e73", "name:ja_kana": "\u307f\u3089\u3044\u3060\u3044\u3089", "name:ja_rm": "Miraidaira", "name:ko": "\ubbf8\ub77c\uc774\ub2e4\uc774\ub77c", "operator": "\u9996\u90fd\u570f\u65b0\u90fd\u5e02\u9244\u9053", "public_transport": "station", "railway": "station", "ref": "16", "toilets:wheelchair": "yes", "wheelchair": "yes", "wikidata": "Q5366385", "wikipedia": "ja:\u307f\u3089\u3044\u5e73\u99c5"}}, {"type": "node", "id": 3349564794, "lat": 36.0825786, "lon": 140.1112316, "tags": {"name": "\u3064\u304f\u3070", "name:en": "Tsukuba", "name:ja": "\u3064\u304f\u3070", "name:ja_kana": "\u3064\u304f\u3070", "name:ja_rm": "Tsukuba", "name:ko": "\uc4f0\ucfe0\ubc14", "operator": "\u9996\u90fd\u570f\u65b0\u90fd\u5e02\u9244\u9053", "public_transport": "station", "railway": "station", "ref": "20", "toilets:wheelchair": "yes", "wheelchair": "yes", "wikidata": "Q1069714", "wikipedia": "ja:\u3064\u304f\u3070\u99c5"}}, {"type": "node", "id": 3730492329, "lat": 36.3507978, "lon": 140.3062895, "tags": {"name": "\u53cb\u90e8", "name:en": "Tomobe", "name:ja": "\u53cb\u90e8", "name:ja-Hira": "\u3068\u3082\u3079", "name:ja-Latn": "Tomobe", "operator": "\u6771\u65e5\u672c\u65c5\u5ba2\u9243\u9053", "operator:ja": "\u6771\u65e5\u672c\u65c5\u5ba2\u9243\u9053", "public_transport": "station", "railway": "station", "source": "GSImaps/ort", "wikidata": "Q5362908", "wikipedia": "ja:\u53cb\u90e8\u99c5"}}, {"type": "node", "id": 3799418501, "lat": 35.9370775, "lon": 140.5495746, "tags": {"name": "\u6f6e\u6765", "name:en": "Itako", "name:ja": "\u6f6e\u6765", "name:ja-Hira": "\u3044\u305f\u3053", "name:ja_rm": "Itako", "name:ko": "\uc774\ud0c0\ucf54", "public_transport": "station", "railway": "station", "train": "yes", "wikidata": "Q11565715", "wikipedia": "ja:\u6f6e\u6765\u99c5"}}, {"type": "node", "id": 3800602941, "lat": 35.9300777, "lon": 140.1382428, "tags": {"name": "\u9f8d\u30b1\u5d0e\u5e02", "name:en": "Ryugasakishi", "name:ja-Hira": "\u308a\u3085\u3046\u304c\u3055\u304d\u3057", "name:ja-Latn": "Ry\u016bgasakishi", "public_transport": "station", "railway": "station", "source": "GSImaps/ort", "wikidata": "Q89525862", "wikipedia": "ja:\u9f8d\u30b1\u5d0e\u5e02\u99c5"}}, {"type": "node", "id": 5649515784, "lat": 35.9755208, "lon": 140.1409404, "tags": {"name": "\u725b\u4e45", "name:en": "Ushiku", "public_transport": "station", "railway": "station", "source": "GSImaps/ort", "toilets:wheelchair": "yes", "wheelchair": "yes", "wikidata": "Q5363775", "wikipedia": "ja:\u725b\u4e45\u99c5"}}, {"type": "node", "id": 5649515788, "lat": 35.9206534, "lon": 140.1182086, "tags": {"name": "\u85e4\u4ee3", "name:en": "Fujishiro", "name:ja-Hira": "\u3075\u3058\u3057\u308d", "name:ja-Latn": "Fujishiro", "public_transport": "station", "railway": "station", "source": "GSImaps/ort", "wikidata": "Q5365268", "wikipedia": "ja:\u85e4\u4ee3\u99c5"}}, {"type": "node", "id": 5653967902, "lat": 35.9293333, "lon": 140.014095, "tags": {"name": "\u6238\u982d", "name:en": "Togashira", "name:ja": "\u6238\u982d", "public_transport": "station", "railway": "station", "source": "GSImaps/ort", "wikidata": "Q7813045", "wikipedia": "ja:\u6238\u982d\u99c5"}}, {"type": "node", "id": 5653967903, "lat": 35.9263843, "lon": 140.0224565, "tags": {"name": "\u7a32\u6238\u4e95", "name:en": "Inatoi", "name:ja": "\u7a32\u6238\u4e95", "public_transport": "station", "railway": "station", "source": "GSImaps/ort", "wikidata": "Q11596625", "wikipedia": "ja:\u7a32\u6238\u4e95\u99c5"}}, {"type": "node", "id": 5653972252, "lat": 35.9174631, "lon": 140.0428185, "tags": {"name": "\u65b0\u53d6\u624b", "name:en": "Shin-Toride", "public_transport": "station", "railway": "station", "source": "GSImaps/ort", "train": "yes", "wikidata": "Q7497136", "wikipedia": "ja:\u65b0\u53d6\u624b\u99c5"}}, {"type": "node", "id": 5653972253, "lat": 35.9119595, "lon": 140.0545417, "tags": {"name": "\u5bfa\u539f", "name:en": "Terahara", "name:ja": "\u5bfa\u539f", "name:ja-Hira": "\u3066\u3089\u306f\u3089", "public_transport": "station", "railway": "station", "source": "GSImaps/ort", "wikidata": "Q7701522", "wikipedia": "ja:\u5bfa\u539f\u99c5"}}, {"type": "node", "id": 5653972257, "lat": 35.9090894, "lon": 140.0589506, "tags": {"name": "\u897f\u53d6\u624b", "name:en": "Nishi-Toride", "name:ja": "\u897f\u53d6\u624b", "public_transport": "station", "railway": "station", "source": "GSImaps/ort", "wikidata": "Q11627383", "wikipedia": "ja:\u897f\u53d6\u624b\u99c5"}}, {"type": "node", "id": 5677061633, "lat": 36.2246136, "lon": 140.5126322, "tags": {"name": "\u9e7f\u5cf6\u65ed", "name:en": "Kashima-Asahi", "name:ja": "\u9e7f\u5cf6\u65ed", "name:ja-Hira": "\u304b\u3057\u307e\u3042\u3055\u3072", "name:ja-Latn": "Kashimaasahi", "public_transport": "station", "railway": "station", "source": "KSJ2", "wikidata": "Q6374302", "wikipedia": "ja:\u9e7f\u5cf6\u65ed\u99c5"}}, {"type": "node", "id": 5677061656, "lat": 36.2658612, "lon": 140.5271718, "tags": {"name": "\u6db8\u6cbc", "name:en": "Hinuma", "name:ja": "\u6db8\u6cbc", "name:ja-Hira": "\u3072\u306c\u307e", "name:ja-Latn": "Hinuma", "public_transport": "station", "railway": "station", "source": "KSJ2", "wikidata": "Q5767758", "wikipedia": "ja:\u6db8\u6cbc\u99c5"}}, {"type": "node", "id": 5699916938, "lat": 36.0074123, "lon": 140.1583406, "tags": {"name": "\u3072\u305f\u3061\u91ce\u3046\u3057\u304f", "name:en": "Hitachino-Ushiku", "name:ja-Hira": "\u3072\u305f\u3061\u306e\u3046\u3057\u304f", "name:ja-Latn": "Hitachinoushiku", "public_transport": "station", "railway": "station", "wikidata": "Q5364808", "wikipedia": "ja:\u3072\u305f\u3061\u91ce\u3046\u3057\u304f\u99c5"}}, {"type": "node", "id": 5699955540, "lat": 36.0308144, "lon": 140.1660499, "tags": {"name": "\u8352\u5ddd\u6c96", "name:en": "Arakawaoki", "name:ja-Hira": "\u3042\u3089\u304b\u308f\u304a\u304d", "name:ja-Latn": "Arakawaoki", "public_transport": "station", "railway": "station", "wikidata": "Q4783823", "wikipedia": "ja:\u8352\u5ddd\u6c96\u99c5"}}, {"type": "node", "id": 5746264664, "lat": 36.2952877, "lon": 140.2764539, "tags": {"name": "\u5ca9\u9593", "name:en": "Iwama", "name:ja": "\u5ca9\u9593", "name:ja-Hira": "\u3044\u308f\u307e", "name:ja-Latn": "Iwama", "public_transport": "station", "railway": "station", "wikidata": "Q2689418", "wikipedia": "ja:\u5ca9\u9593\u99c5"}}, {"type": "node", "id": 5746342744, "lat": 36.2472941, "lon": 140.2867882, "tags": {"name": "\u7fbd\u9ce5", "name:en": "Hatori", "name:ja": "\u7fbd\u9ce5", "name:ja-Hira": "\u306f\u3068\u308a", "name:ja-Latn": "Hatori", "operator": "\u6771\u65e5\u672c\u65c5\u5ba2\u9244\u9053", "operator:ja": "\u6771\u65e5\u672c\u65c5\u5ba2\u9244\u9053", "public_transport": "station", "railway": "station", "wikidata": "Q5363166", "wikipedia": "ja:\u7fbd\u9ce5\u99c5"}}, {"type": "node", "id": 6054788671, "lat": 35.9296034, "lon": 140.1384174, "tags": {"name": "\u4f50\u8cab", "name:en": "Sanuki", "name:ja-Hira": "\u3055\u306c\u304d", "name:ja-Latn": "Sanuki", "public_transport": "station", "railway": "station", "source": "GSImaps/ort", "train": "yes", "wikidata": "Q865225", "wikipedia": "ja:\u4f50\u8cab\u99c5"}}, {"type": "node", "id": 6060517712, "lat": 36.1910839, "lon": 140.2800498, "tags": {"name": "\u77f3\u5ca1", "name:en": "Ishioka", "name:ja": "\u77f3\u5ca1", "name:ja-Hira": "\u3044\u3057\u304a\u304b", "name:ja-Latn": "Ishioka", "operator": "\u6771\u65e5\u672c\u65c5\u5ba2\u9244\u9053", "operator:ja": "\u6771\u65e5\u672c\u65c5\u5ba2\u9244\u9053", "public_transport": "station", "railway": "station", "wikidata": "Q5363819", "wikipedia": "ja:\u77f3\u5ca1\u99c5"}}, {"type": "node", "id": 6069784405, "lat": 36.0779952, "lon": 140.2060155, "tags": {"name": "\u571f\u6d66", "name:en": "Tsuchiura", "name:ja-Hira": "\u3064\u3061\u3046\u3089", "name:ja-Latn": "Tsuchiura", "public_transport": "station", "railway": "station", "source": "KSJ2", "toilets:wheelchair": "yes", "wheelchair": "yes", "wikidata": "Q5364280", "wikipedia": "ja:\u571f\u6d66\u99c5"}}, {"type": "node", "id": 6104661389, "lat": 36.1523844, "lon": 140.5203536, "tags": {"name": "\u65b0\u927e\u7530", "name:en": "Shin-Hokota", "name:ja": "\u65b0\u927e\u7530", "name:ja-Hira": "\u3057\u3093\u307b\u3053\u305f", "name:ja-Latn": "Shinhokota", "public_transport": "station", "railway": "station", "source": "KSJ2", "wikidata": "Q7497093", "wikipedia": "ja:\u65b0\u927e\u7530\u99c5"}}, {"type": "node", "id": 6104661390, "lat": 36.190546, "lon": 140.5145326, "tags": {"name": "\u5fb3\u5bbf", "name:en": "Tokushuku", "name:ja": "\u5fb3\u5bbf", "name:ja-Hira": "\u3068\u304f\u3057\u3085\u304f", "name:ja-Latn": "Tokushuku", "public_transport": "station", "railway": "station", "source": "KSJ2", "wikidata": "Q7813773", "wikipedia": "ja:\u5fb3\u5bbf\u99c5"}}]}