{"version": 0.6, "generator": "Overpass API 0.7.62.4 2390de5a", "osm3s": {"timestamp_osm_base": "2024-12-30T15:08:27Z", "copyright": "The data included in this document is from www.openstreetmap.org. The data is made available under ODbL."}, "elements": [{"type": "node", "id": 265041427, "lat": 34.8261238, "lon": 136.5439505, "tags": {"KSJ2:LIN": "\u4f0a\u52e2\u7dda", "KSJ2:STN": "\u5fb3\u7530", "name": "\u5fb3\u7530", "name:en": "Tokuda", "name:ja": "\u5fb3\u7530", "name:ko": "\ub3c4\ucfe0\ub2e4", "note": "National-Land Numerical Information (Railway) 2007, MLIT Japan", "note:ja": "\u56fd\u571f\u6570\u5024\u60c5\u5831\uff08\u9244\u9053\u30c7\u30fc\u30bf\uff09\u5e73\u621019\u5e74\u3000\u56fd\u571f\u4ea4\u901a\u7701", "public_transport": "station", "railway": "station", "source": "KSJ2", "source_ref": "http://nlftp.mlit.go.jp/ksj/jpgis/datalist/KsjTmplt-N02-v1_1.html", "wikidata": "Q4559482", "wikipedia": "ja:\u5fb3\u7530\u99c5 (\u4e09\u91cd\u770c)"}}, {"type": "node", "id": 265041452, "lat": 34.7812792, "lon": 136.5311534, "tags": {"KSJ2:LIN": "\u4f0a\u52e2\u7dda", "KSJ2:STN": "\u6cb3\u82b8", "name": "\u6cb3\u82b8", "name:en": "Kawage", "name:ja": "\u6cb3\u82b8", "name:ko": "\uac00\uc640\uac8c", "note": "National-Land Numerical Information (Railway) 2007, MLIT Japan", "note:ja": "\u56fd\u571f\u6570\u5024\u60c5\u5831\uff08\u9244\u9053\u30c7\u30fc\u30bf\uff09\u5e73\u621019\u5e74\u3000\u56fd\u571f\u4ea4\u901a\u7701", "railway": "station", "source": "KSJ2", "source_ref": "http://nlftp.mlit.go.jp/ksj/jpgis/datalist/KsjTmplt-N02-v1_1.html", "wikidata": "Q6379488", "wikipedia": "ja:\u6cb3\u82b8\u99c5"}}, {"type": "node", "id": 265041454, "lat": 34.81247, "lon": 136.5430633, "tags": {"KSJ2:LIN": "\u4f0a\u52e2\u7dda", "KSJ2:STN": "\u4e2d\u702c\u53e4", "name": "\u4e2d\u702c\u53e4", "name:en": "Nakaseko", "name:ja": "\u4e2d\u702c\u53e4", "name:ko": "\ub098\uce74\uc138\ucf54", "note": "National-Land Numerical Information (Railway) 2007, MLIT Japan", "note:ja": "\u56fd\u571f\u6570\u5024\u60c5\u5831\uff08\u9244\u9053\u30c7\u30fc\u30bf\uff09\u5e73\u621019\u5e74\u3000\u56fd\u571f\u4ea4\u901a\u7701", "public_transport": "station", "railway": "station", "source": "KSJ2", "source_ref": "http://nlftp.mlit.go.jp/ksj/jpgis/datalist/KsjTmplt-N02-v1_1.html", "wikidata": "Q4559460", "wikipedia": "ja:\u4e2d\u702c\u53e4\u99c5"}}, {"type": "node", "id": 265041552, "lat": 34.8003917, "lon": 136.5424613, "tags": {"KSJ2:LIN": "\u4f0a\u52e2\u7dda", "KSJ2:STN": "\u4f0a\u52e2\u4e0a\u91ce", "name": "\u4f0a\u52e2\u4e0a\u91ce", "name:en": "Ise-Ueno", "name:ja": "\u4f0a\u52e2\u4e0a\u91ce", "name:ko": "\uc774\uc138\uc6b0\uc5d0\ub178", "note": "National-Land Numerical Information (Railway) 2007, MLIT Japan", "note:ja": "\u56fd\u571f\u6570\u5024\u60c5\u5831\uff08\u9244\u9053\u30c7\u30fc\u30bf\uff09\u5e73\u621019\u5e74\u3000\u56fd\u571f\u4ea4\u901a\u7701", "public_transport": "station", "railway": "station", "source": "KSJ2", "source_ref": "http://nlftp.mlit.go.jp/ksj/jpgis/datalist/KsjTmplt-N02-v1_1.html", "wikidata": "Q4559494", "wikipedia": "ja:\u4f0a\u52e2\u4e0a\u91ce\u99c5"}}, {"type": "node", "id": 265041589, "lat": 34.8409091, "lon": 136.5548732, "tags": {"KSJ2:LIN": "\u4f0a\u52e2\u7dda", "KSJ2:STN": "\u9234\u9e7f\u30b5\u30fc\u30ad\u30c3\u30c8\u7a32\u751f", "internet_access": "no", "name": "\u9234\u9e7f\u30b5\u30fc\u30ad\u30c3\u30c8\u7a32\u751f", "name:en": "Suzuka Circuit In\u014d", "name:ja": "\u9234\u9e7f\u30b5\u30fc\u30ad\u30c3\u30c8\u7a32\u751f", "name:ko": "\uc2a4\uc988\uce74\uc11c\ud0b7\uc774\ub178", "note": "National-Land Numerical Information (Railway) 2007, MLIT Japan", "note:ja": "\u56fd\u571f\u6570\u5024\u60c5\u5831\uff08\u9244\u9053\u30c7\u30fc\u30bf\uff09\u5e73\u621019\u5e74\u3000\u56fd\u571f\u4ea4\u901a\u7701", "operator": "\u4f0a\u52e2\u9244\u9053", "public_transport": "station", "railway": "station", "source": "KSJ2", "source_ref": "http://nlftp.mlit.go.jp/ksj/jpgis/datalist/KsjTmplt-N02-v1_1.html", "website": "https://isetetu.co.jp/station/ino/", "wheelchair": "no", "wikidata": "Q4905141", "wikipedia": "ja:\u9234\u9e7f\u30b5\u30fc\u30ad\u30c3\u30c8\u7a32\u751f\u99c5"}}, {"type": "node", "id": 265041640, "lat": 34.8553366, "lon": 136.5701318, "tags": {"KSJ2:LIN": "\u4f0a\u52e2\u7dda", "KSJ2:STN": "\u7389\u57a3", "name": "\u7389\u57a3", "name:en": "Tamagaki", "name:ja": "\u7389\u57a3", "name:ko": "\ub2e4\ub9c8\uac00\ud0a4", "note": "National-Land Numerical Information (Railway) 2007, MLIT Japan", "note:ja": "\u56fd\u571f\u6570\u5024\u60c5\u5831\uff08\u9244\u9053\u30c7\u30fc\u30bf\uff09\u5e73\u621019\u5e74\u3000\u56fd\u571f\u4ea4\u901a\u7701", "public_transport": "station", "railway": "station", "source": "KSJ2", "source_ref": "http://nlftp.mlit.go.jp/ksj/jpgis/datalist/KsjTmplt-N02-v1_1.html", "wikidata": "Q11572461", "wikipedia": "ja:\u7389\u57a3\u99c5"}}, {"type": "node", "id": 265041674, "lat": 34.7586349, "lon": 136.5121073, "tags": {"KSJ2:LIN": "\u4f0a\u52e2\u7dda", "KSJ2:STN": "\u6771\u4e00\u8eab\u7530", "name": "\u6771\u4e00\u8eab\u7530", "name:en": "Higashi-Ishinden", "name:ja": "\u6771\u4e00\u8eab\u7530", "name:ja_kana": "\u3072\u304c\u3057\u3044\u3057\u3093\u3067\u3093", "name:ko": "\ud788\uac00\uc2dc\uc774\uc2e0\ub374", "note": "National-Land Numerical Information (Railway) 2007, MLIT Japan", "note:ja": "\u56fd\u571f\u6570\u5024\u60c5\u5831\uff08\u9244\u9053\u30c7\u30fc\u30bf\uff09\u5e73\u621019\u5e74\u3000\u56fd\u571f\u4ea4\u901a\u7701", "public_transport": "station", "railway": "station", "source": "KSJ2", "source_ref": "http://nlftp.mlit.go.jp/ksj/jpgis/datalist/KsjTmplt-N02-v1_1.html", "wikidata": "Q4559528", "wikipedia": "ja:\u6771\u4e00\u8eab\u7530\u99c5"}}, {"type": "node", "id": 265044835, "lat": 34.597869, "lon": 136.4994964, "tags": {"KSJ2:LIN": "\u540d\u677e\u7dda", "KSJ2:STN": "\u4e0a\u30ce\u5e84", "name": "\u4e0a\u30ce\u5e84", "name:en": "Kaminosh\u014d", "name:ja": "\u4e0a\u30ce\u5e84", "name:ko": "\uac00\ubbf8\ub178\uc1fc", "note": "National-Land Numerical Information (Railway) 2007, MLIT Japan", "note:ja": "\u56fd\u571f\u6570\u5024\u60c5\u5831\uff08\u9244\u9053\u30c7\u30fc\u30bf\uff09\u5e73\u621019\u5e74\u3000\u56fd\u571f\u4ea4\u901a\u7701", "public_transport": "station", "railway": "station", "source": "KSJ2", "source_ref": "http://nlftp.mlit.go.jp/ksj/jpgis/datalist/KsjTmplt-N02-v1_1.html", "wikidata": "Q6358213", "wikipedia": "ja:\u4e0a\u30ce\u5e84\u99c5"}}, {"type": "node", "id": 265044898, "lat": 34.6256819, "lon": 136.3188325, "tags": {"KSJ2:LIN": "\u540d\u677e\u7dda", "KSJ2:STN": "\u5bb6\u57ce", "name": "\u5bb6\u57ce", "name:en": "Ieki", "name:ja": "\u5bb6\u57ce", "name:ko": "\uc774\uc5d0\ud0a4", "note": "National-Land Numerical Information (Railway) 2007, MLIT Japan", "note:ja": "\u56fd\u571f\u6570\u5024\u60c5\u5831\uff08\u9244\u9053\u30c7\u30fc\u30bf\uff09\u5e73\u621019\u5e74\u3000\u56fd\u571f\u4ea4\u901a\u7701", "public_transport": "station", "railway": "station", "source": "KSJ2", "source_ref": "http://nlftp.mlit.go.jp/ksj/jpgis/datalist/KsjTmplt-N02-v1_1.html", "wikidata": "Q4559504", "wikipedia": "ja:\u5bb6\u57ce\u99c5"}}, {"type": "node", "id": 265044903, "lat": 34.6548699, "lon": 136.4363266, "tags": {"KSJ2:LIN": "\u540d\u677e\u7dda", "KSJ2:STN": "\u4e00\u5fd7", "name": "\u4e00\u5fd7", "name:en": "Ichishi", "name:ja": "\u4e00\u5fd7", "name:ko": "\uc774\uce58\uc2dc", "note": "National-Land Numerical Information (Railway) 2007, MLIT Japan", "note:ja": "\u56fd\u571f\u6570\u5024\u60c5\u5831\uff08\u9244\u9053\u30c7\u30fc\u30bf\uff09\u5e73\u621019\u5e74\u3000\u56fd\u571f\u4ea4\u901a\u7701", "public_transport": "station", "railway": "station", "source": "KSJ2", "source_ref": "http://nlftp.mlit.go.jp/ksj/jpgis/datalist/KsjTmplt-N02-v1_1.html", "wikidata": "Q4559540", "wikipedia": "ja:\u4e00\u5fd7\u99c5"}}, {"type": "node", "id": 265044908, "lat": 34.642862, "lon": 136.4132821, "tags": {"KSJ2:LIN": "\u540d\u677e\u7dda", "KSJ2:STN": "\u4e95\u95a2", "name": "\u4e95\u95a2", "name:en": "Isegi", "name:ja": "\u4e95\u95a2", "name:ko": "\uc774\uc138\uae30", "note": "National-Land Numerical Information (Railway) 2007, MLIT Japan", "note:ja": "\u56fd\u571f\u6570\u5024\u60c5\u5831\uff08\u9244\u9053\u30c7\u30fc\u30bf\uff09\u5e73\u621019\u5e74\u3000\u56fd\u571f\u4ea4\u901a\u7701", "railway": "station", "source": "KSJ2", "source_ref": "http://nlftp.mlit.go.jp/ksj/jpgis/datalist/KsjTmplt-N02-v1_1.html", "wikidata": "Q6079625", "wikipedia": "ja:\u4e95\u95a2\u99c5"}}, {"type": "node", "id": 265045041, "lat": 34.531986, "lon": 136.270702, "tags": {"KSJ2:LIN": "\u540d\u677e\u7dda", "KSJ2:STN": "\u6bd4\u6d25", "name": "\u6bd4\u6d25", "name:en": "Hitsu", "name:ja": "\u6bd4\u6d25", "name:ko": "\ud788\uc4f0", "note": "National-Land Numerical Information (Railway) 2007, MLIT Japan", "note:ja": "\u56fd\u571f\u6570\u5024\u60c5\u5831\uff08\u9244\u9053\u30c7\u30fc\u30bf\uff09\u5e73\u621019\u5e74\u3000\u56fd\u571f\u4ea4\u901a\u7701", "public_transport": "station", "railway": "station", "source": "KSJ2", "source_ref": "http://nlftp.mlit.go.jp/ksj/jpgis/datalist/KsjTmplt-N02-v1_1.html", "wikidata": "Q4504158", "wikipedia": "ja:\u6bd4\u6d25\u99c5"}}, {"type": "node", "id": 265045108, "lat": 34.5738503, "lon": 136.2781422, "tags": {"KSJ2:LIN": "\u540d\u677e\u7dda", "KSJ2:STN": "\u4f0a\u52e2\u938c\u5009", "name": "\u4f0a\u52e2\u938c\u5009", "name:en": "Ise-Kamakura", "name:ja": "\u4f0a\u52e2\u938c\u5009", "name:ko": "\uc774\uc138\uce74\ub9c8\ucfe0\ub77c", "note": "National-Land Numerical Information (Railway) 2007, MLIT Japan", "note:ja": "\u56fd\u571f\u6570\u5024\u60c5\u5831\uff08\u9244\u9053\u30c7\u30fc\u30bf\uff09\u5e73\u621019\u5e74\u3000\u56fd\u571f\u4ea4\u901a\u7701", "public_transport": "station", "railway": "station", "source": "KSJ2", "source_ref": "http://nlftp.mlit.go.jp/ksj/jpgis/datalist/KsjTmplt-N02-v1_1.html", "wikidata": "Q6079510", "wikipedia": "ja:\u4f0a\u52e2\u938c\u5009\u99c5"}}, {"type": "node", "id": 265045130, "lat": 34.6174747, "lon": 136.4823254, "tags": {"KSJ2:LIN": "\u540d\u677e\u7dda", "KSJ2:STN": "\u6a29\u73fe\u524d", "name": "\u6a29\u73fe\u524d", "name:en": "Gongemmae", "name:ja": "\u6a29\u73fe\u524d", "name:ko": "\uace4\uac90\ub9c8\uc5d0", "note": "National-Land Numerical Information (Railway) 2007, MLIT Japan", "note:ja": "\u56fd\u571f\u6570\u5024\u60c5\u5831\uff08\u9244\u9053\u30c7\u30fc\u30bf\uff09\u5e73\u621019\u5e74\u3000\u56fd\u571f\u4ea4\u901a\u7701", "public_transport": "station", "railway": "station", "source": "KSJ2", "source_ref": "http://nlftp.mlit.go.jp/ksj/jpgis/datalist/KsjTmplt-N02-v1_1.html", "wikidata": "Q5581741", "wikipedia": "ja:\u6a29\u73fe\u524d\u99c5"}}, {"type": "node", "id": 265045134, "lat": 34.649883, "lon": 136.385452, "tags": {"KSJ2:LIN": "\u540d\u677e\u7dda", "KSJ2:STN": "\u4f0a\u52e2\u5927\u4e95", "name": "\u4f0a\u52e2\u5927\u4e95", "name:en": "Ise-\u014ci", "name:ja": "\u4f0a\u52e2\u5927\u4e95", "name:ko": "\uc774\uc138\uc624\uc774", "note": "National-Land Numerical Information (Railway) 2007, MLIT Japan", "note:ja": "\u56fd\u571f\u6570\u5024\u60c5\u5831\uff08\u9244\u9053\u30c7\u30fc\u30bf\uff09\u5e73\u621019\u5e74\u3000\u56fd\u571f\u4ea4\u901a\u7701", "public_transport": "station", "railway": "station", "source": "KSJ2", "source_ref": "http://nlftp.mlit.go.jp/ksj/jpgis/datalist/KsjTmplt-N02-v1_1.html", "wikidata": "Q11378978", "wikipedia": "ja:\u4f0a\u52e2\u5927\u4e95\u99c5"}}, {"type": "node", "id": 265045162, "lat": 34.6373929, "lon": 136.3394555, "tags": {"KSJ2:LIN": "\u540d\u677e\u7dda", "KSJ2:STN": "\u95a2\u30ce\u5bae", "name": "\u95a2\u30ce\u5bae", "name:en": "Sekinomiya", "name:ja": "\u95a2\u30ce\u5bae", "name:ko": "\uc138\ud0a4\ub178\ubbf8\uc57c", "note": "National-Land Numerical Information (Railway) 2007, MLIT Japan", "note:ja": "\u56fd\u571f\u6570\u5024\u60c5\u5831\uff08\u9244\u9053\u30c7\u30fc\u30bf\uff09\u5e73\u621019\u5e74\u3000\u56fd\u571f\u4ea4\u901a\u7701", "public_transport": "station", "railway": "station", "source": "KSJ2", "source_ref": "http://nlftp.mlit.go.jp/ksj/jpgis/datalist/KsjTmplt-N02-v1_1.html", "wikidata": "Q7447206", "wikipedia": "ja:\u95a2\u30ce\u5bae\u99c5"}}, {"type": "node", "id": 265045164, "lat": 34.5120306, "lon": 136.2595867, "tags": {"KSJ2:LIN": "\u540d\u677e\u7dda", "KSJ2:STN": "\u4f0a\u52e2\u5965\u6d25", "name": "\u4f0a\u52e2\u5965\u6d25", "name:en": "Ise-Okitsu", "name:ja": "\u4f0a\u52e2\u5965\u6d25", "name:ko": "\uc774\uc138\uc624\ud0a4\uc4f0", "note": "National-Land Numerical Information (Railway) 2007, MLIT Japan", "note:ja": "\u56fd\u571f\u6570\u5024\u60c5\u5831\uff08\u9244\u9053\u30c7\u30fc\u30bf\uff09\u5e73\u621019\u5e74\u3000\u56fd\u571f\u4ea4\u901a\u7701", "railway": "station", "source": "KSJ2", "source_ref": "http://nlftp.mlit.go.jp/ksj/jpgis/datalist/KsjTmplt-N02-v1_1.html", "wikidata": "Q4355606", "wikipedia": "ja:\u4f0a\u52e2\u5965\u6d25\u99c5"}}, {"type": "node", "id": 265045280, "lat": 34.5547755, "lon": 136.2635706, "tags": {"KSJ2:LIN": "\u540d\u677e\u7dda", "KSJ2:STN": "\u4f0a\u52e2\u516b\u77e5", "name": "\u4f0a\u52e2\u516b\u77e5", "name:en": "Ise-Yachi", "name:ja": "\u4f0a\u52e2\u516b\u77e5", "name:ko": "\uc774\uc138\uc57c\uce58", "note": "National-Land Numerical Information (Railway) 2007, MLIT Japan", "note:ja": "\u56fd\u571f\u6570\u5024\u60c5\u5831\uff08\u9244\u9053\u30c7\u30fc\u30bf\uff09\u5e73\u621019\u5e74\u3000\u56fd\u571f\u4ea4\u901a\u7701", "public_transport": "station", "railway": "station", "source": "KSJ2", "source_ref": "http://nlftp.mlit.go.jp/ksj/jpgis/datalist/KsjTmplt-N02-v1_1.html", "wikidata": "Q11378946", "wikipedia": "ja:\u4f0a\u52e2\u516b\u77e5\u99c5"}}, {"type": "node", "id": 265045335, "lat": 34.5996647, "lon": 136.3089875, "tags": {"KSJ2:LIN": "\u540d\u677e\u7dda", "KSJ2:STN": "\u4f0a\u52e2\u7af9\u539f", "name": "\u4f0a\u52e2\u7af9\u539f", "name:en": "Ise-Takehara", "name:ja": "\u4f0a\u52e2\u7af9\u539f", "name:ko": "\uc774\uc138\ud0c0\ucf00\ud558\ub77c", "note": "National-Land Numerical Information (Railway) 2007, MLIT Japan", "note:ja": "\u56fd\u571f\u6570\u5024\u60c5\u5831\uff08\u9244\u9053\u30c7\u30fc\u30bf\uff09\u5e73\u621019\u5e74\u3000\u56fd\u571f\u4ea4\u901a\u7701", "public_transport": "station", "railway": "station", "source": "KSJ2", "source_ref": "http://nlftp.mlit.go.jp/ksj/jpgis/datalist/KsjTmplt-N02-v1_1.html", "wikidata": "Q11379115", "wikipedia": "ja:\u4f0a\u52e2\u7af9\u539f\u99c5"}}, {"type": "node", "id": 265045336, "lat": 34.6474987, "lon": 136.3563458, "tags": {"KSJ2:LIN": "\u540d\u677e\u7dda", "KSJ2:STN": "\u4f0a\u52e2\u5ddd\u53e3", "name": "\u4f0a\u52e2\u5ddd\u53e3", "name:en": "Ise-Kawaguchi", "name:ja": "\u4f0a\u52e2\u5ddd\u53e3", "name:ko": "\uc774\uc138\uce74\uc640\uad6c\uce58", "note": "National-Land Numerical Information (Railway) 2007, MLIT Japan", "note:ja": "\u56fd\u571f\u6570\u5024\u60c5\u5831\uff08\u9244\u9053\u30c7\u30fc\u30bf\uff09\u5e73\u621019\u5e74\u3000\u56fd\u571f\u4ea4\u901a\u7701", "railway": "station", "source": "KSJ2", "source_ref": "http://nlftp.mlit.go.jp/ksj/jpgis/datalist/KsjTmplt-N02-v1_1.html", "wikidata": "Q4559472", "wikipedia": "ja:\u4f0a\u52e2\u5ddd\u53e3\u99c5"}}, {"type": "node", "id": 265045398, "lat": 34.6471465, "lon": 136.4473198, "tags": {"KSJ2:LIN": "\u540d\u677e\u7dda", "KSJ2:STN": "\u4f0a\u52e2\u516b\u592a", "name": "\u4f0a\u52e2\u516b\u592a", "name:en": "Ise-Hata", "name:ja": "\u4f0a\u52e2\u516b\u592a", "name:ko": "\uc774\uc138\ud558\ud0c0", "note": "National-Land Numerical Information (Railway) 2007, MLIT Japan", "note:ja": "\u56fd\u571f\u6570\u5024\u60c5\u5831\uff08\u9244\u9053\u30c7\u30fc\u30bf\uff09\u5e73\u621019\u5e74\u3000\u56fd\u571f\u4ea4\u901a\u7701", "railway": "station", "source": "KSJ2", "source_ref": "http://nlftp.mlit.go.jp/ksj/jpgis/datalist/KsjTmplt-N02-v1_1.html", "wikidata": "Q6079504", "wikipedia": "ja:\u4f0a\u52e2\u516b\u592a\u99c5"}}, {"type": "node", "id": 265822775, "lat": 34.5031803, "lon": 136.6725085, "tags": {"name": "\u5bae\u5ddd", "name:en": "Miyagawa", "name:ja": "\u5bae\u5ddd", "name:ko": "\ubbf8\uc57c\uac00\uc640", "public_transport": "station", "railway": "station", "source": "KSJ2", "source_ref": "http://nlftp.mlit.go.jp/ksj/jpgis/datalist/KsjTmplt-N02-v1_1.html", "wikidata": "Q117381", "wikipedia": "ja:\u5bae\u5ddd\u99c5"}}, {"type": "node", "id": 265822781, "lat": 34.4958367, "lon": 136.6939703, "tags": {"name": "\u5c71\u7530\u4e0a\u53e3", "name:en": "Yamada-Kamiguchi", "name:ja": "\u5c71\u7530\u4e0a\u53e3", "name:ko": "\uc57c\ub9c8\ub2e4\uce74\ubbf8\uad6c\uce58", "railway": "station", "source": "KSJ2", "source_ref": "http://nlftp.mlit.go.jp/ksj/jpgis/datalist/KsjTmplt-N02-v1_1.html", "wikidata": "Q93446", "wikipedia": "ja:\u5c71\u7530\u4e0a\u53e3\u99c5"}}, {"type": "node", "id": 265822784, "lat": 34.503708, "lon": 136.777735, "tags": {"name": "\u4e8c\u898b\u6d66", "name:en": "Futaminoura", "railway": "station", "source": "KSJ2", "source_ref": "http://nlftp.mlit.go.jp/ksj/jpgis/datalist/KsjTmplt-N02-v1_1.html", "wikidata": "Q117376", "wikipedia": "ja:\u4e8c\u898b\u6d66\u99c5"}}, {"type": "node", "id": 265823093, "lat": 34.4976602, "lon": 136.5969238, "tags": {"name": "\u5916\u57ce\u7530", "name:en": "Tokida", "name:ja": "\u5916\u57ce\u7530", "name:ko": "\ub3c4\ud0a4\ub2e4", "public_transport": "station", "railway": "station", "source": "KSJ2", "source_ref": "http://nlftp.mlit.go.jp/ksj/jpgis/datalist/KsjTmplt-N02-v1_1.html", "wikidata": "Q7813584", "wikipedia": "ja:\u5916\u57ce\u7530\u99c5"}}, {"type": "node", "id": 265824173, "lat": 34.8502999, "lon": 136.4503325, "tags": {"KSJ2:LIN": "\u7d00\u52e2\u7dda", "KSJ2:STN": "\u4e80\u5c71", "name": "\u4e80\u5c71", "name:en": "Kameyama", "name:ja": "\u4e80\u5c71", "name:ko": "\uac00\uba54\uc57c\ub9c8", "network": "JR\u95a2\u897f\u672c\u7dda;JR\u7d00\u52e2\u672c\u7dda", "note": "National-Land Numerical Information (Railway) 2007, MLIT Japan", "note:ja": "\u56fd\u571f\u6570\u5024\u60c5\u5831\uff08\u9244\u9053\u30c7\u30fc\u30bf\uff09\u5e73\u621019\u5e74\u3000\u56fd\u571f\u4ea4\u901a\u7701", "operator": "\u6771\u6d77\u65c5\u5ba2\u9244\u9053", "public_transport": "station", "railway": "station", "source": "KSJ2", "source_ref": "http://nlftp.mlit.go.jp/ksj/jpgis/datalist/KsjTmplt-N02-v1_1.html", "train": "yes", "wikidata": "Q5358681", "wikipedia": "ja:\u4e80\u5c71\u99c5 (\u4e09\u91cd\u770c)"}}, {"type": "node", "id": 265824184, "lat": 34.5032518, "lon": 136.5461319, "tags": {"KSJ2:LIN": "\u7d00\u52e2\u7dda", "KSJ2:STN": "\u76f8\u53ef", "name": "\u76f8\u53ef", "name:en": "\u014cka", "name:ja": "\u76f8\u53ef", "name:ko": "\uc624\uce74", "note": "National-Land Numerical Information (Railway) 2007, MLIT Japan", "note:ja": "\u56fd\u571f\u6570\u5024\u60c5\u5831\uff08\u9244\u9053\u30c7\u30fc\u30bf\uff09\u5e73\u621019\u5e74\u3000\u56fd\u571f\u4ea4\u901a\u7701", "railway": "station", "source": "KSJ2", "source_ref": "http://nlftp.mlit.go.jp/ksj/jpgis/datalist/KsjTmplt-N02-v1_1.html", "wikidata": "Q8011227", "wikipedia": "ja:\u76f8\u53ef\u99c5"}}, {"type": "node", "id": 265829378, "lat": 34.8145769, "lon": 136.479641, "tags": {"KSJ2:LIN": "\u7d00\u52e2\u7dda", "KSJ2:STN": "\u4e0b\u5e84", "name": "\u4e0b\u5e84", "name:en": "Shimonosh\u014d", "name:ja": "\u4e0b\u5e84", "name:ko": "\uc2dc\ubaa8\ub178\uc1fc", "note": "National-Land Numerical Information (Railway) 2007, MLIT Japan", "note:ja": "\u56fd\u571f\u6570\u5024\u60c5\u5831\uff08\u9244\u9053\u30c7\u30fc\u30bf\uff09\u5e73\u621019\u5e74\u3000\u56fd\u571f\u4ea4\u901a\u7701", "railway": "station", "source": "KSJ2", "source_ref": "http://nlftp.mlit.go.jp/ksj/jpgis/datalist/KsjTmplt-N02-v1_1.html", "wikidata": "Q5358149", "wikipedia": "ja:\u4e0b\u5e84\u99c5"}}, {"type": "node", "id": 265836150, "lat": 34.9108158, "lon": 136.5986239, "tags": {"KSJ2:LIN": "\u95a2\u897f\u7dda", "KSJ2:STN": "\u6cb3\u539f\u7530", "name": "\u6cb3\u539f\u7530", "name:en": "Kawarada", "name:ja": "\u6cb3\u539f\u7530", "name:ko": "\uac00\uc640\ub77c\ub2e4", "note": "National-Land Numerical Information (Railway) 2007, MLIT Japan", "note:ja": "\u56fd\u571f\u6570\u5024\u60c5\u5831\uff08\u9244\u9053\u30c7\u30fc\u30bf\uff09\u5e73\u621019\u5e74\u3000\u56fd\u571f\u4ea4\u901a\u7701", "public_transport": "station", "railway": "station", "source": "KSJ2", "source_ref": "http://nlftp.mlit.go.jp/ksj/jpgis/datalist/KsjTmplt-N02-v1_1.html", "wikidata": "Q4559716", "wikipedia": "ja:\u6cb3\u539f\u7530\u99c5"}}, {"type": "node", "id": 265836405, "lat": 34.8977726, "lon": 136.5676301, "tags": {"KSJ2:LIN": "\u95a2\u897f\u7dda", "KSJ2:STN": "\u6cb3\u66f2", "name": "\u6cb3\u66f2", "name:en": "Kawano", "name:ja": "\u6cb3\u66f2", "name:ko": "\uac00\uc640\ub178", "note": "National-Land Numerical Information (Railway) 2007, MLIT Japan", "note:ja": "\u56fd\u571f\u6570\u5024\u60c5\u5831\uff08\u9244\u9053\u30c7\u30fc\u30bf\uff09\u5e73\u621019\u5e74\u3000\u56fd\u571f\u4ea4\u901a\u7701", "public_transport": "station", "railway": "station", "source": "KSJ2", "source_ref": "http://nlftp.mlit.go.jp/ksj/jpgis/datalist/KsjTmplt-N02-v1_1.html", "wikidata": "Q5358787", "wikipedia": "ja:\u6cb3\u66f2\u99c5"}}, {"type": "node", "id": 265836465, "lat": 34.8683434, "lon": 136.492566, "tags": {"KSJ2:LIN": "\u95a2\u897f\u7dda", "KSJ2:STN": "\u4e95\u7530\u5ddd", "ele": "32.7", "name": "\u4e95\u7530\u5ddd", "name:en": "Idagawa", "name:ja": "\u4e95\u7530\u5ddd", "name:ko": "\uc774\ub2e4\uac00\uc640", "note": "National-Land Numerical Information (Railway) 2007, MLIT Japan", "note:ja": "\u56fd\u571f\u6570\u5024\u60c5\u5831\uff08\u9244\u9053\u30c7\u30fc\u30bf\uff09\u5e73\u621019\u5e74\u3000\u56fd\u571f\u4ea4\u901a\u7701", "public_transport": "station", "railway": "station", "source": "KSJ2", "source_ref": "http://nlftp.mlit.go.jp/ksj/jpgis/datalist/KsjTmplt-N02-v1_1.html", "wikidata": "Q5358568", "wikipedia": "ja:\u4e95\u7530\u5ddd\u99c5"}}, {"type": "node", "id": 265836703, "lat": 34.8905281, "lon": 136.5302959, "tags": {"KSJ2:LIN": "\u95a2\u897f\u7dda", "KSJ2:STN": "\u52a0\u4f50\u767b", "name": "\u52a0\u4f50\u767b", "name:en": "Kasado", "name:ja": "\u52a0\u4f50\u767b", "name:ko": "\uac00\uc0ac\ub3c4", "note": "National-Land Numerical Information (Railway) 2007, MLIT Japan", "note:ja": "\u56fd\u571f\u6570\u5024\u60c5\u5831\uff08\u9244\u9053\u30c7\u30fc\u30bf\uff09\u5e73\u621019\u5e74\u3000\u56fd\u571f\u4ea4\u901a\u7701", "railway": "station", "source": "KSJ2", "source_ref": "http://nlftp.mlit.go.jp/ksj/jpgis/datalist/KsjTmplt-N02-v1_1.html", "wikidata": "Q5358774", "wikipedia": "ja:\u52a0\u4f50\u767b\u99c5"}}, {"type": "node", "id": 265837898, "lat": 34.9160396, "lon": 136.6248881, "tags": {"KSJ2:LIN": "\u540d\u53e4\u5c4b\u7dda", "KSJ2:STN": "\u5317\u6960", "name": "\u5317\u6960", "name:en": "Kitakusu", "name:ja": "\u5317\u6960", "name:ja_kana": "\u304d\u305f\u304f\u3059", "name:ko": "\uae30\ud0c0\ucfe0\uc2a4", "note": "National-Land Numerical Information (Railway) 2007, MLIT Japan", "note:ja": "\u56fd\u571f\u6570\u5024\u60c5\u5831\uff08\u9244\u9053\u30c7\u30fc\u30bf\uff09\u5e73\u621019\u5e74\u3000\u56fd\u571f\u4ea4\u901a\u7701", "railway": "station", "ref": "E25", "source": "KSJ2", "source_ref": "http://nlftp.mlit.go.jp/ksj/jpgis/datalist/KsjTmplt-N02-v1_1.html", "wikidata": "Q2856585", "wikipedia": "ja:\u5317\u6960\u99c5"}}, {"type": "node", "id": 265838027, "lat": 34.9327505, "lon": 136.622168, "tags": {"KSJ2:LIN": "\u540d\u53e4\u5c4b\u7dda", "KSJ2:STN": "\u5869\u6d5c", "name": "\u5869\u6d5c", "name:en": "Shiohama", "name:ja": "\u5869\u6d5c", "name:ja_kana": "\u3057\u304a\u306f\u307e", "name:ko": "\uc2dc\uc624\ud558\ub9c8", "note": "National-Land Numerical Information (Railway) 2007, MLIT Japan", "note:ja": "\u56fd\u571f\u6570\u5024\u60c5\u5831\uff08\u9244\u9053\u30c7\u30fc\u30bf\uff09\u5e73\u621019\u5e74\u3000\u56fd\u571f\u4ea4\u901a\u7701", "railway": "station", "ref": "E24", "source": "KSJ2", "source_ref": "http://nlftp.mlit.go.jp/ksj/jpgis/datalist/KsjTmplt-N02-v1_1.html", "wikidata": "Q7497869", "wikipedia": "ja:\u5869\u6d5c\u99c5"}}, {"type": "node", "id": 265838293, "lat": 34.8548546, "lon": 136.6083726, "tags": {"KSJ2:LIN": "\u540d\u53e4\u5c4b\u7dda", "KSJ2:STN": "\u5343\u4ee3\u5d0e", "name": "\u5343\u4ee3\u5d0e", "name:en": "Chiyozaki", "name:ja": "\u5343\u4ee3\u5d0e", "name:ja_kana": "\u3061\u3088\u3056\u304d", "name:ko": "\uc9c0\uc694\uc790\ud0a4", "note": "National-Land Numerical Information (Railway) 2007, MLIT Japan", "note:ja": "\u56fd\u571f\u6570\u5024\u60c5\u5831\uff08\u9244\u9053\u30c7\u30fc\u30bf\uff09\u5e73\u621019\u5e74\u3000\u56fd\u571f\u4ea4\u901a\u7701", "public_transport": "station", "railway": "station", "ref": "E30", "source": "KSJ2", "source_ref": "http://nlftp.mlit.go.jp/ksj/jpgis/datalist/KsjTmplt-N02-v1_1.html", "wikidata": "Q2815899", "wikipedia": "ja:\u5343\u4ee3\u5d0e\u99c5"}}, {"type": "node", "id": 265838606, "lat": 34.7854843, "lon": 136.543391, "tags": {"KSJ2:LIN": "\u540d\u53e4\u5c4b\u7dda", "KSJ2:STN": "\u8c4a\u6d25\u4e0a\u91ce", "name": "\u8c4a\u6d25\u4e0a\u91ce", "name:en": "Toyotsuueno", "name:ja": "\u8c4a\u6d25\u4e0a\u91ce", "name:ja_kana": "\u3068\u3088\u3064\u3046\u3048\u306e", "name:ko": "\ub3c4\uc694\uc4f0\uc6b0\uc5d0\ub178", "note": "National-Land Numerical Information (Railway) 2007, MLIT Japan", "note:ja": "\u56fd\u571f\u6570\u5024\u60c5\u5831\uff08\u9244\u9053\u30c7\u30fc\u30bf\uff09\u5e73\u621019\u5e74\u3000\u56fd\u571f\u4ea4\u901a\u7701", "public_transport": "station", "railway": "station", "ref": "E35", "source": "KSJ2", "source_ref": "http://nlftp.mlit.go.jp/ksj/jpgis/datalist/KsjTmplt-N02-v1_1.html", "wikidata": "Q7830932", "wikipedia": "ja:\u8c4a\u6d25\u4e0a\u91ce\u99c5"}}, {"type": "node", "id": 265838680, "lat": 34.8340555, "lon": 136.5896545, "tags": {"KSJ2:LIN": "\u540d\u53e4\u5c4b\u7dda", "KSJ2:STN": "\u767d\u5b50", "name": "\u767d\u5b50", "name:en": "Shiroko", "name:ja": "\u767d\u5b50", "name:ja_kana": "\u3057\u308d\u3053", "name:ko": "\uc2dc\ub85c\ucf54", "note": "National-Land Numerical Information (Railway) 2007, MLIT Japan", "note:ja": "\u56fd\u571f\u6570\u5024\u60c5\u5831\uff08\u9244\u9053\u30c7\u30fc\u30bf\uff09\u5e73\u621019\u5e74\u3000\u56fd\u571f\u4ea4\u901a\u7701", "public_transport": "station", "railway": "station", "ref": "E31", "source": "KSJ2", "source_ref": "http://nlftp.mlit.go.jp/ksj/jpgis/datalist/KsjTmplt-N02-v1_1.html", "wikidata": "Q2816248", "wikipedia": "ja:\u767d\u5b50\u99c5"}}, {"type": "node", "id": 265838700, "lat": 34.8261649, "lon": 136.5811896, "tags": {"KSJ2:LIN": "\u540d\u53e4\u5c4b\u7dda", "KSJ2:STN": "\u9f13\u30f6\u6d66", "name": "\u9f13\u30f6\u6d66", "name:en": "Tsuzumigaura", "name:ja": "\u9f13\u30f6\u6d66", "name:ja_kana": "\u3064\u3065\u307f\u304c\u3046\u3089", "name:ko": "\uc4f0\uc988\ubbf8\uac00\uc6b0\ub77c", "note": "National-Land Numerical Information (Railway) 2007, MLIT Japan", "note:ja": "\u56fd\u571f\u6570\u5024\u60c5\u5831\uff08\u9244\u9053\u30c7\u30fc\u30bf\uff09\u5e73\u621019\u5e74\u3000\u56fd\u571f\u4ea4\u901a\u7701", "public_transport": "station", "railway": "station", "ref": "E32", "source": "KSJ2", "source_ref": "http://nlftp.mlit.go.jp/ksj/jpgis/datalist/KsjTmplt-N02-v1_1.html", "wikidata": "Q7850405", "wikipedia": "ja:\u9f13\u30f6\u6d66\u99c5"}}, {"type": "node", "id": 265838702, "lat": 34.8125475, "lon": 136.5687679, "tags": {"KSJ2:LIN": "\u540d\u53e4\u5c4b\u7dda", "KSJ2:STN": "\u78ef\u5c71", "name": "\u78ef\u5c71", "name:en": "Isoyama", "name:ja": "\u78ef\u5c71", "name:ja_kana": "\u3044\u305d\u3084\u307e", "name:ko": "\uc774\uc18c\uc57c\ub9c8", "note": "National-Land Numerical Information (Railway) 2007, MLIT Japan", "note:ja": "\u56fd\u571f\u6570\u5024\u60c5\u5831\uff08\u9244\u9053\u30c7\u30fc\u30bf\uff09\u5e73\u621019\u5e74\u3000\u56fd\u571f\u4ea4\u901a\u7701", "public_transport": "station", "railway": "station", "ref": "E33", "source": "KSJ2", "source_ref": "http://nlftp.mlit.go.jp/ksj/jpgis/datalist/KsjTmplt-N02-v1_1.html", "wikidata": "Q11587968", "wikipedia": "ja:\u78ef\u5c71\u99c5"}}, {"type": "node", "id": 265838741, "lat": 34.8797417, "lon": 136.6221279, "tags": {"KSJ2:LIN": "\u540d\u53e4\u5c4b\u7dda", "KSJ2:STN": "\u7b95\u7530", "name": "\u7b95\u7530", "name:en": "Mida", "name:ja": "\u7b95\u7530", "name:ja_kana": "\u307f\u3060", "name:ko": "\ubbf8\ub2e4", "note": "National-Land Numerical Information (Railway) 2007, MLIT Japan", "note:ja": "\u56fd\u571f\u6570\u5024\u60c5\u5831\uff08\u9244\u9053\u30c7\u30fc\u30bf\uff09\u5e73\u621019\u5e74\u3000\u56fd\u571f\u4ea4\u901a\u7701", "operator:en": "Kintetsu Railway", "railway": "station", "ref": "E28", "source": "KSJ2", "source_ref": "http://nlftp.mlit.go.jp/ksj/jpgis/datalist/KsjTmplt-N02-v1_1.html", "wikidata": "Q2815893", "wikipedia": "ja:\u7b95\u7530\u99c5"}}, {"type": "node", "id": 265838790, "lat": 34.891806, "lon": 136.6264384, "tags": {"KSJ2:LIN": "\u540d\u53e4\u5c4b\u7dda", "KSJ2:STN": "\u9577\u592a\u30ce\u6d66", "name": "\u9577\u592a\u30ce\u6d66", "name:en": "Nagonoura", "name:ja": "\u9577\u592a\u30ce\u6d66", "name:ja_kana": "\u306a\u3054\u306e\u3046\u3089", "name:ko": "\ub098\uace0\ub178\uc6b0\ub77c", "note": "National-Land Numerical Information (Railway) 2007, MLIT Japan", "note:ja": "\u56fd\u571f\u6570\u5024\u60c5\u5831\uff08\u9244\u9053\u30c7\u30fc\u30bf\uff09\u5e73\u621019\u5e74\u3000\u56fd\u571f\u4ea4\u901a\u7701", "public_transport": "station", "railway": "station", "ref": "E27", "source": "KSJ2", "source_ref": "http://nlftp.mlit.go.jp/ksj/jpgis/datalist/KsjTmplt-N02-v1_1.html", "wikidata": "Q2856588", "wikipedia": "ja:\u9577\u592a\u30ce\u6d66\u99c5"}}, {"type": "node", "id": 265838808, "lat": 34.9046568, "lon": 136.6310496, "tags": {"KSJ2:LIN": "\u540d\u53e4\u5c4b\u7dda", "KSJ2:STN": "\u6960", "name": "\u6960", "name:en": "Kusu", "name:ja": "\u6960", "name:ja_kana": "\u304f\u3059", "name:ko": "\uad6c\uc2a4", "note": "National-Land Numerical Information (Railway) 2007, MLIT Japan", "note:ja": "\u56fd\u571f\u6570\u5024\u60c5\u5831\uff08\u9244\u9053\u30c7\u30fc\u30bf\uff09\u5e73\u621019\u5e74\u3000\u56fd\u571f\u4ea4\u901a\u7701", "railway": "station", "ref": "E26", "source": "KSJ2", "source_ref": "http://nlftp.mlit.go.jp/ksj/jpgis/datalist/KsjTmplt-N02-v1_1.html", "wikidata": "Q6448197", "wikipedia": "ja:\u6960\u99c5"}}, {"type": "node", "id": 265838828, "lat": 34.7990234, "lon": 136.5566424, "tags": {"KSJ2:LIN": "\u540d\u53e4\u5c4b\u7dda", "KSJ2:STN": "\u5343\u91cc", "name": "\u5343\u91cc", "name:en": "Chisato", "name:ja": "\u5343\u91cc", "name:ja_kana": "\u3061\u3055\u3068", "name:ko": "\uc9c0\uc0ac\ud1a0", "note": "National-Land Numerical Information (Railway) 2007, MLIT Japan", "note:ja": "\u56fd\u571f\u6570\u5024\u60c5\u5831\uff08\u9244\u9053\u30c7\u30fc\u30bf\uff09\u5e73\u621019\u5e74\u3000\u56fd\u571f\u4ea4\u901a\u7701", "public_transport": "station", "railway": "station", "ref": "E34", "source": "KSJ2", "source_ref": "http://nlftp.mlit.go.jp/ksj/jpgis/datalist/KsjTmplt-N02-v1_1.html", "wikidata": "Q5102057", "wikipedia": "ja:\u5343\u91cc\u99c5 (\u4e09\u91cd\u770c)"}}, {"type": "node", "id": 265838920, "lat": 34.7157738, "lon": 136.5000733, "tags": {"KSJ2:LIN": "\u540d\u53e4\u5c4b\u7dda", "KSJ2:STN": "\u6d25\u65b0\u753a", "name": "\u6d25\u65b0\u753a", "name:en": "Tsu-Shinmachi", "name:ja": "\u6d25\u65b0\u753a", "name:ja_kana": "\u3064\u3057\u3093\u307e\u3061", "name:ja_rm": "Tsu-Shinmachi", "name:ko": "\uc4f0\uc2e0\ub9c8\uce58", "note": "National-Land Numerical Information (Railway) 2007, MLIT Japan", "note:ja": "\u56fd\u571f\u6570\u5024\u60c5\u5831\uff08\u9244\u9053\u30c7\u30fc\u30bf\uff09\u5e73\u621019\u5e74\u3000\u56fd\u571f\u4ea4\u901a\u7701", "public_transport": "station", "railway": "station", "ref": "E40", "source": "KSJ2", "source_ref": "http://nlftp.mlit.go.jp/ksj/jpgis/datalist/KsjTmplt-N02-v1_1.html", "wikidata": "Q2816265", "wikipedia": "ja:\u6d25\u65b0\u753a\u99c5"}}, {"type": "node", "id": 267303490, "lat": 34.8468814, "lon": 136.2557754, "tags": {"KSJ2:LIN": "\u8349\u6d25\u7dda", "KSJ2:STN": "\u67d8\u690d", "name": "\u67d8\u690d", "name:en": "Tsuge", "name:ja": "\u67d8\u690d", "name:ja-Hira": "\u3064\u3052", "name:ja-Latn": "Tsuge", "name:ko": "\uc4f0\uac8c", "network": "JR\u8349\u6d25\u7dda;JR\u95a2\u897f\u672c\u7dda", "note": "National-Land Numerical Information (Railway) 2007, MLIT Japan", "note:ja": "\u56fd\u571f\u6570\u5024\u60c5\u5831\uff08\u9244\u9053\u30c7\u30fc\u30bf\uff09\u5e73\u621019\u5e74\u3000\u56fd\u571f\u4ea4\u901a\u7701", "operator": "\u897f\u65e5\u672c\u65c5\u5ba2\u9244\u9053", "public_transport": "station", "railway": "station", "source": "KSJ2", "source_ref": "http://nlftp.mlit.go.jp/ksj/jpgis/datalist/KsjTmplt-N02-v1_1.html", "train": "yes", "wikidata": "Q3701483", "wikipedia": "ja:\u67d8\u690d\u99c5"}}, {"type": "node", "id": 267443013, "lat": 34.8424694, "lon": 136.3402515, "tags": {"KSJ2:LIN": "\u95a2\u897f\u7dda", "KSJ2:STN": "\u52a0\u592a", "addr:block_number": "1622", "addr:city": "\u4e80\u5c71\u5e02", "addr:postcode": "519-1122", "addr:province": "\u4e09\u91cd\u770c", "addr:quarter": "\u52a0\u592a\u5e02\u5834", "name": "\u52a0\u592a", "name:en": "Kabuto", "name:ja": "\u52a0\u592a", "name:ko": "\uac00\ubd80\ud1a0", "network": "JR\u95a2\u897f\u672c\u7dda", "note": "National-Land Numerical Information (Railway) 2007, MLIT Japan", "note:ja": "\u56fd\u571f\u6570\u5024\u60c5\u5831\uff08\u9244\u9053\u30c7\u30fc\u30bf\uff09\u5e73\u621019\u5e74\u3000\u56fd\u571f\u4ea4\u901a\u7701", "operator": "\u897f\u65e5\u672c\u65c5\u5ba2\u9244\u9053", "public_transport": "station", "railway": "station", "source": "KSJ2", "source_ref": "http://nlftp.mlit.go.jp/ksj/jpgis/datalist/KsjTmplt-N02-v1_1.html", "train": "yes", "wikidata": "Q6344527", "wikipedia": "ja:\u52a0\u592a\u99c5 (\u4e09\u91cd\u770c)"}}, {"type": "node", "id": 267443342, "lat": 34.8490885, "lon": 136.3947946, "tags": {"KSJ2:LIN": "\u95a2\u897f\u7dda", "KSJ2:STN": "\u95a2", "addr:block_number": "664", "addr:city": "\u4e80\u5c71\u5e02", "addr:neighbourhood": "\u65b0\u6240", "addr:postcode": "519-1111", "addr:province": "\u4e09\u91cd\u770c", "addr:quarter": "\u95a2\u753a", "name": "\u95a2", "name:en": "Seki", "name:ja": "\u95a2", "name:ko": "\uc138\ud0a4\uc2dc", "network": "JR\u95a2\u897f\u672c\u7dda", "note": "National-Land Numerical Information (Railway) 2007, MLIT Japan", "note:ja": "\u56fd\u571f\u6570\u5024\u60c5\u5831\uff08\u9244\u9053\u30c7\u30fc\u30bf\uff09\u5e73\u621019\u5e74\u3000\u56fd\u571f\u4ea4\u901a\u7701", "operator": "\u897f\u65e5\u672c\u65c5\u5ba2\u9244\u9053", "public_transport": "station", "railway": "station", "source": "KSJ2", "source_ref": "http://nlftp.mlit.go.jp/ksj/jpgis/datalist/KsjTmplt-N02-v1_1.html", "train": "yes", "wikidata": "Q7447191", "wikipedia": "ja:\u95a2\u99c5 (\u4e09\u91cd\u770c)"}}, {"type": "node", "id": 289284179, "lat": 34.9341166, "lon": 136.5960869, "tags": {"KSJ2:LIN": "\u5185\u90e8\u7dda", "KSJ2:RAS": "eb03_1236", "KSJ2:STN": "\u8ffd\u5206", "KSJ2:segment": "eb02_2407", "name": "\u8ffd\u5206", "name:en": "Oiwake", "name:ja": "\u8ffd\u5206", "name:ja-Hira": "\u304a\u3044\u308f\u3051", "name:ko": "\uc624\uc774\uc640\ucf00", "note": "National-Land Numerical Information (Railway) 2007, MLIT Japan", "note:ja": "\u56fd\u571f\u6570\u5024\u60c5\u5831\uff08\u9244\u9053\u30c7\u30fc\u30bf\uff09\u5e73\u621019\u5e74\u3000\u56fd\u571f\u4ea4\u901a\u7701", "public_transport": "station", "railway": "station", "source": "KSJ2", "source_ref": "http://nlftp.mlit.go.jp/ksj/jpgis/datalist/KsjTmplt-N02-v1_1.html", "wikidata": "Q7081569", "wikipedia": "ja:\u8ffd\u5206\u99c5 (\u4e09\u91cd\u770c)"}}, {"type": "node", "id": 332394873, "lat": 34.5966876, "lon": 136.5186614, "tags": {"KSJ2:LIN": "\u5c71\u7530\u7dda", "KSJ2:STN": "\u677e\u30f6\u5d0e", "name": "\u677e\u30f6\u5d0e", "name:en": "Matsugasaki", "name:ja": "\u677e\u30f6\u5d0e", "name:ja_kana": "\u307e\u3064\u304c\u3055\u304d", "name:ko": "\ub9c8\uc4f0\uac00\uc0ac\ud0a4", "note": "National-Land Numerical Information (Railway) 2007, MLIT Japan", "note:ja": "\u56fd\u571f\u6570\u5024\u60c5\u5831\u9244\u9053\u30c7\u30fc\u30bf\u5e73\u621019\u5e74\u3000\u56fd\u571f\u4ea4\u901a\u7701", "public_transport": "station", "railway": "station", "source": "KSJ2", "source_ref": "http://nlftp.mlit.go.jp/ksj/jpgis/datalist/KsjTmplt-N02-v1_1.html", "wikidata": "Q6788095", "wikipedia": "ja:\u677e\u30f6\u5d0e\u99c5 (\u4e09\u91cd\u770c)"}}, {"type": "node", "id": 332395019, "lat": 34.5770222, "lon": 136.5364468, "tags": {"KSJ2:LIN": "\u5c71\u7530\u7dda", "KSJ2:STN": "\u677e\u962a", "name": "\u677e\u962a", "name:en": "Matsusaka", "name:ja": "\u677e\u962a", "name:ja_kana": "\u307e\u3064\u3055\u304b", "name:ko": "\ub9c8\uc4f0\uc0ac\uce74", "note": "National-Land Numerical Information (Railway) 2007, MLIT Japan", "note:ja": "\u56fd\u571f\u6570\u5024\u60c5\u5831\u9244\u9053\u30c7\u30fc\u30bf\u5e73\u621019\u5e74\u3000\u56fd\u571f\u4ea4\u901a\u7701", "operator": "\u8fd1\u757f\u65e5\u672c\u9244\u9053", "public_transport": "station", "railway": "station", "source": "KSJ2", "source_ref": "http://nlftp.mlit.go.jp/ksj/jpgis/datalist/KsjTmplt-N02-v1_1.html", "wikidata": "Q5357756", "wikipedia": "ja:\u677e\u962a\u99c5"}}, {"type": "node", "id": 332395158, "lat": 34.5652733, "lon": 136.5462958, "tags": {"KSJ2:LIN": "\u5c71\u7530\u7dda", "KSJ2:STN": "\u6771\u677e\u962a", "name": "\u6771\u677e\u962a", "name:en": "Higashi-Matsusaka", "name:ja": "\u6771\u677e\u962a", "name:ja_kana": "\u3072\u304c\u3057\u307e\u3064\u3055\u304b", "name:ko": "\ud788\uac00\uc2dc\ub9c8\uc4f0\uc0ac\uce74", "note": "National-Land Numerical Information (Railway) 2007, MLIT Japan", "note:ja": "\u56fd\u571f\u6570\u5024\u60c5\u5831\u9244\u9053\u30c7\u30fc\u30bf\u5e73\u621019\u5e74\u3000\u56fd\u571f\u4ea4\u901a\u7701", "railway": "station", "source": "KSJ2", "source_ref": "http://nlftp.mlit.go.jp/ksj/jpgis/datalist/KsjTmplt-N02-v1_1.html", "wikidata": "Q5753685", "wikipedia": "ja:\u6771\u677e\u962a\u99c5"}}, {"type": "node", "id": 332395327, "lat": 34.5489041, "lon": 136.5828722, "tags": {"KSJ2:LIN": "\u5c71\u7530\u7dda", "KSJ2:STN": "\u6adb\u7530", "name": "\u6adb\u7530", "name:en": "Kushida", "name:ja": "\u6adb\u7530", "name:ja_kana": "\u304f\u3057\u3060", "name:ko": "\uad6c\uc2dc\ub2e4", "note": "National-Land Numerical Information (Railway) 2007, MLIT Japan", "note:ja": "\u56fd\u571f\u6570\u5024\u60c5\u5831\u9244\u9053\u30c7\u30fc\u30bf\u5e73\u621019\u5e74\u3000\u56fd\u571f\u4ea4\u901a\u7701", "public_transport": "station", "railway": "station", "source": "KSJ2", "source_ref": "http://nlftp.mlit.go.jp/ksj/jpgis/datalist/KsjTmplt-N02-v1_1.html", "wikidata": "Q1710084", "wikipedia": "ja:\u6adb\u7530\u99c5"}}, {"type": "node", "id": 332395362, "lat": 34.5409169, "lon": 136.6011669, "tags": {"KSJ2:LIN": "\u5c71\u7530\u7dda", "KSJ2:STN": "\u6f15\u4ee3", "name": "\u6f15\u4ee3", "name:en": "Koishiro", "name:ja": "\u6f15\u4ee3", "name:ja_kana": "\u3053\u3044\u3057\u308d", "name:ko": "\uace0\uc774\uc2dc\ub85c", "note": "National-Land Numerical Information (Railway) 2007, MLIT Japan", "note:ja": "\u56fd\u571f\u6570\u5024\u60c5\u5831\u9244\u9053\u30c7\u30fc\u30bf\u5e73\u621019\u5e74\u3000\u56fd\u571f\u4ea4\u901a\u7701", "public_transport": "station", "railway": "station", "source": "KSJ2", "source_ref": "http://nlftp.mlit.go.jp/ksj/jpgis/datalist/KsjTmplt-N02-v1_1.html", "wikidata": "Q6426352", "wikipedia": "ja:\u6f15\u4ee3\u99c5"}}, {"type": "node", "id": 332395446, "lat": 34.5314588, "lon": 136.6423693, "tags": {"KSJ2:LIN": "\u5c71\u7530\u7dda", "KSJ2:STN": "\u660e\u661f", "name": "\u660e\u661f", "name:en": "Myojo", "name:ja": "\u660e\u661f", "name:ja_kana": "\u307f\u3087\u3046\u3058\u3087\u3046", "name:ko": "\ubb18\uc870", "note": "National-Land Numerical Information (Railway) 2007, MLIT Japan", "note:ja": "\u56fd\u571f\u6570\u5024\u60c5\u5831\u9244\u9053\u30c7\u30fc\u30bf\u5e73\u621019\u5e74\u3000\u56fd\u571f\u4ea4\u901a\u7701", "public_transport": "station", "railway": "station", "ref": "M69", "source": "KSJ2", "source_ref": "http://nlftp.mlit.go.jp/ksj/jpgis/datalist/KsjTmplt-N02-v1_1.html", "wikidata": "Q6949388", "wikipedia": "ja:\u660e\u661f\u99c5"}}, {"type": "node", "id": 332395518, "lat": 34.5214652, "lon": 136.6689264, "tags": {"KSJ2:LIN": "\u5c71\u7530\u7dda", "KSJ2:STN": "\u660e\u91ce", "name": "\u660e\u91ce", "name:en": "Akeno", "name:ja": "\u660e\u91ce", "name:ja_kana": "\u3042\u3051\u306e", "name:ko": "\uc544\ucf00\ub178", "note": "National-Land Numerical Information (Railway) 2007, MLIT Japan", "note:ja": "\u56fd\u571f\u6570\u5024\u60c5\u5831\u9244\u9053\u30c7\u30fc\u30bf\u5e73\u621019\u5e74\u3000\u56fd\u571f\u4ea4\u901a\u7701", "railway": "station", "ref": "M70", "source": "KSJ2", "source_ref": "http://nlftp.mlit.go.jp/ksj/jpgis/datalist/KsjTmplt-N02-v1_1.html", "wikidata": "Q4700618", "wikipedia": "ja:\u660e\u91ce\u99c5"}}, {"type": "node", "id": 332395565, "lat": 34.5127983, "lon": 136.6849623, "tags": {"name": "\u5c0f\u4fe3", "name:en": "Obata", "railway": "station", "ref": "M71", "wikidata": "Q7074642", "wikipedia": "ja:\u5c0f\u4fe3\u99c5 (\u4e09\u91cd\u770c)"}}, {"type": "node", "id": 332395641, "lat": 34.4978133, "lon": 136.6985555, "tags": {"KSJ2:LIN": "\u5c71\u7530\u7dda", "KSJ2:STN": "\u5bae\u753a", "name": "\u5bae\u753a", "name:en": "Miyamachi", "name:ja": "\u5bae\u753a", "name:ko": "\ubbf8\uc57c\ub9c8\uce58", "note": "National-Land Numerical Information (Railway) 2007, MLIT Japan", "note:ja": "\u56fd\u571f\u6570\u5024\u60c5\u5831\u9244\u9053\u30c7\u30fc\u30bf\u5e73\u621019\u5e74\u3000\u56fd\u571f\u4ea4\u901a\u7701", "public_transport": "station", "railway": "station", "ref": "M72", "source_ref": "http://nlftp.mlit.go.jp/ksj/jpgis/datalist/KsjTmplt-N02-v1_1.html", "wikidata": "Q1710076", "wikipedia": "ja:\u5bae\u753a\u99c5"}}, {"type": "node", "id": 726936656, "lat": 34.6174497, "lon": 136.5074786, "tags": {"name": "\u516d\u8ed2", "name:en": "Rokken", "name:ja": "\u516d\u8ed2", "name:ja_kana": "\u308d\u3063\u3051\u3093", "name:ja_rm": "Rokken", "name:ko": "\ub86f\ucf04", "railway": "station", "wikidata": "Q5357848", "wikipedia": "ja:\u516d\u8ed2\u99c5 (\u4e09\u91cd\u770c)"}}, {"type": "node", "id": 2249940363, "lat": 34.5163957, "lon": 136.5727698, "tags": {"name": "\u591a\u6c17", "name:en": "Taki", "name:ja": "\u591a\u6c17", "name:ja-Hira": "\u305f\u304d", "name:ko": "\ub2e4\ud0a4", "public_transport": "station", "railway": "station", "source": "KSJ2", "wikidata": "Q5357971", "wikipedia": "ja:\u591a\u6c17\u99c5"}}, {"type": "node", "id": 2250816095, "lat": 34.5542744, "lon": 136.553493, "tags": {"name": "\u5fb3\u548c", "name:en": "Tokuwa", "name:ja": "\u5fb3\u548c", "name:ja-Hira": "\u3068\u304f\u308f", "name:ko": "\ub3c4\ucfe0\uc640", "public_transport": "station", "railway": "station", "source": "KSJ2", "wikidata": "Q7813777", "wikipedia": "ja:\u5fb3\u548c\u99c5"}}, {"type": "node", "id": 2251310682, "lat": 34.6674339, "lon": 136.5125474, "tags": {"name": "\u9ad8\u8336\u5c4b", "name:en": "Takachaya", "name:ja-Hira": "\u305f\u304b\u3061\u3083\u3084", "platforms": "3", "public_transport": "station", "railway": "station", "source": "KSJ2", "wikidata": "Q5358114", "wikipedia": "ja:\u9ad8\u8336\u5c4b\u99c5"}}, {"type": "node", "id": 2251310683, "lat": 34.7035256, "lon": 136.5043119, "tags": {"name": "\u963f\u6f15", "name:en": "Akogi", "name:ja-Hira": "\u3042\u3053\u304e", "platforms": "3", "public_transport": "station", "railway": "station", "source": "KSJ2", "wikidata": "Q898582", "wikipedia": "ja:\u963f\u6f15\u99c5"}}, {"type": "node", "id": 2261281266, "lat": 34.7627725, "lon": 136.4995209, "tags": {"name": "\u4e00\u8eab\u7530", "name:en": "Ishinden", "name:ja-Hira": "\u3044\u3057\u3093\u3067\u3093", "public_transport": "station", "railway": "station", "source": "KSJ2", "wikidata": "Q5358133", "wikipedia": "ja:\u4e00\u8eab\u7530\u99c5"}}, {"type": "node", "id": 4052873132, "lat": 34.6146895, "lon": 136.4975819, "tags": {"KSJ2:LIN": "\u5c71\u7530\u7dda", "KSJ2:STN": "\u4f0a\u52e2\u4e2d\u539f", "name": "\u4f0a\u52e2\u4e2d\u539f", "name:en": "Ise-Nakahara", "name:ja": "\u4f0a\u52e2\u4e2d\u539f", "name:ja_kana": "\u3044\u305b\u306a\u304b\u306f\u3089", "name:ko": "\uc774\uc138\ub098\uce74\ud558\ub77c", "note": "National-Land Numerical Information (Railway) 2007, MLIT Japan", "note:ja": "\u56fd\u571f\u6570\u5024\u60c5\u5831\u9244\u9053\u30c7\u30fc\u30bf\u5e73\u621019\u5e74\u3000\u56fd\u571f\u4ea4\u901a\u7701", "railway": "station", "source": "KSJ2", "source_ref": "http://nlftp.mlit.go.jp/ksj/jpgis/datalist/KsjTmplt-N02-v1_1.html", "wikidata": "Q6079520", "wikipedia": "ja:\u4f0a\u52e2\u4e2d\u539f\u99c5"}}, {"type": "node", "id": 4054155494, "lat": 34.8696267, "lon": 136.6168268, "tags": {"KSJ2:LIN": "\u540d\u53e4\u5c4b\u7dda", "KSJ2:RAS": "eb03_1351", "KSJ2:STN": "\u4f0a\u52e2\u82e5\u677e", "KSJ2:segment": "eb02_2641", "name": "\u4f0a\u52e2\u82e5\u677e", "name:en": "Ise-Wakamatsu", "name:ja": "\u4f0a\u52e2\u82e5\u677e", "name:ja_kana": "\u3044\u305b\u308f\u304b\u307e\u3064", "name:ko": "\uc774\uc138\uc640\uce74\ub9c8\uc4f0", "note": "National-Land Numerical Information (Railway) 2007, MLIT Japan", "note:ja": "\u56fd\u571f\u6570\u5024\u60c5\u5831\uff08\u9244\u9053\u30c7\u30fc\u30bf\uff09\u5e73\u621019\u5e74\u3000\u56fd\u571f\u4ea4\u901a\u7701", "operator:en": "Kintetsu Railway", "public_transport": "station", "railway": "station", "ref": "E29;L29", "source": "KSJ2", "source_ref": "http://nlftp.mlit.go.jp/ksj/jpgis/datalist/KsjTmplt-N02-v1_1.html", "wikidata": "Q6079535", "wikipedia": "ja:\u4f0a\u52e2\u82e5\u677e\u99c5"}}, {"type": "node", "id": 4357199290, "lat": 34.5769258, "lon": 136.5358573, "tags": {"KSJ2:LIN": "\u7d00\u52e2\u7dda", "KSJ2:STN": "\u677e\u962a", "name": "\u677e\u962a", "name:en": "Matsusaka", "name:ja": "\u677e\u962a", "name:ja_kana": "\u307e\u3064\u3055\u304b", "name:ja_rm": "Matsusaka", "name:ko": "\ub9c8\uc4f0\uc0ac\uce74", "note": "National-Land Numerical Information (Railway) 2007, MLIT Japan", "note:ja": "\u56fd\u571f\u6570\u5024\u60c5\u5831\uff08\u9244\u9053\u30c7\u30fc\u30bf\uff09\u5e73\u621019\u5e74\u3000\u56fd\u571f\u4ea4\u901a\u7701", "operator": "\u6771\u6d77\u65c5\u5ba2\u9244\u9053", "railway": "station", "source": "KSJ2", "source_ref": "http://nlftp.mlit.go.jp/ksj/jpgis/datalist/KsjTmplt-N02-v1_1.html", "wikidata": "Q5357756", "wikipedia": "ja:\u677e\u962a\u99c5"}}, {"type": "node", "id": 5214047208, "lat": 34.733994, "lon": 136.5102642, "tags": {"KSJ2:LIN": "\u540d\u53e4\u5c4b\u7dda", "KSJ2:STN": "\u6d25", "name": "\u6d25", "name:en": "Tsu", "name:ja": "\u6d25", "name:ja_kana": "\u3064", "name:ja_rm": "Tsu", "name:ko": "\uc4f0", "note": "National-Land Numerical Information (Railway) 2007, MLIT Japan", "note:ja": "\u56fd\u571f\u6570\u5024\u60c5\u5831\uff08\u9244\u9053\u30c7\u30fc\u30bf\uff09\u5e73\u621019\u5e74\u3000\u56fd\u571f\u4ea4\u901a\u7701", "operator": "Kintetsu Corporation", "public_transport": "station", "railway": "station", "ref": "E39", "source": "KSJ2", "source_ref": "http://nlftp.mlit.go.jp/ksj/jpgis/datalist/KsjTmplt-N02-v1_1.html", "wikidata": "Q869763", "wikipedia": "ja:\u6d25\u99c5"}}, {"type": "node", "id": 6374733466, "lat": 34.9110456, "lon": 136.5991042, "tags": {"KSJ2:LIN": "\u4f0a\u52e2\u7dda", "KSJ2:STN": "\u6cb3\u539f\u7530", "name": "\u6cb3\u539f\u7530", "name:en": "Kawarada", "name:ja": "\u6cb3\u539f\u7530", "name:ko": "\uac00\uc640\ub77c\ub2e4", "note": "National-Land Numerical Information (Railway) 2007, MLIT Japan", "note:ja": "\u56fd\u571f\u6570\u5024\u60c5\u5831\uff08\u9244\u9053\u30c7\u30fc\u30bf\uff09\u5e73\u621019\u5e74\u3000\u56fd\u571f\u4ea4\u901a\u7701", "railway": "station", "source": "KSJ2", "source_ref": "http://nlftp.mlit.go.jp/ksj/jpgis/datalist/KsjTmplt-N02-v1_1.html", "wikidata": "Q4559716", "wikipedia": "ja:\u6cb3\u539f\u7530\u99c5"}}, {"type": "node", "id": 7890069680, "lat": 34.6352912, "lon": 136.4780997, "tags": {"KSJ2:LIN": "\u540d\u53e4\u5c4b\u7dda", "KSJ2:STN": "\u4f0a\u52e2\u4e2d\u5ddd", "electrified": "contact_line", "frequency": "0", "gauge": "1435", "maxspeed": "130", "name": "\u4f0a\u52e2\u4e2d\u5ddd", "name:en": "Ise-Nakagawa", "name:ja": "\u4f0a\u52e2\u4e2d\u5ddd", "name:ja_kana": "\u3044\u305b \u306a\u304b\u304c\u308f", "name:ja_rm": "Ise-Nakagawa", "name:ko": "\uc774\uc138\ub098\uce74\uac00\uc640", "note": "National-Land Numerical Information (Railway) 2007, MLIT Japan", "note:ja": "\u56fd\u571f\u6570\u5024\u60c5\u5831\uff08\u9244\u9053\u30c7\u30fc\u30bf\uff09\u5e73\u621019\u5e74\u3000\u56fd\u571f\u4ea4\u901a\u7701", "operator": "\u8fd1\u757f\u65e5\u672c\u9244\u9053", "operator:en": "Kintetsu Railway", "operator:ja": "\u8fd1\u757f\u65e5\u672c\u9244\u9053", "public_transport": "station", "railway": "station", "ref": "D61;E61;M61", "source": "KSJ2", "source_ref": "http://nlftp.mlit.go.jp/ksj/jpgis/datalist/KsjTmplt-N02-v1_1.html", "usage": "main", "voltage": "1500", "wikidata": "Q6079515", "wikipedia": "ja:\u4f0a\u52e2\u4e2d\u5ddd\u99c5"}}, {"type": "node", "id": 7890071986, "lat": 34.6764659, "lon": 136.2380272, "tags": {"KSJ2:LIN": "\u5927\u962a\u7dda", "KSJ2:STN": "\u897f\u9752\u5c71", "name": "\u897f\u9752\u5c71", "name:en": "Nishi-Aoyama", "name:ja": "\u897f\u9752\u5c71", "name:ko": "\ub2c8\uc2dc\uc544\uc624\uc57c\ub9c8", "note": "National-Land Numerical Information (Railway) 2007, MLIT Japan", "note:ja": "\u56fd\u571f\u6570\u5024\u60c5\u5831\uff08\u9244\u9053\u30c7\u30fc\u30bf\uff09\u5e73\u621019\u5e74\u3000\u56fd\u571f\u4ea4\u901a\u7701", "operator": "\u8fd1\u757f\u65e5\u672c\u9244\u9053", "operator:ja": "\u8fd1\u757f\u65e5\u672c\u9244\u9053", "public_transport": "station", "railway": "station", "source": "KSJ2", "source_ref": "http://nlftp.mlit.go.jp/ksj/jpgis/datalist/KsjTmplt-N02-v1_1.html", "wikidata": "Q7040307", "wikipedia": "ja:\u897f\u9752\u5c71\u99c5"}}, {"type": "node", "id": 7890328231, "lat": 34.6568574, "lon": 136.4084025, "tags": {"KSJ2:LIN": "\u5927\u962a\u7dda", "KSJ2:STN": "\u4f0a\u52e2\u77f3\u6a4b", "name": "\u4f0a\u52e2\u77f3\u6a4b", "name:en": "Ise-Ishibashi", "name:ja": "\u4f0a\u52e2\u77f3\u6a4b", "name:ko": "\uc774\uc138\uc774\uc2dc\ubc14\uc2dc", "note": "National-Land Numerical Information (Railway) 2007, MLIT Japan", "note:ja": "\u56fd\u571f\u6570\u5024\u60c5\u5831\uff08\u9244\u9053\u30c7\u30fc\u30bf\uff09\u5e73\u621019\u5e74\u3000\u56fd\u571f\u4ea4\u901a\u7701", "operator": "\u8fd1\u757f\u65e5\u672c\u9244\u9053", "operator:ja": "\u8fd1\u757f\u65e5\u672c\u9244\u9053", "public_transport": "station", "railway": "station", "source": "KSJ2", "source_ref": "http://nlftp.mlit.go.jp/ksj/jpgis/datalist/KsjTmplt-N02-v1_1.html", "wikidata": "Q11379108", "wikipedia": "ja:\u4f0a\u52e2\u77f3\u6a4b\u99c5"}}, {"type": "node", "id": 7890758853, "lat": 34.6565701, "lon": 136.4364215, "tags": {"KSJ2:LIN": "\u5927\u962a\u7dda", "KSJ2:STN": "\u5ddd\u5408\u9ad8\u5ca1", "name": "\u5ddd\u5408\u9ad8\u5ca1", "name:en": "Kawaitakaoka", "name:ja": "\u5ddd\u5408\u9ad8\u5ca1", "name:ko": "\uac00\uc640\uc774\ud0c0\uce74\uc624\uce74", "note": "National-Land Numerical Information (Railway) 2007, MLIT Japan", "note:ja": "\u56fd\u571f\u6570\u5024\u60c5\u5831\uff08\u9244\u9053\u30c7\u30fc\u30bf\uff09\u5e73\u621019\u5e74\u3000\u56fd\u571f\u4ea4\u901a\u7701", "operator": "\u8fd1\u757f\u65e5\u672c\u9244\u9053", "operator:ja": "\u8fd1\u757f\u65e5\u672c\u9244\u9053", "public_transport": "station", "railway": "station", "source": "KSJ2", "source_ref": "http://nlftp.mlit.go.jp/ksj/jpgis/datalist/KsjTmplt-N02-v1_1.html", "wikidata": "Q6379519", "wikipedia": "ja:\u5ddd\u5408\u9ad8\u5ca1\u99c5"}}, {"type": "node", "id": 7890758855, "lat": 34.6756156, "lon": 136.3217946, "tags": {"KSJ2:LIN": "\u5927\u962a\u7dda", "KSJ2:STN": "\u6771\u9752\u5c71", "name": "\u6771\u9752\u5c71", "name:en": "Higashi-Aoyama", "name:ja": "\u6771\u9752\u5c71", "name:ko": "\ud788\uac00\uc2dc\uc544\uc624\uc57c\ub9c8", "note": "National-Land Numerical Information (Railway) 2007, MLIT Japan", "note:ja": "\u56fd\u571f\u6570\u5024\u60c5\u5831\uff08\u9244\u9053\u30c7\u30fc\u30bf\uff09\u5e73\u621019\u5e74\u3000\u56fd\u571f\u4ea4\u901a\u7701", "operator": "\u8fd1\u757f\u65e5\u672c\u9244\u9053", "operator:ja": "\u8fd1\u757f\u65e5\u672c\u9244\u9053", "public_transport": "station", "railway": "station", "source": "KSJ2", "source_ref": "http://nlftp.mlit.go.jp/ksj/jpgis/datalist/KsjTmplt-N02-v1_1.html", "wikidata": "Q5753472", "wikipedia": "ja:\u6771\u9752\u5c71\u99c5"}}, {"type": "node", "id": 7890758857, "lat": 34.6748275, "lon": 136.3486975, "tags": {"KSJ2:LIN": "\u5927\u962a\u7dda", "KSJ2:STN": "\u698a\u539f\u6e29\u6cc9\u53e3", "alt_name:ko": "\uc0ac\uce74\ud0a4\ubc14\ub77c\uc628\uc13c\uad6c\uce58", "name": "\u698a\u539f\u6e29\u6cc9\u53e3", "name:en": "Sakakibara-Onsenguchi", "name:ja": "\u698a\u539f\u6e29\u6cc9\u53e3", "name:ko": "\uc0ac\uce74\ud0a4\ubc14\ub77c\uc628\ucc9c\uc785\uad6c", "note": "National-Land Numerical Information (Railway) 2007, MLIT Japan", "note:ja": "\u56fd\u571f\u6570\u5024\u60c5\u5831\uff08\u9244\u9053\u30c7\u30fc\u30bf\uff09\u5e73\u621019\u5e74\u3000\u56fd\u571f\u4ea4\u901a\u7701", "operator": "\u8fd1\u757f\u65e5\u672c\u9244\u9053", "operator:ja": "\u8fd1\u757f\u65e5\u672c\u9244\u9053", "public_transport": "station", "railway": "station", "source": "KSJ2", "source_ref": "http://nlftp.mlit.go.jp/ksj/jpgis/datalist/KsjTmplt-N02-v1_1.html", "wikidata": "Q7402788", "wikipedia": "ja:\u698a\u539f\u6e29\u6cc9\u53e3\u99c5"}}, {"type": "node", "id": 7890758861, "lat": 34.6641313, "lon": 136.3687487, "tags": {"KSJ2:LIN": "\u5927\u962a\u7dda", "KSJ2:STN": "\u5927\u4e09", "name": "\u5927\u4e09", "name:en": "Omitsu", "name:ja": "\u5927\u4e09", "name:ko": "\uc624\ubbf8\uc4f0", "note": "National-Land Numerical Information (Railway) 2007, MLIT Japan", "note:ja": "\u56fd\u571f\u6570\u5024\u60c5\u5831\uff08\u9244\u9053\u30c7\u30fc\u30bf\uff09\u5e73\u621019\u5e74\u3000\u56fd\u571f\u4ea4\u901a\u7701", "operator": "\u8fd1\u757f\u65e5\u672c\u9244\u9053", "operator:ja": "\u8fd1\u757f\u65e5\u672c\u9244\u9053", "public_transport": "station", "railway": "station", "source": "KSJ2", "source_ref": "http://nlftp.mlit.go.jp/ksj/jpgis/datalist/KsjTmplt-N02-v1_1.html", "wikidata": "Q8081619", "wikipedia": "ja:\u5927\u4e09\u99c5"}}, {"type": "node", "id": 7992136574, "lat": 34.6758202, "lon": 136.4778911, "tags": {"KSJ2:LIN": "\u540d\u53e4\u5c4b\u7dda", "KSJ2:STN": "\u4e45\u5c45", "name": "\u4e45\u5c45", "name:en": "Hisai", "name:ja": "\u4e45\u5c45", "name:ja_kana": "\u3072\u3055\u3044", "name:ja_rm": "Hisai", "name:ko": "\ud788\uc0ac\uc774", "note": "National-Land Numerical Information (Railway) 2007, MLIT Japan", "note:ja": "\u56fd\u571f\u6570\u5024\u60c5\u5831\uff08\u9244\u9053\u30c7\u30fc\u30bf\uff09\u5e73\u621019\u5e74\u3000\u56fd\u571f\u4ea4\u901a\u7701", "public_transport": "station", "railway": "station", "ref": "E42", "source": "KSJ2", "source_ref": "http://nlftp.mlit.go.jp/ksj/jpgis/datalist/KsjTmplt-N02-v1_1.html", "wikidata": "Q2815904", "wikipedia": "ja:\u4e45\u5c45\u99c5"}}, {"type": "node", "id": 7992136576, "lat": 34.6635246, "lon": 136.477413, "tags": {"KSJ2:LIN": "\u540d\u53e4\u5c4b\u7dda", "KSJ2:STN": "\u6843\u5712", "name": "\u6843\u5712", "name:en": "Momozono", "name:ja": "\u6843\u5712", "name:ja_kana": "\u3082\u3082\u305e\u306e", "name:ja_rm": "Momozono", "name:ko": "\ubaa8\ubaa8\uc870\ub178", "note": "National-Land Numerical Information (Railway) 2007, MLIT Japan", "note:ja": "\u56fd\u571f\u6570\u5024\u60c5\u5831\uff08\u9244\u9053\u30c7\u30fc\u30bf\uff09\u5e73\u621019\u5e74\u3000\u56fd\u571f\u4ea4\u901a\u7701", "public_transport": "station", "railway": "station", "ref": "E43", "source": "KSJ2", "source_ref": "http://nlftp.mlit.go.jp/ksj/jpgis/datalist/KsjTmplt-N02-v1_1.html", "wikidata": "Q2816046", "wikipedia": "ja:\u6843\u5712\u99c5"}}, {"type": "node", "id": 8089529251, "lat": 34.5315122, "lon": 136.6425421, "tags": {"name": "\u660e\u661f", "name:en": "Myojo", "name:ja": "\u660e\u661f", "operator": "\u8fd1\u757f\u65e5\u672c\u9244\u9053", "public_transport": "station", "railway": "station", "ref": "1", "train": "yes"}}, {"type": "node", "id": 8089529252, "lat": 34.5314328, "lon": 136.6424941, "tags": {"name": "\u660e\u661f", "name:en": "Myojo", "name:ja": "\u660e\u661f", "operator": "\u8fd1\u757f\u65e5\u672c\u9244\u9053", "public_transport": "station", "railway": "station", "ref": "2", "train": "yes"}}, {"type": "node", "id": 8089529253, "lat": 34.5313984, "lon": 136.6424768, "tags": {"name": "\u660e\u661f", "name:en": "Myojo", "name:ja": "\u660e\u661f", "operator": "\u8fd1\u757f\u65e5\u672c\u9244\u9053", "public_transport": "station", "railway": "station", "ref": "3", "train": "yes"}}, {"type": "node", "id": 8089529254, "lat": 34.5313179, "lon": 136.6424349, "tags": {"name": "\u660e\u661f", "name:en": "Myojo", "name:ja": "\u660e\u661f", "operator": "\u8fd1\u757f\u65e5\u672c\u9244\u9053", "public_transport": "station", "railway": "station", "ref": "4", "train": "yes"}}, {"type": "node", "id": 8129247017, "lat": 34.9286823, "lon": 136.5921888, "tags": {"KSJ2:LIN": "\u5185\u90e8\u7dda", "KSJ2:RAS": "eb03_1234", "KSJ2:STN": "\u5c0f\u53e4\u66fd", "KSJ2:segment": "eb02_2412", "name": "\u5c0f\u53e4\u66fd", "name:en": "Ogoso", "name:ja": "\u5c0f\u53e4\u66fd", "name:ko": "\uc624\uace0\uc18c", "note": "National-Land Numerical Information (Railway) 2007, MLIT Japan", "note:ja": "\u56fd\u571f\u6570\u5024\u60c5\u5831\uff08\u9244\u9053\u30c7\u30fc\u30bf\uff09\u5e73\u621019\u5e74\u3000\u56fd\u571f\u4ea4\u901a\u7701", "public_transport": "station", "railway": "station", "source": "KSJ2", "source_ref": "http://nlftp.mlit.go.jp/ksj/jpgis/datalist/KsjTmplt-N02-v1_1.html", "wikidata": "Q7080219", "wikipedia": "ja:\u5c0f\u53e4\u66fd\u99c5"}}, {"type": "node", "id": 8129247026, "lat": 34.9255601, "lon": 136.5868264, "tags": {"KSJ2:LIN": "\u5185\u90e8\u7dda", "KSJ2:RAS": "eb03_1240", "KSJ2:STN": "\u5185\u90e8", "KSJ2:segment": "eb02_2401", "name": "\u5185\u90e8", "name:en": "Utsube", "name:ja": "\u5185\u90e8", "name:ja-Hira": "\u3046\u3064\u3079", "name:ko": "\uc6b0\uc4f0\ubca0", "note": "National-Land Numerical Information (Railway) 2007, MLIT Japan", "note:ja": "\u56fd\u571f\u6570\u5024\u60c5\u5831\uff08\u9244\u9053\u30c7\u30fc\u30bf\uff09\u5e73\u621019\u5e74\u3000\u56fd\u571f\u4ea4\u901a\u7701", "public_transport": "station", "railway": "station", "source": "KSJ2", "source_ref": "http://nlftp.mlit.go.jp/ksj/jpgis/datalist/KsjTmplt-N02-v1_1.html", "wikidata": "Q7903270", "wikipedia": "ja:\u5185\u90e8\u99c5"}}, {"type": "node", "id": 8169016252, "lat": 34.5378511, "lon": 136.6155568, "tags": {"KSJ2:LIN": "\u5c71\u7530\u7dda", "KSJ2:STN": "\u658e\u5bae", "name": "\u658e\u5bae", "name:en": "Saigu", "name:ja": "\u658e\u5bae", "name:ja_kana": "\u3055\u3044\u3050\u3046", "name:ko": "\uc0ac\uc774\ucfe0", "note": "National-Land Numerical Information (Railway) 2007, MLIT Japan", "note:ja": "\u56fd\u571f\u6570\u5024\u60c5\u5831\u9244\u9053\u30c7\u30fc\u30bf\u5e73\u621019\u5e74\u3000\u56fd\u571f\u4ea4\u901a\u7701", "public_transport": "station", "railway": "station", "source": "KSJ2", "source_ref": "http://nlftp.mlit.go.jp/ksj/jpgis/datalist/KsjTmplt-N02-v1_1.html", "wikidata": "Q7400129", "wikipedia": "ja:\u658e\u5bae\u99c5"}}, {"type": "node", "id": 8175919300, "lat": 34.8749182, "lon": 136.5419134, "tags": {"KSJ2:LIN": "\u9234\u9e7f\u7dda", "KSJ2:RAS": "eb03_1347", "KSJ2:STN": "\u5e73\u7530\u753a", "KSJ2:segment": "eb02_2636", "name": "\u5e73\u7530\u753a", "name:en": "Hiratacho", "name:ja": "\u5e73\u7530\u753a", "name:ko": "\ud788\ub77c\ud0c0\ucd08", "note": "National-Land Numerical Information (Railway) 2007, MLIT Japan", "note:ja": "\u56fd\u571f\u6570\u5024\u60c5\u5831\uff08\u9244\u9053\u30c7\u30fc\u30bf\uff09\u5e73\u621019\u5e74\u3000\u56fd\u571f\u4ea4\u901a\u7701", "public_transport": "station", "railway": "station", "source": "KSJ2", "source_ref": "http://nlftp.mlit.go.jp/ksj/jpgis/datalist/KsjTmplt-N02-v1_1.html", "wikidata": "Q5769516", "wikipedia": "ja:\u5e73\u7530\u753a\u99c5"}}, {"type": "node", "id": 8175919301, "lat": 34.8801965, "lon": 136.5620307, "tags": {"KSJ2:LIN": "\u9234\u9e7f\u7dda", "KSJ2:RAS": "eb03_1349", "KSJ2:STN": "\u4e09\u65e5\u5e02", "KSJ2:segment": "eb02_2634", "name": "\u4e09\u65e5\u5e02", "name:en": "Mikkaichi", "name:ja": "\u4e09\u65e5\u5e02", "name:ko": "\ubc0b\uce74\uc774\uce58", "note": "National-Land Numerical Information (Railway) 2007, MLIT Japan", "note:ja": "\u56fd\u571f\u6570\u5024\u60c5\u5831\uff08\u9244\u9053\u30c7\u30fc\u30bf\uff09\u5e73\u621019\u5e74\u3000\u56fd\u571f\u4ea4\u901a\u7701", "public_transport": "station", "railway": "station", "source": "KSJ2", "source_ref": "http://nlftp.mlit.go.jp/ksj/jpgis/datalist/KsjTmplt-N02-v1_1.html", "wikidata": "Q6849914", "wikipedia": "ja:\u4e09\u65e5\u5e02\u99c5"}}, {"type": "node", "id": 8175919302, "lat": 34.8716411, "lon": 136.5958586, "tags": {"KSJ2:LIN": "\u9234\u9e7f\u7dda", "KSJ2:RAS": "eb03_1350", "KSJ2:STN": "\u67f3", "KSJ2:segment": "eb02_2639", "name": "\u67f3", "name:en": "Yanagi", "name:ja": "\u67f3", "name:ko": "\uc57c\ub098\uae30", "note": "National-Land Numerical Information (Railway) 2007, MLIT Japan", "note:ja": "\u56fd\u571f\u6570\u5024\u60c5\u5831\uff08\u9244\u9053\u30c7\u30fc\u30bf\uff09\u5e73\u621019\u5e74\u3000\u56fd\u571f\u4ea4\u901a\u7701", "public_transport": "station", "railway": "station", "source": "KSJ2", "source_ref": "http://nlftp.mlit.go.jp/ksj/jpgis/datalist/KsjTmplt-N02-v1_1.html", "wikidata": "Q8048223", "wikipedia": "ja:\u67f3\u99c5"}}, {"type": "node", "id": 8175919304, "lat": 34.884129, "lon": 136.5825167, "tags": {"KSJ2:LIN": "\u9234\u9e7f\u7dda", "KSJ2:RAS": "eb03_1348", "KSJ2:STN": "?", "KSJ2:segment": "eb02_2637", "name": "\u9234\u9e7f\u5e02", "name:en": "Suzukashi", "name:ja": "\u9234\u9e7f\u5e02", "name:ko": "\uc2a4\uc988\uce74\uc2dc", "note": "National-Land Numerical Information (Railway) 2007, MLIT Japan", "note:ja": "\u56fd\u571f\u6570\u5024\u60c5\u5831\uff08\u9244\u9053\u30c7\u30fc\u30bf\uff09\u5e73\u621019\u5e74\u3000\u56fd\u571f\u4ea4\u901a\u7701", "public_transport": "station", "railway": "station", "source": "KSJ2", "source_ref": "http://nlftp.mlit.go.jp/ksj/jpgis/datalist/KsjTmplt-N02-v1_1.html", "wikidata": "Q11649493", "wikipedia": "ja:\u9234\u9e7f\u5e02\u99c5"}}, {"type": "node", "id": 8176047390, "lat": 34.7439129, "lon": 136.5138743, "tags": {"KSJ2:LIN": "\u540d\u53e4\u5c4b\u7dda", "KSJ2:STN": "\u6c5f\u6238\u6a4b", "name": "\u6c5f\u6238\u6a4b", "name:en": "Edobashi", "name:ja": "\u6c5f\u6238\u6a4b", "name:ja_kana": "\u3048\u3069\u3070\u3057", "name:ko": "\uc5d0\ub3c4\ubc14\uc2dc", "note": "National-Land Numerical Information (Railway) 2007, MLIT Japan", "note:ja": "\u56fd\u571f\u6570\u5024\u60c5\u5831\uff08\u9244\u9053\u30c7\u30fc\u30bf\uff09\u5e73\u621019\u5e74\u3000\u56fd\u571f\u4ea4\u901a\u7701", "public_transport": "station", "railway": "station", "ref": "E38", "source": "KSJ2", "source_ref": "http://nlftp.mlit.go.jp/ksj/jpgis/datalist/KsjTmplt-N02-v1_1.html", "wikidata": "Q5340168", "wikipedia": "ja:\u6c5f\u6238\u6a4b\u99c5"}}, {"type": "node", "id": 8176047392, "lat": 34.692469, "lon": 136.4969489, "tags": {"KSJ2:LIN": "\u540d\u53e4\u5c4b\u7dda", "KSJ2:STN": "\u5357\u304c\u4e18", "name": "\u5357\u304c\u4e18", "name:en": "Minamigaoka", "name:ja": "\u5357\u304c\u4e18", "name:ja_kana": "\u307f\u306a\u307f\u304c\u304a\u304b", "name:ja_rm": "Minamigaoka", "name:ko": "\ubbf8\ub098\ubbf8\uac00\uc624\uce74", "note": "National-Land Numerical Information (Railway) 2007, MLIT Japan", "note:ja": "\u56fd\u571f\u6570\u5024\u60c5\u5831\uff08\u9244\u9053\u30c7\u30fc\u30bf\uff09\u5e73\u621019\u5e74\u3000\u56fd\u571f\u4ea4\u901a\u7701", "public_transport": "station", "railway": "station", "ref": "E41", "source": "KSJ2", "source_ref": "http://nlftp.mlit.go.jp/ksj/jpgis/datalist/KsjTmplt-N02-v1_1.html", "wikidata": "Q2816009", "wikipedia": "ja:\u5357\u304c\u4e18\u99c5"}}, {"type": "node", "id": 8177700007, "lat": 34.7706034, "lon": 136.5323755, "tags": {"KSJ2:LIN": "\u540d\u53e4\u5c4b\u7dda", "KSJ2:STN": "\u767d\u585a", "name": "\u767d\u585a", "name:en": "Shiratsuka", "name:ja": "\u767d\u585a", "name:ja_kana": "\u3057\u3089\u3064\u304b", "name:ko": "\uc2dc\ub77c\uc4f0\uce74", "note": "National-Land Numerical Information (Railway) 2007, MLIT Japan", "note:ja": "\u56fd\u571f\u6570\u5024\u60c5\u5831\uff08\u9244\u9053\u30c7\u30fc\u30bf\uff09\u5e73\u621019\u5e74\u3000\u56fd\u571f\u4ea4\u901a\u7701", "public_transport": "station", "railway": "station", "ref": "E36", "source": "KSJ2", "source_ref": "http://nlftp.mlit.go.jp/ksj/jpgis/datalist/KsjTmplt-N02-v1_1.html", "wikidata": "Q2815888", "wikipedia": "ja:\u767d\u585a\u99c5"}}, {"type": "node", "id": 8177700009, "lat": 34.7554368, "lon": 136.5165485, "tags": {"KSJ2:LIN": "\u540d\u53e4\u5c4b\u7dda", "KSJ2:STN": "\u9ad8\u7530\u672c\u5c71", "name": "\u9ad8\u7530\u672c\u5c71", "name:en": "Takadahonzan", "name:ja": "\u9ad8\u7530\u672c\u5c71", "name:ja_kana": "\u305f\u304b\u3060\u307b\u3093\u3056\u3093", "name:ko": "\ub2e4\uce74\ub2e4\ud63c\uc794", "note": "National-Land Numerical Information (Railway) 2007, MLIT Japan", "note:ja": "\u56fd\u571f\u6570\u5024\u60c5\u5831\uff08\u9244\u9053\u30c7\u30fc\u30bf\uff09\u5e73\u621019\u5e74\u3000\u56fd\u571f\u4ea4\u901a\u7701", "public_transport": "station", "railway": "station", "ref": "E37", "source": "KSJ2", "source_ref": "http://nlftp.mlit.go.jp/ksj/jpgis/datalist/KsjTmplt-N02-v1_1.html", "wikidata": "Q7676999", "wikipedia": "ja:\u9ad8\u7530\u672c\u5c71\u99c5"}}, {"type": "node", "id": 9851877838, "lat": 34.8784912, "lon": 136.5888447, "tags": {"KSJ2:LIN": "\u4f0a\u52e2\u7dda", "KSJ2:STN": "\u9234\u9e7f", "name": "\u9234\u9e7f", "name:en": "Suzuka", "name:ja": "\u9234\u9e7f", "name:ko": "\uc2a4\uc988\uce74", "public_transport": "station", "railway": "station", "train": "yes", "wikidata": "Q7651178", "wikipedia": "ja:\u9234\u9e7f\u99c5"}}]}