{"version": 0.6, "generator": "Overpass API 0.7.62.4 2390de5a", "osm3s": {"timestamp_osm_base": "2024-12-30T15:16:45Z", "copyright": "The data included in this document is from www.openstreetmap.org. The data is made available under ODbL."}, "elements": [{"type": "node", "id": 264406055, "lat": 36.5520331, "lon": 140.6325218, "tags": {"name": "\u5e38\u9678\u591a\u8cc0", "name:en": "Hitachi-Taga", "name:ja": "\u5e38\u9678\u591a\u8cc0", "name:ja-Hira": "\u3072\u305f\u3061\u305f\u304c", "name:ja-Latn": "Hitachitaga", "public_transport": "station", "railway": "station", "source": "GSImaps/ort", "wikidata": "Q40081", "wikipedia": "ja:\u5e38\u9678\u591a\u8cc0\u99c5"}}, {"type": "node", "id": 4512979080, "lat": 36.7904431, "lon": 140.7459525, "tags": {"name": "\u78ef\u539f", "name:en": "Isohara", "name:ja": "\u78ef\u539f", "name:ja-Hira": "\u3044\u305d\u306f\u3089", "name:ja-Latn": "Isohara", "operator": "\u6771\u65e5\u672c\u65c5\u5ba2\u9244\u9053", "operator:ja": "\u6771\u65e5\u672c\u65c5\u5ba2\u9244\u9053", "public_transport": "station", "railway": "station", "source": "GSImaps/ort", "wikidata": "Q5353468", "wikipedia": "ja:\u78ef\u539f\u99c5"}}, {"type": "node", "id": 5660978631, "lat": 36.5129887, "lon": 140.6197463, "tags": {"name": "\u5927\u7515", "name:en": "Omika", "name:ja": "\u5927\u7515", "name:ja-Hira": "\u304a\u304a\u307f\u304b", "name:ja-Latn": "\u014cmika", "operator": "\u6771\u65e5\u672c\u65c5\u5ba2\u9244\u9053", "operator:ja": "\u6771\u65e5\u672c\u65c5\u5ba2\u9244\u9053", "public_transport": "station", "railway": "station", "source": "GSImaps/ort", "wikidata": "Q39951", "wikipedia": "ja:\u5927\u7515\u99c5"}}, {"type": "node", "id": 5660978832, "lat": 36.465474, "lon": 140.5657393, "tags": {"name": "\u6771\u6d77", "name:en": "Tokai", "name:ja": "\u6771\u6d77", "name:ja-Hira": "\u3068\u3046\u304b\u3044", "name:ja-Latn": "T\u014dkai", "operator": "\u6771\u65e5\u672c\u65c5\u5ba2\u9244\u9053", "operator:ja": "\u6771\u65e5\u672c\u65c5\u5ba2\u9244\u9053", "public_transport": "station", "railway": "station", "source": "GSImaps/ort", "wikidata": "Q5366629", "wikipedia": "ja:\u6771\u6d77\u99c5"}}, {"type": "node", "id": 5667111032, "lat": 36.5908428, "lon": 140.6620685, "tags": {"name": "\u65e5\u7acb", "name:en": "Hitachi", "name:ja": "\u65e5\u7acb", "name:ja-Hira": "\u3072\u305f\u3061", "name:ja-Latn": "Hitachi", "operator": "\u6771\u65e5\u672c\u65c5\u5ba2\u9244\u9053", "operator:ja": "\u6771\u65e5\u672c\u65c5\u5ba2\u9244\u9053", "public_transport": "station", "railway": "station", "source": "GSImaps/ort", "wikidata": "Q39929", "wikipedia": "ja:\u65e5\u7acb\u99c5"}}, {"type": "node", "id": 5669561695, "lat": 36.6713814, "lon": 140.6859881, "tags": {"name": "\u5341\u738b", "name:en": "Juo", "name:ja": "\u5341\u738b", "name:ja-Hira": "\u3058\u3085\u3046\u304a\u3046", "name:ja-Latn": "J\u016b\u014d", "operator": "\u6771\u65e5\u672c\u65c5\u5ba2\u9244\u9053", "operator:ja": "\u6771\u65e5\u672c\u65c5\u5ba2\u9244\u9053", "public_transport": "station", "railway": "station", "source": "GSImaps/ort", "wikidata": "Q5353561", "wikipedia": "ja:\u5341\u738b\u99c5"}}, {"type": "node", "id": 5669643173, "lat": 36.7145894, "lon": 140.7170568, "tags": {"name": "\u9ad8\u8429", "name:en": "Takahagi", "name:ja": "\u9ad8\u8429", "name:ja-Hira": "\u305f\u304b\u306f\u304e", "name:ja-Latn": "Takahagi", "operator": "\u6771\u65e5\u672c\u65c5\u5ba2\u9244\u9053", "operator:ja": "\u6771\u65e5\u672c\u65c5\u5ba2\u9244\u9053", "public_transport": "station", "railway": "station", "source": "GSImaps/ort", "wikidata": "Q5353567", "wikipedia": "ja:\u9ad8\u8429\u99c5"}}, {"type": "node", "id": 5669845198, "lat": 36.7532765, "lon": 140.7289959, "tags": {"name": "\u5357\u4e2d\u90f7", "name:en": "Minami-Nakago", "name:ja": "\u5357\u4e2d\u90f7", "name:ja-Hira": "\u307f\u306a\u307f\u306a\u304b\u3054\u3046", "name:ja-Latn": "Minaminakag\u014d", "operator": "\u6771\u65e5\u672c\u65c5\u5ba2\u9244\u9053", "operator:ja": "\u6771\u65e5\u672c\u65c5\u5ba2\u9244\u9053", "public_transport": "station", "railway": "station", "source": "GSImaps/ort", "wikidata": "Q5353339", "wikipedia": "ja:\u5357\u4e2d\u90f7\u99c5"}}, {"type": "node", "id": 5688144253, "lat": 36.3673904, "lon": 140.5623744, "tags": {"name": "\u4e2d\u6839", "name:en": "Nakane", "name:ja-Hira": "\u306a\u304b\u306d", "name:ja-Latn": "Nakane", "name:ja_rm": "Nakane", "public_transport": "station", "railway": "station", "source": "GSImaps/ort", "train": "yes", "wikidata": "Q6960259", "wikipedia": "ja:\u4e2d\u6839\u99c5"}}, {"type": "node", "id": 6101830031, "lat": 36.3836175, "lon": 140.6123681, "tags": {"name": "\u963f\u5b57\u30f6\u6d66", "name:en": "Ajigaura", "name:ja-Hira": "\u3042\u3058\u304c\u3046\u3089", "name:ja-Latn": "Ajigaura", "public_transport": "station", "railway": "station", "source": "KSJ2", "train": "yes", "wikidata": "Q4699733", "wikipedia": "ja:\u963f\u5b57\u30f6\u6d66\u99c5"}}, {"type": "node", "id": 6101830032, "lat": 36.3780105, "lon": 140.6179632, "tags": {"name": "\u78ef\u5d0e", "name:en": "Isozaki", "name:ja": "\u78ef\u5d0e", "name:ja-Hira": "\u3044\u305d\u3056\u304d", "name:ja-Latn": "Isozaki", "public_transport": "station", "railway": "station", "source": "KSJ2", "train": "yes", "wikidata": "Q6086630", "wikipedia": "ja:\u78ef\u5d0e\u99c5"}}, {"type": "node", "id": 6101830033, "lat": 36.3577657, "lon": 140.6076676, "tags": {"name": "\u5e73\u78ef", "name:en": "Hiraiso", "name:ja-Hira": "\u3072\u3089\u3044\u305d", "name:ja-Latn": "Hiraiso", "public_transport": "station", "railway": "station", "source": "KSJ2", "train": "yes", "wikidata": "Q5768904", "wikipedia": "ja:\u5e73\u78ef\u99c5"}}, {"type": "node", "id": 7899197761, "lat": 36.6367899, "lon": 140.675282, "tags": {"local_ref": "1", "name": "\u5c0f\u6728\u6d25", "name:en": "Ogitsu", "name:ja": "\u5c0f\u6728\u6d25", "operator": "\u6771\u65e5\u672c\u65c5\u5ba2\u9244\u9053", "operator:ja": "\u6771\u65e5\u672c\u65c5\u5ba2\u9244\u9053", "public_transport": "station", "railway": "station", "source": "GSImaps/ort", "wikidata": "Q5353557", "wikipedia": "ja:\u5c0f\u6728\u6d25\u99c5"}}, {"type": "node", "id": 8512897973, "lat": 36.372657, "lon": 140.6170081, "tags": {"name": "\u7f8e\u4e43\u6d5c\u5b66\u5712", "name:en": "Minohamagakuen", "name:ja": "\u7f8e\u4e43\u6d5c\u5b66\u5712", "name:ja-Hira": "\u307f\u306e\u306f\u307e\u304c\u304f\u3048\u3093", "name:ja-Latn": "Minohamagakuen", "public_transport": "station", "railway": "station", "source": "survey", "train": "yes", "wikidata": "Q95520626", "wikipedia": "ja:\u7f8e\u4e43\u6d5c\u5b66\u5712\u99c5"}}]}