{"version": 0.6, "generator": "Overpass API 0.7.62.4 2390de5a", "osm3s": {"timestamp_osm_base": "2024-12-30T15:07:30Z", "copyright": "The data included in this document is from www.openstreetmap.org. The data is made available under ODbL."}, "elements": [{"type": "node", "id": 265823976, "lat": 34.001594, "lon": 136.2030503, "tags": {"KSJ2:LIN": "\u7d00\u52e2\u7dda", "KSJ2:STN": "\u4e09\u6728\u91cc", "name": "\u4e09\u6728\u91cc", "name:en": "Mikisato", "name:ja": "\u4e09\u6728\u91cc", "name:ja_kana": "\u307f\u304d\u3055\u3068", "name:ja_rm": "Mikisato", "name:ko": "\ubbf8\ud0a4\uc0ac\ud1a0", "note": "National-Land Numerical Information (Railway) 2007, MLIT Japan", "note:ja": "\u56fd\u571f\u6570\u5024\u60c5\u5831\uff08\u9244\u9053\u30c7\u30fc\u30bf\uff09\u5e73\u621019\u5e74\u3000\u56fd\u571f\u4ea4\u901a\u7701", "public_transport": "station", "railway": "station", "source": "KSJ2", "source_ref": "http://nlftp.mlit.go.jp/ksj/jpgis/datalist/KsjTmplt-N02-v1_1.html", "wikidata": "Q5357566", "wikipedia": "ja:\u4e09\u6728\u91cc\u99c5"}}, {"type": "node", "id": 265824048, "lat": 33.9021966, "lon": 136.118073, "tags": {"KSJ2:LIN": "\u7d00\u52e2\u7dda", "KSJ2:STN": "\u5927\u6cca", "name": "\u5927\u6cca", "name:en": "Odomari", "name:ja": "\u5927\u6cca", "name:ja_kana": "\u304a\u304a\u3069\u307e\u308a", "name:ja_rm": "\u014cdomari", "name:ko": "\uc624\ub3c4\ub9c8\ub9ac", "note": "National-Land Numerical Information (Railway) 2007, MLIT Japan", "note:ja": "\u56fd\u571f\u6570\u5024\u60c5\u5831\uff08\u9244\u9053\u30c7\u30fc\u30bf\uff09\u5e73\u621019\u5e74\u3000\u56fd\u571f\u4ea4\u901a\u7701", "public_transport": "station", "railway": "station", "source": "KSJ2", "source_ref": "http://nlftp.mlit.go.jp/ksj/jpgis/datalist/KsjTmplt-N02-v1_1.html", "wikidata": "Q5357550", "wikipedia": "ja:\u5927\u6cca\u99c5"}}, {"type": "node", "id": 265824176, "lat": 33.909951, "lon": 136.137623, "tags": {"KSJ2:LIN": "\u7d00\u52e2\u7dda", "KSJ2:STN": "\u6ce2\u7530\u9808", "name": "\u6ce2\u7530\u9808", "name:en": "Hadasu", "name:ja": "\u6ce2\u7530\u9808", "name:ja_kana": "\u306f\u3060\u3059", "name:ja_rm": "Hadasu", "name:ko": "\ud558\ub2e4\uc2a4", "note": "National-Land Numerical Information (Railway) 2007, MLIT Japan", "note:ja": "\u56fd\u571f\u6570\u5024\u60c5\u5831\uff08\u9244\u9053\u30c7\u30fc\u30bf\uff09\u5e73\u621019\u5e74\u3000\u56fd\u571f\u4ea4\u901a\u7701", "public_transport": "station", "railway": "station", "source": "KSJ2", "source_ref": "http://nlftp.mlit.go.jp/ksj/jpgis/datalist/KsjTmplt-N02-v1_1.html", "wikidata": "Q5357405", "wikipedia": "ja:\u6ce2\u7530\u9808\u99c5"}}, {"type": "node", "id": 265825442, "lat": 33.939124, "lon": 136.180603, "tags": {"KSJ2:LIN": "\u7d00\u52e2\u7dda", "KSJ2:STN": "\u4e8c\u6728\u5cf6", "name": "\u4e8c\u6728\u5cf6", "name:en": "Nigishima", "name:ja": "\u4e8c\u6728\u5cf6", "name:ja_kana": "\u306b\u304e\u3057\u307e", "name:ja_rm": "Nigishima", "name:ko": "\ub2c8\uae30\uc2dc\ub9c8", "note": "National-Land Numerical Information (Railway) 2007, MLIT Japan", "note:ja": "\u56fd\u571f\u6570\u5024\u60c5\u5831\uff08\u9244\u9053\u30c7\u30fc\u30bf\uff09\u5e73\u621019\u5e74\u3000\u56fd\u571f\u4ea4\u901a\u7701", "public_transport": "station", "railway": "station", "source": "KSJ2", "source_ref": "http://nlftp.mlit.go.jp/ksj/jpgis/datalist/KsjTmplt-N02-v1_1.html", "wikidata": "Q5357620", "wikipedia": "ja:\u4e8c\u6728\u5cf6\u99c5"}}, {"type": "node", "id": 265825519, "lat": 33.8048076, "lon": 136.0423644, "tags": {"KSJ2:LIN": "\u7d00\u52e2\u7dda", "KSJ2:STN": "\u963f\u7530\u548c", "name": "\u963f\u7530\u548c", "name:en": "Atawa", "name:ja": "\u963f\u7530\u548c", "name:ja_kana": "\u3042\u305f\u308f", "name:ja_rm": "Atawa", "name:ko": "\uc544\ud0c0\uc640", "note": "National-Land Numerical Information (Railway) 2007, MLIT Japan", "note:ja": "\u56fd\u571f\u6570\u5024\u60c5\u5831\uff08\u9244\u9053\u30c7\u30fc\u30bf\uff09\u5e73\u621019\u5e74\u3000\u56fd\u571f\u4ea4\u901a\u7701", "public_transport": "station", "railway": "station", "source": "KSJ2", "source_ref": "http://nlftp.mlit.go.jp/ksj/jpgis/datalist/KsjTmplt-N02-v1_1.html", "wikidata": "Q899275", "wikipedia": "ja:\u963f\u7530\u548c\u99c5"}}, {"type": "node", "id": 265825960, "lat": 33.7370321, "lon": 136.015952, "tags": {"KSJ2:LIN": "\u7d00\u52e2\u7dda", "KSJ2:STN": "\u9d5c\u6bbf", "name": "\u9d5c\u6bbf", "name:en": "Udono", "name:ja": "\u9d5c\u6bbf", "name:ja_kana": "\u3046\u3069\u306e", "name:ja_rm": "Udono", "name:ko": "\uc6b0\ub3c4\ub178", "note": "National-Land Numerical Information (Railway) 2007, MLIT Japan", "note:ja": "\u56fd\u571f\u6570\u5024\u60c5\u5831\uff08\u9244\u9053\u30c7\u30fc\u30bf\uff09\u5e73\u621019\u5e74\u3000\u56fd\u571f\u4ea4\u901a\u7701", "public_transport": "station", "railway": "station", "source": "KSJ2", "source_ref": "http://nlftp.mlit.go.jp/ksj/jpgis/datalist/KsjTmplt-N02-v1_1.html", "wikidata": "Q5357501", "wikipedia": "ja:\u9d5c\u6bbf\u99c5"}}, {"type": "node", "id": 265825968, "lat": 33.8896761, "lon": 136.098724, "tags": {"KSJ2:LIN": "\u7d00\u52e2\u7dda", "KSJ2:STN": "\u718a\u91ce\u5e02", "name": "\u718a\u91ce\u5e02", "name:en": "Kumanoshi", "name:ja": "\u718a\u91ce\u5e02", "name:ja_kana": "\u304f\u307e\u306e\u3057", "name:ja_rm": "Kumanoshi", "name:ko": "\uad6c\ub9c8\ub178\uc2dc", "note": "National-Land Numerical Information (Railway) 2007, MLIT Japan", "note:ja": "\u56fd\u571f\u6570\u5024\u60c5\u5831\uff08\u9244\u9053\u30c7\u30fc\u30bf\uff09\u5e73\u621019\u5e74\u3000\u56fd\u571f\u4ea4\u901a\u7701", "public_transport": "station", "railway": "station", "source": "KSJ2", "source_ref": "http://nlftp.mlit.go.jp/ksj/jpgis/datalist/KsjTmplt-N02-v1_1.html", "wikidata": "Q5357377", "wikipedia": "ja:\u718a\u91ce\u5e02\u99c5"}}, {"type": "node", "id": 265826014, "lat": 33.7601927, "lon": 136.0239144, "tags": {"KSJ2:LIN": "\u7d00\u52e2\u7dda", "KSJ2:STN": "\u7d00\u4f0a\u4e95\u7530", "name": "\u7d00\u4f0a\u4e95\u7530", "name:en": "Kii-Ida", "name:ja": "\u7d00\u4f0a\u4e95\u7530", "name:ja_kana": "\u304d\u3044\u3044\u3060", "name:ja_rm": "Kii-Ida", "name:ko": "\uae30\uc774\uc774\ub2e4", "note": "National-Land Numerical Information (Railway) 2007, MLIT Japan", "note:ja": "\u56fd\u571f\u6570\u5024\u60c5\u5831\uff08\u9244\u9053\u30c7\u30fc\u30bf\uff09\u5e73\u621019\u5e74\u3000\u56fd\u571f\u4ea4\u901a\u7701", "railway": "station", "source": "KSJ2", "source_ref": "http://nlftp.mlit.go.jp/ksj/jpgis/datalist/KsjTmplt-N02-v1_1.html", "wikidata": "Q5357310", "wikipedia": "ja:\u7d00\u4f0a\u4e95\u7530\u99c5"}}, {"type": "node", "id": 265826099, "lat": 33.8400935, "lon": 136.0624832, "tags": {"KSJ2:LIN": "\u7d00\u52e2\u7dda", "KSJ2:STN": "\u795e\u5fd7\u5c71", "name": "\u795e\u5fd7\u5c71", "name:en": "Koshiyama", "name:ja": "\u795e\u5fd7\u5c71", "name:ja_kana": "\u3053\u3046\u3057\u3084\u307e", "name:ja_rm": "K\u014dshiyama", "name:ko": "\uace0\uc2dc\uc57c\ub9c8", "note": "National-Land Numerical Information (Railway) 2007, MLIT Japan", "note:ja": "\u56fd\u571f\u6570\u5024\u60c5\u5831\uff08\u9244\u9053\u30c7\u30fc\u30bf\uff09\u5e73\u621019\u5e74\u3000\u56fd\u571f\u4ea4\u901a\u7701", "public_transport": "station", "railway": "station", "source": "KSJ2", "source_ref": "http://nlftp.mlit.go.jp/ksj/jpgis/datalist/KsjTmplt-N02-v1_1.html", "wikidata": "Q5357390", "wikipedia": "ja:\u795e\u5fd7\u5c71\u99c5"}}, {"type": "node", "id": 265826362, "lat": 33.9719007, "lon": 136.1894849, "tags": {"KSJ2:LIN": "\u7d00\u52e2\u7dda", "KSJ2:STN": "\u8cc0\u7530", "name": "\u8cc0\u7530", "name:en": "Kata", "name:ja": "\u8cc0\u7530", "name:ja_kana": "\u304b\u305f", "name:ja_rm": "Kata", "name:ko": "\uac00\ud0c0", "note": "National-Land Numerical Information (Railway) 2007, MLIT Japan", "note:ja": "\u56fd\u571f\u6570\u5024\u60c5\u5831\uff08\u9244\u9053\u30c7\u30fc\u30bf\uff09\u5e73\u621019\u5e74\u3000\u56fd\u571f\u4ea4\u901a\u7701", "public_transport": "station", "railway": "station", "source": "KSJ2", "source_ref": "http://nlftp.mlit.go.jp/ksj/jpgis/datalist/KsjTmplt-N02-v1_1.html", "wheelchair": "limited", "wikidata": "Q5357545", "wikipedia": "ja:\u8cc0\u7530\u99c5"}}, {"type": "node", "id": 265826975, "lat": 33.8277102, "lon": 136.0551798, "tags": {"KSJ2:LIN": "\u7d00\u52e2\u7dda", "KSJ2:STN": "\u7d00\u4f0a\u5e02\u6728", "name": "\u7d00\u4f0a\u5e02\u6728", "name:en": "Kii-Ichigi", "name:ja": "\u7d00\u4f0a\u5e02\u6728", "name:ja_kana": "\u304d\u3044\u3044\u3061\u304e", "name:ja_rm": "Kii-Ichigi", "name:ko": "\uae30\uc774\uc774\uce58\uae30", "note": "National-Land Numerical Information (Railway) 2007, MLIT Japan", "note:ja": "\u56fd\u571f\u6570\u5024\u60c5\u5831\uff08\u9244\u9053\u30c7\u30fc\u30bf\uff09\u5e73\u621019\u5e74\u3000\u56fd\u571f\u4ea4\u901a\u7701", "railway": "station", "source": "KSJ2", "source_ref": "http://nlftp.mlit.go.jp/ksj/jpgis/datalist/KsjTmplt-N02-v1_1.html", "wikidata": "Q5357328", "wikipedia": "ja:\u7d00\u4f0a\u5e02\u6728\u99c5"}}, {"type": "node", "id": 265826976, "lat": 33.8762185, "lon": 136.0855869, "tags": {"KSJ2:LIN": "\u7d00\u52e2\u7dda", "KSJ2:STN": "\u6709\u4e95", "name": "\u6709\u4e95", "name:en": "Arii", "name:ja": "\u6709\u4e95", "name:ja_kana": "\u3042\u308a\u3044", "name:ja_rm": "Arii", "name:ko": "\uc544\ub9ac\uc774", "note": "National-Land Numerical Information (Railway) 2007, MLIT Japan", "note:ja": "\u56fd\u571f\u6570\u5024\u60c5\u5831\uff08\u9244\u9053\u30c7\u30fc\u30bf\uff09\u5e73\u621019\u5e74\u3000\u56fd\u571f\u4ea4\u901a\u7701", "public_transport": "station", "railway": "station", "source": "KSJ2", "source_ref": "http://nlftp.mlit.go.jp/ksj/jpgis/datalist/KsjTmplt-N02-v1_1.html", "wikidata": "Q4790602", "wikipedia": "ja:\u6709\u4e95\u99c5"}}, {"type": "node", "id": 265829374, "lat": 33.9281224, "lon": 136.1440969, "tags": {"KSJ2:LIN": "\u7d00\u52e2\u7dda", "KSJ2:STN": "\u65b0\u9e7f", "name": "\u65b0\u9e7f", "name:en": "Atashika", "name:ja": "\u65b0\u9e7f", "name:ja_kana": "\u3042\u305f\u3057\u304b", "name:ja_rm": "Atashika", "name:ko": "\uc544\ud0c0\uc2dc\uce74", "note": "National-Land Numerical Information (Railway) 2007, MLIT Japan", "note:ja": "\u56fd\u571f\u6570\u5024\u60c5\u5831\uff08\u9244\u9053\u30c7\u30fc\u30bf\uff09\u5e73\u621019\u5e74\u3000\u56fd\u571f\u4ea4\u901a\u7701", "public_transport": "station", "railway": "station", "source": "KSJ2", "source_ref": "http://nlftp.mlit.go.jp/ksj/jpgis/datalist/KsjTmplt-N02-v1_1.html", "wikidata": "Q899432", "wikipedia": "ja:\u65b0\u9e7f\u99c5"}}, {"type": "node", "id": 267317594, "lat": 33.6797315, "lon": 135.9703859, "tags": {"KSJ2:LIN": "\u7d00\u52e2\u7dda", "KSJ2:STN": "\u7d00\u4f0a\u4f50\u91ce", "name": "\u7d00\u4f0a\u4f50\u91ce", "name:en": "Kii-Sano", "name:ja": "\u7d00\u4f0a\u4f50\u91ce", "name:ja_kana": "\u304d\u3044\u3055\u306e", "name:ja_rm": "Kii-Sano", "name:ko": "\uae30\uc774\uc0ac\ub178", "note": "National-Land Numerical Information (Railway) 2007, MLIT Japan", "note:ja": "\u56fd\u571f\u6570\u5024\u60c5\u5831\uff08\u9244\u9053\u30c7\u30fc\u30bf\uff09\u5e73\u621019\u5e74\u3000\u56fd\u571f\u4ea4\u901a\u7701", "public_transport": "station", "railway": "station", "source": "KSJ2", "source_ref": "http://nlftp.mlit.go.jp/ksj/jpgis/datalist/KsjTmplt-N02-v1_1.html", "wikidata": "Q2584973", "wikipedia": "ja:\u7d00\u4f0a\u4f50\u91ce\u99c5"}}, {"type": "node", "id": 267317610, "lat": 33.6364693, "lon": 135.9348611, "tags": {"KSJ2:LIN": "\u7d00\u52e2\u7dda", "KSJ2:STN": "\u7d00\u4f0a\u5929\u6e80", "name": "\u7d00\u4f0a\u5929\u6e80", "name:en": "Kii-Tenma", "name:ja": "\u7d00\u4f0a\u5929\u6e80", "name:ja_kana": "\u304d\u3044\u3066\u3093\u307e", "name:ja_rm": "Kii-Tenma", "name:ko": "\uae30\uc774\ud150\ub9c8", "note": "National-Land Numerical Information (Railway) 2007, MLIT Japan", "note:ja": "\u56fd\u571f\u6570\u5024\u60c5\u5831\uff08\u9244\u9053\u30c7\u30fc\u30bf\uff09\u5e73\u621019\u5e74\u3000\u56fd\u571f\u4ea4\u901a\u7701", "public_transport": "station", "railway": "station", "source": "KSJ2", "source_ref": "http://nlftp.mlit.go.jp/ksj/jpgis/datalist/KsjTmplt-N02-v1_1.html", "wikidata": "Q2584981", "wikipedia": "ja:\u7d00\u4f0a\u5929\u6e80\u99c5"}}, {"type": "node", "id": 267317655, "lat": 33.6624622, "lon": 135.9722565, "tags": {"KSJ2:LIN": "\u7d00\u52e2\u7dda", "KSJ2:STN": "\u5b87\u4e45\u4e95", "name": "\u5b87\u4e45\u4e95", "name:en": "Ukui", "name:ja": "\u5b87\u4e45\u4e95", "name:ja_kana": "\u3046\u304f\u3044", "name:ja_rm": "Ukui", "name:ko": "\uc6b0\ucfe0\uc774", "note": "National-Land Numerical Information (Railway) 2007, MLIT Japan", "note:ja": "\u56fd\u571f\u6570\u5024\u60c5\u5831\uff08\u9244\u9053\u30c7\u30fc\u30bf\uff09\u5e73\u621019\u5e74\u3000\u56fd\u571f\u4ea4\u901a\u7701", "public_transport": "station", "railway": "station", "source": "KSJ2", "source_ref": "http://nlftp.mlit.go.jp/ksj/jpgis/datalist/KsjTmplt-N02-v1_1.html", "wikidata": "Q2584990", "wikipedia": "ja:\u5b87\u4e45\u4e95\u99c5"}}, {"type": "node", "id": 267317818, "lat": 33.6894155, "lon": 135.9847756, "tags": {"KSJ2:LIN": "\u7d00\u52e2\u7dda", "KSJ2:STN": "\u4e09\u8f2a\u5d0e", "name": "\u4e09\u8f2a\u5d0e", "name:en": "Miwasaki", "name:ja": "\u4e09\u8f2a\u5d0e", "name:ja_kana": "\u307f\u308f\u3055\u304d", "name:ja_rm": "Miwasaki", "name:ko": "\ubbf8\uc640\uc0ac\ud0a4", "note": "National-Land Numerical Information (Railway) 2007, MLIT Japan", "note:ja": "\u56fd\u571f\u6570\u5024\u60c5\u5831\uff08\u9244\u9053\u30c7\u30fc\u30bf\uff09\u5e73\u621019\u5e74\u3000\u56fd\u571f\u4ea4\u901a\u7701", "public_transport": "station", "railway": "station", "source": "KSJ2", "source_ref": "http://nlftp.mlit.go.jp/ksj/jpgis/datalist/KsjTmplt-N02-v1_1.html", "wikidata": "Q2584966", "wikipedia": "ja:\u4e09\u8f2a\u5d0e\u99c5"}}, {"type": "node", "id": 4355134041, "lat": 33.7250784, "lon": 135.9940846, "tags": {"KSJ2:LIN": "\u7d00\u52e2\u7dda", "KSJ2:STN": "\u65b0\u5bae", "name": "\u65b0\u5bae", "name:en": "Shingu", "name:es": "Shingu", "name:ja": "\u65b0\u5bae", "name:ja_kana": "\u3057\u3093\u3050", "name:ja_rm": "Shingu", "name:ko": "\uc2e0\uad6c", "note": "National-Land Numerical Information (Railway) 2007, MLIT Japan", "note:ja": "\u56fd\u571f\u6570\u5024\u60c5\u5831\uff08\u9244\u9053\u30c7\u30fc\u30bf\uff09\u5e73\u621019\u5e74\u3000\u56fd\u571f\u4ea4\u901a\u7701", "public_transport": "station", "railway": "station", "source": "Bing", "wheelchair": "limited", "wikidata": "Q5357415", "wikipedia": "ja:\u65b0\u5bae\u99c5"}}, {"type": "node", "id": 7194564373, "lat": 34.0160785, "lon": 136.2426381, "tags": {"KSJ2:LIN": "\u7d00\u52e2\u7dda", "KSJ2:STN": "\u4e5d\u9b3c", "name": "\u4e5d\u9b3c", "name:en": "Kuki", "name:ja": "\u4e5d\u9b3c", "name:ja_kana": "\u304f\u304d", "name:ja_rm": "Kuki", "name:ko": "\uad6c\ud0a4", "note": "National-Land Numerical Information (Railway) 2007, MLIT Japan", "note:ja": "\u56fd\u571f\u6570\u5024\u60c5\u5831\uff08\u9244\u9053\u30c7\u30fc\u30bf\uff09\u5e73\u621019\u5e74\u3000\u56fd\u571f\u4ea4\u901a\u7701", "public_transport": "station", "railway": "station", "source": "KSJ2", "source_ref": "http://nlftp.mlit.go.jp/ksj/jpgis/datalist/KsjTmplt-N02-v1_1.html", "train": "yes", "wikidata": "Q5357746", "wikipedia": "ja:\u4e5d\u9b3c\u99c5"}}, {"type": "node", "id": 9085699539, "lat": 33.8706308, "lon": 135.9003366, "tags": {"name": "\u701e\u6d41\u8358", "public_transport": "stop_position", "railway": "station", "train": "yes"}}, {"type": "node", "id": 9085699540, "lat": 33.8642028, "lon": 135.8902967, "tags": {"name": "\u6e6f\u30ce\u53e3\u6e29\u6cc9", "public_transport": "stop_position", "railway": "station", "train": "yes"}}, {"type": "node", "id": 9676586441, "lat": 33.5823961, "lon": 135.9223635, "tags": {"KSJ2:LIN": "\u7d00\u52e2\u7dda", "KSJ2:STN": "\u4e0b\u91cc", "name": "\u4e0b\u91cc", "name:en": "Shimosato", "name:ja": "\u4e0b\u91cc", "name:ja_kana": "\u3057\u3082\u3055\u3068", "name:ja_rm": "Shimosato", "name:ko": "\uc2dc\ubaa8\uc0ac\ud1a0", "note": "National-Land Numerical Information (Railway) 2007, MLIT Japan", "note:ja": "\u56fd\u571f\u6570\u5024\u60c5\u5831\uff08\u9244\u9053\u30c7\u30fc\u30bf\uff09\u5e73\u621019\u5e74\u3000\u56fd\u571f\u4ea4\u901a\u7701", "public_transport": "station", "railway": "station", "source": "KSJ2", "source_ref": "http://nlftp.mlit.go.jp/ksj/jpgis/datalist/KsjTmplt-N02-v1_1.html", "wikidata": "Q281227", "wikipedia": "ja:\u4e0b\u91cc\u99c5"}}, {"type": "node", "id": 9677252168, "lat": 33.5909463, "lon": 135.9274862, "tags": {"KSJ2:LIN": "\u7d00\u52e2\u7dda", "KSJ2:STN": "\u592a\u5730", "name": "\u592a\u5730", "name:en": "Taiji", "name:ja": "\u592a\u5730", "name:ja_kana": "\u305f\u3044\u3058", "name:ja_rm": "Taiji", "name:ko": "\ub2e4\uc774\uc9c0", "note": "National-Land Numerical Information (Railway) 2007, MLIT Japan", "note:ja": "\u56fd\u571f\u6570\u5024\u60c5\u5831\uff08\u9244\u9053\u30c7\u30fc\u30bf\uff09\u5e73\u621019\u5e74\u3000\u56fd\u571f\u4ea4\u901a\u7701", "public_transport": "station", "railway": "station", "source": "KSJ2", "source_ref": "http://nlftp.mlit.go.jp/ksj/jpgis/datalist/KsjTmplt-N02-v1_1.html", "wikidata": "Q2650271", "wikipedia": "ja:\u592a\u5730\u99c5"}}, {"type": "node", "id": 9678979777, "lat": 33.6094766, "lon": 135.9248818, "tags": {"KSJ2:LIN": "\u7d00\u52e2\u7dda", "KSJ2:STN": "\u6e6f\u5ddd", "name": "\u6e6f\u5ddd", "name:en": "Yukawa", "name:ja": "\u6e6f\u5ddd", "name:ja_kana": "\u3086\u304b\u308f", "name:ja_rm": "Yukawa", "name:ko": "\uc720\uce74\uc640", "note": "National-Land Numerical Information (Railway) 2007, MLIT Japan", "note:ja": "\u56fd\u571f\u6570\u5024\u60c5\u5831\uff08\u9244\u9053\u30c7\u30fc\u30bf\uff09\u5e73\u621019\u5e74\u3000\u56fd\u571f\u4ea4\u901a\u7701", "public_transport": "station", "railway": "station", "source": "KSJ2", "source_ref": "http://nlftp.mlit.go.jp/ksj/jpgis/datalist/KsjTmplt-N02-v1_1.html", "wikidata": "Q2650317", "wikipedia": "ja:\u6e6f\u5ddd\u99c5"}}, {"type": "node", "id": 9678998637, "lat": 33.628068, "lon": 135.9415587, "tags": {"KSJ2:LIN": "\u7d00\u52e2\u7dda", "KSJ2:STN": "\u7d00\u4f0a\u52dd\u6d66", "name": "\u7d00\u4f0a\u52dd\u6d66", "name:en": "Kii-Katsuura", "name:ja": "\u7d00\u4f0a\u52dd\u6d66", "name:ja_kana": "\u304d\u3044\u304b\u3064\u3046\u3089", "name:ja_rm": "Kii-Katsuura", "name:ko": "\uae30\uc774\uce74\uc4f0\uc6b0\ub77c", "note": "National-Land Numerical Information (Railway) 2007, MLIT Japan", "note:ja": "\u56fd\u571f\u6570\u5024\u60c5\u5831\uff08\u9244\u9053\u30c7\u30fc\u30bf\uff09\u5e73\u621019\u5e74\u3000\u56fd\u571f\u4ea4\u901a\u7701", "public_transport": "station", "railway": "station", "source": "KSJ2", "source_ref": "http://nlftp.mlit.go.jp/ksj/jpgis/datalist/KsjTmplt-N02-v1_1.html", "wikidata": "Q2584999", "wikipedia": "ja:\u7d00\u4f0a\u52dd\u6d66\u99c5"}}, {"type": "node", "id": 9678998668, "lat": 33.6440079, "lon": 135.9365521, "tags": {"name": "\u90a3\u667a", "name:en": "Nachi", "name:es": "Nachi", "name:ja": "\u90a3\u667a", "name:ja-Hira": "\u306a\u3061", "name:ko": "\ub098\uce58", "operator": "\u897f\u65e5\u672c\u65c5\u5ba2\u9244\u9053", "platforms": "2", "public_transport": "station", "railway": "station", "source": "bing", "wikidata": "Q2584944", "wikipedia": "ja:\u90a3\u667a\u99c5"}}]}